{"type":"Topology","objects":{"muni":{"type":"GeometryCollection","geometries":[{"type":"MultiPolygon","arcs":[[[0,1,2,3,4,5,6]]],"properties":{"GID_2":"RUS.1.1_1","GID_0":"RUS","COUNTRY":"Russia","GID_1":"RUS.1_1","NAME_1":"Adygey","NL_NAME_1":"РеспубликаАдыгея","NAME_2":"Giaginskiyrayon","VARNAME_2":"NA","NL_NAME_2":"Гиагинскийрайон","TYPE_2":"Raion","ENGTYPE_2":"District","CC_2":"R43010","HASC_2":"RU.AD.GI"}},{"type":"MultiPolygon","arcs":[[[-1,7]]],"properties":{"GID_2":"RUS.1.2_1","GID_0":"RUS","COUNTRY":"Russia","GID_1":"RUS.1_1","NAME_1":"Adygey","NL_NAME_1":"РеспубликаАдыгея","NAME_2":"Koshekhabl'skiyrayon","VARNAME_2":"NA","NL_NAME_2":"Кошехабaльскийрайон","TYPE_2":"Raion","ENGTYPE_2":"District","CC_2":"R43010","HASC_2":"RU.AD.KO"}},{"type":"MultiPolygon","arcs":[[[8,9,10,11,12,13]]],"properties":{"GID_2":"RUS.1.3_1","GID_0":"RUS","COUNTRY":"Russia","GID_1":"RUS.1_1","NAME_1":"Adygey","NL_NAME_1":"РеспубликаАдыгея","NAME_2":"Krasnogvardeyskiyrayon","VARNAME_2":"NA","NL_NAME_2":"Красногвардейскийрайон","TYPE_2":"Raion","ENGTYPE_2":"District","CC_2":"R43010","HASC_2":"RU.AD.KR"}},{"type":"MultiPolygon","arcs":[[[14]]],"properties":{"GID_2":"RUS.1.4_1","GID_0":"RUS","COUNTRY":"Russia","GID_1":"RUS.1_1","NAME_1":"Adygey","NL_NAME_1":"РеспубликаАдыгея","NAME_2":"Maykop","VARNAME_2":"NA","NL_NAME_2":"Майкоп","TYPE_2":"Gorsovet","ENGTYPE_2":"District","CC_2":"NA","HASC_2":"RU.AD.MG"}},{"type":"MultiPolygon","arcs":[[[-3,15],[-15]]],"properties":{"GID_2":"RUS.1.5_1","GID_0":"RUS","COUNTRY":"Russia","GID_1":"RUS.1_1","NAME_1":"Adygey","NL_NAME_1":"РеспубликаАдыгея","NAME_2":"Maykopskiyrayon","VARNAME_2":"NA","NL_NAME_2":"Майкопскийрайон","TYPE_2":"Raion","ENGTYPE_2":"District","CC_2":"R43010","HASC_2":"RU.AD.MR"}},{"type":"MultiPolygon","arcs":[[[-6,16,17,18,-9,19]]],"properties":{"GID_2":"RUS.1.6_1","GID_0":"RUS","COUNTRY":"Russia","GID_1":"RUS.1_1","NAME_1":"Adygey","NL_NAME_1":"РеспубликаАдыгея","NAME_2":"Shovgenovskiyrayon","VARNAME_2":"NA","NL_NAME_2":"Шовгеновскийрайон","TYPE_2":"Raion","ENGTYPE_2":"District","CC_2":"R43010","HASC_2":"RU.AD.SH"}},{"type":"MultiPolygon","arcs":[[[20,21]]],"properties":{"GID_2":"RUS.1.7_1","GID_0":"RUS","COUNTRY":"Russia","GID_1":"RUS.1_1","NAME_1":"Adygey","NL_NAME_1":"РеспубликаАдыгея","NAME_2":"Takhtamukayskrayon","VARNAME_2":"Oktyabr'","NL_NAME_2":"Тахтамукайскийрайон","TYPE_2":"Raion","ENGTYPE_2":"District","CC_2":"R43010","HASC_2":"RU.AD.OK"}},{"type":"MultiPolygon","arcs":[[[-13,22,23,-21,24]]],"properties":{"GID_2":"RUS.1.8_1","GID_0":"RUS","COUNTRY":"Russia","GID_1":"RUS.1_1","NAME_1":"Adygey","NL_NAME_1":"РеспубликаАдыгея","NAME_2":"Teuchezhskiyrayon","VARNAME_2":"NA","NL_NAME_2":"Теучежскийрайон","TYPE_2":"Raion","ENGTYPE_2":"District","CC_2":"R43010","HASC_2":"RU.AD.TE"}}]}},"arcs":[[[886513,791938],[-26368,-3089],[-27703,-19326],[-8106,-11351],[1737,-9915],[22937,-20763],[2539,-11351],[-11357,-23637]],[[840192,692506],[-11625,-8765],[-13718,-32186]],[[814849,651555],[-10066,11423],[-32425,13722],[-27659,20117],[-8373,-3593],[-27481,-30964],[-16213,9770],[-6502,14944],[-14520,5388],[-13050,14010]],[[658560,706372],[-37725,23493],[-4098,10345],[22938,28092],[-3340,31395],[-6815,8191]],[[629520,807888],[83200,53811],[24630,144],[6859,-5963]],[[744209,855880],[-5567,-27301],[19953,-17027],[13273,-4814],[21557,10777],[8463,11998],[2939,29025],[17593,22343]],[[822420,880881],[37592,-28234],[16791,-32187],[1782,-15446],[7928,-13076]],[[886513,791938],[35008,-100438],[33538,-54099],[-15322,6538],[-16257,-24570],[41422,-114376],[3207,64659],[-23962,39443],[11535,27013],[26813,-77376],[17504,-66815],[-13852,-18248],[-10422,-2730],[-15811,2586],[-8552,9699],[-10244,18392],[3697,53165],[-24942,48423],[-17415,52302],[-30154,32617],[-32112,4383]],[[649875,914217],[-12516,-18679]],[[637359,895538],[-23873,-8837],[-14698,-18321]],[[598788,868380],[-38749,11711],[-29708,-10489],[-24096,37287],[-8106,7256],[-8329,-4382],[-8373,-10705],[-16168,-41885],[-9220,-49860]],[[456039,807313],[-35498,41238],[-67299,34989]],[[353242,883540],[-15678,18176]],[[337564,901716],[61732,37000],[45386,41526],[7393,13794],[14609,5963],[27659,-18895],[30287,9124],[14831,-4454],[41556,-42963],[68858,-28594]],[[695572,582297],[-9531,-2227],[-6681,7615],[12738,5245],[3474,-10633]],[[814849,651555],[-17371,-59415],[-1826,-18752],[26100,-51727],[5434,-26942],[25165,-54745],[7393,-31109],[-2984,-26367],[-30153,-52446],[-4320,-44040],[623,-22847],[28639,-109921],[-2806,-19829],[-12248,-14657],[-1559,-40304],[-6993,-16237],[-12337,-11926],[-21067,-36784],[-28416,-13507],[-20667,9196],[-19775,31971],[-15411,14225],[-37636,-1006],[-18706,10777],[-44718,47489],[-91974,-7328],[-37324,37718],[41734,22559],[-14966,27301],[4454,11495],[14654,11567],[19107,5963],[-8373,20332],[-17192,11207],[-10690,41023],[25967,20620],[15499,1221],[29530,-30893],[10957,-21697],[8551,-36784],[13897,-11495],[31979,6178],[34340,36425],[1380,11998],[-6235,22775],[8952,44112],[-6369,10849],[-27525,-216],[-16569,21553],[2361,14728],[-6637,8909],[-20577,-6394],[-10422,4742],[-18929,17530],[-3964,9555],[13896,32689],[1737,24714],[-13228,38724],[267,11424],[-11536,44759],[11313,26295],[16792,3161],[7215,9196],[-6547,41957],[5077,10633],[29218,19038],[16302,3664],[13228,21913]],[[744209,855880],[-18929,7759],[-25120,-8334],[-29842,-24499],[-15099,-4526],[-25699,-18392]],[[629520,807888],[-27124,7184],[-10913,8190],[-2182,7616],[20533,19973],[-4365,13075],[-6681,4454]],[[598788,868380],[8373,11998],[30198,15160]],[[649875,914217],[13584,431],[21023,21266],[15455,6825],[70773,-5029],[14475,-12213],[24987,-37790],[12248,-6826]],[[218733,864932],[-6369,-24427],[6993,-15375],[1291,-15734],[-28683,-47991]],[[191965,761405],[-16480,7471],[-37769,30031],[-31044,3089],[-23918,20261],[-17014,29168],[-10957,5317],[-29618,-2084],[-11313,6969],[-8151,10202],[-5701,20835],[27525,40807],[14208,-17242],[25522,-17746],[11535,10705],[28505,3592],[63915,-45477],[26990,-5676],[20533,3305]],[[353242,883540],[44317,-20189],[41511,-32904],[16969,-23134]],[[456039,807313],[-267,-30318],[-5478,-8478],[-71932,-26295],[-21423,1437],[-17281,8549],[-32425,934],[-46232,16525],[-18439,1365],[-30465,-11352],[-20132,1725]],[[218733,864932],[83289,16524],[35542,20260]]],"bbox":[38.5701,43.79,40.8153,45.1819],"transform":{"scale":[0.000002245202245202249,0.0000013919013919013915],"translate":[38.5701,43.79]}}