{"type":"Topology","objects":{"muni":{"type":"GeometryCollection","geometries":[{"type":"MultiPolygon","arcs":[[[0]]],"properties":{"GID_2":"RUS.2.1_1","GID_0":"RUS","COUNTRY":"Russia","GID_1":"RUS.2_1","NAME_1":"Altay","NL_NAME_1":"Алтайскийкрай","NAME_2":"Aleysk","VARNAME_2":"NA","NL_NAME_2":"Але́йск)","TYPE_2":"Gorod","ENGTYPE_2":"City","CC_2":"NA","HASC_2":"RU.AL.AG"}},{"type":"MultiPolygon","arcs":[[[1,2,3,4,5,6,7,8],[-1]]],"properties":{"GID_2":"RUS.2.2_1","GID_0":"RUS","COUNTRY":"Russia","GID_1":"RUS.2_1","NAME_1":"Altay","NL_NAME_1":"Алтайскийкрай","NAME_2":"Aleyskiyrayon","VARNAME_2":"NA","NL_NAME_2":"Алейскийрайон","TYPE_2":"Raion","ENGTYPE_2":"District","CC_2":"R53090","HASC_2":"RU.AL.AR"}},{"type":"MultiPolygon","arcs":[[[9,10,11,12]]],"properties":{"GID_2":"RUS.2.3_1","GID_0":"RUS","COUNTRY":"Russia","GID_1":"RUS.2_1","NAME_1":"Altay","NL_NAME_1":"Алтайскийкрай","NAME_2":"Altayskiyrayon","VARNAME_2":"NA","NL_NAME_2":"Алтайскийрайон","TYPE_2":"Raion","ENGTYPE_2":"District","CC_2":"R53090","HASC_2":"RU.AL.AL"}},{"type":"MultiPolygon","arcs":[[[13,14,15,16,17,18]]],"properties":{"GID_2":"RUS.2.4_1","GID_0":"RUS","COUNTRY":"Russia","GID_1":"RUS.2_1","NAME_1":"Altay","NL_NAME_1":"Алтайскийкрай","NAME_2":"Baevskiyrayon","VARNAME_2":"NA","NL_NAME_2":"Баевскийрайон","TYPE_2":"Raion","ENGTYPE_2":"District","CC_2":"R53090","HASC_2":"RU.AL.BV"}},{"type":"MultiPolygon","arcs":[[[19,20,21,22,23,24,25]]],"properties":{"GID_2":"RUS.2.5_1","GID_0":"RUS","COUNTRY":"Russia","GID_1":"RUS.2_1","NAME_1":"Altay","NL_NAME_1":"Алтайскийкрай","NAME_2":"Barnaulgorsovet","VARNAME_2":"NA","NL_NAME_2":"Барнаул(горсовет)","TYPE_2":"Gorsovet","ENGTYPE_2":"District","CC_2":"R53095","HASC_2":"RU.AL.BA"}},{"type":"MultiPolygon","arcs":[[[26]]],"properties":{"GID_2":"RUS.2.6_1","GID_0":"RUS","COUNTRY":"Russia","GID_1":"RUS.2_1","NAME_1":"Altay","NL_NAME_1":"Алтайскийкрай","NAME_2":"Belokurikha","VARNAME_2":"NA","NL_NAME_2":"Белокуриха","TYPE_2":"Gorod","ENGTYPE_2":"City","CC_2":"NA","HASC_2":"RU.AL.BE"}},{"type":"MultiPolygon","arcs":[[[27]]],"properties":{"GID_2":"RUS.2.7_1","GID_0":"RUS","COUNTRY":"Russia","GID_1":"RUS.2_1","NAME_1":"Altay","NL_NAME_1":"Алтайскийкрай","NAME_2":"Biysk","VARNAME_2":"NA","NL_NAME_2":"Бийск","TYPE_2":"Gorsovet","ENGTYPE_2":"District","CC_2":"NA","HASC_2":"RU.AL.BG"}},{"type":"MultiPolygon","arcs":[[[28,29,30,31,32,33,34,35,36],[-28]]],"properties":{"GID_2":"RUS.2.8_1","GID_0":"RUS","COUNTRY":"Russia","GID_1":"RUS.2_1","NAME_1":"Altay","NL_NAME_1":"Алтайскийкрай","NAME_2":"Biyskiyrayon","VARNAME_2":"NA","NL_NAME_2":"Бийскийрайон","TYPE_2":"Raion","ENGTYPE_2":"District","CC_2":"R53090","HASC_2":"RU.AL.BR"}},{"type":"MultiPolygon","arcs":[[[37,38,39,40,41,42,43,44,45,46]]],"properties":{"GID_2":"RUS.2.9_1","GID_0":"RUS","COUNTRY":"Russia","GID_1":"RUS.2_1","NAME_1":"Altay","NL_NAME_1":"Алтайскийкрай","NAME_2":"Blagoveshchenskiyrayon","VARNAME_2":"NA","NL_NAME_2":"Благовещенскийрайон","TYPE_2":"Raion","ENGTYPE_2":"District","CC_2":"R53090","HASC_2":"RU.AL.BL"}},{"type":"MultiPolygon","arcs":[[[47,48,49,50,51,52]]],"properties":{"GID_2":"RUS.2.10_1","GID_0":"RUS","COUNTRY":"Russia","GID_1":"RUS.2_1","NAME_1":"Altay","NL_NAME_1":"Алтайскийкрай","NAME_2":"Burlinskiyrayon","VARNAME_2":"NA","NL_NAME_2":"Бурлинскийрайон","TYPE_2":"Raion","ENGTYPE_2":"District","CC_2":"R53090","HASC_2":"RU.AL.BU"}},{"type":"MultiPolygon","arcs":[[[53,54,55,56,57,58,59,60,61,62]]],"properties":{"GID_2":"RUS.2.11_1","GID_0":"RUS","COUNTRY":"Russia","GID_1":"RUS.2_1","NAME_1":"Altay","NL_NAME_1":"Алтайскийкрай","NAME_2":"Bystroistokskiyrayon","VARNAME_2":"NA","NL_NAME_2":"Быстроистокскийрайон","TYPE_2":"Raion","ENGTYPE_2":"District","CC_2":"R53090","HASC_2":"RU.AL.BY"}},{"type":"MultiPolygon","arcs":[[[63,64,65,66,67,68]]],"properties":{"GID_2":"RUS.2.12_1","GID_0":"RUS","COUNTRY":"Russia","GID_1":"RUS.2_1","NAME_1":"Altay","NL_NAME_1":"Алтайскийкрай","NAME_2":"Charyshskiyrayon","VARNAME_2":"NA","NL_NAME_2":"Чарушскийрайон","TYPE_2":"Raion","ENGTYPE_2":"District","CC_2":"R53095","HASC_2":"RU.AL.CH"}},{"type":"MultiPolygon","arcs":[[[69,70,71,72,73,74,75]]],"properties":{"GID_2":"RUS.2.13_1","GID_0":"RUS","COUNTRY":"Russia","GID_1":"RUS.2_1","NAME_1":"Altay","NL_NAME_1":"Алтайскийкрай","NAME_2":"Egor'evskiyrayon","VARNAME_2":"NA","NL_NAME_2":"Егорьевскийрайон","TYPE_2":"Raion","ENGTYPE_2":"District","CC_2":"R53090","HASC_2":"RU.AL.EG"}},{"type":"MultiPolygon","arcs":[[[76,77,78,79,80,81,82,83]]],"properties":{"GID_2":"RUS.2.14_1","GID_0":"RUS","COUNTRY":"Russia","GID_1":"RUS.2_1","NAME_1":"Altay","NL_NAME_1":"Алтайскийкрай","NAME_2":"El'tsovskiyrayon","VARNAME_2":"NA","NL_NAME_2":"Ельцовскийрайон","TYPE_2":"Raion","ENGTYPE_2":"District","CC_2":"R53091","HASC_2":"RU.AL.EL"}},{"type":"MultiPolygon","arcs":[[[84,-20,85,86,87]]],"properties":{"GID_2":"RUS.2.15_1","GID_0":"RUS","COUNTRY":"Russia","GID_1":"RUS.2_1","NAME_1":"Altay","NL_NAME_1":"Алтайскийкрай","NAME_2":"Kalmanskiyrayon","VARNAME_2":"NA","NL_NAME_2":"Калманскийрайон","TYPE_2":"Raion","ENGTYPE_2":"District","CC_2":"R53091","HASC_2":"RU.AL.KA"}},{"type":"MultiPolygon","arcs":[[[-17,88,89,90,91]]],"properties":{"GID_2":"RUS.2.16_1","GID_0":"RUS","COUNTRY":"Russia","GID_1":"RUS.2_1","NAME_1":"Altay","NL_NAME_1":"Алтайскийкрай","NAME_2":"Kamenskiyrayon","VARNAME_2":"NA","NL_NAME_2":"Каменскийрайон","TYPE_2":"Raion","ENGTYPE_2":"District","CC_2":"R53091","HASC_2":"RU.AL.KM"}},{"type":"MultiPolygon","arcs":[[[92,-48,93,94,95,96,97]]],"properties":{"GID_2":"RUS.2.17_1","GID_0":"RUS","COUNTRY":"Russia","GID_1":"RUS.2_1","NAME_1":"Altay","NL_NAME_1":"Алтайскийкрай","NAME_2":"Khabarskiyrayon","VARNAME_2":"NA","NL_NAME_2":"Хабарский","TYPE_2":"Raion","ENGTYPE_2":"District","CC_2":"R53093","HASC_2":"RU.AL.KH"}},{"type":"MultiPolygon","arcs":[[[98,99,100,101,102,103]]],"properties":{"GID_2":"RUS.2.18_1","GID_0":"RUS","COUNTRY":"Russia","GID_1":"RUS.2_1","NAME_1":"Altay","NL_NAME_1":"Алтайскийкрай","NAME_2":"Klyuchevskiyrayon","VARNAME_2":"NA","NL_NAME_2":"Ключевскийрайон","TYPE_2":"Raion","ENGTYPE_2":"District","CC_2":"R53091","HASC_2":"RU.AL.KL"}},{"type":"MultiPolygon","arcs":[[[104,105,106,107,108,109,110]]],"properties":{"GID_2":"RUS.2.19_1","GID_0":"RUS","COUNTRY":"Russia","GID_1":"RUS.2_1","NAME_1":"Altay","NL_NAME_1":"Алтайскийкрай","NAME_2":"Kosikhinskiyrayon","VARNAME_2":"NA","NL_NAME_2":"Косикинскийрайон","TYPE_2":"Raion","ENGTYPE_2":"District","CC_2":"R53091","HASC_2":"RU.AL.KS"}},{"type":"MultiPolygon","arcs":[[[-36,111,112,113,114]]],"properties":{"GID_2":"RUS.2.20_1","GID_0":"RUS","COUNTRY":"Russia","GID_1":"RUS.2_1","NAME_1":"Altay","NL_NAME_1":"Алтайскийкрай","NAME_2":"Krasnogorskiyrayon","VARNAME_2":"NA","NL_NAME_2":"Красногорскийрайон","TYPE_2":"Raion","ENGTYPE_2":"District","CC_2":"R53092","HASC_2":"RU.AL.KG"}},{"type":"MultiPolygon","arcs":[[[-65,115,116,117,118]]],"properties":{"GID_2":"RUS.2.21_1","GID_0":"RUS","COUNTRY":"Russia","GID_1":"RUS.2_1","NAME_1":"Altay","NL_NAME_1":"Алтайскийкрай","NAME_2":"Krasnoshchekovskiyrayon","VARNAME_2":"NA","NL_NAME_2":"Краснощековскийрайон","TYPE_2":"Raion","ENGTYPE_2":"District","CC_2":"R53092","HASC_2":"RU.AL.KN"}},{"type":"MultiPolygon","arcs":[[[-90,119,120]]],"properties":{"GID_2":"RUS.2.22_1","GID_0":"RUS","COUNTRY":"Russia","GID_1":"RUS.2_1","NAME_1":"Altay","NL_NAME_1":"Алтайскийкрай","NAME_2":"Krutikhinskiyrayon","VARNAME_2":"NA","NL_NAME_2":"Крутихинскийрайон","TYPE_2":"Raion","ENGTYPE_2":"District","CC_2":"R53092","HASC_2":"RU.AL.KR"}},{"type":"MultiPolygon","arcs":[[[121,122,123,124,-42,-100]]],"properties":{"GID_2":"RUS.2.23_1","GID_0":"RUS","COUNTRY":"Russia","GID_1":"RUS.2_1","NAME_1":"Altay","NL_NAME_1":"Алтайскийкрай","NAME_2":"Kulundinskiyrayon","VARNAME_2":"NA","NL_NAME_2":"Кулундинскийрайон","TYPE_2":"Raion","ENGTYPE_2":"District","CC_2":"R53092","HASC_2":"RU.AL.KD"}},{"type":"MultiPolygon","arcs":[[[-116,125,126,127,128,129]]],"properties":{"GID_2":"RUS.2.24_1","GID_0":"RUS","COUNTRY":"Russia","GID_1":"RUS.2_1","NAME_1":"Altay","NL_NAME_1":"Алтайскийкрай","NAME_2":"Kur'inskiyrayon","VARNAME_2":"NA","NL_NAME_2":"Курьинскийрайон","TYPE_2":"Raion","ENGTYPE_2":"District","CC_2":"R53092","HASC_2":"RU.AL.KU"}},{"type":"MultiPolygon","arcs":[[[-111,130,131,132,133,134,135]]],"properties":{"GID_2":"RUS.2.25_1","GID_0":"RUS","COUNTRY":"Russia","GID_1":"RUS.2_1","NAME_1":"Altay","NL_NAME_1":"Алтайскийкрай","NAME_2":"Kytmanovskiyrayon","VARNAME_2":"NA","NL_NAME_2":"Кытмановскийрайон","TYPE_2":"Raion","ENGTYPE_2":"District","CC_2":"R53092","HASC_2":"RU.AL.KY"}},{"type":"MultiPolygon","arcs":[[[136,137,138,139,140]]],"properties":{"GID_2":"RUS.2.26_1","GID_0":"RUS","COUNTRY":"Russia","GID_1":"RUS.2_1","NAME_1":"Altay","NL_NAME_1":"Алтайскийкрай","NAME_2":"Loktevskiyrayon","VARNAME_2":"NA","NL_NAME_2":"Локтевскийрайон","TYPE_2":"Raion","ENGTYPE_2":"District","CC_2":"R53092","HASC_2":"RU.AL.LO"}},{"type":"MultiPolygon","arcs":[[[141,142,143,144,145,146,147,148,149,150]]],"properties":{"GID_2":"RUS.2.27_1","GID_0":"RUS","COUNTRY":"Russia","GID_1":"RUS.2_1","NAME_1":"Altay","NL_NAME_1":"Алтайскийкрай","NAME_2":"Mamontovskiyrayon","VARNAME_2":"NA","NL_NAME_2":"Мамонтовскийрайон","TYPE_2":"Raion","ENGTYPE_2":"District","CC_2":"R53092","HASC_2":"RU.AL.MA"}},{"type":"MultiPolygon","arcs":[[[151,-104,152,153,154]]],"properties":{"GID_2":"RUS.2.28_1","GID_0":"RUS","COUNTRY":"Russia","GID_1":"RUS.2_1","NAME_1":"Altay","NL_NAME_1":"Алтайскийкрай","NAME_2":"Mikhaylovskiyrayon","VARNAME_2":"NA","NL_NAME_2":"Михайловскийрайон","TYPE_2":"Raion","ENGTYPE_2":"District","CC_2":"R53092","HASC_2":"RU.AL.MI"}},{"type":"MultiPolygon","arcs":[[[155,-50,156,-98,157,158,159,160,161,162]]],"properties":{"GID_2":"RUS.2.29_1","GID_0":"RUS","COUNTRY":"Russia","GID_1":"RUS.2_1","NAME_1":"Altay","NL_NAME_1":"Алтайскийкрай","NAME_2":"NemetskiyNatsional'nyyrayon","VARNAME_2":"NA","NL_NAME_2":"НемецкийНациональный","TYPE_2":"Raion","ENGTYPE_2":"District","CC_2":"R53093","HASC_2":"RU.AL.NE"}},{"type":"MultiPolygon","arcs":[[[163]]],"properties":{"GID_2":"RUS.2.30_1","GID_0":"RUS","COUNTRY":"Russia","GID_1":"RUS.2_1","NAME_1":"Altay","NL_NAME_1":"Алтайскийкрай","NAME_2":"Novoaltaysk","VARNAME_2":"NA","NL_NAME_2":"Новоалтайск","TYPE_2":"Gorsovet","ENGTYPE_2":"District","CC_2":"NA","HASC_2":"RU.AL.NA"}},{"type":"MultiPolygon","arcs":[[[-75,164,165,-144,166,167,168]]],"properties":{"GID_2":"RUS.2.31_1","GID_0":"RUS","COUNTRY":"Russia","GID_1":"RUS.2_1","NAME_1":"Altay","NL_NAME_1":"Алтайскийкрай","NAME_2":"Novochikhinskiyrayon","VARNAME_2":"NA","NL_NAME_2":"Новочихинскийрайон","TYPE_2":"Raion","ENGTYPE_2":"District","CC_2":"R53092","HASC_2":"RU.AL.NC"}},{"type":"MultiPolygon","arcs":[[[-16,-95,169,-120,-89]]],"properties":{"GID_2":"RUS.2.32_1","GID_0":"RUS","COUNTRY":"Russia","GID_1":"RUS.2_1","NAME_1":"Altay","NL_NAME_1":"Алтайскийкрай","NAME_2":"Pankrushikhinskiyrayon","VARNAME_2":"NA","NL_NAME_2":"Панкрушихинскийрайон","TYPE_2":"Raion","ENGTYPE_2":"District","CC_2":"R53093","HASC_2":"RU.AL.PK"}},{"type":"MultiPolygon","arcs":[[[-22,170,-88,171,172,173,174]]],"properties":{"GID_2":"RUS.2.33_1","GID_0":"RUS","COUNTRY":"Russia","GID_1":"RUS.2_1","NAME_1":"Altay","NL_NAME_1":"Алтайскийкрай","NAME_2":"Pavlovskiyrayon","VARNAME_2":"NA","NL_NAME_2":"Павловскийрайон","TYPE_2":"Raion","ENGTYPE_2":"District","CC_2":"R53093","HASC_2":"RU.AL.PA"}},{"type":"MultiPolygon","arcs":[[[-26,175,-24,176,177,178,-108,179,-106,180,181,-86],[-164]]],"properties":{"GID_2":"RUS.2.34_1","GID_0":"RUS","COUNTRY":"Russia","GID_1":"RUS.2_1","NAME_1":"Altay","NL_NAME_1":"Алтайскийкрай","NAME_2":"Pervomayskiyrayon","VARNAME_2":"NA","NL_NAME_2":"Первомайскийрайон","TYPE_2":"Raion","ENGTYPE_2":"District","CC_2":"R53093","HASC_2":"RU.AL.PE"}},{"type":"MultiPolygon","arcs":[[[-54,182,183,184,185,186,187]]],"properties":{"GID_2":"RUS.2.35_1","GID_0":"RUS","COUNTRY":"Russia","GID_1":"RUS.2_1","NAME_1":"Altay","NL_NAME_1":"Алтайскийкрай","NAME_2":"Petropavlovskiyrayon","VARNAME_2":"NA","NL_NAME_2":"Петропавловскийрайон","TYPE_2":"Raion","ENGTYPE_2":"District","CC_2":"R53093","HASC_2":"RU.AL.PP"}},{"type":"MultiPolygon","arcs":[[[-128,188,189,190,-168,191,192]]],"properties":{"GID_2":"RUS.2.36_1","GID_0":"RUS","COUNTRY":"Russia","GID_1":"RUS.2_1","NAME_1":"Altay","NL_NAME_1":"Алтайскийкрай","NAME_2":"Pospelikhinskiyrayon","VARNAME_2":"NA","NL_NAME_2":"Поспелихинскийрайон","TYPE_2":"Raion","ENGTYPE_2":"District","CC_2":"R53093","HASC_2":"RU.AL.PO"}},{"type":"MultiPolygon","arcs":[[[193,-151,194,195,-173,196]]],"properties":{"GID_2":"RUS.2.37_1","GID_0":"RUS","COUNTRY":"Russia","GID_1":"RUS.2_1","NAME_1":"Altay","NL_NAME_1":"Алтайскийкрай","NAME_2":"Rebrikhinskiyrayon","VARNAME_2":"NA","NL_NAME_2":"Ребрихинскийрайон","TYPE_2":"Raion","ENGTYPE_2":"District","CC_2":"R53093","HASC_2":"RU.AL.RE"}},{"type":"MultiPolygon","arcs":[[[-41,197,198,199,200,201,-101]]],"properties":{"GID_2":"RUS.2.38_1","GID_0":"RUS","COUNTRY":"Russia","GID_1":"RUS.2_1","NAME_1":"Altay","NL_NAME_1":"Алтайскийкрай","NAME_2":"Rodinskiyrayon","VARNAME_2":"NA","NL_NAME_2":"Родинскийрайон","TYPE_2":"Raion","ENGTYPE_2":"District","CC_2":"R53093","HASC_2":"RU.AL.RD"}},{"type":"MultiPolygon","arcs":[[[-146,202,-166,203,-200,204,205]]],"properties":{"GID_2":"RUS.2.39_1","GID_0":"RUS","COUNTRY":"Russia","GID_1":"RUS.2_1","NAME_1":"Altay","NL_NAME_1":"Алтайскийкрай","NAME_2":"Romanovskiyrayon","VARNAME_2":"NA","NL_NAME_2":"Романовскийрайон","TYPE_2":"Raion","ENGTYPE_2":"District","CC_2":"R53093","HASC_2":"RU.AL.RM"}},{"type":"MultiPolygon","arcs":[[[206]]],"properties":{"GID_2":"RUS.2.40_1","GID_0":"RUS","COUNTRY":"Russia","GID_1":"RUS.2_1","NAME_1":"Altay","NL_NAME_1":"Алтайскийкрай","NAME_2":"Rubtsovsk","VARNAME_2":"NA","NL_NAME_2":"Рубцовск","TYPE_2":"Gorod","ENGTYPE_2":"City","CC_2":"NA","HASC_2":"RU.AL.RG"}},{"type":"MultiPolygon","arcs":[[[207,208,209,-76,-169,-191,210,-137],[-207]]],"properties":{"GID_2":"RUS.2.41_1","GID_0":"RUS","COUNTRY":"Russia","GID_1":"RUS.2_1","NAME_1":"Altay","NL_NAME_1":"Алтайскийкрай","NAME_2":"Rubtsovskiyrayon","VARNAME_2":"NA","NL_NAME_2":"Рубцовскийрайон","TYPE_2":"Raion","ENGTYPE_2":"District","CC_2":"R53093","HASC_2":"RU.AL.RR"}},{"type":"MultiPolygon","arcs":[[[-174,-196,211,212,213]]],"properties":{"GID_2":"RUS.2.42_1","GID_0":"RUS","COUNTRY":"Russia","GID_1":"RUS.2_1","NAME_1":"Altay","NL_NAME_1":"Алтайскийкрай","NAME_2":"Shelabolikhinskiyrayon","VARNAME_2":"NA","NL_NAME_2":"Шелаболихинскийрайон","TYPE_2":"Raion","ENGTYPE_2":"District","CC_2":"R53095","HASC_2":"RU.AL.SB"}},{"type":"MultiPolygon","arcs":[[[-9,214,215,-117,-130,216,-192,-167,-143,217]]],"properties":{"GID_2":"RUS.2.43_1","GID_0":"RUS","COUNTRY":"Russia","GID_1":"RUS.2_1","NAME_1":"Altay","NL_NAME_1":"Алтайскийкрай","NAME_2":"Shipunovskiyrayon","VARNAME_2":"NA","NL_NAME_2":"Шипуновскийрайон","TYPE_2":"Raion","ENGTYPE_2":"District","CC_2":"R53095","HASC_2":"RU.AL.SP"}},{"type":"MultiPolygon","arcs":[[[218]]],"properties":{"GID_2":"RUS.2.44_1","GID_0":"RUS","COUNTRY":"Russia","GID_1":"RUS.2_1","NAME_1":"Altay","NL_NAME_1":"Алтайскийкрай","NAME_2":"Slavgorod","VARNAME_2":"NA","NL_NAME_2":"Славгород","TYPE_2":"Gorsovet","ENGTYPE_2":"District","CC_2":"NA","HASC_2":"RU.AL.SG"}},{"type":"MultiPolygon","arcs":[[[219,-52,220,-163,221,222],[-219]]],"properties":{"GID_2":"RUS.2.45_1","GID_0":"RUS","COUNTRY":"Russia","GID_1":"RUS.2_1","NAME_1":"Altay","NL_NAME_1":"Алтайскийкрай","NAME_2":"Slavgorodskiyrayon","VARNAME_2":"NA","NL_NAME_2":"Славгородский","TYPE_2":"Raion","ENGTYPE_2":"District","CC_2":"R53093","HASC_2":"RU.AL.SR"}},{"type":"MultiPolygon","arcs":[[[-10,223,-183,-63,224,-61,225,226,227,228,229],[-27]]],"properties":{"GID_2":"RUS.2.46_1","GID_0":"RUS","COUNTRY":"Russia","GID_1":"RUS.2_1","NAME_1":"Altay","NL_NAME_1":"Алтайскийкрай","NAME_2":"Smolenskiyrayon","VARNAME_2":"NA","NL_NAME_2":"Смоленскийрайон","TYPE_2":"Raion","ENGTYPE_2":"District","CC_2":"R53094","HASC_2":"RU.AL.SM"}},{"type":"MultiPolygon","arcs":[[[-13,230,-68,231,-184,-224]]],"properties":{"GID_2":"RUS.2.47_1","GID_0":"RUS","COUNTRY":"Russia","GID_1":"RUS.2_1","NAME_1":"Altay","NL_NAME_1":"Алтайскийкрай","NAME_2":"Soloneshenskiyrayon","VARNAME_2":"NA","NL_NAME_2":"Солонешенскийрайон","TYPE_2":"Raion","ENGTYPE_2":"District","CC_2":"R53094","HASC_2":"RU.AL.SO"}},{"type":"MultiPolygon","arcs":[[[-35,232,233,-77,234,-113,235]]],"properties":{"GID_2":"RUS.2.48_1","GID_0":"RUS","COUNTRY":"Russia","GID_1":"RUS.2_1","NAME_1":"Altay","NL_NAME_1":"Алтайскийкрай","NAME_2":"Soltonskiyrayon","VARNAME_2":"NA","NL_NAME_2":"Солтонскийрайон","TYPE_2":"Raion","ENGTYPE_2":"District","CC_2":"R53094","HASC_2":"RU.AL.ST"}},{"type":"MultiPolygon","arcs":[[[-11,-230,236,-37,-115,237]]],"properties":{"GID_2":"RUS.2.49_1","GID_0":"RUS","COUNTRY":"Russia","GID_1":"RUS.2_1","NAME_1":"Altay","NL_NAME_1":"Алтайскийкрай","NAME_2":"Sovetskiyrayon","VARNAME_2":"NA","NL_NAME_2":"Советскийрайон","TYPE_2":"Raion","ENGTYPE_2":"District","CC_2":"R53094","HASC_2":"RU.AL.SV"}},{"type":"MultiPolygon","arcs":[[[-15,238,-47,239,-159,240,-96]]],"properties":{"GID_2":"RUS.2.50_1","GID_0":"RUS","COUNTRY":"Russia","GID_1":"RUS.2_1","NAME_1":"Altay","NL_NAME_1":"Алтайскийкрай","NAME_2":"Suetskiyrayon","VARNAME_2":"NA","NL_NAME_2":"Суетскийрайон","TYPE_2":"Raion","ENGTYPE_2":"District","CC_2":"R53090","HASC_2":"RU.AL.SU"}},{"type":"MultiPolygon","arcs":[[[241,-223,242,-161,243,-43,-125,244,-123]]],"properties":{"GID_2":"RUS.2.51_1","GID_0":"RUS","COUNTRY":"Russia","GID_1":"RUS.2_1","NAME_1":"Altay","NL_NAME_1":"Алтайскийкрай","NAME_2":"Tabunskiyrayon","VARNAME_2":"NA","NL_NAME_2":"Табунскийрайон","TYPE_2":"Raion","ENGTYPE_2":"District","CC_2":"R53094","HASC_2":"RU.AL.TB"}},{"type":"MultiPolygon","arcs":[[[-23,-175,-214,245,246,247,-177]]],"properties":{"GID_2":"RUS.2.52_1","GID_0":"RUS","COUNTRY":"Russia","GID_1":"RUS.2_1","NAME_1":"Altay","NL_NAME_1":"Алтайскийкрай","NAME_2":"Tal'menskiyrayon","VARNAME_2":"NA","NL_NAME_2":"Тальменскийрайон","TYPE_2":"Raion","ENGTYPE_2":"District","CC_2":"R53094","HASC_2":"RU.AL.TA"}},{"type":"MultiPolygon","arcs":[[[-83,248,-81,249,-133,250,251]]],"properties":{"GID_2":"RUS.2.53_1","GID_0":"RUS","COUNTRY":"Russia","GID_1":"RUS.2_1","NAME_1":"Altay","NL_NAME_1":"Алтайскийкрай","NAME_2":"Togul'skiyrayon","VARNAME_2":"NA","NL_NAME_2":"Тогульскийрайон","TYPE_2":"Raion","ENGTYPE_2":"District","CC_2":"R53094","HASC_2":"RU.AL.TG"}},{"type":"MultiPolygon","arcs":[[[252,-3,253,-87,-182,254,255,256,257,258]]],"properties":{"GID_2":"RUS.2.54_1","GID_0":"RUS","COUNTRY":"Russia","GID_1":"RUS.2_1","NAME_1":"Altay","NL_NAME_1":"Алтайскийкрай","NAME_2":"Topchikhinskiyrayon","VARNAME_2":"NA","NL_NAME_2":"Топчихинскийрайон","TYPE_2":"Raion","ENGTYPE_2":"District","CC_2":"R53094","HASC_2":"RU.AL.TP"}},{"type":"MultiPolygon","arcs":[[[259,-140,260,261]]],"properties":{"GID_2":"RUS.2.55_1","GID_0":"RUS","COUNTRY":"Russia","GID_1":"RUS.2_1","NAME_1":"Altay","NL_NAME_1":"Алтайскийкрай","NAME_2":"Tret'yakovskiyrayon","VARNAME_2":"NA","NL_NAME_2":"Третьяковскийрайон","TYPE_2":"Raion","ENGTYPE_2":"District","CC_2":"R53094","HASC_2":"RU.AL.TR"}},{"type":"MultiPolygon","arcs":[[[-56,262,263,-255,-181,-105,-136,264,265,266,267,268,269]]],"properties":{"GID_2":"RUS.2.56_1","GID_0":"RUS","COUNTRY":"Russia","GID_1":"RUS.2_1","NAME_1":"Altay","NL_NAME_1":"Алтайскийкрай","NAME_2":"Troitskiyrayon","VARNAME_2":"NA","NL_NAME_2":"Троицкийрайон","TYPE_2":"Raion","ENGTYPE_2":"District","CC_2":"R53094","HASC_2":"RU.AL.TT"}},{"type":"MultiPolygon","arcs":[[[-34,270,-32,271,-265,272,-134,273,-79,274,-233]]],"properties":{"GID_2":"RUS.2.57_1","GID_0":"RUS","COUNTRY":"Russia","GID_1":"RUS.2_1","NAME_1":"Altay","NL_NAME_1":"Алтайскийкрай","NAME_2":"Tselinnyyrayon","VARNAME_2":"NA","NL_NAME_2":"Целинныйрайон","TYPE_2":"Raion","ENGTYPE_2":"District","CC_2":"R53095","HASC_2":"RU.AL.TS"}},{"type":"MultiPolygon","arcs":[[[-18,-92,-212,-195,-150,275,276]]],"properties":{"GID_2":"RUS.2.58_1","GID_0":"RUS","COUNTRY":"Russia","GID_1":"RUS.2_1","NAME_1":"Altay","NL_NAME_1":"Алтайскийкрай","NAME_2":"Tyumentsevskiyrayon","VARNAME_2":"NA","NL_NAME_2":"Тюменцевскийрайон","TYPE_2":"Raion","ENGTYPE_2":"District","CC_2":"R53095","HASC_2":"RU.AL.TY"}},{"type":"MultiPolygon","arcs":[[[-155,277,278,-71,279,-209,280]]],"properties":{"GID_2":"RUS.2.59_1","GID_0":"RUS","COUNTRY":"Russia","GID_1":"RUS.2_1","NAME_1":"Altay","NL_NAME_1":"Алтайскийкрай","NAME_2":"Uglovskiyrayon","VARNAME_2":"NA","NL_NAME_2":"Угловскийрайон","TYPE_2":"Raion","ENGTYPE_2":"District","CC_2":"R53095","HASC_2":"RU.AL.UG"}},{"type":"MultiPolygon","arcs":[[[-7,281,282,283,-186,284,-232,-67,285,-118,-216,286]]],"properties":{"GID_2":"RUS.2.60_1","GID_0":"RUS","COUNTRY":"Russia","GID_1":"RUS.2_1","NAME_1":"Altay","NL_NAME_1":"Алтайскийкрай","NAME_2":"Ust'-Kalmanskiyrayon","VARNAME_2":"NA","NL_NAME_2":"Усt.-Калманскийрайон","TYPE_2":"Raion","ENGTYPE_2":"District","CC_2":"R53095","HASC_2":"RU.AL.UK"}},{"type":"MultiPolygon","arcs":[[[287,-5,288,-259,289,-257,290,-263,-55,-188,291,-283]]],"properties":{"GID_2":"RUS.2.61_1","GID_0":"RUS","COUNTRY":"Russia","GID_1":"RUS.2_1","NAME_1":"Altay","NL_NAME_1":"Алтайскийкрай","NAME_2":"Ust'-Pristanskiyrayon","VARNAME_2":"NA","NL_NAME_2":"Усt.-Пристанскийрайон","TYPE_2":"Raion","ENGTYPE_2":"District","CC_2":"R53095","HASC_2":"RU.AL.UP"}},{"type":"MultiPolygon","arcs":[[[-74,292,-72,-279,293,-153,-103,294,-201,-204,-165]]],"properties":{"GID_2":"RUS.2.62_1","GID_0":"RUS","COUNTRY":"Russia","GID_1":"RUS.2_1","NAME_1":"Altay","NL_NAME_1":"Алтайскийкрай","NAME_2":"Volchikhinskiyrayon","VARNAME_2":"NA","NL_NAME_2":"Волчихинскийрайон","TYPE_2":"Raion","ENGTYPE_2":"District","CC_2":"R53090","HASC_2":"RU.AL.VO"}},{"type":"MultiPolygon","arcs":[[[-46,295,-44,-244,-160,-240]]],"properties":{"GID_2":"RUS.2.63_1","GID_0":"RUS","COUNTRY":"Russia","GID_1":"RUS.2_1","NAME_1":"Altay","NL_NAME_1":"Алтайскийкрай","NAME_2":"Waterbody","VARNAME_2":"NA","NL_NAME_2":"NA","TYPE_2":"Waterbody","ENGTYPE_2":"Waterbody","CC_2":"NA","HASC_2":"NA"}},{"type":"MultiPolygon","arcs":[[[-178,296,-247,297,298]]],"properties":{"GID_2":"RUS.2.64_1","GID_0":"RUS","COUNTRY":"Russia","GID_1":"RUS.2_1","NAME_1":"Altay","NL_NAME_1":"Алтайскийкрай","NAME_2":"Zalesovskiyrayon","VARNAME_2":"NA","NL_NAME_2":"Залесовскийрайон","TYPE_2":"Raion","ENGTYPE_2":"District","CC_2":"R53091","HASC_2":"RU.AL.ZL"}},{"type":"MultiPolygon","arcs":[[[299,-109,-179,-299,300,-251,-132]]],"properties":{"GID_2":"RUS.2.65_1","GID_0":"RUS","COUNTRY":"Russia","GID_1":"RUS.2_1","NAME_1":"Altay","NL_NAME_1":"Алтайскийкрай","NAME_2":"Zarinskiyrayon","VARNAME_2":"NA","NL_NAME_2":"Заринскийрайон","TYPE_2":"Raion","ENGTYPE_2":"District","CC_2":"R53091","HASC_2":"RU.AL.ZR"}},{"type":"MultiPolygon","arcs":[[[-19,-277,301,-148,302,-205,-199,303,-39]]],"properties":{"GID_2":"RUS.2.66_1","GID_0":"RUS","COUNTRY":"Russia","GID_1":"RUS.2_1","NAME_1":"Altay","NL_NAME_1":"Алтайскийкрай","NAME_2":"Zav'yalovskiyrayon","VARNAME_2":"NA","NL_NAME_2":"Завьяловскийрайон","TYPE_2":"Raion","ENGTYPE_2":"District","CC_2":"R53091","HASC_2":"RU.AL.ZV"}},{"type":"MultiPolygon","arcs":[[[304,-262,305,-138,-211,-190,306,-126,-64]]],"properties":{"GID_2":"RUS.2.67_1","GID_0":"RUS","COUNTRY":"Russia","GID_1":"RUS.2_1","NAME_1":"Altay","NL_NAME_1":"Алтайскийкрай","NAME_2":"Zmeinogorskiyrayon","VARNAME_2":"NA","NL_NAME_2":"Змеиногорскийрайон","TYPE_2":"Raion","ENGTYPE_2":"District","CC_2":"R53091","HASC_2":"RU.AL.ZN"}},{"type":"MultiPolygon","arcs":[[[-31,307,308,-58,309,-269,310,311,-266,-272]]],"properties":{"GID_2":"RUS.2.68_1","GID_0":"RUS","COUNTRY":"Russia","GID_1":"RUS.2_1","NAME_1":"Altay","NL_NAME_1":"Алтайскийкрай","NAME_2":"Zonal'nyyrayon","VARNAME_2":"NA","NL_NAME_2":"Зональныйрайон","TYPE_2":"Raion","ENGTYPE_2":"District","CC_2":"R53091","HASC_2":"RU.AL.ZO"}}]}},"arcs":[[[534617,500437],[-162,-1114],[-260,716],[422,398]],[[450355,523875],[17753,17783],[11781,14705]],[[479889,556363],[5809,-7644],[5290,6105],[6004,-4115],[4176,-8042],[7778,7299],[2607,531],[1893,-2999],[12127,9476],[909,8069],[4057,-929],[12863,-19881],[2585,-19164],[-87,-12714],[-1903,-6211],[16995,-15315],[6837,-9317],[6426,-13722]],[[574255,467790],[11542,-17200]],[[585797,450590],[-2228,-13032]],[[583569,437558],[-9639,-28587],[-3094,-7910]],[[570836,401061],[-3927,-5998],[-14128,-2761],[-6448,2708]],[[546333,395010],[-7378,9555]],[[538955,404565],[-4002,8414],[-1309,5441],[-8006,80],[-11380,-7007],[-8406,-1354],[-25314,43212],[-9672,21287],[-5917,-2416],[-4435,2204],[-5117,17385],[1882,14997],[-1742,6556],[-5182,10511]],[[745991,281619],[3365,7644],[19331,14891],[6004,8759],[855,5972],[-3905,16244],[1720,6795],[-455,8016],[-3515,11679],[3137,11466],[11283,8282]],[[783811,381367],[9152,849],[4987,7352],[3624,2203],[14702,-2787],[4371,4911],[7659,-6636],[7529,-26437],[7897,-875],[12268,8414]],[[856000,368361],[4911,-14971],[-21,-14094],[2304,-10882],[-5669,-2814],[-4954,-5308],[-76,-16828],[-3603,-7592],[-4283,-6370],[-9326,-5521],[-14215,-22561],[2521,-16244],[-10061,-2628],[-17298,-14784],[-8395,-1620],[-6058,1142],[-7670,-3159],[-7713,-4910],[-6404,-9927],[-7497,-2124]],[[752493,207166],[-1158,13245],[-2401,10830],[-282,11838],[-5398,11015],[2218,4512],[952,9264],[-433,13749]],[[295257,635434],[-30182,25189]],[[265075,660623],[-3992,8281],[-6166,-212],[-4879,12422],[-2402,10511],[1093,3743],[3970,2521],[-3018,11732],[-8612,6238],[-1352,8706],[-4327,9661],[-5842,6185]],[[229548,740411],[8720,3875],[14388,1858],[8870,-4141],[5572,5707],[259,6901],[4674,5043],[7086,4353],[15989,3398],[-1017,4830]],[[294089,772235],[4825,-8944],[14593,-12555],[2964,-11015],[1396,-15209],[21614,-6822]],[[339481,717690],[7584,-13563],[-1969,-5601],[6718,-13696],[7821,-8971],[5085,-25375],[2282,-6317]],[[367002,644167],[-9876,-7937],[-10581,-2734],[-6718,23942],[-10742,-4592],[-10450,-11015],[-3581,4963],[-3732,664],[-16065,-12024]],[[641153,645122],[-3689,17731],[-4197,8626]],[[633267,671479],[-24654,38885],[-12484,11546]],[[596129,721910],[6934,5495],[487,5122],[-7616,5150]],[[595934,737677],[10991,5016]],[[606925,742693],[2272,-7113],[3310,-2256],[4490,876],[7194,10006],[3862,1619],[2650,-3503],[1082,-6291],[7194,-2867]],[[638979,733164],[1763,-3344],[3776,-10033]],[[644518,719787],[3451,-17306],[-920,-12687],[2997,-18713],[-595,-10617],[-8298,-15342]],[[764641,360026],[-714,-610],[11,424],[703,186]],[[795635,509781],[-1547,-425],[-595,2229],[2121,505],[21,-2309]],[[783432,476124],[-4446,2708]],[[778986,478832],[-2877,-1965]],[[776109,476867],[-585,6955],[-7432,3689],[-1557,5627],[6793,4751],[-595,6955],[-6555,2256],[1438,3689],[28463,24021],[9606,17200]],[[805685,552010],[4868,-4326],[-551,-17174]],[[810002,530510],[25292,22482],[6264,6423]],[[841558,559415],[-974,22058],[8179,7299],[6231,-19191],[3656,-4273],[24482,4963],[11889,6105]],[[895021,576376],[2596,-6317],[1082,-6290],[-12690,-10803],[-2174,-5840],[3797,-9874],[1212,-8228],[-1180,-7989]],[[887664,521035],[-3937,1725],[-8179,-3530],[-3581,-4088],[-2791,-6025],[617,-10883],[3029,-6927],[7183,-9078],[-1990,-10219],[-13155,-20172],[-8514,-3212]],[[856346,448626],[-5279,7432],[-28982,6423],[-4868,6795],[-4165,7512],[-1677,6609],[-4035,5574],[-23908,-12847]],[[269705,657119],[25552,-21685]],[[295257,635434],[-7313,-7724],[2142,-16881],[8222,-18262]],[[298308,592567],[-29717,-30258]],[[268591,562309],[-11111,2574],[2564,-8918],[1396,-10697],[-10656,-6821],[-5560,4565],[-6188,-5335],[-693,-11175],[-12116,-2999],[-9433,-7618],[-3992,1965],[-11186,-4168],[-530,-8573],[-6848,-3689]],[[194238,501420],[-6512,8838],[-7454,19270],[-5972,-2309],[-7540,18739],[-9530,4380]],[[157230,550338],[6793,8759],[7259,15262],[8752,10139]],[[180034,584498],[9044,-8414],[12365,637],[1926,-4140]],[[203369,572581],[1839,3371],[876,4671]],[[206084,580623],[-2791,6556],[-4652,876],[-2434,19084],[855,3929],[2315,2813],[4554,-1194],[2932,3132],[3029,6662],[-8492,8972],[2066,3981],[-22,4035],[-4143,7750]],[[199301,647219],[30539,-22455],[39865,32355]],[[88881,797690],[1742,-8308],[2953,-5176],[1796,-6980],[1514,-14971],[11424,-5494],[7822,-8228]],[[116132,748533],[5485,-16377]],[[121617,732156],[-8990,-6503],[-9033,-2495],[-2781,-7644],[-9433,-6769],[108,-5016],[-4662,-4008]],[[86826,699721],[-141,-9927]],[[86685,689794],[-6934,-7645],[-2088,-4565],[487,-6609],[-13912,-8228],[-3679,6848],[-4662,4326],[-9531,-6184],[4836,-16935],[3029,-292],[3635,-8122],[303,-8759],[-6253,-6609],[2272,-8281],[-1017,-4566],[-3549,-4034],[-3299,2973],[-5344,15421]],[[40979,628533],[-5398,-4433],[-11716,25694],[-17190,42654],[-6675,12502],[4771,17332],[4489,-2628],[2359,7008],[-3960,8467],[1915,3742],[8882,1062],[2239,3132],[-465,4088],[-8644,2362],[-2174,3265],[-314,18898],[7162,2495],[3342,-3689],[5052,2442],[3170,8891],[4728,3849],[2553,-4857],[-1926,-14891],[3148,-8122],[8990,-6052],[8092,2894],[8622,5945],[15729,3212],[4165,8573],[-1601,9874],[2802,9184],[5755,6264]],[[716880,365653],[-2240,9635],[-3353,5256],[-5517,2256],[-3733,21738],[-7908,19722],[-5549,-3716],[-6091,13669],[7573,18819],[-1666,5096],[-7778,-5494],[-4263,11573]],[[676355,464207],[-303,3875],[1710,4804],[3602,3530]],[[681364,476416],[10039,5070],[2045,12077],[9011,2203],[17580,11599],[3624,-1725],[3591,-5654]],[[727254,499986],[1764,-11997]],[[729018,487989],[5495,8573],[6404,-5468],[8536,3159],[2456,-7060],[-10018,-9609],[-487,-6344],[3300,-1831]],[[744704,469409],[9228,1938]],[[753932,471347],[-1082,-9025],[-3267,-12979]],[[749583,449343],[-4630,-6530],[-5117,690],[-1731,5601],[-2586,2574],[-5365,-1884],[-1147,-5335],[5571,-13882],[8903,-15979],[2932,-2707],[1612,-4884],[-1363,-14333],[-3397,-10830]],[[743265,381844],[-7562,-7564],[-14831,-9688]],[[720872,364592],[-3992,1061]],[[563967,94413],[-6859,8971],[-3235,14466]],[[553873,117850],[9369,-1752],[9552,-5468],[1450,1832],[-3570,8334],[-1526,7671],[379,10644],[2369,12209],[3581,41168],[2066,5813],[2575,2017],[12235,2787],[-584,7008],[-12268,15686],[-2271,11865],[6555,4565],[4252,5654],[844,9051],[-985,21340],[-1980,7486]],[[585916,285760],[1385,530]],[[587301,286290],[1169,5442],[4045,1327],[9834,-4459],[16433,18978],[5095,-1805],[17817,-36390],[5842,5175],[6707,10724]],[[654243,285282],[9434,-36842],[3018,-2362],[9531,4751],[3223,-2548],[2683,-8228],[-10277,-6025],[357,-3106],[5766,-11811],[5149,-14042],[4295,-5149],[8395,-1407],[14832,-7803],[6252,-12183]],[[716901,178527],[-5603,-8494],[-6837,-2973],[-20522,-2813],[-2066,-7990],[-3808,-33603],[-5236,9051],[-12528,-8467],[1775,-16297],[5235,-3265],[6881,5335],[6588,-4539],[3473,-11174],[4229,-2150],[6069,504],[7627,-5176],[14778,-2548],[227,-12369],[-3029,-9077],[12884,-8016],[1276,-5017],[-2434,-4857],[-8957,-9264],[1201,-12528],[-7843,-8122],[-5409,3743],[-6848,-8282],[-29782,-10139],[-1504,5707],[-8135,14996],[-1698,16351],[-16433,27365],[-11143,3132],[-7626,10272],[-6253,4539],[-9791,1327],[-8697,6503],[2185,6503],[-3029,-3636],[-9596,3504],[-6317,-956],[-4869,-5733],[-1244,3212],[-1590,451],[-1536,5600],[-3235,3000],[-3894,212],[130,-7936]],[[288041,225003],[16054,32064]],[[304095,257067],[-627,9555],[-3181,1832],[-5052,9316],[2413,7644],[-7508,6689],[-1666,-5574]],[[288474,286529],[2521,17572],[7410,4353],[3321,6556],[2748,9316]],[[304474,324326],[23335,38408]],[[327809,362734],[8924,3689],[2618,-1380],[8222,13855]],[[347573,378898],[11078,-12900],[3126,-8201],[-1482,-10193],[6967,-15050]],[[367262,332554],[-119,-11094],[-1753,-12077],[4252,-6450],[2726,-9609],[379,-8626],[-2142,-9264],[-3559,-7087],[-7000,-1327],[-5733,-6795],[-5864,2920],[-4641,-13882],[-2434,-19987],[3430,-18871],[-2012,-4699],[-7346,-4299],[-162,-6636],[1266,-12051],[-390,-6211],[-2531,-2919],[-10180,1698],[-303,10458],[-4306,5123],[1277,9927],[-584,4512],[-2099,3079],[-22220,6503],[-7173,10113]],[[978525,641910],[-14539,-4671],[-8590,-4964],[-19461,-3052]],[[935935,629223],[-13437,-16987]],[[922498,612236],[-4002,29197],[-2759,12183],[-2737,1380],[-11370,-4433],[-8189,5123],[-12581,-6556],[-9228,-637],[-3202,3424],[-5539,24818],[-4576,11333]],[[858315,688068],[52002,15156]],[[910317,703224],[-422,6503],[-3321,4141],[-205,7299],[6675,4459],[3721,12130]],[[916765,737756],[8016,10697]],[[924781,748453],[6545,-8839],[768,-9077],[3797,-345],[8438,4167],[5139,8361],[-2910,9688]],[[946558,752408],[8946,637],[6491,-4990],[10743,-1301],[4392,1487],[1233,-8945],[-1363,-12369],[-6037,-20332],[-4900,-6317],[-16411,-8679],[-2402,-8308],[7605,-16855],[15654,-17757],[8016,-6769]],[[613405,701446],[19862,-29967]],[[641153,645122],[390,-8255],[-3646,-4539],[-1092,-4591],[995,-5840],[10439,-28666],[584,-8441]],[[648823,584790],[3560,-11094],[703,-6185],[-3754,-5813],[-6199,-239],[-23843,13086],[-9520,-7485],[-4414,3079],[-5354,-4221],[-16595,8945],[-1958,9184],[-2781,7167],[-5939,-3743],[-5290,12661],[-1655,10299],[-9390,8865],[-2586,9688],[-5874,10936]],[[547934,639920],[26721,24207],[30020,31426],[8730,5893]],[[294089,772235],[108,15342],[1936,14891],[5939,12581]],[[302072,815049],[6329,8202],[10732,5574],[9747,1858],[14366,-13006],[22253,20278],[7345,14758],[-703,16457],[1861,16032],[7897,10457],[7713,7140]],[[389612,902799],[9715,-9051],[-606,-10245],[1093,-14280],[6090,3689],[5885,-1380],[3808,-4194],[8060,3477],[4392,-2734],[-1363,-5547],[432,-8547],[-11207,-10484],[162,-7936],[7183,-19801],[3505,-4592],[5983,4140],[16129,-11546]],[[448873,803768],[-14734,-2866],[-8871,-5282],[-2737,7883],[-4987,-28719],[996,-11334],[-6480,-3132],[-4122,-5415],[2131,-20624],[-5074,-4061],[-5841,-132],[-5128,9369],[-7508,9157],[-5084,2894],[-4749,-452],[-37204,-33364]],[[120719,734837],[-4587,13696]],[[88881,797690],[25228,7299],[3581,-4910],[4067,-1646],[3375,9927],[6470,-6848],[10223,2203],[8330,5096],[573,5282],[4955,-1751],[5982,-7087],[10364,6237],[3234,5229],[4501,1035],[5106,7114],[2185,13085],[12938,7565],[4230,-2415]],[[204223,843105],[7508,-19032],[9628,-36974],[8189,-46688]],[[229548,740411],[-2163,-4486],[-20349,-10378],[-1158,-5813],[1309,-4459],[-3591,-8176],[-1558,-8759]],[[202038,698340],[-5225,-3583]],[[196813,694757],[-16941,44167],[-10094,-48998],[-13630,3451],[-26537,51864],[-8892,-10404]],[[139683,340225],[-1298,7698],[-952,-850],[-7368,22164],[-15275,37053],[-6404,22509],[-9693,25958]],[[98693,454757],[12214,5203],[15091,-11201],[2661,10139],[2596,5070],[7779,-2097],[4294,5866],[12755,6105],[3245,6848],[6740,7246],[13566,7140],[6361,478],[8243,5866]],[[194238,501420],[3224,-17200],[4587,-11785],[-552,-6078],[-5322,-8282],[13500,2495],[4393,-13377],[508,-7087],[-2228,-4566],[4446,-12846],[10385,-478],[3094,-5893]],[[230273,416323],[5333,-18765]],[[235606,397558],[-162,-18262],[-10504,5999]],[[224940,385295],[-5885,5574],[-1201,9555],[-10667,8945],[-16584,-12130],[-2867,-3875],[-887,-5999],[3722,-7087],[-5550,-4645],[-4392,3212],[-2780,5017],[-2402,-5973],[-119,-7140],[6242,-14014],[346,-3902],[-7259,-7512],[-9844,11255],[-3289,1221],[-11337,-11069],[-10504,-6503]],[[773988,676788],[-11434,-8441],[-10721,-11732],[-6837,-796],[-12614,6582],[-11932,133],[-28830,-16111]],[[691620,646423],[-2002,12130],[574,13059]],[[690192,671612],[5603,34267]],[[695795,705879],[4025,12979],[3537,17014],[4360,7910],[552,11280],[-1980,4751]],[[706289,759813],[17092,-1619],[26158,17864],[4339,-292],[1114,-2602],[-693,-13988],[3560,-6237]],[[757859,752939],[24946,-15926]],[[782805,737013],[3927,-9794],[-930,-9396],[-7898,-14891],[-2142,-7087],[-1774,-19057]],[[887664,521035],[3116,-4194],[2640,-6583]],[[893420,510258],[-1104,-15341],[2596,-8547],[4879,-4884],[12409,10936],[6664,24419],[3299,6158],[5972,318],[9758,-5176],[3299,-5627],[2196,-13112],[5669,-4698]],[[949057,494704],[5160,-21314],[-3072,-15899],[-682,-18659],[5745,-6663],[2001,-25958],[-1060,-13617],[-4987,-3212],[-5940,1168],[-5657,4937],[-9131,-796],[-5182,-3052],[-2239,-7353],[-692,-10059],[-5810,-7698],[-6891,-1407],[-18261,10830],[-8362,1831],[-15740,-3026]],[[868257,374757],[-7670,36762],[-4241,37107]],[[553873,117850],[-411,6848],[3527,26437],[-3245,9953],[-11879,16271],[-4835,-2946],[-5853,-107],[-6956,31002],[-9693,20836],[-15102,24128],[-108,7724],[10753,10139],[-1514,7406],[-5507,4007],[-2293,7061]],[[500757,286609],[3710,7511],[1158,6238],[17395,10272],[7703,6583],[3440,5627]],[[534163,322840],[9120,-4884],[8784,-266],[7032,6769],[9216,-5388],[8092,3663],[5680,5202],[3170,-6768],[238,-7884],[-6221,-15129],[-595,-4990],[3505,-5866]],[[582184,287299],[3732,-1539]],[[302072,815049],[-10374,59509],[-2358,9529],[-4771,4220],[790,12130],[-5085,15634]],[[280274,916071],[7172,5308],[-2261,12343],[7562,10219],[5528,-160],[2867,5707],[10104,5017],[7605,929],[-184,7697],[-3905,10139],[2218,7194],[5960,5494],[6069,-1009],[1104,-11307],[2737,-13112],[14031,-19987],[1623,-5335],[313,-10113],[1623,-5335],[10623,2363],[3559,-2787],[4111,-8069],[7778,-1062],[10343,1964],[2758,-9370]],[[98693,454757],[-16130,42283]],[[82563,497040],[8536,6609],[-584,4804],[800,4698],[2099,4327],[25606,13908],[1688,6132],[876,11333]],[[121584,548851],[1342,3929],[7908,9104]],[[130834,561884],[4186,-292],[3765,-4539],[5225,-11944],[13220,5229]],[[553873,117850],[-6177,-9741],[-4457,451],[3722,22535],[1276,17279],[-4035,6158],[-2942,-6211],[-1223,-8494],[-3353,-8387],[-6167,-6238],[-23637,6875],[-11273,15395],[-15534,28400],[-3386,-159],[-9542,14307],[-6685,-1779],[-4187,13537],[-141,4194],[963,6184],[3267,8653],[-3364,4831],[-4641,-3185],[-3451,53],[-7443,8122],[1039,7485]],[[442502,238115],[-1407,19456],[422,12475]],[[441517,270046],[2218,6450],[5009,-6397],[5495,-2973],[4306,6822],[43,14572],[3408,1168],[2596,4565],[17125,3583],[7216,5468],[2953,7220]],[[491886,310524],[-303,-6370]],[[491583,304154],[4392,-13988],[4782,-3557]],[[782805,737013],[-21041,14015]],[[761764,751028],[5138,4406],[10364,16934],[27262,38009],[5333,-2229],[7551,2389],[5074,8467],[7410,-2309],[3299,6662],[7086,6636],[8839,4193],[12365,-849],[6274,-2734],[-476,-10697],[855,-8095]],[[868138,811811],[-15124,-14944],[-2412,-9077],[2012,-24898],[-6037,-9980],[-2271,-23543],[-3365,-17279],[2521,-17864],[-1385,-7803]],[[842077,686423],[-2640,-6238]],[[839437,680185],[-12267,-929],[-13425,3318]],[[813745,682574],[-33655,-14360],[-6102,8574]],[[352149,150789],[-454,11016],[1850,3848],[2455,850],[12625,-10989],[16184,2389],[20316,-2946],[7086,3848]],[[412211,158805],[8352,-13749],[7864,-7909]],[[428427,137147],[7097,-2230]],[[435524,134917],[3278,-12926],[-1363,-17678],[162,-20517],[1980,-10485],[2693,-4857],[1450,-11944],[-1168,-3265],[-11403,-5441],[-714,-3451]],[[430439,44353],[-6198,-5813],[162,4433],[-1569,1247],[-638,-743],[-508,-10484],[-725,-744],[-16682,-4883],[-17254,2442],[65,5202],[3169,10166],[-173,3344],[-3159,12900],[-2488,664],[-1352,4326],[2326,4990],[-996,7193],[-1763,1168],[-151,6875],[-1342,1513],[-443,3609],[-7400,160],[-17774,-10458],[-10472,504],[-508,9662],[1514,6370],[649,8839],[5074,12475],[2315,16722],[-43,10245],[-1926,4512]],[[463489,537385],[-30442,-33258]],[[433047,504127],[-29739,-43716]],[[403308,460411],[-13761,-12077],[-8817,6503],[-6837,-3663],[-4370,16165],[6512,17332],[-1179,4273]],[[374856,488944],[5085,10936],[6155,11626]],[[386096,511506],[7605,7724],[2283,6450],[-1460,6662],[411,5680],[4998,5601],[-5907,23304],[-3527,1513],[-4673,-2946],[-1536,10351],[-3841,14307]],[[380449,590152],[4630,3291]],[[385079,593443],[-1428,4672],[-4154,5521],[-714,6184]],[[378783,609820],[-2066,4406]],[[376717,614226],[2932,11971],[7659,-2521],[7648,8918],[34445,-3291]],[[429401,629303],[6566,-9317],[11835,-24632],[-638,-8254],[-4067,-5389],[2931,-11811],[2661,-664],[639,-5972],[-1580,-5149],[1028,-3583],[8914,-3345],[4230,-6290],[1569,-7512]],[[181581,207166],[-32335,103703],[86,2283],[-2142,3158],[-7507,23915]],[[224940,385295],[1114,-33630],[8752,-31825],[-779,-8944],[-2294,-11202],[8157,-16668],[-5301,-11095]],[[234589,271931],[5593,-24181]],[[240182,247750],[-7161,-7697],[-14799,-7512],[-13447,-9953],[-8124,-9237],[-15070,-6185]],[[86761,695102],[65,4619]],[[121617,732156],[-898,2681]],[[196813,694757],[-9098,-6237]],[[187715,688520],[-7335,-9158],[2532,-17757]],[[182912,661605],[-195,-4645],[4608,-3689],[390,-3345],[-11878,7645],[-3127,-690],[-6491,-11334],[-3580,-9503],[-1623,-11360]],[[161016,624684],[-6567,-4592],[-8773,690],[184,9211],[-2932,7724],[-6913,3052],[-6664,-2628]],[[129351,638141],[-16800,-17757]],[[112551,620384],[-25790,74718]],[[671758,739561],[-18164,-14439],[-3927,22561],[13815,7831],[7562,-10140],[714,-5813]],[[347573,378898],[2110,4539],[-6015,16695],[5420,9688],[5614,27286],[-6945,9556]],[[347757,446662],[20738,44565],[6361,-2283]],[[403308,460411],[7962,-22163],[7172,1008],[9672,-24233]],[[428114,415023],[-1472,-10644],[-7800,-2787],[-4002,-5176],[-757,-3848],[1882,-5468],[-552,-7485],[-16075,-18368],[3548,-10537],[-11154,-25349],[-2434,1460],[-6512,-9104]],[[382786,317717],[-5398,-2867],[-5626,17651],[-4500,53]],[[204223,843105],[6642,5759],[2478,6371],[292,9953],[23745,21261],[-3039,10723],[6739,7220],[4977,3185],[2109,-8122],[2175,-3583],[6469,2813],[4889,8388],[6037,2362],[6880,9980],[5658,-3344]],[[596129,721910],[8167,-6423],[9109,-14041]],[[547934,639920],[-13998,-16775]],[[533936,623145],[-6112,9316],[-1656,6317],[1006,10352],[-2628,7936],[-6318,6530],[-887,8600],[-7205,16854],[-346,5601]],[[509790,694651],[9844,12740],[4025,-1433],[15772,11467],[2499,15580],[-14280,21686],[2121,7246],[18315,-3026],[6134,2309]],[[554220,761220],[2942,-4857],[9455,4008],[10732,-266],[4067,-5441],[3181,-8255],[3981,-5972],[7356,-2760]],[[644518,719787],[-5539,13377]],[[606925,742693],[16920,11520],[5279,8308],[2899,15156],[2824,7671],[14182,11917],[2878,6450],[-9326,-53],[-2672,7459],[-1860,17889],[2358,9476],[-4187,7167],[-757,8387],[9477,6530],[6242,13298],[5582,929],[3992,-5017],[2661,-7485],[13198,1088],[2640,2894],[-1125,4538]],[[678130,870815],[11012,7937],[3397,-6742],[2629,-12661],[-2066,-11546],[8449,-7008],[2996,-7617],[844,-5123]],[[705391,828055],[-487,-8573],[3062,-16457],[-1417,-7140],[-10667,-1141],[-2380,-7485],[-1558,-10405],[974,-11015],[6772,-9768],[6599,3742]],[[695795,705879],[-2726,-14519],[-2877,-19748]],[[691620,646423],[-17342,-13245],[-2628,-3636],[854,-6132],[-6588,-6291],[-3094,-5786],[1579,-14519],[-1222,-6874]],[[663179,589940],[-10883,-1673],[-3473,-3477]],[[716880,365653],[-11,-3955],[-5333,-8838],[-2943,-9237]],[[708593,343623],[-3905,-6344],[-7757,15820],[-7929,-4088],[-6924,-11944],[-3472,-3000],[-5020,-584],[-12127,3239]],[[661459,336722],[-13231,7803],[-4056,3477]],[[644172,348002],[-4241,7379]],[[639931,355381],[3938,7910]],[[643869,363291],[54,8494],[2845,2760],[2283,7060],[1428,9237],[-1028,13006],[-3808,8786],[-1396,12130],[3646,4088],[6285,1300],[1017,5840],[5150,8069],[12170,12077],[3840,8069]],[[441517,270046],[141,-27525]],[[441658,242521],[-9023,-8600],[-5463,-2335]],[[427172,231586],[-2574,4937],[-16336,-3026],[-3948,18659],[-4663,4513],[-930,16695],[-9964,15528],[-5549,3875],[-2553,12209],[2131,12741]],[[428114,415023],[13100,-26835],[-1233,-7512],[1763,-9290],[5106,-7617],[7130,-15820],[2174,-8865],[10223,8998],[3786,-6954],[-1676,-8680],[9530,1168],[3105,-4247],[7356,5787],[3668,-3769],[-1039,-10432]],[[491107,320955],[779,-10431]],[[479889,556363],[-16400,-18978]],[[429401,629303],[-2099,7379],[-443,13802],[1871,12501],[10137,14095],[768,13032],[4792,5415],[4598,1088],[6675,6423],[3050,7459]],[[458750,710497],[8254,-8202],[2640,-9422],[11922,477],[4489,-8440],[6502,53],[2239,7352],[10353,14466],[4641,-12130]],[[533936,623145],[-54047,-66782]],[[268591,562309],[17817,17624]],[[286408,579933],[-195,-13802],[3559,-15528],[-3559,-2574],[-3613,9210],[-4154,1168],[-2607,-4672],[876,-3397],[119,-16059],[2164,-6317],[5387,-7166],[6512,7936],[8958,-14652],[3472,-9528]],[[303327,504552],[347,-12422],[1384,-9184],[2964,-8759],[4706,-3185],[4998,-584],[2943,-6981],[97,-14546]],[[320766,448891],[-23248,-17863],[-8330,-8520],[-4717,4910],[-2087,-6980],[-7054,-1673],[-6837,13537],[-17503,-6450],[-942,-7511],[-2650,-4990],[-8287,-4566],[-4673,-5706]],[[234438,403079],[-4165,13244]],[[386096,511506],[-11240,-22562]],[[347757,446662],[-3105,9688],[-6058,876],[-4154,-8600],[-7627,-6370],[-6047,6635]],[[303327,504552],[7259,6715],[2694,6715],[-801,12210],[1407,6397],[5344,7113],[15870,14678],[5431,80],[4846,4592],[-909,7883],[2153,3690],[6588,-3186]],[[353209,571439],[27240,18713]],[[358791,235196],[-3645,-27],[-898,6158],[3700,425],[843,-6556]],[[352149,150789],[-2672,1885],[-2802,-6875],[-2683,-2680],[-5560,6450],[-9790,5600],[-1266,2522],[649,3132],[-5831,1884],[-3180,3822],[-14951,8016],[-3678,-3689]],[[300385,170856],[-6253,2628],[-6264,-7937],[-5452,1009],[-6339,-8255],[-8914,9741],[3277,14440],[5117,9449]],[[275557,191931],[12484,33072]],[[427172,231586],[2002,-10432],[-1255,-11360],[-3711,-11387],[-4727,743],[-2521,-5627],[3365,-16642],[-1093,-11254],[-2164,-3212],[-1904,1434],[-2953,-5044]],[[458750,710497],[-3873,20385],[-4814,823],[-3418,18818],[3040,24659],[3299,17996],[-4111,10590]],[[448873,803768],[12301,133],[5722,-4486],[-3364,-13271],[16270,-12820],[4998,-10007],[10797,-3265],[11337,5866],[-3429,6397],[3018,6131],[10645,13511],[-2131,10617],[8232,9821],[1309,8945]],[[524578,821340],[7216,-6211],[14128,-25243],[5993,-15872],[2305,-12794]],[[538955,404565],[18023,-24579]],[[556978,379986],[1136,-8281],[-1028,-5388],[-3180,-4486],[-12495,-425],[-6750,-6662],[-4685,-10617],[1785,-13510],[2402,-7777]],[[491583,304154],[-476,16801]],[[433047,504127],[17308,19748]],[[82953,620756],[-1688,1407],[1861,876],[-173,-2283]],[[55540,573005],[-20014,51573],[5453,3955]],[[86685,689794],[76,5308]],[[112551,620384],[-12365,-12077]],[[100186,608307],[-2607,4566],[-2889,-6211],[2824,-15369],[-714,-4406],[-5074,-3450],[-2358,-6238],[-3819,-5149],[-12506,-2522],[-4933,-5468],[-12570,8945]],[[745991,281619],[-2683,12475],[5874,21659],[-10147,21738],[-9942,-12899],[-6599,-4088],[-13901,23119]],[[720872,364592],[5290,3105],[17103,14147]],[[749583,449343],[1698,5043],[2651,16961]],[[753932,471347],[14063,822]],[[767995,472169],[10991,6663]],[[778986,478832],[8373,-4380]],[[787359,474452],[2727,-5733],[3202,-16218],[6361,-1327],[7280,-8202],[163,-8600],[-1883,-5069],[-6155,5361],[-6945,-1327],[-1483,-5441],[-75,-17571],[-5182,-10378],[-2499,-9503],[941,-9077]],[[752493,207166],[-9791,0],[-6685,-11068],[-19116,-17571]],[[654243,285282],[-5268,26941],[-87,8175],[2532,5415],[10039,10909]],[[895021,576376],[12354,12130]],[[907375,588506],[21841,33338],[6719,7379]],[[978525,641910],[9845,-16509],[2574,-12741],[-530,-15819],[-8654,-12794],[-217,-17943],[1980,-11944],[2867,-12422],[4803,-823],[5236,1991],[3538,-7565],[32,-18633],[-4565,8998],[-7703,3902],[-9996,-2628],[-9866,-8308],[-11478,-18102],[-5192,186],[-2142,-6052]],[[893420,510258],[-5756,10777]],[[787359,474452],[-3927,1672]],[[868257,374757],[-12257,-6396]],[[265075,660623],[4630,-3504]],[[199301,647219],[-508,956],[1525,1725],[205,5388],[-6404,849],[-6026,7830],[-2196,505],[-2985,-2867]],[[187715,688520],[14323,9820]],[[82563,497040],[-9227,24685],[876,902],[-12235,35461],[-790,-1194],[-5647,16111]],[[100186,608307],[29165,29834]],[[161016,624684],[854,-6927],[7800,-18103],[10364,-15156]],[[130834,561884],[-3462,-2920],[-5788,-10113]],[[524578,821340],[-2044,14890],[5484,10750],[20100,25348],[11738,11281],[2499,9343],[9368,7113],[9163,584],[5030,-2627],[4306,-19270],[8568,-5070],[9920,15899],[-1969,12183],[411,10538],[34510,7644],[5560,212],[3819,-4857],[6913,425],[4327,3238]],[[662281,918964],[-119,-9449],[-4176,-2177],[-1006,-4300],[1980,-8440],[3440,-8945],[6253,-10193]],[[668653,875460],[6220,-1805],[3257,-2840]],[[924781,748453],[-5214,-6450],[-2802,-4247]],[[910317,703224],[-46171,-14333],[-22069,-2468]],[[868138,811811],[5247,-1832],[18271,-345],[6459,-7856],[17720,-1593]],[[915835,800185],[2001,-7963],[10526,-12581],[6588,-23517],[11608,-3716]],[[580486,459004],[-6231,8786]],[[479889,556363],[68045,83557]],[[663179,589940],[3732,-24393],[5085,-2150],[3992,-5760],[670,-9157],[-1655,-8255]],[[675003,540225],[-19364,-23039]],[[655639,517186],[-5258,-664],[-6880,9874],[-7843,-3344],[-1461,4671],[-4597,2283]],[[629600,530006],[-18780,-10166]],[[610820,519840],[-3624,-5308],[21,-6955],[-6177,-5043],[-2585,-4432],[2250,-9104],[-931,-4300],[-4002,-3000],[-2056,-7485],[-3808,-7910],[-9422,-7299]],[[533535,77001],[-4846,2893],[-4327,-1911],[-1677,-11493],[-130,-12847],[-1017,-3822],[-4673,-7353],[-12960,-11864],[-18867,5919],[-10126,-584],[-7064,-8892],[-5982,-955],[-5658,2707],[-10980,13484],[-14789,2070]],[[435524,134917],[11067,-6078]],[[446591,128839],[8752,982],[10818,-32568],[3732,-16510],[3905,-1884],[6653,8599],[17114,133],[6654,-2787],[2791,4194],[-2099,9661],[7464,4327],[5528,-7246],[2510,-10246],[11662,-2017],[1460,-6476]],[[681364,476416],[-6621,15687],[-9444,12475],[-5928,16430]],[[659371,521008],[15632,19217]],[[813745,682574],[303,-7512],[-1493,-4671],[-455,-7034],[465,-5255],[1472,-9609],[4078,1062],[5128,-4751],[-1666,-13564],[-3960,-6184],[-17460,3450],[-5690,-2601],[-3072,-4194],[-1450,-8122],[-5030,-10033]],[[784915,603556],[-17980,-4963]],[[766935,598593],[-16216,-9635],[-11294,-11732]],[[739425,577226],[-2802,-12051]],[[736623,565175],[519,-15872],[-20781,-4672],[2477,-12236],[4424,-11812],[1364,-8440],[2325,-6105]],[[726951,506038],[303,-6052]],[[841558,559415],[-31556,-28905]],[[805685,552010],[-1633,9555],[4100,13909],[-1461,8387],[-6956,9051],[1969,8043],[-400,9210],[-2001,5256],[-3094,1460],[-4468,-11573],[-3019,-3451],[-3807,1699]],[[813745,682574],[19429,-3636],[6263,1247]],[[842077,686423],[16238,1645]],[[922498,612236],[-15123,-23730]],[[376717,614226],[-6274,16138]],[[370443,630364],[-3441,13803]],[[240182,247750],[-1103,6822]],[[239079,254572],[13577,6343],[2704,4539],[-1850,5707],[3949,8918],[5647,3132],[-574,8335],[8168,7034],[6101,1061],[3819,-4830],[1634,-7087],[6220,-1195]],[[304095,257067],[-22263,-46822],[-6275,-18314]],[[300385,170856],[-1861,-7512],[-32,-11572],[-909,-4088],[-19646,-319],[-541,-20968],[4165,-6795],[411,-5388],[55,-13166],[-1439,-9980],[368,-5096],[-4230,-80],[-5734,-10112],[-13598,-2416],[-1331,-4804],[-4186,-770],[-1028,-4831],[227,-14810],[-10883,-80],[-746,4751],[-1677,-26],[-530,-7751],[1514,-16775],[-13284,41566],[-714,-3689],[-16682,56934],[-26493,84087]],[[570836,401061],[8893,25057]],[[579729,426118],[12905,2442],[1407,-11892],[-4230,-11068],[8784,-5600],[3105,-9264],[995,-8600],[5031,-1300],[4630,10696],[5809,-6768],[1352,-5946],[-4327,-14333],[487,-9502],[3646,-5839],[-3527,-11042],[1698,-5096],[7530,2335],[2769,4035],[4338,-3079]],[[632131,336297],[7800,19084]],[[644172,348002],[17287,-11280]],[[587301,286290],[-5117,1009]],[[556978,379986],[-10645,15024]],[[579729,426118],[3840,11440]],[[585797,450590],[-5311,8414]],[[610820,519840],[12722,7193],[6058,2973]],[[655639,517186],[3732,3822]],[[643869,363291],[-11738,-26994]],[[327809,362734],[-7000,-10671],[-16335,-27737]],[[239079,254572],[-4490,17359]],[[235606,397558],[-1168,5521]],[[206084,580623],[-2715,-8042]],[[678130,870815],[-9477,4645]],[[662281,918964],[26548,19854],[5506,-5760],[9455,-53],[2661,-2309],[1839,-5787],[7140,8521],[6026,11121],[-54,8865],[8146,10060],[31167,21712],[19147,5362],[563,6317],[6004,3132],[5290,-5707],[9487,-27976],[12149,-25162],[3841,1061],[-4587,-3025]],[[812609,939190],[-20198,-26756],[-4879,-12103],[293,-11732],[-3354,-17279],[-16292,-10909],[-17157,-8547],[-3711,-9343],[-3538,-4858],[-8795,-1194],[-5474,3849],[-6696,743],[-17417,-13006]],[[761764,751028],[-3905,1911]],[[812609,939190],[14463,5733],[9196,-7724],[5495,-8600],[11846,-4725],[5171,-17067],[9899,-5813],[1352,-7909],[9725,-3690],[11446,-10803],[5495,-11572],[2077,-13112],[660,-12768],[9217,-6582],[7184,-34373]],[[370443,630364],[8340,-20544]],[[385079,593443],[-31870,-22004]],[[286408,579933],[11900,12634]],[[563967,94413],[-3906,-9423],[-9639,-14041],[-5885,531],[-11002,5521]],[[446591,128839],[-18164,8308]],[[441658,242521],[844,-4406]],[[776109,476867],[-8114,-4698]],[[767995,472169],[-23291,-2760]],[[729018,487989],[-2067,18049]],[[736623,565175],[1027,6264],[1775,5787]],[[739425,577226],[5333,6742],[22177,14625]]],"bbox":[77.8717,50.6506,87.1155,54.4181],"transform":{"scale":[0.000009243809243809236,0.0000037675037675037726],"translate":[77.8717,50.6506]}}