{"type":"Topology","objects":{"muni":{"type":"GeometryCollection","geometries":[{"type":"MultiPolygon","arcs":[[[0,1]]],"properties":{"GID_2":"RUS.3.1_1","GID_0":"RUS","COUNTRY":"Russia","GID_1":"RUS.3_1","NAME_1":"Amur","NL_NAME_1":"Амурскаяобласть","NAME_2":"Arkharinskiyrayon","VARNAME_2":"NA","NL_NAME_2":"Архаринскийрайон","TYPE_2":"Raion","ENGTYPE_2":"District","CC_2":"R68000","HASC_2":"RU.AM.AR"}},{"type":"MultiPolygon","arcs":[[[2]]],"properties":{"GID_2":"RUS.3.2_1","GID_0":"RUS","COUNTRY":"Russia","GID_1":"RUS.3_1","NAME_1":"Amur","NL_NAME_1":"Амурскаяобласть","NAME_2":"Belogorsk","VARNAME_2":"NA","NL_NAME_2":"Белогорск","TYPE_2":"Gorsovet","ENGTYPE_2":"District","CC_2":"NA","HASC_2":"RU.AM.BG"}},{"type":"MultiPolygon","arcs":[[[3,4,5,6,7,8],[-3]]],"properties":{"GID_2":"RUS.3.3_1","GID_0":"RUS","COUNTRY":"Russia","GID_1":"RUS.3_1","NAME_1":"Amur","NL_NAME_1":"Амурскаяобласть","NAME_2":"Belogorskiyrayon","VARNAME_2":"NA","NL_NAME_2":"Белогорскийрайон","TYPE_2":"Raion","ENGTYPE_2":"District","CC_2":"R68000","HASC_2":"RU.AM.BR"}},{"type":"MultiPolygon","arcs":[[[9]]],"properties":{"GID_2":"RUS.3.4_1","GID_0":"RUS","COUNTRY":"Russia","GID_1":"RUS.3_1","NAME_1":"Amur","NL_NAME_1":"Амурскаяобласть","NAME_2":"Blagoveshchensk","VARNAME_2":"NA","NL_NAME_2":"Благовещенск","TYPE_2":"Gorsovet","ENGTYPE_2":"District","CC_2":"NA","HASC_2":"RU.AM.BV"}},{"type":"MultiPolygon","arcs":[[[10,11,12,-6,13,14,15,16,17],[-10]]],"properties":{"GID_2":"RUS.3.5_1","GID_0":"RUS","COUNTRY":"Russia","GID_1":"RUS.3_1","NAME_1":"Amur","NL_NAME_1":"Амурскаяобласть","NAME_2":"Blagoveshchenskiyrayon","VARNAME_2":"NA","NL_NAME_2":"Благовещенскийрайон","TYPE_2":"Raion","ENGTYPE_2":"District","CC_2":"R68000","HASC_2":"RU.AM.BL"}},{"type":"MultiPolygon","arcs":[[[18,19,20,21,22,23,24,-1],[25]]],"properties":{"GID_2":"RUS.3.6_1","GID_0":"RUS","COUNTRY":"Russia","GID_1":"RUS.3_1","NAME_1":"Amur","NL_NAME_1":"Амурскаяобласть","NAME_2":"Bureyskiyrayon","VARNAME_2":"NA","NL_NAME_2":"Бурейскийрайон","TYPE_2":"Raion","ENGTYPE_2":"District","CC_2":"R68000","HASC_2":"RU.AM.BU"}},{"type":"MultiPolygon","arcs":[[[-4,26,27,28,-15,29]]],"properties":{"GID_2":"RUS.3.7_1","GID_0":"RUS","COUNTRY":"Russia","GID_1":"RUS.3_1","NAME_1":"Amur","NL_NAME_1":"Амурскаяобласть","NAME_2":"Ivanovskiyrayon","VARNAME_2":"NA","NL_NAME_2":"Ивановскийрайон","TYPE_2":"Raion","ENGTYPE_2":"District","CC_2":"R68000","HASC_2":"RU.AM.IV"}},{"type":"MultiPolygon","arcs":[[[30,31,32]]],"properties":{"GID_2":"RUS.3.8_1","GID_0":"RUS","COUNTRY":"Russia","GID_1":"RUS.3_1","NAME_1":"Amur","NL_NAME_1":"Амурскаяобласть","NAME_2":"Konstantinovskiyrayon","VARNAME_2":"NA","NL_NAME_2":"Константиновскийрайон","TYPE_2":"Raion","ENGTYPE_2":"District","CC_2":"R68000","HASC_2":"RU.AM.KO"}},{"type":"MultiPolygon","arcs":[[[33,34,35,36,37,38,39,40]]],"properties":{"GID_2":"RUS.3.9_1","GID_0":"RUS","COUNTRY":"Russia","GID_1":"RUS.3_1","NAME_1":"Amur","NL_NAME_1":"Амурскаяобласть","NAME_2":"Magdagachinskiyrayon","VARNAME_2":"NA","NL_NAME_2":"Магдагачинскийрайон","TYPE_2":"Raion","ENGTYPE_2":"District","CC_2":"R68000","HASC_2":"RU.AM.MG"}},{"type":"MultiPolygon","arcs":[[[41,42,43,44,45,46,47,48,49,50]]],"properties":{"GID_2":"RUS.3.10_1","GID_0":"RUS","COUNTRY":"Russia","GID_1":"RUS.3_1","NAME_1":"Amur","NL_NAME_1":"Амурскаяобласть","NAME_2":"Mazanovskiyrayon","VARNAME_2":"NA","NL_NAME_2":"Мазановскийрайон","TYPE_2":"Raion","ENGTYPE_2":"District","CC_2":"R68001","HASC_2":"RU.AM.MZ"}},{"type":"MultiPolygon","arcs":[[[-32,51,52,53,-20,54]]],"properties":{"GID_2":"RUS.3.11_1","GID_0":"RUS","COUNTRY":"Russia","GID_1":"RUS.3_1","NAME_1":"Amur","NL_NAME_1":"Амурскаяобласть","NAME_2":"Mikhaylovskiyrayon","VARNAME_2":"NA","NL_NAME_2":"Михайловскийрайон","TYPE_2":"Raion","ENGTYPE_2":"District","CC_2":"R68001","HASC_2":"RU.AM.MI"}},{"type":"MultiPolygon","arcs":[[[-28,55,56,-53,57,58]]],"properties":{"GID_2":"RUS.3.12_1","GID_0":"RUS","COUNTRY":"Russia","GID_1":"RUS.3_1","NAME_1":"Amur","NL_NAME_1":"Амурскаяобласть","NAME_2":"Oktyabr'skiy","VARNAME_2":"NA","NL_NAME_2":"Октябрьскийрайон","TYPE_2":"Raion","ENGTYPE_2":"District","CC_2":"R68001","HASC_2":"RU.AM.OK"}},{"type":"MultiPolygon","arcs":[[[-26]]],"properties":{"GID_2":"RUS.3.13_1","GID_0":"RUS","COUNTRY":"Russia","GID_1":"RUS.3_1","NAME_1":"Amur","NL_NAME_1":"Амурскаяобласть","NAME_2":"Raychikhinskgorsovet","VARNAME_2":"NA","NL_NAME_2":"Райчихинск(горсовет)","TYPE_2":"Gorsovet","ENGTYPE_2":"District","CC_2":"R68002","HASC_2":"RU.AM.RA"}},{"type":"MultiPolygon","arcs":[[[-9,59,-45,60,-24,61,62,-56,-27]]],"properties":{"GID_2":"RUS.3.14_1","GID_0":"RUS","COUNTRY":"Russia","GID_1":"RUS.3_1","NAME_1":"Amur","NL_NAME_1":"Амурскаяобласть","NAME_2":"Romnenskiyrayon","VARNAME_2":"NA","NL_NAME_2":"Ромненскийрайон","TYPE_2":"Raion","ENGTYPE_2":"District","CC_2":"R68001","HASC_2":"RU.AM.RO"}},{"type":"MultiPolygon","arcs":[[[-43,63,64]]],"properties":{"GID_2":"RUS.3.15_1","GID_0":"RUS","COUNTRY":"Russia","GID_1":"RUS.3_1","NAME_1":"Amur","NL_NAME_1":"Амурскаяобласть","NAME_2":"Selemdzhinskiyrayon","VARNAME_2":"NA","NL_NAME_2":"Селемджинскийрайон","TYPE_2":"Raion","ENGTYPE_2":"District","CC_2":"R68001","HASC_2":"RU.AM.SL"}},{"type":"MultiPolygon","arcs":[[[-8,65,66,67,-47,68]]],"properties":{"GID_2":"RUS.3.16_1","GID_0":"RUS","COUNTRY":"Russia","GID_1":"RUS.3_1","NAME_1":"Amur","NL_NAME_1":"Амурскаяобласть","NAME_2":"Seryshevskiyrayon","VARNAME_2":"NA","NL_NAME_2":"Серышевскийрайон","TYPE_2":"Raion","ENGTYPE_2":"District","CC_2":"R68001","HASC_2":"RU.AM.SE"}},{"type":"MultiPolygon","arcs":[[[69,70]]],"properties":{"GID_2":"RUS.3.17_1","GID_0":"RUS","COUNTRY":"Russia","GID_1":"RUS.3_1","NAME_1":"Amur","NL_NAME_1":"Амурскаяобласть","NAME_2":"Shimanovsk","VARNAME_2":"NA","NL_NAME_2":"Шимановск","TYPE_2":"Gorod","ENGTYPE_2":"City","CC_2":"NA","HASC_2":"RU.AM.SG"}},{"type":"MultiPolygon","arcs":[[[71]],[[-41,72,-39,73,74,75,76,77,-51,78,79,80],[-70,81]]],"properties":{"GID_2":"RUS.3.18_1","GID_0":"RUS","COUNTRY":"Russia","GID_1":"RUS.3_1","NAME_1":"Amur","NL_NAME_1":"Амурскаяобласть","NAME_2":"Shimanovskiyrayon","VARNAME_2":"NA","NL_NAME_2":"Шимановскийрайон","TYPE_2":"Raion","ENGTYPE_2":"District","CC_2":"R68002","HASC_2":"RU.AM.SR"}},{"type":"MultiPolygon","arcs":[[[82,83,-35,84]]],"properties":{"GID_2":"RUS.3.19_1","GID_0":"RUS","COUNTRY":"Russia","GID_1":"RUS.3_1","NAME_1":"Amur","NL_NAME_1":"Амурскаяобласть","NAME_2":"Skovorodinskiyrayon","VARNAME_2":"NA","NL_NAME_2":"Сковородинскийрайон","TYPE_2":"Raion","ENGTYPE_2":"District","CC_2":"R68001","HASC_2":"RU.AM.SK"}},{"type":"MultiPolygon","arcs":[[[85,-80,86,-49,87,-67,-12,88],[89]]],"properties":{"GID_2":"RUS.3.20_1","GID_0":"RUS","COUNTRY":"Russia","GID_1":"RUS.3_1","NAME_1":"Amur","NL_NAME_1":"Амурскаяобласть","NAME_2":"Svobodnenskiyrayon","VARNAME_2":"NA","NL_NAME_2":"Свободненскийрайон","TYPE_2":"Raion","ENGTYPE_2":"District","CC_2":"R68001","HASC_2":"RU.AM.SB"}},{"type":"MultiPolygon","arcs":[[[-90]]],"properties":{"GID_2":"RUS.3.21_1","GID_0":"RUS","COUNTRY":"Russia","GID_1":"RUS.3_1","NAME_1":"Amur","NL_NAME_1":"Амурскаяобласть","NAME_2":"Svobodnyy","VARNAME_2":"NA","NL_NAME_2":"Свободный","TYPE_2":"Gorsovet","ENGTYPE_2":"District","CC_2":"NA","HASC_2":"RU.AM.SV"}},{"type":"MultiPolygon","arcs":[[[90,-18,91,-16,-29,-59,92,-31]]],"properties":{"GID_2":"RUS.3.22_1","GID_0":"RUS","COUNTRY":"Russia","GID_1":"RUS.3_1","NAME_1":"Amur","NL_NAME_1":"Амурскаяобласть","NAME_2":"Tambovskiyrayon","VARNAME_2":"NA","NL_NAME_2":"Тамбовскийрайон","TYPE_2":"Raion","ENGTYPE_2":"District","CC_2":"R68001","HASC_2":"RU.AM.TA"}},{"type":"MultiPolygon","arcs":[[[93]]],"properties":{"GID_2":"RUS.3.23_1","GID_0":"RUS","COUNTRY":"Russia","GID_1":"RUS.3_1","NAME_1":"Amur","NL_NAME_1":"Амурскаяобласть","NAME_2":"Tynda","VARNAME_2":"NA","NL_NAME_2":"Тында","TYPE_2":"Gorsovet","ENGTYPE_2":"District","CC_2":"NA","HASC_2":"RU.AM.TG"}},{"type":"MultiPolygon","arcs":[[[-36,94,-83,95,96,97],[-94]]],"properties":{"GID_2":"RUS.3.24_1","GID_0":"RUS","COUNTRY":"Russia","GID_1":"RUS.3_1","NAME_1":"Amur","NL_NAME_1":"Амурскаяобласть","NAME_2":"Tyndinskiyrayon","VARNAME_2":"NA","NL_NAME_2":"Тындинскийрайон","TYPE_2":"Raion","ENGTYPE_2":"District","CC_2":"R68001","HASC_2":"RU.AM.TR"}},{"type":"MultiPolygon","arcs":[[[-21,-54,-57,-63,98,-22]]],"properties":{"GID_2":"RUS.3.25_1","GID_0":"RUS","COUNTRY":"Russia","GID_1":"RUS.3_1","NAME_1":"Amur","NL_NAME_1":"Амурскаяобласть","NAME_2":"Zavitinskiyrayon","VARNAME_2":"NA","NL_NAME_2":"Завитинскийрайон","TYPE_2":"Raion","ENGTYPE_2":"District","CC_2":"R68000","HASC_2":"RU.AM.ZA"}},{"type":"MultiPolygon","arcs":[[[99]]],"properties":{"GID_2":"RUS.3.26_1","GID_0":"RUS","COUNTRY":"Russia","GID_1":"RUS.3_1","NAME_1":"Amur","NL_NAME_1":"Амурскаяобласть","NAME_2":"Zeya","VARNAME_2":"NA","NL_NAME_2":"Зея","TYPE_2":"Gorod","ENGTYPE_2":"City","CC_2":"NA","HASC_2":"RU.AM.ZG"}},{"type":"MultiPolygon","arcs":[[[-38,100,-97,101,-64,-42,-78,102,-76,103,-74],[-100]]],"properties":{"GID_2":"RUS.3.27_1","GID_0":"RUS","COUNTRY":"Russia","GID_1":"RUS.3_1","NAME_1":"Amur","NL_NAME_1":"Амурскаяобласть","NAME_2":"Zeyskiyrayon","VARNAME_2":"NA","NL_NAME_2":"Зейскийрайон","TYPE_2":"Raion","ENGTYPE_2":"District","CC_2":"R68000","HASC_2":"RU.AM.ZR"}}]}},"arcs":[[[645921,69787],[2946,8180],[8928,12787],[6755,658],[4601,2609],[9792,14835],[3502,3108],[11867,-3498],[4523,4217],[2939,7570],[2769,3036],[3809,609],[3842,5949],[4458,9630],[916,4827],[-3332,2901],[-353,4230],[1924,4986],[-1001,10203],[1787,1780],[5262,-3024],[3980,1134],[2147,-2828],[3161,2206],[1761,8021],[5092,-2450],[3116,-4742],[5014,-1816],[4169,-2682],[2979,2914],[4313,2365],[5603,-12836],[5413,7216],[3450,293],[5328,-1573]],[[777381,160602],[-2677,-6132],[-3286,-4193],[406,-2938],[4287,-1194],[1139,-4852],[-1048,-5510],[3836,-6594],[-118,-2987],[-2350,-7326],[1853,-3438],[-779,-4571],[-5498,-5059],[-2121,-4376],[5105,-8460],[1768,-5851],[-733,-10373],[857,-11215],[-2232,-11056],[-1676,-4023],[-4051,-1621],[-6945,-354],[-3940,1268],[-4798,-3255],[-3365,-4486],[-1178,-5912],[-4791,-6814],[-1002,-3450],[59,-4071],[-2107,-4498],[-5754,268],[-5426,-2279],[-11684,-8570],[-1525,-2023],[-1270,-3536],[-3357,-1121],[-1800,1353],[-2965,4462],[-1244,182],[-10911,-4876],[-2285,634],[-5302,7217],[-3920,3986],[-1938,634],[-2193,2096],[-2526,4596],[-3005,1121],[-805,1134],[-1008,2011],[904,2438],[-498,2816],[-3547,1146],[-1074,1621],[635,3633],[-458,2206],[-4261,1061],[-2337,2596],[-406,1146],[399,5120],[-1924,3498],[-3050,1512],[-5898,-1743],[-1780,1865],[-1931,14713],[-1931,1609]],[[580067,246712],[-1355,-342],[-1603,939],[-20,1450],[615,1597],[2160,-560],[851,-1414],[-648,-1670]],[[584819,208301],[-3731,1195],[-9216,7899],[-1518,2852],[-9904,3157],[-2683,-2462],[-5531,1926],[-3607,3803],[-1957,4632],[5917,5852],[-2880,1133],[-6375,37],[-2789,2657],[-5720,-914]],[[534825,240068],[896,6522]],[[535721,246590],[1833,7716]],[[537554,254306],[3378,9837]],[[540932,264143],[3141,-2950],[2815,-1329],[2559,500],[315,-4144],[5472,-3560],[10171,-3376],[23014,3949],[3836,-3011],[6041,-1767],[8130,-720],[8705,1366],[7488,2621],[5708,3937]],[[628327,255659],[-2356,-12312],[5773,-3279],[-1100,-6192],[-4385,207],[-1054,-2463],[1708,-4083],[-4019,-4486],[-2101,-1402],[-2932,134],[39,4718],[-2769,536],[-1394,-4705],[-3076,-3913],[-8549,-463],[-2101,-5413],[-2611,-3072],[-4065,1707],[-6592,-3486],[-1924,609]],[[521825,173499],[-2421,-939],[-3155,3438],[720,2206],[2565,1548],[1670,-487],[1250,-3608],[-629,-2158]],[[515444,136368],[-806,3499],[629,5754],[1034,3279],[2481,3815],[1171,4169],[1368,2133],[668,7278],[-1741,3169],[-5387,1536],[-5963,3072],[-2860,2755],[-1381,3011],[-269,3242],[1957,5096],[-91,3522],[-1447,2378],[-2448,1206],[-694,2792],[2010,5766],[2121,2584],[569,4547],[-1525,4364],[-2271,3510],[-1408,4767],[40,3474],[923,3852],[-4046,3632],[-1603,3450]],[[496475,238020],[6087,24063],[5819,1646],[2304,-2487],[3862,-146],[11808,4839],[5308,3791],[3581,707],[7010,-3121]],[[542254,267312],[-4700,-13006]],[[535721,246590],[-1138,-10008]],[[534583,236582],[-2782,-10484],[-269,-8764],[-4601,-14348],[-916,-6375],[805,-7741],[1832,-4083],[6048,-2158],[4851,488],[3429,2060],[-203,-8436]],[[542777,176741],[550,-3169],[-3371,792],[-3665,-1097],[1918,-10739]],[[538209,162528],[-1610,-6619],[-1251,-3913]],[[535348,151996],[-1427,-2024],[-5976,-256],[-1354,-1706],[-1296,-10496],[-2416,-2230],[-7435,1084]],[[645921,69787],[-4523,1524]],[[641398,71311],[-2605,9532],[-4254,-280],[-6134,7899],[3155,7436],[-6251,3474],[-1119,3645],[-4955,2621],[-3416,-8143],[-6657,11397],[9628,13568],[2357,4742],[1682,5497]],[[622829,132699],[2199,-975],[445,-4364],[-596,-4632],[4504,-1768],[5001,244],[6080,-2657]],[[640462,118547],[5505,11592],[3757,927],[1931,7777],[2651,3121],[3508,97],[1211,4059],[485,5913],[2546,4888],[4994,2535],[2756,6705],[6558,4571],[2880,11007],[7429,3816],[4765,-4766],[3116,9666]],[[694554,190455],[5001,-5510]],[[699555,184945],[-1466,12263],[1584,8716],[11461,3377],[3364,-4718],[3941,3255],[5406,-268],[5119,7960]],[[728964,215530],[7743,6570],[4333,85],[3037,-4205],[2429,-5937],[222,-6741],[-6401,-8898],[-655,-5620],[4235,-3547],[4752,3486],[5937,-1255],[1047,-3682],[3397,-634],[4111,2621],[1708,-7874],[7,-3682],[7154,-2742],[884,-5791],[3161,-2121],[1316,-4961]],[[640462,118547],[-3953,-6510],[6107,-9349],[7043,-1902],[1839,-2365],[4091,610],[3515,2499],[3299,5302],[-3208,2170],[-1760,3304],[-5557,3242],[-3024,7887],[-3797,-4547],[-4595,-341]],[[584819,208301],[2802,-6156],[3920,-4998]],[[591541,197147],[-2055,-5668],[3914,-2584],[-955,-2268],[-4955,-1206],[-3790,-8850]],[[583700,176571],[-4464,585],[-3279,-10203],[1538,-4559],[-4765,-2999],[-4975,4937],[-8804,2609],[-10636,5229],[-5538,4571]],[[534583,236582],[242,3486]],[[526335,111001],[570,1682],[4418,1415],[5596,3437],[4883,5120],[3234,9484],[3495,7911],[1951,-793],[1597,-6009],[4189,-1853],[1492,-4888],[3325,2694],[2088,4181],[5551,-4279],[4425,2816],[4503,1207]],[[577652,133126],[242,-5193],[-2369,-1499],[-635,-3279],[3017,-902],[-1499,-8229],[59,-6302],[-2670,110],[-989,-2121],[255,-7363],[7240,-8533]],[[580303,89815],[-7842,-621],[-1446,-1890],[131,-2218],[-6448,-6217],[-1806,3047],[-3443,-231],[-3685,2840],[-3155,-463],[-7469,8776],[-3076,-4461],[-2900,1719],[-2958,-683],[-3842,6412],[-3973,2999],[-1598,3998],[-458,8179]],[[443227,419577],[-3639,585],[-707,853],[1178,2231],[472,4754],[-648,3937],[-1080,2182],[-4497,6705],[-4543,-378],[-275,1938],[1342,4461],[-753,2061],[-8123,7923],[-2415,-2133],[-1780,-208],[-2069,3280],[-674,3705],[432,2255],[2232,1719],[2965,-317],[661,963],[354,1719],[-1303,3511],[-203,2401],[3411,1085],[1204,1963],[-4163,3974],[-3116,-3596],[-2218,-744],[-7017,10605],[-746,1512],[-236,3267],[-851,999],[-3796,-36],[-6696,-4645],[-1067,1731],[72,4596],[1990,2231],[2290,865],[1067,5522],[-4549,3425],[-3698,7546],[-2160,1377],[-4667,-4181],[-884,1475],[-837,3877],[-1270,1316],[-3378,2365],[-5570,2194],[-8195,6205],[-3037,683],[-11284,-256],[-4235,-2329],[-2200,-2316],[1153,-4681],[-380,-2279],[-524,-317],[-1538,426],[-2029,4157],[-3790,207],[-3456,1853],[4490,12507]],[[338244,536307],[-235,12483],[1688,11312],[2632,3169],[2847,86],[2815,-4669],[3874,-4047],[8987,3145],[3777,-2487],[2998,-817],[1865,3487],[-752,12153],[851,9191],[2559,10715],[9995,3547],[1263,2670],[-942,4730],[1525,3401],[4732,2840],[-2311,4254],[-9831,1877],[-4974,2999]],[[371607,616346],[10616,183],[4111,1438],[4896,4462],[4418,97],[6297,3109],[7226,8947],[1578,6193]],[[410749,640775],[4477,-9240]],[[415226,631535],[2500,-8558],[3319,-7740],[8928,-13385],[6931,-6741],[7999,-3279],[3390,-2633],[989,-3827],[-5963,1279],[-4268,-341],[-4267,-3242],[5897,-3877],[9164,-11190],[2480,-5351],[-7743,-5108],[-2075,-4218],[1061,-4449],[4058,-2597],[929,-4766],[5027,1536],[5917,-2986],[1035,-7229],[98,-5827],[4084,-1548],[3037,-2633],[-969,-3511],[-5773,-6204],[6709,-6034],[4785,24],[3050,3023],[3018,1463],[8548,-2243],[-2801,-5181],[6886,-7509],[3443,5717],[3992,-841],[2854,451],[-52,-3852],[4169,-2608],[7901,-3097],[-432,-6814],[4149,-1523],[2527,2389],[4333,-2719],[3050,2609],[2782,-634],[1610,-3340]],[[531532,482391],[-1001,-7131],[-4032,2475],[1289,-8265],[6048,-5156],[79,-8265],[-2592,-8399],[-1329,1268],[-8777,-25],[-4909,-2901],[-2691,3377],[-2009,621],[-9190,-829],[-8660,3584]],[[493758,452745],[-13091,-6582]],[[480667,446163],[-9327,-7083],[-6716,-7606],[-5452,-3901],[-4824,-3108],[-11121,-4888]],[[588504,467142],[2736,3108],[-275,3060],[-1204,2438],[-151,2645],[2907,7033],[3933,1159],[3136,3522],[5000,17091],[1833,12738],[4294,122],[3325,1475],[3535,-4266],[4608,60],[1486,4255],[-6264,10946],[91,6705],[2363,3315],[825,5827],[10970,-2231],[10708,2060],[13556,-1060],[7050,-9508],[6669,-5388],[7364,-4657],[3443,0]],[[680442,527591],[1695,-5351],[6474,-10386],[2657,-6753],[288,-13116],[-6316,-10142],[190,-6522],[-6912,-7216],[203,-7119],[2657,-5876],[1571,-7119],[-229,-8118],[-1564,-3328],[-4046,-866],[-484,-4047],[-4870,-6058],[3214,-4693],[6729,-963],[3004,-6802],[4497,-2109],[6140,-6205],[78,-3973],[8673,-6034],[6009,-5327],[4555,2633],[4615,9971],[6814,1231],[8358,-24],[1401,-3621],[-2258,-4778],[7003,-12739],[-1289,-3206],[-8044,-7886],[10721,-15457],[2573,-7265],[864,-5303],[2605,-4206],[5144,-621],[6677,2328],[2605,-146],[1905,-4815],[4130,-49],[7972,8326]],[[776451,343841],[-2304,-2853],[1722,-3474],[-2638,-6863],[1355,-5851],[4352,-10922],[-255,-4291],[-1623,-3864],[-5053,-378],[-3489,805],[-3227,-4767],[-3266,-8204]],[[762025,293179],[-3227,3340],[-5053,7851],[-8411,1780],[-360,-5206],[-1492,-4315],[-2691,-2877],[-2539,1829],[-2992,4425],[-7782,-354],[-12018,2914],[-9576,634],[-10348,-2877],[-3751,1743],[-10053,963],[-7377,-8850],[-3338,-6461],[-5158,-2864],[-3515,-4035],[-4019,-1439],[-6173,-5741]],[[652152,273639],[-5138,-2901]],[[647014,270738],[-4968,8569],[-8280,11325],[-3842,-1317],[-1047,4571],[-3260,1280],[-17692,744],[229,4376],[-3162,2402],[845,6351],[-1460,3559],[-7207,2487],[-1904,-5181],[-2193,-3803],[-4137,5327],[-746,-1914],[2572,-4986],[-183,-6924],[-7357,6290],[-11540,-2572],[-4176,4718]],[[567506,306040],[6762,5071]],[[574268,311111],[1577,3535],[-792,4157],[2311,7143],[3763,707],[2278,3169],[3685,-4827],[3731,-878],[1277,2731],[4850,3023],[3718,341],[1387,1939],[-779,4169],[-5832,7435],[-6545,5986],[347,8667],[-6526,4486],[301,10263],[-2703,3584]],[[580316,376741],[2376,9923]],[[582692,386664],[910,8630],[4156,9265],[-4019,11543],[1126,2329],[425,5132],[-1551,4437],[556,3352],[5518,-646],[2933,2255],[1263,4571],[-1479,3328],[-3738,3864],[-2474,5656],[-995,6827],[3181,9935]],[[577652,133126],[2860,6899]],[[580512,140025],[8058,-3498],[1171,-3035],[-877,-7375],[7704,7167],[2029,7717],[373,4754],[1368,1670],[5054,-1414],[2153,2450],[2520,5278],[2173,-1792],[197,-6887]],[[612435,145060],[2808,-2743],[85,-4888],[5419,1731],[2304,-2475],[-222,-3986]],[[641398,71311],[-3024,-1438],[-491,-1610],[7,-5546],[-661,-1426],[-2618,-146],[-4157,4827],[-3233,621],[-2645,-2072],[-2219,-3632],[-3043,85],[-2409,2365],[-1204,5278],[-2265,4266],[-5001,1524],[-2507,2133],[-3547,305],[-3489,-1511],[-1512,902],[-746,2718],[1243,3035],[2147,2402],[452,2206],[-1388,2779],[-3089,659],[-1342,-3353],[-11317,4645],[-3037,-1512]],[[591541,197147],[9308,1268],[871,-14859],[9635,573],[-4065,10446],[2998,4060],[3449,-659],[2409,3048],[-3502,8691],[5223,4681],[3266,-6144],[8837,-353],[1656,-2121],[2775,3925],[2075,-1256],[426,-3388],[2991,48],[3129,-1609]],[[643022,203498],[2781,-5436],[5721,-6461],[1218,-6266],[-4831,-1804],[-3273,-2304],[-4536,-9739],[-4693,-5644],[-17614,-12471],[-1564,-5071],[-3796,-3242]],[[580512,140025],[1767,4364]],[[582279,144389],[-3953,7790],[1211,4778],[5799,14275],[-2107,3791],[471,1548]],[[628327,255659],[12207,10361],[11618,7619]],[[762025,293179],[-3410,-3071],[-6624,-586],[-8667,-26464],[-3377,-2974],[-5328,-1963],[-2893,-2633],[1217,-3645],[2403,-4083],[281,-3596],[-2369,-2682],[-2304,-4803],[-2861,-10739],[-2467,-2146],[504,-5546],[2834,-2718]],[[699555,184945],[-7292,8033],[-1682,3024]],[[690581,196002],[-3266,2462],[-3266,6485],[-2907,-183],[-1819,1889],[-2075,4096],[-4445,73],[-3992,3219],[-4837,1133],[-4785,-9374],[-3175,561],[-2657,5851],[-10335,-8716]],[[680442,527591],[2710,1768],[7730,14152],[5125,13580],[327,5778],[2560,-2621],[2238,-207],[1918,2194],[79,4047],[2912,4998],[2403,-1170],[3704,109],[2291,-1731],[354,-4047],[3724,963],[3797,-3303],[2945,378],[831,2913],[400,5254],[2775,1085],[8496,-1280],[1977,2779],[890,4998],[-269,16981],[2645,9532]],[[743004,604741],[5315,1341],[10296,-5668],[4300,2133],[3633,-256],[3449,-2048],[2835,-3194],[-675,-5522],[5276,-19979],[-2121,-5693],[5597,-12043],[1459,-4705],[-1040,-5547],[-7639,-10946],[4451,-1768],[13582,6314],[9386,-1109],[1414,-3571],[-3757,-4121],[3070,-6533],[6048,-2109],[6342,3498],[1309,6534],[11285,2755],[4437,1950],[3378,25],[3253,-2914],[18570,2012],[6251,-2463],[5602,2085],[3463,7436],[5407,2194],[3436,-2975],[4719,4011],[-1983,6034],[936,5047],[12057,8703],[4621,1122],[3849,-963],[3731,7033],[6355,-1621],[2147,-4267],[2913,-3608],[4477,-219],[4490,1816],[3312,-2328],[2232,-3316],[5682,658],[5662,3889],[4208,1572],[7789,6010],[5040,-1146],[4962,963],[2500,5498],[2998,2084],[3842,-1292],[1957,-4998],[4379,-1121],[2743,-2280],[1289,-4059],[5361,-2548],[7115,-6936],[-1728,-3925],[-9314,354],[-1558,-3243],[1656,-2621],[4294,-2389],[3358,-8508],[-3430,-8204],[-354,-3645],[1977,-4888],[-2186,-4620],[-3960,-2706],[-2743,-3877],[-6591,-14213],[759,-4218],[-91,-5827],[2565,-3717],[-307,-3389],[-1499,-4925],[4038,-2243],[1454,-6192],[-2082,-3767],[-4320,-4474],[-1931,-3474],[2874,-4937],[39,-5132],[-1800,-3669],[-4615,-1085],[-4581,3231],[-11409,499],[-3037,2719],[-10303,-147],[-5217,4864],[-7795,866],[-3280,3608],[-6532,2596],[-4451,512],[-7416,4267],[-5119,4205],[-7501,3645],[-4228,-49],[-4418,-6887],[1453,-8484],[3757,-5230],[-4346,-5400],[1296,-6473],[6552,-5839],[3377,-7399],[-1145,-6729],[-5865,-6558],[-6506,-3389],[-11409,878],[-5263,-1292],[-2722,292],[-2592,1707],[-6703,-4193],[-12711,-12068],[-2893,-3755],[-2403,-5912],[-4110,-1889],[-576,-6632],[-1224,-5497],[-4202,-5559],[-5381,-2877],[-2317,646],[-6251,-4461],[-7115,12],[-3940,-3620],[-4471,1170],[-4981,-4376],[-6087,-2353],[-5538,-1207],[-8450,2341]],[[540932,264143],[1322,3169]],[[542254,267312],[7979,1926],[1571,4255],[-1944,9679],[1080,6082],[2919,-1633],[2572,-4462],[2285,269],[3070,4802],[2670,-536],[1146,1572],[-2429,4523],[-3410,2609],[3561,3596],[353,2840]],[[563677,302834],[3829,3206]],[[647014,270738],[-18687,-15079]],[[522860,389431],[-1735,1816],[609,1609],[923,208]],[[522657,393064],[1682,-1500],[-1479,-2133]],[[479162,292899],[-242,-865],[-1119,-1146],[1361,2011]],[[480667,446163],[8909,5107],[4182,1475]],[[531532,482391],[5053,1146],[2579,2475],[6009,-2000],[4458,1780],[3233,3243],[2147,-1073],[2311,-4913],[-773,-4473],[-3947,-1902],[-4732,-11580]],[[547870,465094],[3181,-6802]],[[551051,458292],[11671,1889],[2984,-3681],[5610,1158],[2985,3462]],[[574301,461120],[6440,3779],[4052,1828]],[[584793,466727],[3711,415]],[[582692,386664],[-2919,-12921]],[[579773,373743],[-1100,-1731],[-2546,1316],[-2632,24],[-2238,-3815],[-10342,-8240],[-6487,-2841],[-10557,1500],[-1414,3486],[-3626,-97],[-2003,-4182],[-4779,-4339],[-22575,2487],[-9046,-13336],[-4902,-5632],[-3267,-5473],[-2415,-7217],[210,-13067],[10145,-2255],[2514,-2207],[523,-3145],[-1976,-3096],[-3561,-2316],[-5898,37]],[[491801,299604],[-10734,-2365],[458,2048],[-367,1475],[-3436,633],[-1944,-682],[-1322,-1609],[2814,-5108],[0,-1426],[-785,-1109],[-2239,-122],[-2834,3620],[-563,2999],[118,3084],[1761,1865],[3305,-305],[1244,1012],[589,1621],[-537,3560],[-1898,2145],[-4595,1244],[-1774,1706],[-294,2487],[1243,4583],[1565,2645],[320,2341],[-2251,2255],[-6834,3742],[-1184,2377],[3842,4584],[65,1792],[-1080,3644],[288,4389],[-661,890],[-3698,719],[-196,3657],[-2939,2877],[-2291,5180],[-1944,6656],[-3443,5876],[-1951,2096],[157,3743],[-1119,3145],[-157,2767],[1073,1085],[3568,317],[104,1718],[1139,2097],[851,4413],[655,1012],[-79,1426],[-5897,5802],[-8725,2426],[-2278,2243],[864,3047],[2422,2816],[5053,2377],[910,1256],[-2933,1207]],[[522860,389431],[1407,2340],[-1610,1293]],[[152922,679027],[1362,-8680],[-727,-3730],[-1689,-4071],[4706,-3962],[6703,-2584],[5610,-5132],[6748,-2158],[7619,-4144],[7364,-1244],[3069,3194],[2370,4766],[5550,4730],[7115,707],[1866,8606],[13752,2633],[4817,-4449],[2730,-354],[4241,1195],[2258,2548],[1899,11556],[2219,5656],[9346,12689],[5852,561],[3502,-1377],[2985,-3316],[968,12068],[4910,-1097],[1747,-2828],[-681,-4596],[3627,-499],[4771,1072],[3574,10215],[2671,1670],[5472,-646],[8398,-4327],[-622,-5095],[-10034,-1085],[-969,-4486],[1891,-8363],[2835,-8276],[1119,-10435],[-8640,-9216],[1342,-4595],[2376,-3328],[222,-7107],[3018,-5729],[7043,-2877],[7907,-1475],[18451,-1816],[3515,-2182],[1807,-3620],[3312,-1280],[1767,-7778],[7030,-231],[2114,-1853],[13071,268],[1362,3243],[3207,1621]],[[362770,618004],[4720,-354],[4117,-1304]],[[338244,536307],[-4575,-12336],[-373,3718],[-3423,2157],[-8686,-524],[-6428,2658],[-726,1926],[-2979,1670],[-3659,8801],[-2755,3096],[-2075,2645],[-1630,317],[-6932,-2974],[-3436,5851],[-2880,573],[-3482,4583],[-7115,6278],[-4765,73],[-3829,1366],[-3109,-976],[-1853,4498],[-4182,2560],[-1146,-829],[190,-1950],[-576,-1853],[-2481,-1621],[-707,622],[98,950],[1598,3450],[-1152,1963],[-956,109],[-1748,-1060],[-379,-2852],[1119,-2280],[-1152,-926],[-648,292],[-1440,3925],[-4124,293],[-8005,3437],[-3469,-1158],[-2435,-4120],[-1931,-1743],[-1800,-366],[-4732,1329],[-13353,-7107],[-12502,1183],[-10460,-780],[-2657,-1756],[-1859,-12],[-2036,1560],[-2781,4572],[-1408,804],[-5210,-4230],[-6585,427],[-2487,-3657],[-85,-1170],[-3103,-817],[-3089,13677],[-3423,2462],[-301,4572],[1112,5461],[-2219,4230],[2350,5229],[-2415,5827],[988,7155],[-3501,3657],[-3443,7375],[-2730,7704],[-2788,1731],[-1781,-4035],[-6630,10874],[569,9642],[1650,2913],[4136,3767],[583,2609],[-2029,7533],[-33,4120],[-2088,4986],[-667,4583],[2808,5534],[5930,4169],[2310,-6351],[4445,-109],[1891,2230],[2337,586]],[[479162,292899],[1898,4327],[10741,2378]],[[579773,373743],[543,2998]],[[574268,311111],[-10591,-8277]],[[496475,238020],[-727,2974],[-4955,11703],[-5878,5619],[-3063,6059],[-4235,4949],[-1459,15408],[1348,5400],[1656,2767]],[[555914,308612],[904,1060],[137,1658],[-1839,1231],[-1519,-85],[-739,-1048],[530,-2097],[2526,-719]],[[526335,111001],[-1616,2170],[-4046,354],[-3600,4132],[-517,2048],[1473,11129],[-864,3231],[-1721,2303]],[[535348,151996],[2861,10532]],[[582279,144389],[-4627,-11263]],[[328295,767757],[-1859,-463],[-1400,1036],[-544,1438],[504,1390],[2265,865],[1335,-1475],[203,-1401],[-504,-1390]],[[371607,616346],[-8837,1658]],[[152922,679027],[7828,3413],[904,4705],[-7168,4303],[118,2889],[-3639,3450],[-1204,5595],[-3162,5729],[2173,9521],[-2088,5327],[-7795,-1744],[-4176,-4693],[-616,5486],[354,6083],[2147,4839],[6421,7643],[5950,3828],[3501,6692],[59,14969],[2016,3596],[3777,2511],[-8358,2072],[536,6583],[2638,8070],[1564,7167],[-1400,9387],[-3882,8971],[-5158,6144],[-5033,2463],[-4523,-403],[-3449,-11154],[-5040,-3949],[-3083,1889],[-8693,915],[-3973,5900],[2108,6265],[-2782,8509],[-1866,8179],[1604,4462],[373,5680],[-3587,4803],[-320,3718],[464,10288],[-2952,4474],[-4614,1877],[-7109,-3316],[-4510,2646],[-8188,-451],[-4091,-5376],[-5230,-159],[-5027,-5900],[-5956,74],[-5178,-4242],[-5674,-854],[-897,2255],[-3587,2743],[-4497,-305],[-4339,-3718],[-2854,-950],[-2304,2450],[-753,5193],[628,7180],[-2101,7923],[1224,9654],[5119,3718],[2841,4303],[18353,3011],[1964,3548],[-2769,3193],[-6107,1683],[85,6436],[-6519,2621],[1623,8142],[-2500,1585],[-7901,-902],[-1636,2231],[-4444,-366],[-5499,2146],[-1080,5400],[-10204,8033],[563,5473],[3770,2670],[-1165,3108],[-12220,6766],[-727,3900],[11009,10996],[-654,3657],[20605,1889],[11141,9021],[7697,3900],[9602,622],[9393,2889],[3947,-1938],[7697,1524],[5728,-74],[14302,-4229],[21521,-2816],[3607,-3645],[2356,-10715],[4039,-2280],[929,-4059],[-589,-6485],[15310,-3060],[7246,2938],[6951,207],[5354,-1011],[4857,-6498],[4745,-4595],[9563,-5230],[10368,-13079],[3136,-2060],[6126,-403],[5204,3328],[1067,5522],[2631,3657],[3024,-1085],[9727,-12970],[12358,-5924],[10872,-3182],[18811,1902],[7986,-866],[8457,-5583],[5406,-7764],[3077,-5937],[1165,-4498],[3331,-1402],[1611,-4900],[3573,-6510],[10035,-6887],[2997,-14177],[4792,-3559],[8149,1426],[3757,-780],[399,-3621],[7109,-1048],[2166,-3864],[7488,-975],[4647,390],[4739,4437],[17189,-1256],[6303,-4522],[7743,-8850],[10702,3230],[7495,-1816],[11225,-6314],[910,-4011],[-975,-4644],[1257,-4157],[5773,-1499],[7442,1389],[8018,-3693]],[[443646,821478],[1250,-5742],[-3691,-1779],[-1826,-2719],[78,-6314],[-2756,-5937],[-5072,-5778],[-6212,-3364],[-9857,-707],[-1126,-5059],[3390,-8923],[5263,-9874],[-1414,-7947],[1990,-6778],[-3018,-12190],[432,-4279],[3646,-4132],[1427,-12324],[-1656,-6497],[-3587,-5181],[-9465,-4059],[-2709,-2426],[-1584,-5205],[-4890,-8813],[-504,-2914],[3548,-4303],[5858,-11580],[-1466,-6095],[-779,-6388],[399,-11007]],[[409315,643164],[1434,-2389]],[[690581,196002],[3973,-5547]],[[494190,598939],[-818,-1426],[-2500,1170],[6,2474],[1859,744],[1296,-695],[157,-2267]],[[415226,631535],[-2481,5912],[-3430,5717]],[[443646,821478],[4307,682],[4379,2938],[5256,5449],[2710,402],[2317,-1743],[-111,-2011],[5125,-2243],[7841,-902],[4504,5778],[19,2657],[7711,2792],[16645,-500],[759,-3864],[5014,-8472],[11854,2913],[3181,7826],[2533,3109],[5361,853],[3318,-1524],[2985,-5400],[4248,378],[2573,2852],[7416,-1718],[3973,3413],[6519,-1683],[5970,-3400],[5269,-4925],[3613,-1341],[1328,-3694],[3123,-2584],[5033,-926],[3855,634],[2376,-3475],[5492,-2620],[6336,1999],[6382,-2706],[5112,2950],[5125,6777],[-1767,6400],[-3149,2633],[-2114,2986],[7848,4364],[5570,-719],[3882,4047],[6041,-1463],[4700,3767],[6866,-1499],[4163,2535],[12240,-3437],[3770,2974],[4275,-768],[4424,-6046],[6369,2901],[7743,-2657],[5250,5205],[4137,-975],[5753,207],[17503,3035],[7632,-2926],[11546,-7240],[5917,-2463],[5669,671],[4791,-890],[4025,268],[6500,2475],[5793,-1561],[11343,4535],[4575,-183],[1172,-4669],[10780,3023],[12849,-12],[9923,5461],[3777,1097],[4510,-1974],[6087,195],[2461,-1999],[465,-4828],[2179,-5278],[5918,-4437],[-2808,-7460],[2572,-4364],[4385,-4620],[12155,-5473],[-2075,-3913],[-11238,-1536],[-4229,-5632],[-392,-5754],[-3672,-5302],[-12810,-3487],[-667,-6850],[510,-4084],[-3214,-5303],[-7547,-3266],[-9713,-1439],[-700,-3657],[-1984,-5351],[-4739,-5705],[-6526,-1950],[-3979,-6900],[-4968,-2682],[-7331,-2279],[-1669,-4998],[-4576,-2414],[-7121,366],[-2749,-7180],[-9007,-5034],[-1649,-5632],[1538,-5339],[-7004,-20894],[-785,-5583],[-3567,-2072],[-3181,2353],[-4543,-61],[-6343,-4949],[-3737,12],[-3554,-2097],[-4785,-8789],[-3770,-1097],[-3109,-3450],[-2003,-6533],[-85,-7180],[-1794,-6376],[-8097,-10105],[6611,-3901],[5112,-634],[4392,1878],[4059,-2816],[896,-3596],[7541,-476],[1564,-3084],[5145,-5046],[3731,3571]],[[584793,466727],[-10492,-5607]],[[551051,458292],[-2527,4534],[-654,2268]]],"bbox":[119.6233,48.8526,134.901,57.0561],"transform":{"scale":[0.00001527771527771529,0.000008203508203508203],"translate":[119.6233,48.8526]}}