{"type":"Topology","objects":{"muni":{"type":"GeometryCollection","geometries":[{"type":"MultiPolygon","arcs":[[[0]]],"properties":{"GID_2":"RUS.5.1_1","GID_0":"RUS","COUNTRY":"Russia","GID_1":"RUS.5_1","NAME_1":"Astrakhan'","NL_NAME_1":"Астраханскаяобласть","NAME_2":"Akhtubinsk","VARNAME_2":"NA","NL_NAME_2":"Ахту́бинск","TYPE_2":"Gorsovet","ENGTYPE_2":"District","CC_2":"NA","HASC_2":"RU.AS.AG"}},{"type":"MultiPolygon","arcs":[[[1,2,3,4,5,6,7,8],[-1]]],"properties":{"GID_2":"RUS.5.2_1","GID_0":"RUS","COUNTRY":"Russia","GID_1":"RUS.5_1","NAME_1":"Astrakhan'","NL_NAME_1":"Астраханскаяобласть","NAME_2":"Akhtubinskiyrayon","VARNAME_2":"NA","NL_NAME_2":"Ахтубинскийрайон","TYPE_2":"Raion","ENGTYPE_2":"District","CC_2":"R33000","HASC_2":"RU.AS.AR"}},{"type":"MultiPolygon","arcs":[[[9]]],"properties":{"GID_2":"RUS.5.3_1","GID_0":"RUS","COUNTRY":"Russia","GID_1":"RUS.5_1","NAME_1":"Astrakhan'","NL_NAME_1":"Астраханскаяобласть","NAME_2":"Astrakhan'","VARNAME_2":"NA","NL_NAME_2":"Астрахань","TYPE_2":"Gorod","ENGTYPE_2":"City","CC_2":"NA","HASC_2":"RU.AS.AS"}},{"type":"MultiPolygon","arcs":[[[-8,10,-6,11,12,13]]],"properties":{"GID_2":"RUS.5.4_1","GID_0":"RUS","COUNTRY":"Russia","GID_1":"RUS.5_1","NAME_1":"Astrakhan'","NL_NAME_1":"Астраханскаяобласть","NAME_2":"Chernoyarskiyrayon","VARNAME_2":"NA","NL_NAME_2":"Черноярскийрайон","TYPE_2":"Raion","ENGTYPE_2":"District","CC_2":"R33001","HASC_2":"RU.AS.CH"}},{"type":"MultiPolygon","arcs":[[[14,15,16,17,18,19]],[[-3,20,21,-13,22,23]]],"properties":{"GID_2":"RUS.5.5_1","GID_0":"RUS","COUNTRY":"Russia","GID_1":"RUS.5_1","NAME_1":"Astrakhan'","NL_NAME_1":"Астраханскаяобласть","NAME_2":"Enotaevskiyrayon","VARNAME_2":"NA","NL_NAME_2":"Енотаевскийрайон","TYPE_2":"Raion","ENGTYPE_2":"District","CC_2":"R33000","HASC_2":"RU.AS.YE"}},{"type":"MultiPolygon","arcs":[[[24,25,26,27,28,29]]],"properties":{"GID_2":"RUS.5.6_1","GID_0":"RUS","COUNTRY":"Russia","GID_1":"RUS.5_1","NAME_1":"Astrakhan'","NL_NAME_1":"Астраханскаяобласть","NAME_2":"Ikryaninskiyrayon","VARNAME_2":"NA","NL_NAME_2":"Икрянинскийрайон","TYPE_2":"Raion","ENGTYPE_2":"District","CC_2":"R33000","HASC_2":"RU.AS.IK"}},{"type":"MultiPolygon","arcs":[[[30,-30,31,32,33,34]]],"properties":{"GID_2":"RUS.5.7_1","GID_0":"RUS","COUNTRY":"Russia","GID_1":"RUS.5_1","NAME_1":"Astrakhan'","NL_NAME_1":"Астраханскаяобласть","NAME_2":"Kamyzyakskiyrayon","VARNAME_2":"NA","NL_NAME_2":"Камызякскийрайон","TYPE_2":"Raion","ENGTYPE_2":"District","CC_2":"R33000","HASC_2":"RU.AS.KA"}},{"type":"MultiPolygon","arcs":[[[35,36,37,-17,38,-15,39,-21,-2,40]]],"properties":{"GID_2":"RUS.5.8_1","GID_0":"RUS","COUNTRY":"Russia","GID_1":"RUS.5_1","NAME_1":"Astrakhan'","NL_NAME_1":"Астраханскаяобласть","NAME_2":"Kharabalinskiyrayon","VARNAME_2":"NA","NL_NAME_2":"Харабалинскийрайон","TYPE_2":"Raion","ENGTYPE_2":"District","CC_2":"R33001","HASC_2":"RU.AS.KH"}},{"type":"MultiPolygon","arcs":[[[41,42,43,44,45,46,-36]]],"properties":{"GID_2":"RUS.5.9_1","GID_0":"RUS","COUNTRY":"Russia","GID_1":"RUS.5_1","NAME_1":"Astrakhan'","NL_NAME_1":"Астраханскаяобласть","NAME_2":"Krasnoyarskiyrayon","VARNAME_2":"NA","NL_NAME_2":"Красноярскийрайон","TYPE_2":"Raion","ENGTYPE_2":"District","CC_2":"R33000","HASC_2":"RU.AS.KR"}},{"type":"MultiPolygon","arcs":[[[47,48,-26]]],"properties":{"GID_2":"RUS.5.10_1","GID_0":"RUS","COUNTRY":"Russia","GID_1":"RUS.5_1","NAME_1":"Astrakhan'","NL_NAME_1":"Астраханскаяобласть","NAME_2":"Limanskiyrayon","VARNAME_2":"NA","NL_NAME_2":"Лиманскийрайон","TYPE_2":"Raion","ENGTYPE_2":"District","CC_2":"R33000","HASC_2":"RU.AS.LI"}},{"type":"MultiPolygon","arcs":[[[49,-18,-38,50,-46,51,-27,-49,52]]],"properties":{"GID_2":"RUS.5.11_1","GID_0":"RUS","COUNTRY":"Russia","GID_1":"RUS.5_1","NAME_1":"Astrakhan'","NL_NAME_1":"Астраханскаяобласть","NAME_2":"Narimanovskiyrayon","VARNAME_2":"NA","NL_NAME_2":"Наримановскийрайон","TYPE_2":"Raion","ENGTYPE_2":"District","CC_2":"R33000","HASC_2":"RU.AS.NA"}},{"type":"MultiPolygon","arcs":[[[53,-28,-52,-45,54,55,56,-33],[-10]]],"properties":{"GID_2":"RUS.5.12_1","GID_0":"RUS","COUNTRY":"Russia","GID_1":"RUS.5_1","NAME_1":"Astrakhan'","NL_NAME_1":"Астраханскаяобласть","NAME_2":"Privolzhskiyrayon","VARNAME_2":"NA","NL_NAME_2":"Приволжскийрайон","TYPE_2":"Raion","ENGTYPE_2":"District","CC_2":"R33000","HASC_2":"RU.AS.PR"}},{"type":"MultiPolygon","arcs":[[[-35,57,-56,58,-43,59]]],"properties":{"GID_2":"RUS.5.13_1","GID_0":"RUS","COUNTRY":"Russia","GID_1":"RUS.5_1","NAME_1":"Astrakhan'","NL_NAME_1":"Астраханскаяобласть","NAME_2":"Volodarskiyrayon","VARNAME_2":"NA","NL_NAME_2":"Володарскийрайон","TYPE_2":"Raion","ENGTYPE_2":"District","CC_2":"R33000","HASC_2":"RU.AS.VO"}}]}},"arcs":[[[272103,824353],[-3613,846],[-47,2653],[5038,58],[761,-2361],[-2139,-1196]],[[480131,689143],[-6180,6034],[-34699,-22127],[-29446,-9795],[-4564,-8046]],[[405242,655209],[-7129,16442],[-17445,19066],[-16042,9008],[142,7288],[-3375,2828],[-12881,321],[-9530,-5422],[-12026,-409],[-5134,1312],[-3399,4315],[-1687,7288],[-4254,6501]],[[312482,723747],[-13832,-408],[-9531,3411]],[[289119,726750],[13975,12157]],[[303094,738907],[3565,7434],[-665,15305],[-6774,15859],[-35768,29153],[-2638,5043],[926,12419],[-25691,7580],[-38217,16121],[-21294,-6267],[-7154,5684],[-9863,16647]],[[159521,863885],[-16138,14314]],[[143383,878199],[-10742,4168],[-20534,3178],[-12502,-291],[-12453,-3265]],[[87152,881989],[2305,3935],[-594,3440],[-3803,4694],[-27569,5451],[-4563,6472],[4444,3761],[40213,3294],[18704,5568],[17873,-2507],[56017,28337],[10672,7521],[25667,30523],[21224,16559],[15092,962],[30064,-2507],[43089,-19387],[34057,-20115],[9768,-8600],[-30801,-70113],[7082,-4343],[67497,-23468],[28259,-2916],[1687,-1049],[-1093,-3295],[21271,-20640],[4991,-6705],[16422,-7725],[2852,-13556],[-5632,-9562],[499,-5306],[26309,-7726],[-2757,-5859],[-8698,641],[-4801,-6006],[-28924,-11632],[34271,-47577],[-11051,-6180],[1901,-4461],[-18965,-2769]],[[740707,245408],[-20701,-10903],[-17468,9970],[22792,12361],[-5823,17113],[24265,13847],[18942,-5889],[2829,-16937],[-24836,-19562]],[[143383,878199],[8960,-7143],[7178,-7171]],[[303094,738907],[-47794,-42039]],[[255300,696868],[-9459,-14401],[-23292,-17871],[-713,-6588]],[[221836,658008],[-16636,9358],[-16851,27287],[-14996,7929],[-2781,14081],[10505,13527],[-71,8892],[-4468,11019],[-22151,6297],[-22103,-7026],[-14283,7172],[-25145,21719],[-19726,9999],[-29899,25276],[-18799,3177],[-11693,4840],[-9958,9241],[-2781,7959],[6964,17725],[31847,33001],[8912,1720],[10339,-2741],[14616,-9037],[6464,-1283],[8010,3849]],[[424969,628359],[5442,-58],[4991,-4111],[-15092,-14722],[8010,-2886],[16945,1108],[5419,-1982],[11883,-9388],[190,-6151],[3660,-3323],[7083,-525],[3446,2799],[8936,-3703],[17896,-14897],[-3398,-4344],[119,-4577],[14236,-13031],[6274,-11749],[-1973,-35712]],[[519036,501107],[5253,-4810],[32726,-21136]],[[557015,475161],[5918,3557],[10933,15422],[3398,1370],[22888,-18250],[15947,-2886],[3327,-4606],[-25929,-20902],[5038,-6210],[20844,-7434],[9102,-7026],[8223,-10757],[4896,-10670]],[[641600,406769],[-10790,-12565],[-24051,-21427],[-11575,9358],[-8318,3236],[-6702,-15043],[-5847,-6705],[-9174,-3615]],[[565143,360008],[-33605,-816],[-7511,524]],[[524027,359716],[238,1458],[7962,16500],[-12787,11866],[-11194,19532],[-9530,8746],[-15472,-2566],[-10410,4985],[-9815,19620],[-7106,9504],[-18396,6035],[-37788,50696],[-28378,41660],[-12524,28919],[4919,9358],[22436,19970],[30754,11399],[6488,5393],[1545,5568]],[[405242,655209],[1735,-10320],[-1259,-5568]],[[405718,639321],[-5348,1312],[-11740,-2070],[-57135,-55157],[-8437,-4811],[-43849,23702],[-52073,43816],[-5300,11895]],[[255300,696868],[33819,29882]],[[289119,726750],[5324,-1924],[18039,-1079]],[[696168,58743],[-13571,-10583],[-4895,-6676],[-5966,-2915],[-9625,3382],[-1569,2769],[1165,12128],[-3637,6268],[-24146,20174],[-9602,-3382]],[[624322,79908],[-3684,10815],[713,11399],[-11622,16501],[-1045,11486],[3137,19765],[-8865,12565],[-6869,-1312],[-50812,9912],[-4302,3907],[7629,17404]],[[548602,192350],[5086,5976],[36482,16618],[11146,-4169],[15377,-2041],[25383,8367],[16185,204],[16541,13264],[15947,3266]],[[690749,233835],[11408,-8980]],[[702157,224855],[-39262,-47810]],[[662895,177045],[-4825,-10583],[18681,-45420],[-15924,-24488],[21794,-27112],[13547,-10699]],[[842760,145356],[-3232,-2362],[-880,-4372],[10030,-8105],[2828,-4694],[-2496,-3673],[-12905,1079],[-10766,-2274],[-3446,-2857],[5704,-18308],[-2591,-2128],[-18751,10757],[-6108,-3440],[-10981,-12361],[-5347,-18861],[-19631,-22419],[-10790,758],[-16494,10291],[-14379,3965],[-26357,-7609]],[[662895,177045],[26333,31310]],[[689228,208355],[7035,-4956],[26167,-10524],[13713,874],[18419,-4868],[11503,10291],[12715,4781],[8176,7376]],[[786956,211329],[4421,10786]],[[791377,222115],[9055,-15538],[23956,-22885],[880,-11078],[6892,-7580],[10600,-19678]],[[795560,588245],[-8081,-25363],[2662,-40960],[-1545,-32563],[-15424,-11661],[-29685,408],[-1497,-39619],[-7843,-54574],[-13785,-525],[-20843,12332],[-10718,-8046],[6226,-24197],[-10552,-3615]],[[684475,359862],[-6464,12244]],[[678011,372106],[-14450,16821],[6725,16413],[927,8192],[-6512,6181],[-4111,-671],[-10767,-9474],[-8223,-2799]],[[557015,475161],[-5965,2507],[-32014,23439]],[[424969,628359],[-9673,8571],[-9578,2391]],[[480131,689143],[19987,3090],[16423,-15334],[42827,-21165],[5348,16500],[2970,24080],[10695,-5101],[54735,-15422],[84775,5743],[32869,-25276],[12216,-17783],[10481,-20844],[22103,-29386]],[[795560,588245],[2353,-3236],[21936,-5102],[32037,-466],[8414,-47490],[21484,-48073],[11337,-22098],[45085,-51250],[8152,-19795],[-11741,-14664],[-9934,-6938],[-26904,-2624],[-11788,1108],[-13475,11019],[-1498,8426],[-7439,4868],[-18015,758],[-16565,-11865],[-7130,-15888],[-190,-6122],[14973,-3674],[-143,-7463],[3708,-3265],[14521,-2186],[-57800,-52913]],[[796938,289312],[-10528,-5160]],[[786410,284152],[-28473,-525]],[[757937,283627],[-5300,4898],[-2614,15801],[7296,15509],[-4135,875],[-44515,-13702]],[[708669,307008],[-3018,14810],[-7891,17899]],[[697760,339717],[-13285,20145]],[[624322,79908],[-11384,-1808],[-6702,-17200],[3921,-6209],[20558,-16413],[3969,-6239],[-4610,-7230],[-2876,-350],[-5371,1691],[-9816,11690],[13119,-27199],[1070,-4636],[-4825,-6005],[-22222,9533],[-10291,11224],[1973,13993],[18490,7288],[-3089,5481],[-12644,-700],[-35008,7842],[-23838,-6092],[-7819,-6210],[-10624,-1749],[-25786,3586],[-45917,-2099],[18134,16209],[26214,43583],[15947,39065],[8651,13468],[13809,14868],[5181,13585],[-7653,11662],[16042,262]],[[540925,194799],[7677,-2449]],[[524027,359716],[41116,292]],[[678011,372106],[19749,-32389]],[[708669,307008],[-2234,-6938],[10671,-15859],[2021,-7872],[-10933,-16763],[-10029,-20611],[-7416,-5130]],[[540925,194799],[-39880,-1195],[-42613,-11370],[-10101,6210],[-4159,9970],[4373,11340],[-1640,9183],[-10148,12361],[-27308,1866],[-33392,16442],[5989,11457],[8556,7580],[29994,17258],[46154,2274],[-855,11516],[3398,19853],[13642,18104],[31491,7608],[8484,7434],[1117,7026]],[[689228,208355],[12929,16500]],[[757937,283627],[24171,1487]],[[782108,285114],[20487,-11224],[5656,-5072],[2329,-6501]],[[810580,262317],[-13618,-23118],[-10006,-27870]],[[791377,222115],[10005,26354],[9198,13848]],[[782108,285114],[4302,-962]],[[796938,289312],[30683,29794],[31562,25509],[8104,-13614],[24551,-7697],[3184,-7434],[8461,-10057],[8271,583],[9982,-8163],[28425,-11195],[4183,-5626],[23671,-5568],[6013,-3528],[-1711,-2449],[2543,-5218],[9197,-4606],[5942,-6530],[-13785,-13207],[7059,-12185],[-8960,-10904],[-26262,-22885],[6512,-10261],[-15638,-19270],[-6013,5335],[-3636,-1283],[-8556,-10320],[-4659,-350],[-5917,3702],[-8438,0],[-2543,-3731],[3399,-7405],[4254,-20057],[-2329,-6851],[-3684,-1224],[-1426,7200],[-25572,40173],[-5348,19474],[-4706,2682],[-6440,-3323],[903,-7784],[21960,-32914],[1260,-4052],[-4872,-10524],[356,-4723],[16328,-12710],[-499,-8484],[-2876,-3498],[-7344,-2420],[-11194,7726],[-7011,11194],[-26904,23556],[-4658,1166]]],"bbox":[45.0234,45.4269,49.231,48.8571],"transform":{"scale":[0.000004207604207604207,0.0000034302034302034295],"translate":[45.0234,45.4269]}}