{"type":"Topology","objects":{"muni":{"type":"GeometryCollection","geometries":[{"type":"MultiPolygon","arcs":[[[0,1,2,3,4,5,6,7,8,9]]],"properties":{"GID_2":"RUS.6.1_1","GID_0":"RUS","COUNTRY":"Russia","GID_1":"RUS.6_1","NAME_1":"Bashkortostan","NL_NAME_1":"РеспубликаБашкортостан","NAME_2":"Abzelilovskiyrayon","VARNAME_2":"NA","NL_NAME_2":"Абзелиловскийрайон","TYPE_2":"Raion","ENGTYPE_2":"District","CC_2":"R46000","HASC_2":"RU.BK.AB"}},{"type":"MultiPolygon","arcs":[[[10,11,12,13,14,15,16]]],"properties":{"GID_2":"RUS.6.2_1","GID_0":"RUS","COUNTRY":"Russia","GID_1":"RUS.6_1","NAME_1":"Bashkortostan","NL_NAME_1":"РеспубликаБашкортостан","NAME_2":"Al'sheyevskiyrayon","VARNAME_2":"NA","NL_NAME_2":"Альшеевскийрайон","TYPE_2":"Raion","ENGTYPE_2":"District","CC_2":"R46000","HASC_2":"RU.BK.AL"}},{"type":"MultiPolygon","arcs":[[[17,18,19,20,21,22,23,24]]],"properties":{"GID_2":"RUS.6.3_1","GID_0":"RUS","COUNTRY":"Russia","GID_1":"RUS.6_1","NAME_1":"Bashkortostan","NL_NAME_1":"РеспубликаБашкортостан","NAME_2":"Arkhangel'skiyrayon","VARNAME_2":"NA","NL_NAME_2":"Архангельскийрайон","TYPE_2":"Raion","ENGTYPE_2":"District","CC_2":"R46000","HASC_2":"RU.BK.AR"}},{"type":"MultiPolygon","arcs":[[[25,26,27,28,29,30,31,32,33,34]]],"properties":{"GID_2":"RUS.6.4_1","GID_0":"RUS","COUNTRY":"Russia","GID_1":"RUS.6_1","NAME_1":"Bashkortostan","NL_NAME_1":"РеспубликаБашкортостан","NAME_2":"Askinskiyrayon","VARNAME_2":"NA","NL_NAME_2":"Аскинскийрайон","TYPE_2":"Raion","ENGTYPE_2":"District","CC_2":"R46000","HASC_2":"RU.BK.AS"}},{"type":"MultiPolygon","arcs":[[[-11,35,36,37,38,39,40,41,42,43,44]]],"properties":{"GID_2":"RUS.6.5_1","GID_0":"RUS","COUNTRY":"Russia","GID_1":"RUS.6_1","NAME_1":"Bashkortostan","NL_NAME_1":"РеспубликаБашкортостан","NAME_2":"Aurgazinskiyrayon","VARNAME_2":"NA","NL_NAME_2":"Аургазинскийрайон","TYPE_2":"Raion","ENGTYPE_2":"District","CC_2":"R46000","HASC_2":"RU.BK.AU"}},{"type":"MultiPolygon","arcs":[[[45,46,47,48]]],"properties":{"GID_2":"RUS.6.6_1","GID_0":"RUS","COUNTRY":"Russia","GID_1":"RUS.6_1","NAME_1":"Bashkortostan","NL_NAME_1":"РеспубликаБашкортостан","NAME_2":"Bakalinskiyrayon","VARNAME_2":"NA","NL_NAME_2":"Бакалинскийрайон","TYPE_2":"Raion","ENGTYPE_2":"District","CC_2":"R46000","HASC_2":"RU.BK.BN"}},{"type":"MultiPolygon","arcs":[[[-26,49,50,51,52,53,54]]],"properties":{"GID_2":"RUS.6.7_1","GID_0":"RUS","COUNTRY":"Russia","GID_1":"RUS.6_1","NAME_1":"Bashkortostan","NL_NAME_1":"РеспубликаБашкортостан","NAME_2":"Baltachevskiyrayon","VARNAME_2":"NA","NL_NAME_2":"Балтачевскийрайон","TYPE_2":"Raion","ENGTYPE_2":"District","CC_2":"R46000","HASC_2":"RU.BK.BC"}},{"type":"MultiPolygon","arcs":[[[55]]],"properties":{"GID_2":"RUS.6.8_1","GID_0":"RUS","COUNTRY":"Russia","GID_1":"RUS.6_1","NAME_1":"Bashkortostan","NL_NAME_1":"РеспубликаБашкортостан","NAME_2":"Baymak","VARNAME_2":"NA","NL_NAME_2":"Баймак","TYPE_2":"Gorsovet","ENGTYPE_2":"District","CC_2":"NA","HASC_2":"RU.BK.BM"}},{"type":"MultiPolygon","arcs":[[[-4,56,57,58,59,60,61,62,63,64],[-56],[65]]],"properties":{"GID_2":"RUS.6.9_1","GID_0":"RUS","COUNTRY":"Russia","GID_1":"RUS.6_1","NAME_1":"Bashkortostan","NL_NAME_1":"РеспубликаБашкортостан","NAME_2":"Baymakskiyrayon","VARNAME_2":"NA","NL_NAME_2":"Баймакскийрайон","TYPE_2":"Raion","ENGTYPE_2":"District","CC_2":"R46000","HASC_2":"RU.BK.BA"}},{"type":"MultiPolygon","arcs":[[[-16,66,67,68,69,70,71,72,73,74],[75]]],"properties":{"GID_2":"RUS.6.10_1","GID_0":"RUS","COUNTRY":"Russia","GID_1":"RUS.6_1","NAME_1":"Bashkortostan","NL_NAME_1":"РеспубликаБашкортостан","NAME_2":"Belebeevskiyrayon","VARNAME_2":"NA","NL_NAME_2":"Белебеевскийрайон","TYPE_2":"Raion","ENGTYPE_2":"District","CC_2":"R46000","HASC_2":"RU.BK.BB"}},{"type":"MultiPolygon","arcs":[[[-76]]],"properties":{"GID_2":"RUS.6.11_1","GID_0":"RUS","COUNTRY":"Russia","GID_1":"RUS.6_1","NAME_1":"Bashkortostan","NL_NAME_1":"РеспубликаБашкортостан","NAME_2":"Belebey","VARNAME_2":"NA","NL_NAME_2":"Белебей","TYPE_2":"Gorsovet","ENGTYPE_2":"District","CC_2":"NA","HASC_2":"RU.BK.BE"}},{"type":"MultiPolygon","arcs":[[[76,77,78,79,80]]],"properties":{"GID_2":"RUS.6.12_1","GID_0":"RUS","COUNTRY":"Russia","GID_1":"RUS.6_1","NAME_1":"Bashkortostan","NL_NAME_1":"РеспубликаБашкортостан","NAME_2":"Belokatayskiyrayon","VARNAME_2":"NA","NL_NAME_2":"Белокатайскийрайон","TYPE_2":"Raion","ENGTYPE_2":"District","CC_2":"R46001","HASC_2":"RU.BK.BK"}},{"type":"MultiPolygon","arcs":[[[-10,81,-8,82,83,84,85,86,-23,87,-21,88,89]]],"properties":{"GID_2":"RUS.6.13_1","GID_0":"RUS","COUNTRY":"Russia","GID_1":"RUS.6_1","NAME_1":"Bashkortostan","NL_NAME_1":"РеспубликаБашкортостан","NAME_2":"Beloretskiyrayon","VARNAME_2":"NA","NL_NAME_2":"Белорецкийрайон","TYPE_2":"Raion","ENGTYPE_2":"District","CC_2":"R46001","HASC_2":"RU.BK.BO"}},{"type":"MultiPolygon","arcs":[[[90]]],"properties":{"GID_2":"RUS.6.14_1","GID_0":"RUS","COUNTRY":"Russia","GID_1":"RUS.6_1","NAME_1":"Bashkortostan","NL_NAME_1":"РеспубликаБашкортостан","NAME_2":"Birsk","VARNAME_2":"NA","NL_NAME_2":"Бирск","TYPE_2":"Gorod","ENGTYPE_2":"City","CC_2":"NA","HASC_2":"RU.BK.BI"}},{"type":"MultiPolygon","arcs":[[[91,92,93,94,95,96],[-91]]],"properties":{"GID_2":"RUS.6.15_1","GID_0":"RUS","COUNTRY":"Russia","GID_1":"RUS.6_1","NAME_1":"Bashkortostan","NL_NAME_1":"РеспубликаБашкортостан","NAME_2":"Birskiyrayon","VARNAME_2":"NA","NL_NAME_2":"Бирскийрайон","TYPE_2":"Raion","ENGTYPE_2":"District","CC_2":"R46001","HASC_2":"RU.BK.BR"}},{"type":"MultiPolygon","arcs":[[[-14,97,98,99,100,-68,101]]],"properties":{"GID_2":"RUS.6.16_1","GID_0":"RUS","COUNTRY":"Russia","GID_1":"RUS.6_1","NAME_1":"Bashkortostan","NL_NAME_1":"РеспубликаБашкортостан","NAME_2":"Bizhbulyakskiyrayon","VARNAME_2":"NA","NL_NAME_2":"Бижбулякскийрайон","TYPE_2":"Raion","ENGTYPE_2":"District","CC_2":"R46001","HASC_2":"RU.BK.BZ"}},{"type":"MultiPolygon","arcs":[[[102,103,104,105,106,107,108,109]]],"properties":{"GID_2":"RUS.6.17_1","GID_0":"RUS","COUNTRY":"Russia","GID_1":"RUS.6_1","NAME_1":"Bashkortostan","NL_NAME_1":"РеспубликаБашкортостан","NAME_2":"Blagovarskiyrayon","VARNAME_2":"NA","NL_NAME_2":"Благоварскийрайон","TYPE_2":"Raion","ENGTYPE_2":"District","CC_2":"R46001","HASC_2":"RU.BK.BL"}},{"type":"MultiPolygon","arcs":[[[110]]],"properties":{"GID_2":"RUS.6.18_1","GID_0":"RUS","COUNTRY":"Russia","GID_1":"RUS.6_1","NAME_1":"Bashkortostan","NL_NAME_1":"РеспубликаБашкортостан","NAME_2":"Blagoveshchensk","VARNAME_2":"NA","NL_NAME_2":"Благовещенск","TYPE_2":"Gorod","ENGTYPE_2":"City","CC_2":"NA","HASC_2":"RU.BK.BG"}},{"type":"MultiPolygon","arcs":[[[-95,111,112,113,114,115,116,117,118,119,120,121],[-111]]],"properties":{"GID_2":"RUS.6.19_1","GID_0":"RUS","COUNTRY":"Russia","GID_1":"RUS.6_1","NAME_1":"Bashkortostan","NL_NAME_1":"РеспубликаБашкортостан","NAME_2":"Blagoveshchenskiyrayon","VARNAME_2":"NA","NL_NAME_2":"Благовещенскийрайон","TYPE_2":"Raion","ENGTYPE_2":"District","CC_2":"R46001","HASC_2":"RU.BK.BS"}},{"type":"MultiPolygon","arcs":[[[-54,122,-52,123,124,-92,125,126,127,128]]],"properties":{"GID_2":"RUS.6.20_1","GID_0":"RUS","COUNTRY":"Russia","GID_1":"RUS.6_1","NAME_1":"Bashkortostan","NL_NAME_1":"РеспубликаБашкортостан","NAME_2":"Burayevskiyrayon","VARNAME_2":"NA","NL_NAME_2":"Бураевскийрайон","TYPE_2":"Raion","ENGTYPE_2":"District","CC_2":"R46001","HASC_2":"RU.BK.BY"}},{"type":"MultiPolygon","arcs":[[[-7,129,-5,-65,130,-63,131,132,133,134,135,136,137,-83]]],"properties":{"GID_2":"RUS.6.21_1","GID_0":"RUS","COUNTRY":"Russia","GID_1":"RUS.6_1","NAME_1":"Bashkortostan","NL_NAME_1":"РеспубликаБашкортостан","NAME_2":"Burzyanskiyrayon","VARNAME_2":"NA","NL_NAME_2":"Бурзянскийрайон","TYPE_2":"Raion","ENGTYPE_2":"District","CC_2":"R46001","HASC_2":"RU.BK.BU"}},{"type":"MultiPolygon","arcs":[[[-74,138,139,140,141,142,-110,143,144]]],"properties":{"GID_2":"RUS.6.22_1","GID_0":"RUS","COUNTRY":"Russia","GID_1":"RUS.6_1","NAME_1":"Bashkortostan","NL_NAME_1":"РеспубликаБашкортостан","NAME_2":"Buzdyakskiyrayon","VARNAME_2":"NA","NL_NAME_2":"Буздякскийрайон","TYPE_2":"Raion","ENGTYPE_2":"District","CC_2":"R46001","HASC_2":"RU.BK.BD"}},{"type":"MultiPolygon","arcs":[[[-46,145,146,147,148,149,-104,150,-142,151,152]]],"properties":{"GID_2":"RUS.6.23_1","GID_0":"RUS","COUNTRY":"Russia","GID_1":"RUS.6_1","NAME_1":"Bashkortostan","NL_NAME_1":"РеспубликаБашкортостан","NAME_2":"Chekmagushevskiyrayon","VARNAME_2":"NA","NL_NAME_2":"Чекмагушевскийрайон","TYPE_2":"Raion","ENGTYPE_2":"District","CC_2":"R46005","HASC_2":"RU.BK.CK"}},{"type":"MultiPolygon","arcs":[[[-107,153,154,155,156,157,158]]],"properties":{"GID_2":"RUS.6.24_1","GID_0":"RUS","COUNTRY":"Russia","GID_1":"RUS.6_1","NAME_1":"Bashkortostan","NL_NAME_1":"РеспубликаБашкортостан","NAME_2":"Chishminskiyrayon","VARNAME_2":"NA","NL_NAME_2":"Чишминскийрайон","TYPE_2":"Raion","ENGTYPE_2":"District","CC_2":"R46005","HASC_2":"RU.BK.CS"}},{"type":"MultiPolygon","arcs":[[[159]]],"properties":{"GID_2":"RUS.6.25_1","GID_0":"RUS","COUNTRY":"Russia","GID_1":"RUS.6_1","NAME_1":"Bashkortostan","NL_NAME_1":"РеспубликаБашкортостан","NAME_2":"Davlekanovo","VARNAME_2":"NA","NL_NAME_2":"Давлеканово","TYPE_2":"Gorod","ENGTYPE_2":"City","CC_2":"NA","HASC_2":"RU.BK.DG"}},{"type":"MultiPolygon","arcs":[[[-17,-75,-145,160,-108,-159,161,162,-36],[-160]]],"properties":{"GID_2":"RUS.6.26_1","GID_0":"RUS","COUNTRY":"Russia","GID_1":"RUS.6_1","NAME_1":"Bashkortostan","NL_NAME_1":"РеспубликаБашкортостан","NAME_2":"Davlekanovskiyrayon","VARNAME_2":"NA","NL_NAME_2":"Давлекановскийрайон","TYPE_2":"Raion","ENGTYPE_2":"District","CC_2":"R46002","HASC_2":"RU.BK.DR"}},{"type":"MultiPolygon","arcs":[[[163,-29,164,165,166,167,168,169,170,171,172,173,174,175,176,177]]],"properties":{"GID_2":"RUS.6.27_1","GID_0":"RUS","COUNTRY":"Russia","GID_1":"RUS.6_1","NAME_1":"Bashkortostan","NL_NAME_1":"РеспубликаБашкортостан","NAME_2":"Duvanskiyrayon","VARNAME_2":"NA","NL_NAME_2":"Дуванскийрайон","TYPE_2":"Raion","ENGTYPE_2":"District","CC_2":"R46002","HASC_2":"RU.BK.DU"}},{"type":"MultiPolygon","arcs":[[[178]]],"properties":{"GID_2":"RUS.6.28_1","GID_0":"RUS","COUNTRY":"Russia","GID_1":"RUS.6_1","NAME_1":"Bashkortostan","NL_NAME_1":"РеспубликаБашкортостан","NAME_2":"Dyurtyuli","VARNAME_2":"NA","NL_NAME_2":"Дюртюли","TYPE_2":"Gorod","ENGTYPE_2":"City","CC_2":"NA","HASC_2":"RU.BK.DT"}},{"type":"MultiPolygon","arcs":[[[-97,179,-148,180,181,182,183,184,-126],[-179]]],"properties":{"GID_2":"RUS.6.29_1","GID_0":"RUS","COUNTRY":"Russia","GID_1":"RUS.6_1","NAME_1":"Bashkortostan","NL_NAME_1":"РеспубликаБашкортостан","NAME_2":"Dyurtyulinskiyrayon","VARNAME_2":"NA","NL_NAME_2":"Дюртюлинскийрайон","TYPE_2":"Raion","ENGTYPE_2":"District","CC_2":"R46002","HASC_2":"RU.BK.DY"}},{"type":"MultiPolygon","arcs":[[[185,186,187,188,189]]],"properties":{"GID_2":"RUS.6.30_1","GID_0":"RUS","COUNTRY":"Russia","GID_1":"RUS.6_1","NAME_1":"Bashkortostan","NL_NAME_1":"РеспубликаБашкортостан","NAME_2":"Fedorovskiyrayon","VARNAME_2":"NA","NL_NAME_2":"Федоровскийрайон","TYPE_2":"Raion","ENGTYPE_2":"District","CC_2":"R46004","HASC_2":"RU.BK.FE"}},{"type":"MultiPolygon","arcs":[[[-25,190,-86,191,192,193,194,-42,195,196]]],"properties":{"GID_2":"RUS.6.31_1","GID_0":"RUS","COUNTRY":"Russia","GID_1":"RUS.6_1","NAME_1":"Bashkortostan","NL_NAME_1":"РеспубликаБашкортостан","NAME_2":"Gafuriyskiyrayon","VARNAME_2":"NA","NL_NAME_2":"Гафурийскийрайон","TYPE_2":"Raion","ENGTYPE_2":"District","CC_2":"R46001","HASC_2":"RU.BK.GA"}},{"type":"MultiPolygon","arcs":[[[-19,197,198,-120,199,200,201]]],"properties":{"GID_2":"RUS.6.32_1","GID_0":"RUS","COUNTRY":"Russia","GID_1":"RUS.6_1","NAME_1":"Bashkortostan","NL_NAME_1":"РеспубликаБашкортостан","NAME_2":"Iglinskiyrayon","VARNAME_2":"NA","NL_NAME_2":"Иглинскийрайон","TYPE_2":"Raion","ENGTYPE_2":"District","CC_2":"R46002","HASC_2":"RU.BK.IG"}},{"type":"MultiPolygon","arcs":[[[-49,202,203,204,205,-182,206,-146]]],"properties":{"GID_2":"RUS.6.33_1","GID_0":"RUS","COUNTRY":"Russia","GID_1":"RUS.6_1","NAME_1":"Bashkortostan","NL_NAME_1":"РеспубликаБашкортостан","NAME_2":"Ilishevskiyrayon","VARNAME_2":"NA","NL_NAME_2":"Илишевскийрайон","TYPE_2":"Raion","ENGTYPE_2":"District","CC_2":"R46002","HASC_2":"RU.BK.IL"}},{"type":"MultiPolygon","arcs":[[[207]]],"properties":{"GID_2":"RUS.6.34_1","GID_0":"RUS","COUNTRY":"Russia","GID_1":"RUS.6_1","NAME_1":"Bashkortostan","NL_NAME_1":"РеспубликаБашкортостан","NAME_2":"Ishimbay","VARNAME_2":"NA","NL_NAME_2":"Ишимбай","TYPE_2":"Gorod","ENGTYPE_2":"City","CC_2":"NA","HASC_2":"RU.BK.IB"}},{"type":"MultiPolygon","arcs":[[[-85,208,-137,209,210,211,-194,212,-192],[-208]]],"properties":{"GID_2":"RUS.6.35_1","GID_0":"RUS","COUNTRY":"Russia","GID_1":"RUS.6_1","NAME_1":"Bashkortostan","NL_NAME_1":"РеспубликаБашкортостан","NAME_2":"Ishimbayskiyrayon","VARNAME_2":"NA","NL_NAME_2":"Ишимбайскийрайон","TYPE_2":"Raion","ENGTYPE_2":"District","CC_2":"R46002","HASC_2":"RU.BK.IS"}},{"type":"MultiPolygon","arcs":[[[-127,-185,213,214,215,216]]],"properties":{"GID_2":"RUS.6.36_1","GID_0":"RUS","COUNTRY":"Russia","GID_1":"RUS.6_1","NAME_1":"Bashkortostan","NL_NAME_1":"РеспубликаБашкортостан","NAME_2":"Kaltasinskiyrayon","VARNAME_2":"NA","NL_NAME_2":"Калтасинскийрайон","TYPE_2":"Raion","ENGTYPE_2":"District","CC_2":"R46002","HASC_2":"RU.BK.KL"}},{"type":"MultiPolygon","arcs":[[[-35,217,-33,218,-31,219,-178,220,-176,221,222,223,-115,224,-50]]],"properties":{"GID_2":"RUS.6.37_1","GID_0":"RUS","COUNTRY":"Russia","GID_1":"RUS.6_1","NAME_1":"Bashkortostan","NL_NAME_1":"РеспубликаБашкортостан","NAME_2":"Karaidel'skiyrayon","VARNAME_2":"NA","NL_NAME_2":"Караидельскийрайон","TYPE_2":"Raion","ENGTYPE_2":"District","CC_2":"R46003","HASC_2":"RU.BK.KD"}},{"type":"MultiPolygon","arcs":[[[-18,-197,225,-40,226,-38,227,228,-157,229,-198]]],"properties":{"GID_2":"RUS.6.38_1","GID_0":"RUS","COUNTRY":"Russia","GID_1":"RUS.6_1","NAME_1":"Bashkortostan","NL_NAME_1":"РеспубликаБашкортостан","NAME_2":"Karmaskalinskiyrayon","VARNAME_2":"NA","NL_NAME_2":"Кармаскалинскийрайон","TYPE_2":"Raion","ENGTYPE_2":"District","CC_2":"R46003","HASC_2":"RU.BK.KM"}},{"type":"MultiPolygon","arcs":[[[-58,230,231,232,233,234]]],"properties":{"GID_2":"RUS.6.39_1","GID_0":"RUS","COUNTRY":"Russia","GID_1":"RUS.6_1","NAME_1":"Bashkortostan","NL_NAME_1":"РеспубликаБашкортостан","NAME_2":"Khaybullinskiyrayon","VARNAME_2":"NA","NL_NAME_2":"Хайбуллинскийрайон","TYPE_2":"Raion","ENGTYPE_2":"District","CC_2":"R46005","HASC_2":"RU.BK.KH"}},{"type":"MultiPolygon","arcs":[[[-81,235,236,237,-168,238,239]]],"properties":{"GID_2":"RUS.6.40_1","GID_0":"RUS","COUNTRY":"Russia","GID_1":"RUS.6_1","NAME_1":"Bashkortostan","NL_NAME_1":"РеспубликаБашкортостан","NAME_2":"Kiginskiyrayon","VARNAME_2":"NA","NL_NAME_2":"Кигинскийрайон","TYPE_2":"Raion","ENGTYPE_2":"District","CC_2":"R46003","HASC_2":"RU.BK.KI"}},{"type":"MultiPolygon","arcs":[[[-184,240,-205,241,242,243,-214],[244]]],"properties":{"GID_2":"RUS.6.41_1","GID_0":"RUS","COUNTRY":"Russia","GID_1":"RUS.6_1","NAME_1":"Bashkortostan","NL_NAME_1":"РеспубликаБашкортостан","NAME_2":"Krasnokamskiyrayon","VARNAME_2":"NA","NL_NAME_2":"Краснокамскийрайон","TYPE_2":"Raion","ENGTYPE_2":"District","CC_2":"R46003","HASC_2":"RU.BK.KR"}},{"type":"MultiPolygon","arcs":[[[-135,245,246,247,248,249,250,251,252,253,254,255]]],"properties":{"GID_2":"RUS.6.42_1","GID_0":"RUS","COUNTRY":"Russia","GID_1":"RUS.6_1","NAME_1":"Bashkortostan","NL_NAME_1":"РеспубликаБашкортостан","NAME_2":"Kugarchinskiyrayon","VARNAME_2":"NA","NL_NAME_2":"Кугарчинскийрайон","TYPE_2":"Raion","ENGTYPE_2":"District","CC_2":"R46003","HASC_2":"RU.BK.KG"}},{"type":"MultiPolygon","arcs":[[[256]]],"properties":{"GID_2":"RUS.6.43_1","GID_0":"RUS","COUNTRY":"Russia","GID_1":"RUS.6_1","NAME_1":"Bashkortostan","NL_NAME_1":"РеспубликаБашкортостан","NAME_2":"Kumertay","VARNAME_2":"Kumertau","NL_NAME_2":"Кумертау","TYPE_2":"Gorod","ENGTYPE_2":"City","CC_2":"NA","HASC_2":"RU.BK.KU"}},{"type":"MultiPolygon","arcs":[[[-96,-122,257,258,-154,-106,259,-149,-180]]],"properties":{"GID_2":"RUS.6.44_1","GID_0":"RUS","COUNTRY":"Russia","GID_1":"RUS.6_1","NAME_1":"Bashkortostan","NL_NAME_1":"РеспубликаБашкортостан","NAME_2":"Kushnarenkovskiyrayon","VARNAME_2":"NA","NL_NAME_2":"Кушнаренковскийрайон","TYPE_2":"Raion","ENGTYPE_2":"District","CC_2":"R46003","HASC_2":"RU.BK.KN"}},{"type":"MultiPolygon","arcs":[[[-190,260,261,262,-253,263],[-257]]],"properties":{"GID_2":"RUS.6.45_1","GID_0":"RUS","COUNTRY":"Russia","GID_1":"RUS.6_1","NAME_1":"Bashkortostan","NL_NAME_1":"РеспубликаБашкортостан","NAME_2":"Kuyurgazinskiyrayon","VARNAME_2":"NA","NL_NAME_2":"Куюргазинскийрайон","TYPE_2":"Raion","ENGTYPE_2":"District","CC_2":"R46003","HASC_2":"RU.BK.KZ"}},{"type":"MultiPolygon","arcs":[[[-79,264,-77,-240,265,-166,266]]],"properties":{"GID_2":"RUS.6.46_1","GID_0":"RUS","COUNTRY":"Russia","GID_1":"RUS.6_1","NAME_1":"Bashkortostan","NL_NAME_1":"РеспубликаБашкортостан","NAME_2":"Mechetlinskiyrayon","VARNAME_2":"NA","NL_NAME_2":"Мечетлинскийрайон","TYPE_2":"Raion","ENGTYPE_2":"District","CC_2":"R46003","HASC_2":"RU.BK.ME"}},{"type":"MultiPolygon","arcs":[[[267]]],"properties":{"GID_2":"RUS.6.47_1","GID_0":"RUS","COUNTRY":"Russia","GID_1":"RUS.6_1","NAME_1":"Bashkortostan","NL_NAME_1":"РеспубликаБашкортостан","NAME_2":"Meleuz","VARNAME_2":"NA","NL_NAME_2":"Мелеуз","TYPE_2":"Gorsovet","ENGTYPE_2":"District","CC_2":"NA","HASC_2":"RU.BK.MG"}},{"type":"MultiPolygon","arcs":[[[-136,-256,268,-254,-263,269,-261,-189,270,271,272,273,274,-210],[-268]]],"properties":{"GID_2":"RUS.6.48_1","GID_0":"RUS","COUNTRY":"Russia","GID_1":"RUS.6_1","NAME_1":"Bashkortostan","NL_NAME_1":"РеспубликаБашкортостан","NAME_2":"Meleuzovskiyrayon","VARNAME_2":"NA","NL_NAME_2":"Мелеузовскийрайон","TYPE_2":"Raion","ENGTYPE_2":"District","CC_2":"R46003","HASC_2":"RU.BK.MR"}},{"type":"MultiPolygon","arcs":[[[-51,-225,-114,275,-112,-94,276,-124]]],"properties":{"GID_2":"RUS.6.49_1","GID_0":"RUS","COUNTRY":"Russia","GID_1":"RUS.6_1","NAME_1":"Bashkortostan","NL_NAME_1":"РеспубликаБашкортостан","NAME_2":"Mishkinskiyrayon","VARNAME_2":"NA","NL_NAME_2":"Мишкинскийрайон","TYPE_2":"Raion","ENGTYPE_2":"District","CC_2":"R46003","HASC_2":"RU.BK.MI"}},{"type":"MultiPolygon","arcs":[[[-13,277,278,279,-98]]],"properties":{"GID_2":"RUS.6.50_1","GID_0":"RUS","COUNTRY":"Russia","GID_1":"RUS.6_1","NAME_1":"Bashkortostan","NL_NAME_1":"РеспубликаБашкортостан","NAME_2":"Miyakinskiyrayon","VARNAME_2":"NA","NL_NAME_2":"Миякинскийрайон","TYPE_2":"Raion","ENGTYPE_2":"District","CC_2":"R46004","HASC_2":"RU.BK.MY"}},{"type":"MultiPolygon","arcs":[[[-245]]],"properties":{"GID_2":"RUS.6.51_1","GID_0":"RUS","COUNTRY":"Russia","GID_1":"RUS.6_1","NAME_1":"Bashkortostan","NL_NAME_1":"РеспубликаБашкортостан","NAME_2":"Neftekamsk","VARNAME_2":"NA","NL_NAME_2":"Нефтекамск","TYPE_2":"Gorsovet","ENGTYPE_2":"District","CC_2":"NA","HASC_2":"RU.BK.NE"}},{"type":"MultiPolygon","arcs":[[[-119,280,-117,281,-223,282,-174,283,284,285,286,-200]]],"properties":{"GID_2":"RUS.6.52_1","GID_0":"RUS","COUNTRY":"Russia","GID_1":"RUS.6_1","NAME_1":"Bashkortostan","NL_NAME_1":"РеспубликаБашкортостан","NAME_2":"Nurimanovskiyrayon","VARNAME_2":"NA","NL_NAME_2":"Нуримановскийрайон","TYPE_2":"Raion","ENGTYPE_2":"District","CC_2":"R46004","HASC_2":"RU.BK.NU"}},{"type":"MultiPolygon","arcs":[[[287]]],"properties":{"GID_2":"RUS.6.53_1","GID_0":"RUS","COUNTRY":"Russia","GID_1":"RUS.6_1","NAME_1":"Bashkortostan","NL_NAME_1":"РеспубликаБашкортостан","NAME_2":"Oktyabr'skiy","VARNAME_2":"Oktabrskiy","NL_NAME_2":"Октябрьский","TYPE_2":"Gorod","ENGTYPE_2":"City","CC_2":"NA","HASC_2":"RU.BK.OK"}},{"type":"MultiPolygon","arcs":[[[288]]],"properties":{"GID_2":"RUS.6.54_1","GID_0":"RUS","COUNTRY":"Russia","GID_1":"RUS.6_1","NAME_1":"Bashkortostan","NL_NAME_1":"РеспубликаБашкортостан","NAME_2":"Salavat","VARNAME_2":"NA","NL_NAME_2":"Салават","TYPE_2":"Gorod","ENGTYPE_2":"City","CC_2":"NA","HASC_2":"RU.BK.SG"}},{"type":"MultiPolygon","arcs":[[[-172,289,-170,290,-237,291,-285,292]]],"properties":{"GID_2":"RUS.6.55_1","GID_0":"RUS","COUNTRY":"Russia","GID_1":"RUS.6_1","NAME_1":"Bashkortostan","NL_NAME_1":"РеспубликаБашкортостан","NAME_2":"Salavatskiyrayon","VARNAME_2":"NA","NL_NAME_2":"Салаватскийрайон","TYPE_2":"Raion","ENGTYPE_2":"District","CC_2":"R46004","HASC_2":"RU.BK.SR"}},{"type":"MultiPolygon","arcs":[[[-47,-153,293,-141,294,295]]],"properties":{"GID_2":"RUS.6.56_1","GID_0":"RUS","COUNTRY":"Russia","GID_1":"RUS.6_1","NAME_1":"Bashkortostan","NL_NAME_1":"РеспубликаБашкортостан","NAME_2":"Sharanskiyrayon","VARNAME_2":"NA","NL_NAME_2":"Шаранскийрайон","TYPE_2":"Raion","ENGTYPE_2":"District","CC_2":"R46005","HASC_2":"RU.BK.SH"}},{"type":"MultiPolygon","arcs":[[[-66]]],"properties":{"GID_2":"RUS.6.57_1","GID_0":"RUS","COUNTRY":"Russia","GID_1":"RUS.6_1","NAME_1":"Bashkortostan","NL_NAME_1":"РеспубликаБашкортостан","NAME_2":"Sibay","VARNAME_2":"NA","NL_NAME_2":"Сибай","TYPE_2":"Gorsovet","ENGTYPE_2":"District","CC_2":"NA","HASC_2":"RU.BK.SI"}},{"type":"MultiPolygon","arcs":[[[-187,296,-279,297,298,-272,299]]],"properties":{"GID_2":"RUS.6.58_1","GID_0":"RUS","COUNTRY":"Russia","GID_1":"RUS.6_1","NAME_1":"Bashkortostan","NL_NAME_1":"РеспубликаБашкортостан","NAME_2":"Sterlibashevskiyrayon","VARNAME_2":"NA","NL_NAME_2":"Стерлибашевскийрайон","TYPE_2":"Raion","ENGTYPE_2":"District","CC_2":"R46004","HASC_2":"RU.BK.SB"}},{"type":"MultiPolygon","arcs":[[[-12,-45,300,-43,-195,-212,301,-274,302,-299,303],[-289]]],"properties":{"GID_2":"RUS.6.59_1","GID_0":"RUS","COUNTRY":"Russia","GID_1":"RUS.6_1","NAME_1":"Bashkortostan","NL_NAME_1":"РеспубликаБашкортостан","NAME_2":"Sterlitamakskiyrayon","VARNAME_2":"NA","NL_NAME_2":"Стерлитамакскийрайон","TYPE_2":"Raion","ENGTYPE_2":"District","CC_2":"R46004","HASC_2":"RU.BK.SM"}},{"type":"MultiPolygon","arcs":[[[-27,-55,-129,304,305,306]]],"properties":{"GID_2":"RUS.6.60_1","GID_0":"RUS","COUNTRY":"Russia","GID_1":"RUS.6_1","NAME_1":"Bashkortostan","NL_NAME_1":"РеспубликаБашкортостан","NAME_2":"Tatyshlinskiyrayon","VARNAME_2":"NA","NL_NAME_2":"Татышлинскийрайон","TYPE_2":"Raion","ENGTYPE_2":"District","CC_2":"R46004","HASC_2":"RU.BK.TA"}},{"type":"MultiPolygon","arcs":[[[-72,307,308,309,310,-295,-140,311],[-288],[312]]],"properties":{"GID_2":"RUS.6.61_1","GID_0":"RUS","COUNTRY":"Russia","GID_1":"RUS.6_1","NAME_1":"Bashkortostan","NL_NAME_1":"РеспубликаБашкортостан","NAME_2":"Tuymazinskiyrayon","VARNAME_2":"NA","NL_NAME_2":"Туймазинскийрайон","TYPE_2":"Raion","ENGTYPE_2":"District","CC_2":"R46004","HASC_2":"RU.BK.TR"}},{"type":"MultiPolygon","arcs":[[[-313]]],"properties":{"GID_2":"RUS.6.62_1","GID_0":"RUS","COUNTRY":"Russia","GID_1":"RUS.6_1","NAME_1":"Bashkortostan","NL_NAME_1":"РеспубликаБашкортостан","NAME_2":"Tuymazy","VARNAME_2":"NA","NL_NAME_2":"Туймазы","TYPE_2":"Gorsovet","ENGTYPE_2":"District","CC_2":"NA","HASC_2":"RU.BK.TG"}},{"type":"MultiPolygon","arcs":[[[-2,313,-90,314]]],"properties":{"GID_2":"RUS.6.63_1","GID_0":"RUS","COUNTRY":"Russia","GID_1":"RUS.6_1","NAME_1":"Bashkortostan","NL_NAME_1":"РеспубликаБашкортостан","NAME_2":"Uchalinskiyrayon","VARNAME_2":"NA","NL_NAME_2":"Учалинскийрайон","TYPE_2":"Raion","ENGTYPE_2":"District","CC_2":"R46004","HASC_2":"RU.BK.UC"}},{"type":"MultiPolygon","arcs":[[[-121,-199,-230,-156,315,-258]]],"properties":{"GID_2":"RUS.6.64_1","GID_0":"RUS","COUNTRY":"Russia","GID_1":"RUS.6_1","NAME_1":"Bashkortostan","NL_NAME_1":"РеспубликаБашкортостан","NAME_2":"Ufimskiyrayon","VARNAME_2":"NA","NL_NAME_2":"Уфимскийрайон","TYPE_2":"Raion","ENGTYPE_2":"District","CC_2":"R46004","HASC_2":"RU.BK.UR"}},{"type":"MultiPolygon","arcs":[[[316]]],"properties":{"GID_2":"RUS.6.65_1","GID_0":"RUS","COUNTRY":"Russia","GID_1":"RUS.6_1","NAME_1":"Bashkortostan","NL_NAME_1":"РеспубликаБашкортостан","NAME_2":"Yanaul","VARNAME_2":"NA","NL_NAME_2":"Янаул","TYPE_2":"Gorod","ENGTYPE_2":"City","CC_2":"NA","HASC_2":"RU.BK.YG"}},{"type":"MultiPolygon","arcs":[[[317,-217,318,-215,-244,319,-306],[-317]]],"properties":{"GID_2":"RUS.6.66_1","GID_0":"RUS","COUNTRY":"Russia","GID_1":"RUS.6_1","NAME_1":"Bashkortostan","NL_NAME_1":"РеспубликаБашкортостан","NAME_2":"Yanaul'skiyrayon","VARNAME_2":"NA","NL_NAME_2":"Янаульскийрайон","TYPE_2":"Raion","ENGTYPE_2":"District","CC_2":"R46005","HASC_2":"RU.BK.YR"}},{"type":"MultiPolygon","arcs":[[[-70,320,-100,321,-310,322,323]]],"properties":{"GID_2":"RUS.6.67_1","GID_0":"RUS","COUNTRY":"Russia","GID_1":"RUS.6_1","NAME_1":"Bashkortostan","NL_NAME_1":"РеспубликаБашкортостан","NAME_2":"Yermekeyevskiyrayon","VARNAME_2":"NA","NL_NAME_2":"Ермекеевскийрайон","TYPE_2":"Raion","ENGTYPE_2":"District","CC_2":"R46002","HASC_2":"RU.BK.YE"}},{"type":"MultiPolygon","arcs":[[[-232,324,-251,325,326]]],"properties":{"GID_2":"RUS.6.68_1","GID_0":"RUS","COUNTRY":"Russia","GID_1":"RUS.6_1","NAME_1":"Bashkortostan","NL_NAME_1":"РеспубликаБашкортостан","NAME_2":"Zianchurinskiyrayon","VARNAME_2":"NA","NL_NAME_2":"Зианчуринскийрайон","TYPE_2":"Raion","ENGTYPE_2":"District","CC_2":"R46002","HASC_2":"RU.BK.ZN"}},{"type":"MultiPolygon","arcs":[[[-61,327,-59,-235,328,-233,-327,329,330,-248,331,-246,-134,332,333]]],"properties":{"GID_2":"RUS.6.69_1","GID_0":"RUS","COUNTRY":"Russia","GID_1":"RUS.6_1","NAME_1":"Bashkortostan","NL_NAME_1":"РеспубликаБашкортостан","NAME_2":"Zilairskiyrayon","VARNAME_2":"NA","NL_NAME_2":"Зилаирскийрайон","TYPE_2":"Raion","ENGTYPE_2":"District","CC_2":"R46002","HASC_2":"RU.BK.ZL"}}]}},"arcs":[[[826987,466881],[13816,3082],[9849,40]],[[850652,470003],[3554,-2362]],[[854206,467641],[-4586,-39762],[-2610,-5843],[-10704,-12947],[8596,-11267],[1032,-18990],[-2462,-17410],[1371,-11727],[-8301,-5483],[11309,-10686],[4497,-15388],[-1283,-6084],[8065,-10726],[-19403,-18930],[-3126,-15229],[-413,-14628]],[[836188,252541],[-18740,11907],[-5839,9305],[-5809,3022],[-9024,2981],[-13226,7825],[-21409,2261],[-4187,4823],[-1489,5463],[486,5683],[-4335,13748],[-9008,6583],[-17738,1621]],[[725870,327763],[-8168,4343]],[[717702,332106],[-4733,5403],[-4011,5823]],[[708958,343332],[3848,3082],[18372,7704],[6664,7364],[5117,9145],[929,7704],[-6812,7785],[-7019,520],[-8183,-1921],[-6605,-3722],[-10793,1061],[-6930,4142],[-10071,1441]],[[687475,387637],[13624,3242],[5854,3321],[2094,3863],[10188,8404],[7667,2522]],[[726902,408989],[43334,1901],[12739,1701]],[[782975,412591],[10144,4722],[10823,7745],[6296,7904],[1342,6043],[-664,5844],[13182,6323],[8890,7484],[-6001,8225]],[[340980,498999],[-14,-7164],[1415,-6304],[-1636,-5463]],[[340745,480068],[-7004,3802],[-5043,541],[-3420,-4783],[-1799,-6464],[11677,-13527],[-722,-4022],[-8242,-3242],[-7019,3802],[-6089,-1921],[6296,-7844],[5382,-2102],[1445,-2701],[-11457,-7004]],[[314750,434603],[-7004,3782],[-899,2161],[531,3022],[-3244,3402],[-10601,5183],[-2698,2821],[-4866,8685],[1769,2902],[-15,3582],[-1430,2701],[-6310,621],[-13359,-14548],[-5721,-3522],[-16351,5162],[-7151,-860],[-8036,-2301],[-15084,-10346],[-5942,2581],[-2005,3262],[-9923,5503]],[[196411,458396],[-6001,6164],[-15010,-2222],[-3981,2902],[-236,2562],[18121,9625],[2580,7944]],[[191884,485371],[5574,-1000]],[[197458,484371],[13167,10025],[2654,4363],[-3067,16109],[9657,7804],[-13166,13448],[265,9165]],[[206968,545285],[4939,-5043],[13035,-2722],[20789,1141],[2905,-1821],[-2300,-5903],[3258,-3382],[15688,8725],[4719,-2502],[929,-9285],[5986,-6223],[6487,400],[13034,-13568],[16957,-2221],[7210,801],[7018,-3803],[13358,-880]],[[497080,556491],[-3214,3462],[-5190,12947],[2182,7444],[-4217,8205]],[[486641,588549],[16027,4803],[12105,7824],[11545,20712],[9820,2941],[6193,4383],[5765,8565],[-206,5162],[6104,6984],[6753,-2361],[103,-2581],[4821,-5223],[2861,-8065],[3937,-3062],[6546,2782],[10159,1301],[-708,5763],[-5337,5823],[-1150,3742],[12827,13328]],[[594806,661370],[8434,-6724],[23488,-13287],[10218,-4023]],[[636946,637336],[-2713,-6764],[-7446,-6763],[-9554,-4443],[-8700,-6623],[-560,-5584],[6326,-13207],[-797,-6584],[-8212,-4622],[-649,-3002],[-30,-6183],[4748,-11467]],[[609359,562094],[-10527,-3282],[-5220,-2921]],[[593612,555891],[-2654,-3282],[634,-3162],[5308,-5863],[-3612,-4683]],[[593288,538901],[-17074,-3502]],[[576214,535399],[-18431,-740],[-21807,1681],[-6768,-1221],[-16764,7184],[-9083,9846],[-6281,4342]],[[490209,874049],[-5441,9345],[-2064,9465],[-7431,16229],[-13919,8165],[-3863,7604]],[[457491,924857],[3008,7904],[6296,10646],[767,7985],[1975,5083]],[[469537,956475],[11265,8044],[13831,560],[10424,-5763],[943,-8344],[24196,-17610],[11324,-16710],[7638,-5523],[12945,60],[13993,7645],[10291,340],[12459,6764],[2625,8464],[17251,15469],[11206,6884],[3008,-10666],[5956,-3822],[8773,-9325],[-5794,-10106]],[[641871,922836],[-3141,-10446],[-3111,-1681]],[[635619,910709],[-944,-4002],[-6001,-11126]],[[628674,895581],[-4674,-2522],[-3509,2482],[-309,4362],[-2035,3142],[-5632,2221],[-12710,-7544]],[[599805,897722],[-3377,-6604]],[[596428,891118],[1018,-5623],[3258,-5083],[-3922,-4362],[-22102,-2862],[-8758,-5643]],[[565922,867545],[-4866,560],[-2772,1361]],[[558284,869466],[-1474,2742],[6193,9005],[-1740,4882],[-10366,2222],[-9819,-4543],[-10041,6804],[-6576,-1481],[-7653,-8705],[-7564,-2781],[-8610,4042],[-4394,-1581],[-6031,-6023]],[[340980,498999],[5780,-100],[-6281,11426],[14671,9746]],[[355150,520071],[-7358,12547]],[[347792,532618],[12165,2821],[7033,-3822],[7062,-240],[10778,9085],[5957,-2701],[2728,740],[13005,10366],[8551,600],[5765,-3722],[5176,-6724],[3951,-16369]],[[429963,522652],[9702,-6744]],[[439665,515908],[6532,261],[4644,7184],[8980,6163],[5544,-4763],[-44,-3602],[4202,-8204]],[[469523,512947],[-1386,-7024]],[[468137,505923],[-5308,-4022],[-12887,-3122],[-6812,-8465],[5293,-9345],[4291,-4623],[-8891,-2561]],[[443823,473785],[-8448,3042]],[[435375,476827],[-16632,-2722]],[[418743,474105],[-2389,-5903],[-7991,-8345],[-18062,-10826],[-8301,-6784],[-4674,-1020],[-6989,3862],[-17045,-2261],[-6296,4262],[-1784,4302],[9717,11267],[-339,5183],[-3598,4982],[-10247,7244]],[[160184,731989],[-5338,-12307],[-1268,-11626],[-2624,-7945]],[[150954,700111],[-30,-8164],[-1061,-2442],[-5264,-4162],[-18593,6624],[-14243,1140],[-10026,-5303],[-8640,-860],[-7299,3642],[-7092,-3542],[2212,-6784],[-457,-3021],[-5323,-4883]],[[75138,672356],[-1740,2021],[-11427,-1581],[-7564,841],[-6989,10205],[-7446,7184],[-15835,8305],[-6355,6063],[-17782,4343],[6075,10426],[26068,6103],[9348,4903],[15880,-320],[11707,7244],[6487,7704],[3701,6904],[12356,6643],[20318,7225],[4261,5042]],[[116201,771611],[5588,-3302],[2227,-6803],[11839,-4543],[7019,-5683],[-1475,-9065],[5854,-4563],[9849,-300],[3082,-5363]],[[490209,874049],[7535,-9045],[2447,-7465],[-6561,-5423]],[[493630,852116],[-24800,-12166],[-11354,6863],[-7622,-4322],[-1239,-6023],[-5190,-5584],[-18534,-5222],[-11117,-1922],[-8655,381]],[[405119,824121],[-634,6743],[-6960,15569],[148,5783],[6546,10006],[531,3462],[-2978,4002]],[[401772,869686],[-19787,7044],[-22132,4262]],[[359853,880992],[1195,3222],[13240,1481],[8744,3222],[3848,5783],[44,4082],[-1872,3783]],[[385052,902565],[14154,9865],[6178,7064],[10734,6103],[10100,-540],[9776,-8725],[10424,7645],[11073,880]],[[763675,197490],[-2006,-1180],[-2565,980],[-74,2061],[4438,841],[207,-2702]],[[836188,252541],[-1430,-13407],[1253,-6504],[-5942,-10606],[-295,-4683],[14863,-14988],[-7358,-11446],[7018,-9526],[-2447,-5923],[10940,-21752],[-9038,-10626],[-4512,2822],[-7549,160],[-9245,-5343]],[[822446,140719],[-14125,5403],[-14405,700],[-16175,11486],[-11073,1741],[-15939,-7524],[-6664,1561]],[[744065,154086],[-5072,3422],[-8361,9685],[-4231,1161],[-7092,-4162]],[[719309,164192],[-12518,-2822],[-6532,-1120]],[[700259,160250],[-9496,3542],[-23281,-6524],[-5986,1941],[-13580,13027],[-4969,15429],[18445,14608],[2831,5343],[-811,16889],[752,7765],[7682,3582],[11177,-1641],[7151,4162],[-1888,7104],[-4231,4803],[-6562,2541],[-4762,5423],[9171,8065],[-3509,5223],[-9363,8184],[-1017,4863]],[[668013,284579],[7446,-4763]],[[675459,279816],[7490,-1100]],[[682949,278716],[6296,2741],[3067,2682]],[[692312,284139],[1887,6523],[-2005,9706],[118,7284],[13034,7484],[8699,-4943],[10719,-11026],[3612,2081],[6989,9406],[281,4662],[-9776,12447]],[[813128,228728],[1282,2501],[-1592,861],[-3848,-1521],[73,-2081],[4085,240]],[[197458,484371],[-12253,3142]],[[185205,487513],[-13167,-6504],[-13904,4803],[-19197,-401],[-24992,-5042]],[[113945,480369],[-8109,1160]],[[105836,481529],[-4114,6464],[9230,18630],[8906,12007],[-3568,5903],[-5456,1981],[-5691,-3622],[-3627,1321],[-7476,9786],[3775,7844]],[[97815,541843],[7446,-1621]],[[105261,540222],[15599,13508],[9511,3301],[6664,-6683],[796,-3122],[9953,-10026],[5883,4603],[-1401,7264],[7092,8064],[8832,2802],[9510,6844]],[[177700,566777],[4969,-5043]],[[182669,561734],[6016,-2561],[5234,560],[3052,2781]],[[196971,562514],[6989,-8284],[3008,-8945]],[[141075,507484],[1239,1541],[-605,1280],[-2020,360],[-1401,-1821],[2787,-1360]],[[788313,820138],[9628,5924],[2565,7404],[-5647,15268],[-8522,12027],[206,6184]],[[786543,866945],[10897,18690]],[[797440,885635],[9200,3922],[19743,12787],[10041,4303]],[[836424,906647],[6340,-1921],[9540,-320],[8198,5082],[7416,9826],[11678,5083],[9274,-3942],[21778,4122],[6856,-7765],[-841,-5583],[-12474,-5443],[-9554,-7424],[3141,-8765],[737,-9985],[-10837,-15009],[-4497,-9205],[11028,-7324],[8139,-160],[8655,-5963],[-4231,-8205],[3642,-6764],[471,-10966],[13904,3622],[13846,-9365],[20951,-620],[-15068,-15369],[-7373,-9785],[-41520,-3082],[-3922,-2021],[-5736,-6424],[-7829,8945]],[[878136,781917],[-14612,6304],[-10970,2121],[-4187,4762],[4659,10206],[-3671,4162],[-6016,341],[-9746,12267],[-8640,720],[-6827,2501],[-3376,-5223],[-10425,-6303],[-8139,5283],[-7873,1080]],[[782975,412591],[-56073,-3602]],[[687475,387637],[-13373,-8485],[-1209,-6083],[-5116,-2902],[-4822,1741],[-14567,-8365],[-11840,2201],[-7933,-980],[-6222,4522],[973,14929],[-4895,7944],[-6222,4503],[266,4622],[-4630,2722],[-11132,-7324],[-4114,2121]],[[592639,398803],[4497,9765]],[[597136,408568],[-5824,6484],[-14007,4463],[-2109,2341],[14229,16249],[-3716,4102],[-4320,1081],[-20804,-10206],[-2846,1921],[-8242,13988]],[[549497,448991],[9112,3482],[10704,1721],[10970,-3502],[5986,760],[5131,2942],[1947,34920],[-973,10986],[-3716,4082],[-5205,15649],[-442,10386],[2536,5863]],[[585547,536280],[7741,2621]],[[593612,555891],[15747,6203]],[[636946,637336],[7387,-2921],[14450,-12207],[16661,-11006],[5264,-14669],[8581,-5823],[13683,-15328],[9997,-2422],[12414,2402],[14789,9825],[10247,9946],[26437,5543],[7166,-521],[13904,-5663],[10852,-7304],[12769,701],[3760,4622],[1164,7624],[6576,5243],[15836,2302],[12253,3862]],[[861136,611542],[10365,-11967],[-12695,-8465],[-1401,-11226],[8773,-7584],[5633,-1401],[2108,-5003],[-2742,-5823],[-9746,-13067],[103,-7825],[-5013,-4442],[-18918,-7504],[-26068,-15829],[-4394,-7644],[-7667,-7705],[-3833,-8264],[10630,-10986],[13329,-7765],[7387,-2161]],[[357715,767449],[-2948,-840],[-1092,1540],[2124,1441],[1916,-2141]],[[307968,791803],[21541,11746]],[[329509,803549],[11471,4002]],[[340980,807551],[10602,-10786],[6517,-4222],[14965,1561],[13329,-13628],[8877,7785],[5027,-1541],[1003,-8305],[5013,-1541],[5279,3022],[7637,-1821],[4733,-6143],[3392,-9586],[-1785,-5443],[-6074,-7024]],[[419495,749879],[1725,-7884],[-4084,-10326],[-7033,1261],[-22987,-12447]],[[387116,720483],[-10778,-941],[-18003,-4302],[-9260,-100],[-21217,13367],[-25198,2962],[-192,6143]],[[302468,737612],[1681,5463],[-7402,13488],[8935,8865],[8581,3262],[2640,6904],[-8935,16209]],[[196411,458396],[3480,-5943],[118,-7164],[-12975,-25394],[-1504,-5483],[840,-6724],[5043,-4062],[12709,-3722],[8994,-6984],[-6502,-5023],[-4600,-1101],[-7004,-4482],[-3774,-19131]],[[191236,363183],[-17074,6704],[-16603,-1561],[-23959,16409],[-34547,43264],[-10984,10206]],[[88069,438205],[6428,5983],[10867,641],[6178,3061],[14995,15089],[147,9185],[-4246,5443]],[[122438,477607],[-8493,2762]],[[185205,487513],[6679,-2142]],[[232476,667013],[6591,3982]],[[239067,670995],[8640,761],[9171,3742]],[[256878,675498],[1828,6463]],[[258706,681961],[21203,-9645],[12135,-1661],[9746,-4022],[6974,-8325],[2728,-6424],[162,-6143]],[[311654,645741],[-9938,-18450],[-1106,-13188],[1991,-6824],[177,-6163],[-1844,-13608],[-2005,-3902],[-7991,-4842],[-7830,-261],[-8714,-5283]],[[274394,573220],[-6192,1621],[-10410,14268]],[[257792,589109],[-7977,-4862]],[[249815,584247],[-7106,140],[840,12186],[-15939,12688],[-589,4142],[6752,1421],[4365,2661],[-575,4142],[-23267,23534],[-9230,6944],[118,4582],[13816,-3262],[9141,3762],[708,4023],[3627,5803]],[[419465,692447],[-2182,-400],[-1032,1761],[2624,1361],[1254,-1982],[-664,-740]],[[419495,749879],[23812,-520]],[[443307,749359],[16499,5903]],[[459806,755262],[6547,9025],[7490,16610],[3288,12466]],[[477131,793363],[8729,-3021],[12724,120]],[[498584,790462],[12621,2681]],[[511205,793143],[900,-14468],[1858,-6884],[13034,-7664],[5204,-6764]],[[532201,757363],[1298,-6323],[-339,-4583]],[[533160,746457],[-5087,-1981],[-11914,6524],[-7475,-701],[-6915,-7424],[-4084,-6703],[4452,-7184],[-265,-16910],[-15364,-13147],[-5219,-9145]],[[481289,689786],[-1327,-9606],[781,-5723],[-3951,-3142]],[[476792,671315],[-4940,1581],[-12193,8025],[-9835,-3002],[-8286,-8325],[-12607,-3742],[-13063,380],[-7122,3843],[14155,8224],[-3819,3982],[-13196,-6783],[-3863,420],[-1637,1701]],[[400386,677619],[-1578,5303],[-14759,15368],[-4541,7104],[1194,6024],[6414,9065]],[[359853,880992],[35535,-8184],[6384,-3122]],[[405119,824121],[-6045,-3462],[-6517,4262],[-9407,-80],[-1991,6864],[-1681,1701],[-10719,60],[-1548,-4463],[1091,-4722],[-2285,-4883]],[[366017,819398],[-36508,-15849]],[[307968,791803],[-3922,14688],[-21188,980],[-3966,7525],[-2286,9405],[-5308,7664],[-10586,8125]],[[260712,840190],[12562,10125],[1091,6024],[4703,3662],[8125,280],[9259,2721],[10218,-3021],[14155,7364],[-5117,12287],[369,9185],[18961,-3362],[9142,12447]],[[344180,897902],[16956,10646]],[[361136,908548],[5706,1501],[7004,-1601],[6886,-5703],[4320,-180]],[[708958,343332],[8744,-11226]],[[692312,284139],[-9363,-5423]],[[675459,279816],[-15615,9065]],[[659844,288881],[-7151,-520],[-7343,-1561]],[[645350,286800],[-16676,-7024],[-4659,-4542],[-10026,-5903],[-7313,-1581],[-4999,700],[-11898,12107],[-7505,-2602],[-4468,-3562],[-1607,-5503],[2831,-12927]],[[579030,255963],[-3731,4162],[-6944,441],[-5883,6543],[-11044,2562],[-4290,4762]],[[547138,274433],[7667,0],[1784,2882],[-2138,6023],[-10867,14488],[-1784,4403],[1637,9145],[4851,5603],[914,5063],[-5338,5923],[-7136,3022],[-5736,240]],[[530992,331225],[11545,14048],[4733,8205],[15585,14548],[27115,10366],[3893,6743],[-3996,9366]],[[589867,394501],[2772,4302]],[[182669,561734],[-11442,12727]],[[171227,574461],[8862,14528],[-428,5143],[-5927,7164],[1327,8045],[-2713,10946],[-4128,6463],[-841,6704]],[[167379,633454],[5574,6144],[-1726,5242],[7668,2922],[3848,-340],[899,1461],[-3229,7944],[4571,100],[5028,-5023],[2536,3342],[118,4583]],[[192666,659829],[4880,5703],[4660,11827],[8773,5363],[3332,200],[3170,-4363],[973,-5703],[3716,-4923],[5912,-3602]],[[228082,664331],[4394,2682]],[[249815,584247],[-2536,-3342]],[[247279,580905],[1121,-4703],[-17959,-2942],[-2742,2822],[132,4563],[-5499,5623],[-8331,-3342],[-11899,-9125],[-5131,-11287]],[[160184,731989],[6487,-540],[15895,4262],[18858,-9285],[7033,2441],[7535,5463],[707,4023]],[[216699,738353],[-9539,5943]],[[207160,744296],[11825,7144],[12356,-8765],[7239,-140],[14347,-8465],[9480,-2401]],[[262407,731669],[12651,-17510],[4069,-2941],[7034,-1181],[3700,-4943],[-1857,-6463],[-4438,-2642],[-12725,-1361],[-10306,-6203]],[[260535,688425],[-3657,-12927]],[[239067,670995],[-10985,-6664]],[[192666,659829],[-11117,12367],[-18033,11906]],[[163516,684102],[-12562,16009]],[[311654,645741],[12311,2882]],[[323965,648623],[3686,2181],[5913,7084]],[[333564,657888],[5426,-12807],[-4276,-8785],[5470,-5663],[6945,-1221],[10690,8124],[6384,-4242],[-1710,-5463],[-4792,-4603],[2329,-4862],[14126,-14789],[5337,-12847],[7726,-10546]],[[387219,580184],[-26157,-14648],[-3877,-10346],[2683,-6423],[-6576,-3922]],[[353292,544845],[-23576,-1661]],[[329716,543184],[-3981,-4203],[-30,-7164],[-1622,-1881],[-7608,4363],[-8670,9065],[-13417,4402],[-4350,4503],[-7269,13507],[-8375,7444]],[[279172,524973],[-2669,1281],[2639,1081],[782,-801],[-752,-1561]],[[247279,580905],[4158,5223],[6355,2981]],[[329716,543184],[12518,1280]],[[342234,544464],[3583,-8584],[9333,-15809]],[[631166,900423],[4453,10286]],[[641871,922836],[9215,-7324],[22279,7564],[13535,-680],[12297,-5684],[29165,-17709]],[[728362,899003],[-4365,-6664],[-6517,-4303],[-8905,-2981],[383,-6764],[11545,2641],[7431,-3041],[5662,-7464],[162,-10346],[7667,-2041],[3451,-2542],[8035,-11406],[-2020,-5403],[-10911,-5783],[-4895,-6064],[5146,-9465]],[[740231,817377],[26746,-6724],[7328,-480]],[[774305,810173],[5264,-3302],[5294,-5903],[-4394,-4063],[3465,-7704],[14258,-18570],[-3318,-5223],[-25670,-5723],[-6679,-5283]],[[762525,754402],[-11295,8785]],[[751230,763187],[-2845,15889],[-5264,3301],[-4409,-1480],[2212,-7525],[-162,-6183],[-15246,9285],[2521,4823],[-4290,7284],[-11354,-5203]],[[712393,783378],[-7165,6624]],[[705228,790002],[3568,3662],[-2964,4502],[-12533,1141],[-4998,-9686],[-13594,2282],[-6576,-7925],[-826,-9165],[-9127,1161],[-7726,7164],[-7284,400],[-14906,-6364]],[[628262,777174],[-7210,6544]],[[621052,783718],[1916,5423],[-7770,7144],[-2241,4903]],[[612957,801188],[988,10186],[-561,9325]],[[613384,820699],[8493,4642],[162,3582]],[[622039,828923],[3849,2102],[33248,9265]],[[659136,840290],[3923,10846],[9967,10586],[-428,6763],[-4807,14008],[-17575,6324],[-4644,6243],[-6429,3983],[-2757,4142],[-5220,-2762]],[[258146,783958],[-3391,-1140],[-900,2941],[2772,581],[1519,-2382]],[[302468,737612],[-6488,-2961],[-16145,5623],[-7608,-1841],[-2787,-4343],[-7033,-2421]],[[207160,744296],[-8257,5823]],[[198903,750119],[-89,7164],[21247,15509],[1445,4462],[-1165,4703],[-12223,6184],[-4217,6483],[1047,6044],[16499,14388],[3524,4822],[-4659,11647],[-6296,6183]],[[214016,837708],[4526,-900]],[[218542,836808],[6945,1421],[8065,3902]],[[233552,842131],[6606,-601],[11736,-5643],[8818,4303]],[[285703,274153],[-16808,21352],[191,9245],[-9362,20512],[-1239,11946]],[[258485,337208],[10410,2022],[5632,3542],[1519,5483],[-3686,12206],[1518,5484],[3701,3221],[6016,1941],[9805,-2041],[6193,2962],[2904,-5443],[-2270,-5943],[-12076,-15689],[7181,-6404],[8846,80],[10602,6584],[8684,2681],[4291,-4582],[-2256,-5943],[4320,-4583],[7991,-1401],[18770,9766]],[[356580,341151],[-1047,-2462]],[[355533,338689],[13786,-12387],[-309,-5643],[-9923,-2481],[-1888,-7544],[2271,-13168],[-7977,-14088],[-1828,-7544]],[[349665,275834],[-5927,-5523],[-8051,5043],[-5499,1141],[-11265,-3382],[-12209,10626],[-14567,-4603],[-6444,-4983]],[[576214,535399],[11559,2141],[-2226,-1260]],[[549497,448991],[-9511,4322],[-18799,-220],[-11795,-4202],[-5692,-6003],[2949,-8105]],[[506649,434783],[-6738,-4843],[-3435,-1120]],[[496476,428820],[-1018,4782],[-2845,1901],[-3981,-560],[-2743,-4302],[-59,-3602],[-3804,-3142],[-7859,6123],[-3789,441],[-3273,-3722],[162,-2602],[-2212,-4883],[-6886,-5883],[-10896,6984]],[[447273,420355],[-1931,6924],[-6031,8945],[-1725,7924],[944,5043],[5441,5023],[10704,5443],[383,2001],[-6074,5343],[-3052,881],[-2109,5903]],[[468137,505923],[2713,10466]],[[470850,516389],[8743,1541],[4261,14928],[4158,7744],[9525,11727],[-457,4162]],[[486641,588549],[-6178,1741],[-11751,-3262],[-5574,4763],[-3627,11186],[-12577,12187]],[[446934,615164],[7756,2721],[11206,10026],[3789,5723],[-251,5163],[3716,2141],[8773,-2021],[4261,1561],[-236,5143],[-6753,2321],[-6134,5323],[-2285,4863],[8965,5143],[1371,3442],[-4320,4602]],[[481289,689786],[9009,5122],[8522,-6603],[10115,-2201],[7092,2261],[4939,4562],[4306,1541],[12149,-1941],[18548,12167],[1858,5443],[14391,8044]],[[572218,718181],[6252,-1801],[9908,-3261]],[[588378,713119],[-1018,-7605],[16396,-12827],[5633,-7404],[-2079,-6424],[-12459,-11326],[-45,-6163]],[[116201,771611],[2861,5423],[693,8705],[9215,7444],[-1312,13008],[28044,19651],[722,8705],[-1519,7384],[-5986,4682],[-12415,2662],[3200,3662]],[[139704,852937],[10409,-80],[7785,-1681]],[[157898,851176],[14892,-7384],[9673,-2342],[8286,1341],[17015,-2501]],[[207764,840290],[6252,-2582]],[[198903,750119],[15555,-9525],[2241,-2241]],[[428681,374529],[-1534,-1480],[-2462,480],[-369,3222],[2684,740],[1681,-2962]],[[597136,408568],[-7269,-14067]],[[530992,331225],[-26672,-2241],[-16603,7324],[-3936,-540],[1061,-4803],[-1061,-2461],[707,-6824],[-1622,-1881],[-15673,-9426],[-6429,-240],[-11441,7645],[-5367,5843],[-1077,4803],[1062,2461],[11958,6303],[-708,3182],[-26422,-1441],[-6797,1341],[-2330,4923],[-368,5223],[-4114,5643]],[[415160,356059],[2683,4322]],[[417843,360381],[-1607,12587],[-3022,4483],[707,4042],[2699,4323],[9495,6623],[914,5043],[-8906,10826],[6134,9085],[5234,4023],[4306,-1021],[8050,-5083],[5426,5043]],[[496476,428820],[7077,3262],[3096,2701]],[[233552,842131],[708,4022],[-4010,3942],[-13506,7324],[-10779,11687],[-3125,5383],[442,6624],[5072,13907],[-1990,4263],[-6237,7204],[-2418,5843],[6870,8645],[12253,8164]],[[216832,929139],[4512,-5523]],[[221344,923616],[26053,-6403]],[[247397,917213],[22663,1521],[23664,-641],[36198,-13167],[14258,-7024]],[[558284,869466],[7638,-1921]],[[596428,891118],[1342,3662],[2035,2942]],[[628674,895581],[2492,4842]],[[659136,840290],[-27306,-6924],[-9791,-4443]],[[613384,820699],[177,-13908]],[[613561,806791],[-27631,-15168],[-4408,-7705],[-9496,-3502],[-13904,3702],[-11943,6544],[-15791,4402]],[[530388,795064],[-31804,-4602]],[[477131,793363],[-2566,10046],[-4320,8165],[-7151,7444],[14258,7164],[-708,9305],[14936,10186],[2050,6443]],[[470850,516389],[-1327,-3442]],[[439665,515908],[-5219,3162],[-4483,3582]],[[347792,532618],[-5558,11846]],[[342234,544464],[11058,381]],[[387219,580184],[12120,-7964],[5485,1441],[4895,11766],[678,10186],[10336,6043],[13565,2602],[12636,10906]],[[822446,140719],[-6134,-19011],[576,-6944],[12886,-11526],[-5205,-7585],[-3642,-19430],[-5425,-12287],[-2109,-11247],[-5647,-7003],[-6281,-3743],[-20303,-2041],[-23120,-11126],[-8463,1301],[-14641,15969],[-11604,1260],[-20141,6224],[-13373,-1661],[-6444,6243],[-9023,-1821],[-1888,-7624],[-6001,-13848],[-9642,-9625],[-8818,-800],[-7519,7424],[-7608,-981]],[[632877,30837],[-6916,15229],[12519,16069],[-2138,6103],[-7771,4923]],[[628571,73161],[8537,7604],[-9023,13948],[4025,1521],[4733,-1741],[10719,-11046],[3671,-541],[4674,5623],[2625,661],[2624,-3022],[708,-3262],[-147,-4722],[-1902,-3922],[3848,-3202],[6974,540],[4866,2942],[20038,3842],[3479,5783],[-339,9005],[9274,2802],[4881,-741],[5603,3342],[17634,25194],[4409,3522]],[[740482,127291],[4261,6184],[2344,5943]],[[747087,139418],[413,5723],[-3435,8945]],[[878136,781917],[12253,-15308],[-516,-4583],[-7550,-8225],[-19728,-8484],[-14582,8865],[-8065,140],[-15791,-9125],[825,-7385],[-10424,-8444]],[[814558,729368],[-7947,4882],[-11973,3242],[-10690,5643],[-3966,5724],[-6723,-80],[-7564,2081]],[[765695,750860],[-3170,3542]],[[774305,810173],[-24623,4382]],[[749682,814555],[14583,4243],[14656,-981],[9392,2321]],[[218542,836808],[-10778,3482]],[[157898,851176],[-18194,1761]],[[139704,852937],[-10941,5243],[-10601,18250],[-14538,2201],[-7254,5703],[7785,11167],[6266,1020],[11044,5783],[19640,12748],[5455,8804],[6488,6644],[2624,7985],[6193,4622],[21512,6384]],[[183377,949491],[457,-9786],[-2757,-4382],[26879,5883],[7136,-2161],[3185,-5403],[-1445,-4503]],[[166789,906447],[546,2001],[-1224,920],[-2993,-880],[767,-2321],[2904,280]],[[579030,255963],[4276,-8445],[14420,-16149],[545,-4262],[-2668,-4342],[-4955,-2962],[-6915,460]],[[583733,220263],[-7269,-1601],[-8139,-3061]],[[568325,215601],[-11294,-6804],[-1209,-3482],[737,-3262]],[[556559,202053],[2669,-2982],[5057,-11706]],[[564285,187365],[4129,-5824]],[[568414,181541],[-21910,-14127],[-26201,-8965],[-15246,-18511],[-7328,-2701],[-6856,400],[-4468,3762],[-2654,6244]],[[483751,147643],[4571,10806],[-3214,20331],[-10056,8665],[-1843,4422],[8434,13528],[-4483,3722],[-10498,-6464],[-8920,3782],[-8596,5804],[-7019,7684]],[[442127,219923],[6090,6524],[-3465,6183],[-16042,6704],[-4069,-1561],[-7328,-6384],[-6901,341],[2890,18370],[2212,5963],[3686,3182]],[[419200,259245],[12223,1081],[9260,-1681],[12503,10385],[19197,681],[4055,5203],[5676,3422],[4453,-60],[10292,8044],[8183,3082],[7313,-2001],[8552,1480]],[[520907,288881],[4822,-1680],[14803,-10326]],[[540532,276875],[6606,-2442]],[[386187,236912],[-2418,-260],[-678,2121],[2772,841],[1179,-1241],[-855,-1461]],[[400386,677619],[-1740,-5443],[-7225,-3342],[-7180,260],[-17944,9005],[-19183,-600],[-10660,2601],[-8876,-5243],[-1313,-7044],[16013,1481],[4777,-2521],[3082,-4423],[-1902,-6443],[-10248,4602]],[[337987,660509],[-14022,-11886]],[[258706,681961],[1829,6464]],[[349665,275834],[12135,-7104],[6871,-8585],[5986,1901],[14007,12327],[5470,2462],[8257,-7745],[10292,821]],[[412683,269911],[6797,-4983]],[[419480,264928],[-280,-5683]],[[442127,219923],[-9775,2281],[-6488,-21592],[-12857,-9885],[-3288,-9506],[-7136,-10065],[-9982,-8165],[-8950,-980],[-13418,7404],[-18946,3882],[-1342,3802],[1165,8205],[-7638,8204],[-2713,15929],[-15422,10626],[-11044,-2361],[-6665,5943],[5205,9765],[3333,1201],[8905,-3622],[7254,6424],[-5720,3782],[-3760,20611],[-10926,-1360],[-14022,-5183],[-11589,6443],[1091,7104],[-1696,5343]],[[797440,885635],[-4424,-6644],[-6473,-12046]],[[749682,814555],[-9451,2822]],[[728362,899003],[-19773,11346],[9289,-1201],[17826,8525],[20702,-2201],[6148,-5463],[7667,520],[10012,4342],[6797,7885],[11663,2561],[9569,-2861],[28162,-15809]],[[415071,277335],[-1828,-420],[-1755,2341],[2949,1121],[1298,-2081],[-664,-961]],[[540532,276875],[-8375,6864],[-11250,5142]],[[419480,264928],[-2698,2922],[-4099,2061]],[[355533,338689],[1888,11127]],[[357421,349816],[2978,6363],[13698,9285],[2491,3322]],[[376588,368786],[12858,-3022],[9097,1021]],[[398543,366785],[7166,-10126],[7136,-2901]],[[412845,353758],[2315,2301]],[[459806,755262],[-8832,-4162],[-7667,-1741]],[[340980,807551],[25037,11847]],[[314750,434603],[-7284,-12587]],[[307466,422016],[-10306,-11767],[-16868,-9565],[-3686,-6804],[-1872,-7484],[-10322,-1021],[-6354,-3982],[-2772,-5363],[-988,-6063],[-5795,-4563],[-6546,-1401],[-6650,5784],[-12105,3222],[-22279,-13268]],[[200923,359741],[-9687,3442]],[[533160,746457],[-959,10906]],[[511205,793143],[19183,1921]],[[613561,806791],[-604,-5603]],[[621052,783718],[10424,-10046]],[[631476,773672],[-1150,-5002],[2860,-16830]],[[633186,751840],[-25228,-13847],[-6015,-5964],[-3554,-9845],[-10011,-9065]],[[588378,713119],[-16160,5062]],[[49468,577623],[-2507,-1241],[-3332,2502],[44,1520],[4217,1421],[1784,-1461],[-206,-2741]],[[411488,361362],[-2388,-560],[-1298,1360],[2964,1841],[722,-2641]],[[705228,790002],[5322,-5864],[1843,-760]],[[751230,763187],[14465,-12327]],[[814558,729368],[-4763,-3862],[2374,-3983],[19964,-3402],[8670,-16309],[-18209,-13927],[-16706,-5343],[-11840,17229],[-7962,-2501],[-8065,5303],[-2949,7144],[-7637,9845],[-12327,9986],[-14051,-10986],[-3568,-15889],[-10263,-16850],[-10394,-7364],[-6223,1881],[11531,14969],[-6444,12227],[-206,10365],[9392,8545],[3996,8245],[-5102,9465],[-21556,2381],[-22161,5483],[-19743,1521],[-10704,2902],[-11855,-2101],[-4571,-2502]],[[631476,773672],[-3214,3502]],[[163516,684102],[12931,-8084],[10616,-9205],[5603,-6984]],[[167379,633454],[-15732,-700],[-19419,-7565],[-3995,7465],[-6827,2081],[-7136,60],[-6193,6103],[-8036,-1381],[-11825,-9265],[-5087,5003],[-2374,5763],[-10011,60]],[[70744,641078],[-3760,8125],[12562,17970],[-4408,5183]],[[258485,337208],[-6797,4783],[-33676,-5923],[-11383,11866],[-5706,11807]],[[307466,422016],[4792,9245]],[[312258,431261],[8980,-10686],[7681,7404],[8243,-7544],[-693,-4042],[-4660,-4643],[2168,-5863],[3244,-3442],[6237,-680],[8227,3221],[4836,-1540],[2492,-3883],[-339,-5623],[-20672,-12647],[12371,-13187],[5529,-1121],[12636,6824],[4821,-1581],[3229,-3442]],[[357421,349816],[-841,-8665]],[[418743,474105],[9421,2001],[7211,721]],[[417843,360381],[-4998,-6623]],[[398543,366785],[-14111,-440],[-7844,2441]],[[312258,431261],[2492,3342]],[[361136,908548],[-7357,-4603]],[[353779,903945],[-620,8985],[-2270,5864],[-12961,10505],[-6694,11407],[5146,5663],[944,5063],[-4424,9145],[-5765,2101],[-781,3162]],[[326354,965840],[13624,3302],[18239,13147],[12149,2401],[6149,3502],[14081,1681],[9996,-1541],[5706,-9325],[6296,-6283],[2256,-5884],[9510,-7164],[3524,-9605],[8744,-4002],[6944,3902],[16676,1321],[9289,5183]],[[105261,540222],[-3804,300],[-8243,4763]],[[93214,545285],[-11692,3462],[-7003,4622]],[[74519,553369],[-1622,6244],[-3775,4883],[-17590,-5784],[-16573,-7924]],[[34959,550788],[10867,43504],[20789,26115],[5250,8805],[73,9265],[-1194,2601]],[[171227,574461],[6473,-7684]],[[82466,600556],[1253,1741],[-1872,1761],[-2890,-2222],[1209,-1821],[2300,541]],[[850652,470003],[-13889,-461],[-9776,-2661]],[[861136,611542],[6915,1040],[9436,5844],[12592,-5583],[10498,2021],[29961,23433],[12857,21392],[12385,3782],[6105,8845],[4806,3222],[1298,-881],[2403,-7144],[5500,-4122],[5721,-1041],[16808,3922],[-648,-3021],[-5500,-6764],[-192,-3002],[1519,-7024],[6399,-6263],[-17856,-35180],[-16661,-10346],[-1283,-2401],[7432,-12687],[-3819,-7204],[-8405,-6984],[10233,-9485],[8169,-1861],[-1755,-9626],[-5323,-8024],[-191,-14068],[-4822,-780],[-17325,7544],[-13211,-2582],[-15791,3062],[-10881,-4002],[-16308,-32378],[-15010,-10666],[-21173,-3462],[-1813,-11427]],[[333564,657888],[4423,2621]],[[261228,938725],[-3038,780],[133,1721],[4305,340],[325,-1460],[-1725,-1381]],[[353779,903945],[-9599,-6043]],[[247397,917213],[-15703,3442],[-10350,2961]],[[183377,949491],[4600,7324],[-2477,5863],[4866,4723],[14803,23393],[5072,5743],[7461,3462],[6782,-600],[6444,-2642],[7269,-14028],[15290,-2901],[14612,-10606],[15186,660],[7594,8045],[10203,-441],[12194,-8344],[13078,-3302]],[[105836,481529],[13683,-2141],[2919,-1781]],[[88069,438205],[-16072,12387],[-14479,22552],[-6340,13228],[-7107,8204],[-7534,5143],[4939,7785],[177,5603],[-8006,28616],[1312,9065]],[[74519,553369],[11220,-6483],[7475,-1601]],[[93214,545285],[4601,-3442]],[[632877,30837],[118,-11086],[-2183,-6003],[-25036,-13748],[-9436,7164],[-3598,8945],[-10365,9385],[-10705,7324],[-11338,3182],[-6163,-3862],[7917,-13768],[-383,-6804],[-8109,-8864],[-5677,-781],[-7667,2642],[5794,18690],[-8920,11266],[-5131,11787],[-8345,6944],[-3613,5243],[3878,5243],[5500,3462],[4335,8344],[-7505,8405],[-8862,20671],[-5824,2902],[-3332,7284],[-8699,4863],[-9496,8124],[-6310,-200],[-3259,-9545],[-7741,-5803],[-8035,5283],[-6488,7164],[5411,7144],[13830,8665],[5014,4042],[1297,3102]],[[568414,181541],[3583,-5222]],[[571997,176319],[5042,-11727],[4026,-14208],[-1313,-8225],[-9185,-10245],[1327,-7544],[8596,-13328],[5868,-6604],[3686,-540],[2669,-3002],[-2890,-6423],[7652,-11106],[20642,-4043],[10454,-6163]],[[700259,160250],[19050,3942]],[[747087,139418],[-6605,-12127]],[[571997,176319],[-7712,11046]],[[564285,187365],[-1636,5463],[-6090,9225]],[[568325,215601],[15408,4662]],[[645350,286800],[14494,2081]],[[659844,288881],[8169,-4302]]],"bbox":[53.1443,51.5611,59.9265,56.5583],"transform":{"scale":[0.000006782206782206778,0.000004997204997204997],"translate":[53.1443,51.5611]}}