{"type":"Topology","objects":{"muni":{"type":"GeometryCollection","geometries":[{"type":"MultiPolygon","arcs":[[[0]]],"properties":{"GID_2":"RUS.7.1_1","GID_0":"RUS","COUNTRY":"Russia","GID_1":"RUS.7_1","NAME_1":"Belgorod","NL_NAME_1":"Белгородскаяобласть","NAME_2":"Alekseevka","VARNAME_2":"Alekseyevka","NL_NAME_2":"Алексеевка","TYPE_2":"Gorod","ENGTYPE_2":"City","CC_2":"NA","HASC_2":"RU.BL.AG"}},{"type":"MultiPolygon","arcs":[[[1,2,3,4,5,6]]],"properties":{"GID_2":"RUS.7.2_1","GID_0":"RUS","COUNTRY":"Russia","GID_1":"RUS.7_1","NAME_1":"Belgorod","NL_NAME_1":"Белгородскаяобласть","NAME_2":"Alekseevskiyrayon","VARNAME_2":"NA","NL_NAME_2":"Алексеевскийрайон","TYPE_2":"Raion","ENGTYPE_2":"District","CC_2":"R26000","HASC_2":"RU.BL.AR"}},{"type":"MultiPolygon","arcs":[[[7]]],"properties":{"GID_2":"RUS.7.3_1","GID_0":"RUS","COUNTRY":"Russia","GID_1":"RUS.7_1","NAME_1":"Belgorod","NL_NAME_1":"Белгородскаяобласть","NAME_2":"Belgorod","VARNAME_2":"NA","NL_NAME_2":"Белгород","TYPE_2":"Gorod","ENGTYPE_2":"City","CC_2":"NA","HASC_2":"RU.BL.BG"}},{"type":"MultiPolygon","arcs":[[[8,9,10,11,12,13,14,15,16],[-8]]],"properties":{"GID_2":"RUS.7.4_1","GID_0":"RUS","COUNTRY":"Russia","GID_1":"RUS.7_1","NAME_1":"Belgorod","NL_NAME_1":"Белгородскаяобласть","NAME_2":"Belgorodskiyrayon","VARNAME_2":"NA","NL_NAME_2":"Белгородскийрайон","TYPE_2":"Raion","ENGTYPE_2":"District","CC_2":"R26000","HASC_2":"RU.BL.BR"}},{"type":"MultiPolygon","arcs":[[[-9,17,18,19,20,21,22,23,24,25,26]]],"properties":{"GID_2":"RUS.7.5_1","GID_0":"RUS","COUNTRY":"Russia","GID_1":"RUS.7_1","NAME_1":"Belgorod","NL_NAME_1":"Белгородскаяобласть","NAME_2":"Borisovskiyrayon","VARNAME_2":"NA","NL_NAME_2":"Борисовскийрайон","TYPE_2":"Raion","ENGTYPE_2":"District","CC_2":"R26000","HASC_2":"RU.BL.BO"}},{"type":"MultiPolygon","arcs":[[[27,28,29,30,31,32,33,34,35,36]]],"properties":{"GID_2":"RUS.7.6_1","GID_0":"RUS","COUNTRY":"Russia","GID_1":"RUS.7_1","NAME_1":"Belgorod","NL_NAME_1":"Белгородскаяобласть","NAME_2":"Chernyanskiyrayon","VARNAME_2":"NA","NL_NAME_2":"Чернянскийрайон","TYPE_2":"Raion","ENGTYPE_2":"District","CC_2":"R26001","HASC_2":"RU.BL.CH"}},{"type":"MultiPolygon","arcs":[[[-19,37,38,39]]],"properties":{"GID_2":"RUS.7.7_1","GID_0":"RUS","COUNTRY":"Russia","GID_1":"RUS.7_1","NAME_1":"Belgorod","NL_NAME_1":"Белгородскаяобласть","NAME_2":"Grayvoronskiyrayon","VARNAME_2":"NA","NL_NAME_2":"Грайворонскийрайон","TYPE_2":"Raion","ENGTYPE_2":"District","CC_2":"R26000","HASC_2":"RU.BL.GR"}},{"type":"MultiPolygon","arcs":[[[40]]],"properties":{"GID_2":"RUS.7.8_1","GID_0":"RUS","COUNTRY":"Russia","GID_1":"RUS.7_1","NAME_1":"Belgorod","NL_NAME_1":"Белгородскаяобласть","NAME_2":"Gubkin","VARNAME_2":"NA","NL_NAME_2":"Губкин","TYPE_2":"Gorod","ENGTYPE_2":"City","CC_2":"NA","HASC_2":"RU.BL.GG"}},{"type":"MultiPolygon","arcs":[[[-32,41,-30,42,-28,43,44,45,46,47,48],[-41]]],"properties":{"GID_2":"RUS.7.9_1","GID_0":"RUS","COUNTRY":"Russia","GID_1":"RUS.7_1","NAME_1":"Belgorod","NL_NAME_1":"Белгородскаяобласть","NAME_2":"Gubkinskiyrayon","VARNAME_2":"NA","NL_NAME_2":"Губкинскийрайон","TYPE_2":"Raion","ENGTYPE_2":"District","CC_2":"R26000","HASC_2":"RU.BL.GB"}},{"type":"MultiPolygon","arcs":[[[49,50,51,52,53]]],"properties":{"GID_2":"RUS.7.10_1","GID_0":"RUS","COUNTRY":"Russia","GID_1":"RUS.7_1","NAME_1":"Belgorod","NL_NAME_1":"Белгородскаяобласть","NAME_2":"Ivnyanskiyrayon","VARNAME_2":"NA","NL_NAME_2":"Ивнянскийрайон","TYPE_2":"Raion","ENGTYPE_2":"District","CC_2":"R26000","HASC_2":"RU.BL.IV"}},{"type":"MultiPolygon","arcs":[[[-13,54,55,56,57,-44,-37,58,59]]],"properties":{"GID_2":"RUS.7.11_1","GID_0":"RUS","COUNTRY":"Russia","GID_1":"RUS.7_1","NAME_1":"Belgorod","NL_NAME_1":"Белгородскаяобласть","NAME_2":"Korochanskiyrayon","VARNAME_2":"NA","NL_NAME_2":"Корочанскийрайон","TYPE_2":"Raion","ENGTYPE_2":"District","CC_2":"R26001","HASC_2":"RU.BL.KO"}},{"type":"MultiPolygon","arcs":[[[-2,60,-35,61,62]]],"properties":{"GID_2":"RUS.7.12_1","GID_0":"RUS","COUNTRY":"Russia","GID_1":"RUS.7_1","NAME_1":"Belgorod","NL_NAME_1":"Белгородскаяобласть","NAME_2":"Krasnenskiyrayon","VARNAME_2":"NA","NL_NAME_2":"Красненскийрайон","TYPE_2":"Raion","ENGTYPE_2":"District","CC_2":"R26000","HASC_2":"RU.BL.KN"}},{"type":"MultiPolygon","arcs":[[[-7,63,64,65,66,67,68,69,70,-61],[-1]]],"properties":{"GID_2":"RUS.7.13_1","GID_0":"RUS","COUNTRY":"Russia","GID_1":"RUS.7_1","NAME_1":"Belgorod","NL_NAME_1":"Белгородскаяобласть","NAME_2":"Krasnogvardeyskiyrayon","VARNAME_2":"NA","NL_NAME_2":"Красногвардейскийрайон","TYPE_2":"Raion","ENGTYPE_2":"District","CC_2":"R26001","HASC_2":"RU.BL.KG"}},{"type":"MultiPolygon","arcs":[[[71,-21,72,-39,73,74]]],"properties":{"GID_2":"RUS.7.14_1","GID_0":"RUS","COUNTRY":"Russia","GID_1":"RUS.7_1","NAME_1":"Belgorod","NL_NAME_1":"Белгородскаяобласть","NAME_2":"Krasnoyaruzhskiyrayon","VARNAME_2":"NA","NL_NAME_2":"Краснояружскийрайон","TYPE_2":"Raion","ENGTYPE_2":"District","CC_2":"R26001","HASC_2":"RU.BL.KY"}},{"type":"MultiPolygon","arcs":[[[-36,-71,75,76,77,78,79,-59]]],"properties":{"GID_2":"RUS.7.15_1","GID_0":"RUS","COUNTRY":"Russia","GID_1":"RUS.7_1","NAME_1":"Belgorod","NL_NAME_1":"Белгородскаяобласть","NAME_2":"Novooskol'skiyrayon","VARNAME_2":"NA","NL_NAME_2":"Новооскольскийрайон","TYPE_2":"Raion","ENGTYPE_2":"District","CC_2":"R26001","HASC_2":"RU.BL.NO"}},{"type":"MultiPolygon","arcs":[[[-46,80,-57,81,82,83,-54,84]]],"properties":{"GID_2":"RUS.7.16_1","GID_0":"RUS","COUNTRY":"Russia","GID_1":"RUS.7_1","NAME_1":"Belgorod","NL_NAME_1":"Белгородскаяобласть","NAME_2":"Prokhorovskiyrayon","VARNAME_2":"NA","NL_NAME_2":"Прохоровскийрайон","TYPE_2":"Raion","ENGTYPE_2":"District","CC_2":"R26001","HASC_2":"RU.BL.PR"}},{"type":"MultiPolygon","arcs":[[[-25,85,-23,86,-75,87,-52,88,89,90,91,92]]],"properties":{"GID_2":"RUS.7.17_1","GID_0":"RUS","COUNTRY":"Russia","GID_1":"RUS.7_1","NAME_1":"Belgorod","NL_NAME_1":"Белгородскаяобласть","NAME_2":"Rakityanskiyrayon","VARNAME_2":"NA","NL_NAME_2":"Ракитянскийрайон","TYPE_2":"Raion","ENGTYPE_2":"District","CC_2":"R26001","HASC_2":"RU.BL.RA"}},{"type":"MultiPolygon","arcs":[[[-4,93,94]]],"properties":{"GID_2":"RUS.7.18_1","GID_0":"RUS","COUNTRY":"Russia","GID_1":"RUS.7_1","NAME_1":"Belgorod","NL_NAME_1":"Белгородскаяобласть","NAME_2":"Roven'skiyrayon","VARNAME_2":"NA","NL_NAME_2":"Ровеньскийрайон","TYPE_2":"Raion","ENGTYPE_2":"District","CC_2":"R26001","HASC_2":"RU.BL.RO"}},{"type":"MultiPolygon","arcs":[[[95]]],"properties":{"GID_2":"RUS.7.19_1","GID_0":"RUS","COUNTRY":"Russia","GID_1":"RUS.7_1","NAME_1":"Belgorod","NL_NAME_1":"Белгородскаяобласть","NAME_2":"Shebekino","VARNAME_2":"NA","NL_NAME_2":"Шебекино","TYPE_2":"Gorod","ENGTYPE_2":"City","CC_2":"NA","HASC_2":"RU.BL.SG"}},{"type":"MultiPolygon","arcs":[[[-16,96,-14,-60,97,-79,98,99,100],[-96]]],"properties":{"GID_2":"RUS.7.20_1","GID_0":"RUS","COUNTRY":"Russia","GID_1":"RUS.7_1","NAME_1":"Belgorod","NL_NAME_1":"Белгородскаяобласть","NAME_2":"Shebekinskiyrayon","VARNAME_2":"NA","NL_NAME_2":"Шебекинскийрайон","TYPE_2":"Raion","ENGTYPE_2":"District","CC_2":"R26001","HASC_2":"RU.BL.SR"}},{"type":"MultiPolygon","arcs":[[[-34,101,-48,102,-62],[103]]],"properties":{"GID_2":"RUS.7.21_1","GID_0":"RUS","COUNTRY":"Russia","GID_1":"RUS.7_1","NAME_1":"Belgorod","NL_NAME_1":"Белгородскаяобласть","NAME_2":"Starooskol'skiyrayon","VARNAME_2":"NA","NL_NAME_2":"Старооскольскийрайон","TYPE_2":"Raion","ENGTYPE_2":"District","CC_2":"R26001","HASC_2":"RU.BL.ST"}},{"type":"MultiPolygon","arcs":[[[-104]]],"properties":{"GID_2":"RUS.7.22_1","GID_0":"RUS","COUNTRY":"Russia","GID_1":"RUS.7_1","NAME_1":"Belgorod","NL_NAME_1":"Белгородскаяобласть","NAME_2":"StaryyOskol","VARNAME_2":"NA","NL_NAME_2":"СтарыйОскол","TYPE_2":"Gorsovet","ENGTYPE_2":"District","CC_2":"NA","HASC_2":"RU.BL.SO"}},{"type":"MultiPolygon","arcs":[[[104]]],"properties":{"GID_2":"RUS.7.23_1","GID_0":"RUS","COUNTRY":"Russia","GID_1":"RUS.7_1","NAME_1":"Belgorod","NL_NAME_1":"Белгородскаяобласть","NAME_2":"Valuyki","VARNAME_2":"NA","NL_NAME_2":"Валуйки","TYPE_2":"Gorod","ENGTYPE_2":"City","CC_2":"NA","HASC_2":"RU.BL.VG"}},{"type":"MultiPolygon","arcs":[[[105,-68,106,107,108,109],[-105]]],"properties":{"GID_2":"RUS.7.24_1","GID_0":"RUS","COUNTRY":"Russia","GID_1":"RUS.7_1","NAME_1":"Belgorod","NL_NAME_1":"Белгородскаяобласть","NAME_2":"Valuyskiyrayon","VARNAME_2":"NA","NL_NAME_2":"Валуйскийрайон","TYPE_2":"Raion","ENGTYPE_2":"District","CC_2":"R26000","HASC_2":"RU.BL.VR"}},{"type":"MultiPolygon","arcs":[[[-5,-95,110,-108,111,-66,112,113]]],"properties":{"GID_2":"RUS.7.25_1","GID_0":"RUS","COUNTRY":"Russia","GID_1":"RUS.7_1","NAME_1":"Belgorod","NL_NAME_1":"Белгородскаяобласть","NAME_2":"Veydelevskiyrayon","VARNAME_2":"NA","NL_NAME_2":"Вейделевскийрайон","TYPE_2":"Raion","ENGTYPE_2":"District","CC_2":"R26000","HASC_2":"RU.BL.VE"}},{"type":"MultiPolygon","arcs":[[[-70,114,-110,115,-100,116,117,-76]]],"properties":{"GID_2":"RUS.7.26_1","GID_0":"RUS","COUNTRY":"Russia","GID_1":"RUS.7_1","NAME_1":"Belgorod","NL_NAME_1":"Белгородскаяобласть","NAME_2":"Volokonovskiyrayon","VARNAME_2":"NA","NL_NAME_2":"Волоконовскийрайон","TYPE_2":"Raion","ENGTYPE_2":"District","CC_2":"R26000","HASC_2":"RU.BL.VO"}},{"type":"MultiPolygon","arcs":[[[-12,118,-10,119,120,-93,121,122,-90,123,-50,-84,124,125,-55]]],"properties":{"GID_2":"RUS.7.27_1","GID_0":"RUS","COUNTRY":"Russia","GID_1":"RUS.7_1","NAME_1":"Belgorod","NL_NAME_1":"Белгородскаяобласть","NAME_2":"Yakovlevskiyrayon","VARNAME_2":"NA","NL_NAME_2":"Яковлевскийрайон","TYPE_2":"Raion","ENGTYPE_2":"District","CC_2":"R26001","HASC_2":"RU.BL.YA"}}]}},"arcs":[[[828900,503171],[-4020,2649],[4714,3756],[-694,-6405]],[[838204,536983],[18931,-10162],[7791,99094]],[[864926,625915],[23695,-19831],[1588,-13919],[-4293,-5974],[-1191,-8068],[20370,-41202],[7419,-5604],[10619,7206],[16202,-37938],[23000,-4435],[14689,-18045],[1761,-10901],[-6128,-8499],[-14267,9731],[-8981,-8253],[-1514,-12071],[3672,-12872],[8188,-13118],[-4317,-14042],[-9453,-10901],[-4690,-12564],[2754,-19646],[6625,-21371],[10644,-14289],[-7989,-29931],[8386,-30794],[1439,-19277]],[[963154,249307],[-29451,16690],[-3027,-12256],[-5831,-8006],[-12877,-2341],[-968,-8930],[-7790,-7021]],[[903210,227443],[-7766,15336],[-9900,39847],[-13522,31779],[-23918,18907]],[[848104,333312],[4168,48408]],[[852272,381720],[-2084,39293],[-16153,50071],[-2580,19831],[6749,46068]],[[336765,456981],[-4565,-5543],[-40368,23341],[2382,41141],[39599,8376],[2952,-67315]],[[193256,399150],[-5111,24142],[8684,14904],[2952,17183],[13448,27592]],[[213229,482971],[10917,-8869],[5012,-14042],[10619,-1293],[10396,6097],[12034,19338],[1861,15459],[-18807,41202],[-2184,22726],[5484,9300],[8460,800],[3648,-7452],[6078,-1293],[9751,13611],[8908,-3942],[1414,-24881],[3647,-14781],[6426,-5913],[4665,4927],[4689,28022]],[[306247,561987],[4863,10778],[14465,11579],[18609,431]],[[344184,584775],[13919,-9793]],[[358103,574982],[-10272,-33318],[-322,-13057],[3994,-11086],[16698,-13241]],[[368201,504280],[4417,-9608],[-248,-9238]],[[372370,485434],[-3797,-11886],[-15879,-26052],[-16450,-20755]],[[336244,426741],[-23620,-12502],[-4218,-10901],[-273,-11764],[14986,-19892],[3052,-51672],[-5533,-33997],[-7394,-19893]],[[313244,266120],[-8461,13858],[2606,6713],[372,10346],[4515,2710],[-1761,7391],[-4392,862],[-422,-7083],[-4441,-2648],[-8262,8807],[174,3572],[-4293,862],[-3746,11456],[-8982,-1909],[447,7082],[-4442,801],[-8138,-10532],[-5309,-7021],[-571,-7452],[-17095,-1232],[-3375,10593],[-4689,370],[2853,7206],[-2357,185],[-3994,11393],[2580,3449],[372,7083],[-6947,4126],[199,3511],[-6749,7636],[-8287,21864],[-2556,-3264],[-2183,3695],[-1811,11086],[-4094,3510],[1240,3203],[-7989,801]],[[193256,399150],[-12133,8068],[-9552,739],[-14515,-2402],[-9949,-9485],[-4714,493],[-4640,3695]],[[137753,400258],[-27491,53089],[-10743,49640],[-11960,19769]],[[87559,522756],[12183,31410]],[[99742,554166],[7642,1478]],[[107384,555644],[12257,-13241]],[[119641,542403],[8783,-3388]],[[128424,539015],[41212,65098]],[[169636,604113],[12703,-13487]],[[182339,590626],[-347,-37322]],[[181992,553304],[11041,-30178],[20196,-40155]],[[532676,702346],[13572,33935],[12877,11024],[0,12256],[-3349,9915]],[[555776,769476],[-7221,8130],[-3821,20324]],[[544734,797930],[4864,15766]],[[549598,813696],[7765,2402],[27888,-17368]],[[585251,798730],[11017,9362],[-3598,11763]],[[592670,819855],[10942,-1786]],[[603612,818069],[22157,-14350],[3200,-8930],[-3101,-18292],[1091,-5974],[8436,-2094],[16202,6036],[29972,-21001],[16153,739],[6277,-6775],[7617,-16567],[7319,-3634],[6402,308],[13323,24820],[9925,-616],[15458,-9300]],[[764043,742439],[-2928,-48531],[2655,-17121]],[[763770,676787],[-22107,-4003],[-18683,-14165],[-13796,9361],[-16549,-13057],[-30791,-8560],[-22032,-14104],[-24067,-1848],[-16376,-13857],[-31287,28946],[-15780,-2833]],[[552302,642667],[-6153,10039],[-6898,20570],[-471,16444],[-6104,12626]],[[137753,400258],[-2481,-6343],[-11538,4680],[-4788,-2894],[-2630,-7144],[2084,-7945],[-2456,-3819],[-323,-7698],[-17542,-26052],[-6649,3634],[-20122,-2895],[-6501,11271],[-4193,14781],[273,14350],[2432,10408],[-4144,14412],[-17417,9546],[-8263,19585],[-2257,184],[272,7576],[-2233,123],[-3523,26544],[-8585,12256],[125,3572],[4416,1478],[273,12811],[-3970,13487],[347,9977],[20941,6344],[-25,10224]],[[39276,542711],[5906,739],[9825,22725],[7741,3388],[5955,-7021],[-1539,-28454],[1514,-9361],[10446,-6097]],[[79124,518630],[8435,4126]],[[550714,913099],[-3399,1539],[1513,3449],[2357,-1108],[-471,-3880]],[[585251,798730],[-20543,15213],[-15110,-247]],[[544734,797930],[1588,-13118],[9454,-15336]],[[532676,702346],[-38755,13118],[-17269,12872],[-12034,18230]],[[464618,746566],[3027,33873]],[[467645,780439],[-4515,14781],[-16525,8561],[-11562,-1910],[-5086,6898],[3399,8561],[24464,11825],[-918,13118],[-14589,14165],[-6649,11702],[-1514,15027]],[[434150,883167],[7419,15582],[3151,21001],[5483,12811],[51757,17798],[16152,20201],[12331,1909],[13894,-5543],[25730,9054],[25233,-13118]],[[595300,962862],[-3846,-77601],[-12281,-20201],[-7741,-1909],[-3797,-10100],[1812,-13057]],[[569447,839994],[5533,-9854],[17690,-10285]],[[275655,673030],[-26697,10100],[-35505,-3079],[-7890,17984]],[[205563,698035],[-10992,3325],[-7791,17368]],[[186780,718728],[-8833,10039],[-20295,10593],[-6451,12564],[-1514,19831]],[[149687,771755],[10148,3387],[5880,28084],[-15135,12934],[2854,13611],[18931,24881],[7046,-7452],[13795,-28084],[8734,-677],[15383,17429],[8634,1971],[5608,-4127],[7369,-15089],[16202,-8129],[10148,5358],[24464,-23958],[13472,-2771]],[[303220,789123],[-5210,-19400],[1389,-11702],[-1811,-38123],[-21933,-46868]],[[358103,574982],[49474,60541]],[[407577,635523],[12778,308]],[[420355,635831],[3746,8499],[1291,11640],[-16401,9485],[-1910,11270],[15432,35105],[3747,308],[14788,-16567],[12232,9669],[4515,45514],[8312,19646]],[[466107,770400],[-1489,-23834]],[[552302,642667],[-4789,-9238],[-1141,-14658],[2258,-39108],[-9379,-13118],[4665,-50132],[5607,-18477]],[[549523,497936],[-29650,26360],[-11934,5851],[-11115,-431],[-7345,-6467],[-12877,3326],[-21164,23711],[-8982,-3757],[-17715,-19400],[-1687,-15705],[-13423,-20755],[-12803,-5851],[-16847,2956],[-15780,16506]],[[838204,536983],[-2655,12071],[-13572,21001],[-3697,12133],[-1885,64729],[-6352,27653],[-7766,9915],[-7245,-2278],[-5856,-5851],[-11636,-22664],[-6823,5296],[-6947,17799]],[[764043,742439],[11983,44036]],[[776026,786475],[5012,-12749],[12183,-9793],[32255,-17922],[10147,-1170],[22752,37569],[9900,6898],[5508,-5543],[6228,-16075],[10967,-10223],[2630,-13734],[-8337,-30363],[14564,-17799],[3697,-12502],[-8485,-16690],[-5905,-185],[-10893,14535],[-8485,-1109],[-7121,-50810],[2283,-2895]],[[852272,381720],[-6650,-94167]],[[845622,287553],[-11388,-22172]],[[834234,265381],[-7940,-800]],[[826294,264581],[-17641,10962],[-29401,1971]],[[779252,277514],[-11339,7514],[-10024,34242],[-44561,49579]],[[713328,368849],[-1935,16875],[1612,11886]],[[713005,397610],[14391,29131],[670,12933],[-3647,11517],[-13250,9731],[-11984,20570],[-17591,5359]],[[681594,486851],[9627,41818],[21933,26913],[28757,25867],[8733,13488],[6749,18599],[4615,26545],[-1141,16012],[2903,20694]],[[116887,545174],[-9503,10470]],[[99742,554166],[-13274,-33565],[-7344,-1971]],[[39276,542711],[-6525,10531],[-918,22726],[4739,20755],[-3598,6159],[-3324,-801],[-8784,21494],[-273,28946],[-7766,10593],[2159,7206],[25,7514],[-2134,3818],[2407,14658],[-6327,9916],[-4516,-3819],[-4441,3449],[2779,27838],[-1985,13672],[10991,2587],[23671,-8561],[2927,-21432],[9081,-15089],[13001,3264]],[[60465,708135],[56422,-162961]],[[681594,486851],[-46298,-3326]],[[635296,483525],[-20941,-6405],[-11289,-3819]],[[603066,473301],[-14043,-17306]],[[589023,455995],[-13076,8253]],[[575947,464248],[-16896,20570],[-9528,13118]],[[467645,780439],[-1538,-10039]],[[420355,635831],[-7369,62]],[[412986,635893],[-11165,10346],[-19626,26853]],[[382195,673092],[-15780,-14473],[-9255,739],[-14266,10285],[-12952,-11332],[-8411,6343],[-5781,16998],[-7543,10470],[-8113,-11948],[8064,-24635],[-1762,-21309],[-7766,-431],[-22975,39231]],[[303220,789123],[22033,8068],[29649,49332],[7816,7452],[28086,6836],[17021,-4681],[26325,27037]],[[169636,604113],[-12208,-16074],[-25357,-45144],[-3647,-3880]],[[119641,542403],[-2754,2771]],[[60465,708135],[21636,5912],[11909,20140],[8933,4865],[21337,-15951],[5657,11825],[3375,20632],[7468,11824],[8907,4373]],[[186780,718728],[4268,-12194]],[[191048,706534],[-1439,-16075],[-7047,-11701],[-22156,7575],[-5756,-6220],[1091,-11579]],[[155741,668534],[29675,-35166]],[[185416,633368],[4019,-21864],[-1414,-12749]],[[188021,598755],[-5682,-8129]],[[963154,249307],[25,-18230],[5533,-38123],[21784,-27961],[7171,-15397],[2332,-31656],[-8734,-17183],[-5805,-21863],[-5980,-49640],[-6674,-3634],[-9081,-13118],[471,9608],[-1886,7021],[-6277,7637],[-2630,10593],[-3597,369],[-11711,-13241],[-670,-13056],[-11711,-10347],[-10769,6405],[-14663,-17491],[-8758,5420],[-3673,11578],[1167,14289],[-1961,3941],[2556,3511],[-20420,4680]],[[869193,43419],[13944,45082],[10099,10409],[1637,8068],[74,8376],[-11438,33627],[2606,11332],[9701,9484],[2779,7945],[-5012,28454],[9627,21247]],[[392268,377224],[-2927,1355],[2828,1540],[99,-2895]],[[336244,426741],[25655,33996],[10471,24697]],[[549523,497936],[26424,-33688]],[[589023,455995],[-20966,-38554]],[[568057,417441],[-14688,-38492],[-20668,4311]],[[532701,383260],[372,6467],[-1662,677],[-8908,-3818],[-9999,-11825],[-18236,6097],[-5533,-15951],[-4987,-5912],[-31411,-22172],[-4541,677],[199,3326],[-23869,-13303],[-4143,7329],[-27541,739],[-7443,-9053],[-4318,4065],[-4763,-2710],[-5409,-12749],[-4541,678],[-14738,-14966],[2060,-3819],[-14044,-4865],[-7890,-23342],[-4763,-6343],[-13349,3633]],[[603612,818069],[-20345,4619],[-13820,17306]],[[595300,962862],[12282,-1848],[11909,7083],[12580,11455],[9304,16998],[26102,3449],[41013,-55121],[29426,-20940],[21164,-23095],[35356,-10224],[6948,-23157],[2258,-15643],[-3697,-14473],[-6898,-8561],[-8709,-2586],[-6351,-9670],[-2903,-15089],[942,-14965]],[[613189,924985],[-918,5851],[-4937,-3942],[2332,-5542],[3523,3633]],[[697970,242717],[-2605,370],[1563,2586],[1042,-2956]],[[711889,378210],[1439,-9361]],[[779252,277514],[22281,-1232]],[[801533,276282],[-521,-30424],[-15210,-27345],[-3275,-19954],[-7195,-7268],[-9726,4435],[-5037,-7822],[-1687,-9916],[13696,-56044]],[[772578,121944],[-4392,615],[-3920,-9115],[-4714,493],[-3151,9731],[-6575,3634],[99,16136],[-5558,15458],[918,12133],[-2084,3510],[-12108,-10531],[-11562,-2340],[-10942,6713],[174,-13611],[-3251,-6775],[2209,-185],[-1539,-10346],[2209,-185],[-2085,-13919],[6675,-739],[2357,-16690],[-6526,1108],[-5012,-13549],[-11512,-9792],[-2159,616],[521,8745],[-10917,-1109],[-12281,-17860],[-1588,12995],[5012,7514],[-3896,10839],[-8386,12379],[-4416,1109],[-8114,14781],[-3473,17306],[-4020,7452],[-13150,5481],[-14415,19216],[-11438,-2217],[-26821,49639],[-273,8807],[-6427,18353],[3499,22849],[-2035,3634],[621,9669],[33545,-4988]],[[601677,288908],[13770,-16937],[6550,5666],[1960,9608],[9131,7883],[9205,-8499],[6401,8561],[2730,13303],[5830,10654],[10768,6960],[8511,-2956],[9478,9915],[-1018,9916],[1812,7637],[8311,15520],[16773,12071]],[[869193,43419],[-3846,8499],[-9676,1479],[-1935,5604],[-8932,6097],[-1712,7883],[-9329,11948],[-1489,8992],[6103,14904],[-8485,11394],[-2233,431],[1886,-6898],[-571,-12563],[-5012,-4927],[-13150,11578],[-17418,-7329],[-4664,801],[446,3079],[-5111,-2648],[-1935,3449],[968,6159],[-4690,677],[-1836,3326],[2804,2525],[-1886,3264],[-4912,801]],[[801533,276282],[24761,-11701]],[[834234,265381],[7344,10532],[4044,11640]],[[845622,287553],[2606,23773],[-124,21986]],[[713005,397610],[-1116,-19400]],[[601677,288908],[-31337,5112],[1042,15643],[-8883,1601],[-7120,-5235],[-2010,3634],[446,6467],[-6302,7636],[-6748,1109],[-12108,21556],[1513,4742],[-719,17244],[3250,14843]],[[568057,417441],[13448,25621],[21561,30239]],[[603066,473301],[32230,10224]],[[344184,584775],[-10421,1355],[-15830,-6528],[-11686,-17615]],[[213229,482971],[-26995,56044],[-4242,14289]],[[181992,553304],[-769,17306],[1116,20016]],[[188021,598755],[595,23773],[-3200,10840]],[[185416,633368],[-6873,10408],[-22802,24758]],[[191048,706534],[14515,-8499]],[[382195,673092],[30791,-37199]],[[412986,635893],[-5409,-370]]],"bbox":[35.3439,49.8025,39.3743,51.4262],"transform":{"scale":[0.0000040304040304040305,0.0000016237016237016233],"translate":[35.3439,49.8025]}}