{"type":"Topology","objects":{"muni":{"type":"GeometryCollection","geometries":[{"type":"MultiPolygon","arcs":[[[0,1,2,3]]],"properties":{"GID_2":"RUS.8.1_1","GID_0":"RUS","COUNTRY":"Russia","GID_1":"RUS.8_1","NAME_1":"Bryansk","NL_NAME_1":"Брянскаяобласть","NAME_2":"Brasovskiyrayon","VARNAME_2":"NA","NL_NAME_2":"Брасовскийрайон","TYPE_2":"Raion","ENGTYPE_2":"District","CC_2":"R09000","HASC_2":"RU.BR.BS"}},{"type":"MultiPolygon","arcs":[[[4]]],"properties":{"GID_2":"RUS.8.2_1","GID_0":"RUS","COUNTRY":"Russia","GID_1":"RUS.8_1","NAME_1":"Bryansk","NL_NAME_1":"Брянскаяобласть","NAME_2":"Bryansk","VARNAME_2":"NA","NL_NAME_2":"Брянск","TYPE_2":"Gorsovet","ENGTYPE_2":"District","CC_2":"NA","HASC_2":"RU.BR.BG"}},{"type":"MultiPolygon","arcs":[[[5,6,7,8,9,10,11,12],[-5]]],"properties":{"GID_2":"RUS.8.3_1","GID_0":"RUS","COUNTRY":"Russia","GID_1":"RUS.8_1","NAME_1":"Bryansk","NL_NAME_1":"Брянскаяобласть","NAME_2":"Bryanskiyrayon","VARNAME_2":"NA","NL_NAME_2":"Брянскийрайон","TYPE_2":"Raion","ENGTYPE_2":"District","CC_2":"R09000","HASC_2":"RU.BR.BR"}},{"type":"MultiPolygon","arcs":[[[13,14,15,16,17,18]]],"properties":{"GID_2":"RUS.8.4_1","GID_0":"RUS","COUNTRY":"Russia","GID_1":"RUS.8_1","NAME_1":"Bryansk","NL_NAME_1":"Брянскаяобласть","NAME_2":"Dubrovskiyrayon","VARNAME_2":"NA","NL_NAME_2":"Дубровскийрайон","TYPE_2":"Raion","ENGTYPE_2":"District","CC_2":"R09000","HASC_2":"RU.BR.DU"}},{"type":"MultiPolygon","arcs":[[[19]]],"properties":{"GID_2":"RUS.8.5_1","GID_0":"RUS","COUNTRY":"Russia","GID_1":"RUS.8_1","NAME_1":"Bryansk","NL_NAME_1":"Брянскаяобласть","NAME_2":"Dyat'kovo","VARNAME_2":"NA","NL_NAME_2":"Дятьково","TYPE_2":"Gorod","ENGTYPE_2":"City","CC_2":"NA","HASC_2":"RU.BR.DG"}},{"type":"MultiPolygon","arcs":[[[-12,20,21,22],[-20]]],"properties":{"GID_2":"RUS.8.6_1","GID_0":"RUS","COUNTRY":"Russia","GID_1":"RUS.8_1","NAME_1":"Bryansk","NL_NAME_1":"Брянскаяобласть","NAME_2":"Dyat'kovskiyrayon","VARNAME_2":"NA","NL_NAME_2":"Дятьковскийрайон","TYPE_2":"Raion","ENGTYPE_2":"District","CC_2":"R09000","HASC_2":"RU.BR.DR"}},{"type":"MultiPolygon","arcs":[[[23,24,25,26,27]]],"properties":{"GID_2":"RUS.8.7_1","GID_0":"RUS","COUNTRY":"Russia","GID_1":"RUS.8_1","NAME_1":"Bryansk","NL_NAME_1":"Брянскаяобласть","NAME_2":"Gordeevskiyrayon","VARNAME_2":"NA","NL_NAME_2":"Гордеевскийрайон","TYPE_2":"Raion","ENGTYPE_2":"District","CC_2":"R09000","HASC_2":"RU.BR.GO"}},{"type":"MultiPolygon","arcs":[[[-6,28,29]]],"properties":{"GID_2":"RUS.8.8_1","GID_0":"RUS","COUNTRY":"Russia","GID_1":"RUS.8_1","NAME_1":"Bryansk","NL_NAME_1":"Брянскаяобласть","NAME_2":"Karachevskiyrayon","VARNAME_2":"NA","NL_NAME_2":"Карачевскийрайон","TYPE_2":"Raion","ENGTYPE_2":"District","CC_2":"R09001","HASC_2":"RU.BR.KA"}},{"type":"MultiPolygon","arcs":[[[30,-15,31,32,33,34,35,36,37]]],"properties":{"GID_2":"RUS.8.9_1","GID_0":"RUS","COUNTRY":"Russia","GID_1":"RUS.8_1","NAME_1":"Bryansk","NL_NAME_1":"Брянскаяобласть","NAME_2":"Kletnyanskiyrayon","VARNAME_2":"NA","NL_NAME_2":"Клетнянскийрайон","TYPE_2":"Raion","ENGTYPE_2":"District","CC_2":"R09001","HASC_2":"RU.BR.KL"}},{"type":"MultiPolygon","arcs":[[[38,39,40,41,42]]],"properties":{"GID_2":"RUS.8.10_1","GID_0":"RUS","COUNTRY":"Russia","GID_1":"RUS.8_1","NAME_1":"Bryansk","NL_NAME_1":"Брянскаяобласть","NAME_2":"Klimovskiyrayon","VARNAME_2":"NA","NL_NAME_2":"Климовскийрайон","TYPE_2":"Raion","ENGTYPE_2":"District","CC_2":"R09001","HASC_2":"RU.BR.KV"}},{"type":"MultiPolygon","arcs":[[[-26,43,44,45,-41,46],[47]]],"properties":{"GID_2":"RUS.8.11_1","GID_0":"RUS","COUNTRY":"Russia","GID_1":"RUS.8_1","NAME_1":"Bryansk","NL_NAME_1":"Брянскаяобласть","NAME_2":"Klintsovskiyrayon","VARNAME_2":"NA","NL_NAME_2":"Клинтсовскийрайон","TYPE_2":"Raion","ENGTYPE_2":"District","CC_2":"R09001","HASC_2":"RU.BR.KR"}},{"type":"MultiPolygon","arcs":[[[-48]]],"properties":{"GID_2":"RUS.8.12_1","GID_0":"RUS","COUNTRY":"Russia","GID_1":"RUS.8_1","NAME_1":"Bryansk","NL_NAME_1":"Брянскаяобласть","NAME_2":"Klintsy","VARNAME_2":"NA","NL_NAME_2":"Клинцы","TYPE_2":"Gorsovet","ENGTYPE_2":"District","CC_2":"NA","HASC_2":"RU.BR.KG"}},{"type":"MultiPolygon","arcs":[[[-1,48,49,50]]],"properties":{"GID_2":"RUS.8.13_1","GID_0":"RUS","COUNTRY":"Russia","GID_1":"RUS.8_1","NAME_1":"Bryansk","NL_NAME_1":"Брянскаяобласть","NAME_2":"Komarichskiyrayon","VARNAME_2":"NA","NL_NAME_2":"Комаричскийрайон","TYPE_2":"Raion","ENGTYPE_2":"District","CC_2":"R09001","HASC_2":"RU.BR.KO"}},{"type":"MultiPolygon","arcs":[[[-28,51,52]]],"properties":{"GID_2":"RUS.8.14_1","GID_0":"RUS","COUNTRY":"Russia","GID_1":"RUS.8_1","NAME_1":"Bryansk","NL_NAME_1":"Брянскаяобласть","NAME_2":"Krasnogorskiyrayon","VARNAME_2":"NA","NL_NAME_2":"Красногорскийрайон","TYPE_2":"Raion","ENGTYPE_2":"District","CC_2":"R09001","HASC_2":"RU.BR.KS"}},{"type":"MultiPolygon","arcs":[[[53,-37,54,55,56]]],"properties":{"GID_2":"RUS.8.15_1","GID_0":"RUS","COUNTRY":"Russia","GID_1":"RUS.8_1","NAME_1":"Bryansk","NL_NAME_1":"Брянскаяобласть","NAME_2":"Mglinskiyrayon","VARNAME_2":"NA","NL_NAME_2":"Мглинскийрайон","TYPE_2":"Raion","ENGTYPE_2":"District","CC_2":"R09001","HASC_2":"RU.BR.MG"}},{"type":"MultiPolygon","arcs":[[[-3,57,58,59,60,61,-7,-30,62]]],"properties":{"GID_2":"RUS.8.16_1","GID_0":"RUS","COUNTRY":"Russia","GID_1":"RUS.8_1","NAME_1":"Bryansk","NL_NAME_1":"Брянскаяобласть","NAME_2":"Navlinskiyrayon","VARNAME_2":"NA","NL_NAME_2":"Навлинскийрайон","TYPE_2":"Raion","ENGTYPE_2":"District","CC_2":"R09001","HASC_2":"RU.BR.NA"}},{"type":"MultiPolygon","arcs":[[[63]]],"properties":{"GID_2":"RUS.8.17_1","GID_0":"RUS","COUNTRY":"Russia","GID_1":"RUS.8_1","NAME_1":"Bryansk","NL_NAME_1":"Брянскаяобласть","NAME_2":"Novozybkov","VARNAME_2":"NA","NL_NAME_2":"Новозыбков","TYPE_2":"Gorod","ENGTYPE_2":"City","CC_2":"NA","HASC_2":"RU.BR.NG"}},{"type":"MultiPolygon","arcs":[[[64,-52,-27,-47,-40,65],[-64]]],"properties":{"GID_2":"RUS.8.18_1","GID_0":"RUS","COUNTRY":"Russia","GID_1":"RUS.8_1","NAME_1":"Bryansk","NL_NAME_1":"Брянскаяобласть","NAME_2":"Novozybkovskiyrayon","VARNAME_2":"NA","NL_NAME_2":"Новозыбковскийрайон","TYPE_2":"Raion","ENGTYPE_2":"District","CC_2":"R09001","HASC_2":"RU.BR.NR"}},{"type":"MultiPolygon","arcs":[[[66,67,68,69,70,71,-55]]],"properties":{"GID_2":"RUS.8.19_1","GID_0":"RUS","COUNTRY":"Russia","GID_1":"RUS.8_1","NAME_1":"Bryansk","NL_NAME_1":"Брянскаяобласть","NAME_2":"Pochepskiyrayon","VARNAME_2":"NA","NL_NAME_2":"Почепскийрайон","TYPE_2":"Raion","ENGTYPE_2":"District","CC_2":"R09002","HASC_2":"RU.BR.PC"}},{"type":"MultiPolygon","arcs":[[[-71,72,73,74]]],"properties":{"GID_2":"RUS.8.20_1","GID_0":"RUS","COUNTRY":"Russia","GID_1":"RUS.8_1","NAME_1":"Bryansk","NL_NAME_1":"Брянскаяобласть","NAME_2":"Pogarskiyrayon","VARNAME_2":"NA","NL_NAME_2":"Погарскийрайон","TYPE_2":"Raion","ENGTYPE_2":"District","CC_2":"R09001","HASC_2":"RU.BR.PG"}},{"type":"MultiPolygon","arcs":[[[-17,75,-22,76,77]]],"properties":{"GID_2":"RUS.8.21_1","GID_0":"RUS","COUNTRY":"Russia","GID_1":"RUS.8_1","NAME_1":"Bryansk","NL_NAME_1":"Брянскаяобласть","NAME_2":"Rognedinskiyrayon","VARNAME_2":"NA","NL_NAME_2":"Рогнединскийрайон","TYPE_2":"Raion","ENGTYPE_2":"District","CC_2":"R09002","HASC_2":"RU.BR.RO"}},{"type":"MultiPolygon","arcs":[[[-50,78,79]]],"properties":{"GID_2":"RUS.8.22_1","GID_0":"RUS","COUNTRY":"Russia","GID_1":"RUS.8_1","NAME_1":"Bryansk","NL_NAME_1":"Брянскаяобласть","NAME_2":"Sevskiyrayon","VARNAME_2":"NA","NL_NAME_2":"Севскийрайон","TYPE_2":"Raion","ENGTYPE_2":"District","CC_2":"R09002","HASC_2":"RU.BR.SE"}},{"type":"MultiPolygon","arcs":[[[-42,-46,80,-75,81]]],"properties":{"GID_2":"RUS.8.23_1","GID_0":"RUS","COUNTRY":"Russia","GID_1":"RUS.8_1","NAME_1":"Bryansk","NL_NAME_1":"Брянскаяобласть","NAME_2":"Starodubskiyrayon","VARNAME_2":"NA","NL_NAME_2":"Стародубскийрайон","TYPE_2":"Raion","ENGTYPE_2":"District","CC_2":"R09002","HASC_2":"RU.BR.ST"}},{"type":"MultiPolygon","arcs":[[[82,83,-57,84,-44,-25]]],"properties":{"GID_2":"RUS.8.24_1","GID_0":"RUS","COUNTRY":"Russia","GID_1":"RUS.8_1","NAME_1":"Bryansk","NL_NAME_1":"Брянскаяобласть","NAME_2":"Surazhskiyrayon","VARNAME_2":"NA","NL_NAME_2":"Суражскийрайон","TYPE_2":"Raion","ENGTYPE_2":"District","CC_2":"R09002","HASC_2":"RU.BR.SU"}},{"type":"MultiPolygon","arcs":[[[-2,-51,-80,85,86,87,-58]]],"properties":{"GID_2":"RUS.8.25_1","GID_0":"RUS","COUNTRY":"Russia","GID_1":"RUS.8_1","NAME_1":"Bryansk","NL_NAME_1":"Брянскаяобласть","NAME_2":"Suzemskiyrayon","VARNAME_2":"NA","NL_NAME_2":"Суземскийрайон","TYPE_2":"Raion","ENGTYPE_2":"District","CC_2":"R09002","HASC_2":"RU.BR.SZ"}},{"type":"MultiPolygon","arcs":[[[88,89,-87,90,-73,-70,91]]],"properties":{"GID_2":"RUS.8.26_1","GID_0":"RUS","COUNTRY":"Russia","GID_1":"RUS.8_1","NAME_1":"Bryansk","NL_NAME_1":"Брянскаяобласть","NAME_2":"Trubchevskiyrayon","VARNAME_2":"NA","NL_NAME_2":"Трубчевскийрайон","TYPE_2":"Raion","ENGTYPE_2":"District","CC_2":"R09002","HASC_2":"RU.BR.TR"}},{"type":"MultiPolygon","arcs":[[[-45,-85,-56,-72,-81]]],"properties":{"GID_2":"RUS.8.27_1","GID_0":"RUS","COUNTRY":"Russia","GID_1":"RUS.8_1","NAME_1":"Bryansk","NL_NAME_1":"Брянскаяобласть","NAME_2":"Unechskiyrayon","VARNAME_2":"NA","NL_NAME_2":"Унечскийрайон","TYPE_2":"Raion","ENGTYPE_2":"District","CC_2":"R09002","HASC_2":"RU.BR.UN"}},{"type":"MultiPolygon","arcs":[[[-9,92,-61,93,-92,-69,94]]],"properties":{"GID_2":"RUS.8.28_1","GID_0":"RUS","COUNTRY":"Russia","GID_1":"RUS.8_1","NAME_1":"Bryansk","NL_NAME_1":"Брянскаяобласть","NAME_2":"Vygonichskiyrayon","VARNAME_2":"NA","NL_NAME_2":"Выгоничскийрайон","TYPE_2":"Raion","ENGTYPE_2":"District","CC_2":"R09000","HASC_2":"RU.BR.VY"}},{"type":"MultiPolygon","arcs":[[[-10,-95,-68,95,-35,96,97]]],"properties":{"GID_2":"RUS.8.29_1","GID_0":"RUS","COUNTRY":"Russia","GID_1":"RUS.8_1","NAME_1":"Bryansk","NL_NAME_1":"Брянскаяобласть","NAME_2":"Zhiryatinskiyrayon","VARNAME_2":"NA","NL_NAME_2":"Жирятинскийрайон","TYPE_2":"Raion","ENGTYPE_2":"District","CC_2":"R09000","HASC_2":"RU.BR.ZR"}},{"type":"MultiPolygon","arcs":[[[-11,-98,98,-33,99,-19,100,-77,-21]]],"properties":{"GID_2":"RUS.8.30_1","GID_0":"RUS","COUNTRY":"Russia","GID_1":"RUS.8_1","NAME_1":"Bryansk","NL_NAME_1":"Брянскаяобласть","NAME_2":"Zhukovskiyrayon","VARNAME_2":"NA","NL_NAME_2":"Жуковскийрайон","TYPE_2":"Raion","ENGTYPE_2":"District","CC_2":"R09000","HASC_2":"RU.BR.ZK"}},{"type":"MultiPolygon","arcs":[[[101,-66,-39]]],"properties":{"GID_2":"RUS.8.31_1","GID_0":"RUS","COUNTRY":"Russia","GID_1":"RUS.8_1","NAME_1":"Bryansk","NL_NAME_1":"Брянскаяобласть","NAME_2":"Zlynkovskiyrayon","VARNAME_2":"NA","NL_NAME_2":"Злынковскийрайон","TYPE_2":"Raion","ENGTYPE_2":"District","CC_2":"R09000","HASC_2":"RU.BR.ZL"}}]}},"arcs":[[[913921,297931],[-26212,16752],[-63064,417],[-81019,-33551]],[[743626,281549],[7936,15642],[-8630,9440],[3595,11940],[27949,44333]],[[774476,362904],[23832,28460],[35339,-4581],[14978,30219],[10639,-2453],[3373,22167],[26659,8792]],[[889296,445508],[4488,-12356],[10937,14254],[8977,-6664],[7068,-14300],[18128,2962],[372,-7173],[-8382,-13004],[11432,-21010],[-8431,-13697],[-11582,10180],[-3843,-4488],[10415,-24157],[-9523,-15457],[17136,-16937],[-22368,-12217],[-199,-13513]],[[810261,624276],[-23385,-5229],[-16169,11384],[-19914,31376],[25022,29802],[34446,-67333]],[[939415,678559],[-16492,-18788],[-26882,-9626],[-35363,-43130],[-17856,-7543]],[[842822,599472],[-21773,3980]],[[821049,603452],[-64404,-37762]],[[756645,565690],[2704,31884],[-27503,10505],[-18649,42390],[-69462,7682]],[[643735,658151],[-4613,17539],[-26311,-1897]],[[612811,673793],[3819,18834],[53119,-5044],[14557,84965],[4043,8700]],[[688349,781248],[10911,-17123],[30206,-3887],[11903,17493],[8258,-8423],[-10316,-21565],[14731,-7358],[9126,10598],[6224,-1666],[5282,-20501],[34967,-10690],[-4613,12356],[2530,12171],[5729,1388]],[[813287,744041],[322,-11662],[16516,-7728],[6894,-12078],[23212,-47],[14805,-11893],[26015,-9672],[17185,3888],[9796,-5368],[6225,6386],[5158,-17308]],[[532462,752001],[12027,14299]],[[544489,766300],[-25171,53774],[-13689,-13004],[-14235,23555],[-12424,-9810],[-29065,-2361]],[[449905,818454],[8407,8654],[1662,16938],[16442,18973],[15251,-4581],[1091,35078],[3894,7450],[14011,-10505],[11631,14855]],[[522294,905316],[19517,-509],[27502,-26100],[13788,-2453],[26585,-22120],[11110,4211],[9920,-7497]],[[630716,850848],[-11681,-20269]],[[619035,830579],[-46300,-42482],[-7390,-34477],[-32883,-1619]],[[775220,802026],[-2331,-231],[1017,2823],[1314,-2592]],[[688349,781248],[-12797,28229],[17558,8654],[-9200,38039],[-11284,5553],[-15078,38549]],[[657548,900272],[-2455,11708]],[[655093,911980],[27254,15873],[9821,-13559],[46696,15919],[7068,-20084],[15723,-6432],[2455,-13097],[18450,-10134],[-99,-19020],[10837,-11246],[14905,-6339],[-1215,-28276],[1512,-20593],[-2232,-10042],[11383,-23555],[-4687,-5877],[323,-11477]],[[133196,614142],[2926,-4767],[2753,-18372],[5555,-9533],[10564,-3424],[9523,3100],[4315,-13281],[14210,-232],[6820,4628],[9498,-6433]],[[199360,565828],[8804,-36651],[-1191,-23231]],[[206973,505946],[-43944,-44333],[4439,-15179],[-4984,-14762],[-20336,-21797],[3646,-12402]],[[145794,397473],[-12573,-7173],[-11879,20362]],[[121342,410662],[6101,38502],[2975,43639],[13491,15827],[-15127,32024],[10515,10320],[-7267,23369],[1166,39799]],[[939415,678559],[21724,-18927],[-695,-39752],[4043,-12680],[-12201,-9626],[17780,-8561],[5357,-9718],[19914,-7821],[4662,-12818],[-8903,-18558],[-26634,-462],[744,-25129],[-23014,-4165],[-5951,-5877],[-12450,22861],[-3744,-21796],[-10069,-2268],[-6720,7728],[-22295,-1990]],[[880963,509000],[-11903,-15364],[-17955,20270],[2034,13883],[-10143,15919],[-5481,-8052],[-9151,9255],[14458,54561]],[[369383,695543],[4662,16428],[8828,-139],[-8332,6757],[24179,15271],[14111,-10366],[1041,33227],[12003,18048],[-5208,17909],[13664,19390],[15574,6386]],[[544489,766300],[-17210,-22444]],[[527279,743856],[34297,-39150]],[[561576,704706],[-27775,-8608]],[[533801,696098],[-2505,-68582]],[[531296,627516],[-46275,-35263]],[[485021,592253],[-34843,41880],[-18004,-4766],[-24750,15364],[4043,16243]],[[411467,660974],[-42084,34569]],[[118763,152436],[3670,3332],[14880,232],[4538,16521],[6522,13281],[17781,8515],[14011,-3147],[4241,3471],[-25320,35402],[14086,25452],[17831,14670],[11655,18279]],[[202658,288444],[-322,16012],[20062,2175],[12821,11523]],[[235219,318154],[35240,-15271],[-5803,17446],[33677,-5275]],[[298333,315054],[26461,-28414],[-943,-37253],[-18524,-24296]],[[305327,225091],[-13838,-7682],[-9647,7682],[-7018,-4674],[2331,-21843],[7192,2592],[-2456,-8145],[2257,-10967],[-4761,-5461],[-11953,-2638],[-75,-11060],[2406,-2823],[3000,-22352],[2654,-5646],[-9994,-5321],[-199,-8284],[-5158,-10875],[-7316,139],[-9870,-5322],[-4935,-10921],[-12325,5738],[-7266,-13652],[-14607,-8006],[-12449,8515],[-9845,185],[-4737,-5460],[-7315,92],[-2505,2823],[9151,16521],[-2654,5600],[-22592,10967],[-12622,-5275],[-1984,5460],[-2505,93],[2877,4211],[0,6109],[-3547,4905],[-49,15873],[-3546,4998],[-10664,1249]],[[206973,505946],[63982,-31376]],[[270955,474570],[11978,-33736],[-11804,-8607],[8034,-11616],[-4488,-18186],[30180,-16290]],[[304855,386135],[-2951,-17308],[-24402,10459],[-2753,-13189],[18004,-22491],[5580,-28552]],[[235219,318154],[-31023,58911],[-18823,-18141],[-30949,21889],[-8630,16660]],[[250818,420982],[595,2313],[-3372,833],[471,-3470],[2306,324]],[[913921,297931],[-15871,-2036],[4761,-10644],[-12796,-3933],[-1141,-26841],[14061,3934],[15847,-19344],[-6051,-3054],[-13044,-29618],[-9052,-7219],[-7489,-27674],[-9151,-6154],[-19567,13281],[-12870,-10273],[-2580,-9857]],[[838978,158499],[-29163,14716],[13466,17863],[-12003,41417],[-12077,6340],[-17285,-9718]],[[781916,229117],[-8655,11060],[-18277,-2730],[2455,17909],[19641,8423],[-33454,17770]],[[121342,410662],[-5555,-19298],[-27899,19714]],[[87888,411078],[-645,12865],[-14681,15873],[-3273,8145],[4439,8191],[-2009,6803],[-11135,-648],[-19938,19066],[-7564,13096],[-2802,19437],[-28395,23370],[-1885,6617],[2356,1990],[14607,-4581],[3447,3147],[0,11569],[3447,10273],[13242,4119],[1885,7589],[-6398,4767],[-744,3702],[7787,9950],[4637,21796],[23535,2684],[10887,-4165],[15821,18326],[30330,-11801],[8357,-9116]],[[373375,691563],[38092,-30589]],[[485021,592253],[-10441,-20825],[1588,-17400],[-31371,11153],[-5134,-21519]],[[439663,543662],[-26535,-35633],[-19641,6895],[2877,17215],[-19938,7821],[-9176,-18511],[-11904,3656]],[[355346,525105],[1513,37114],[-26064,11662],[12846,75431],[28346,-14716],[10291,13698],[-8903,43269]],[[774476,362904],[-36232,22444],[-29262,-11985]],[[708982,373363],[-21600,62057]],[[687382,435420],[5257,81771]],[[692639,517191],[28073,-1342],[22641,40169]],[[743353,556018],[77696,47434]],[[880963,509000],[15004,833],[3025,-23786],[-25964,-9718],[9349,-11847],[6919,-18974]],[[178578,308436],[-2827,2406],[1587,1620],[1240,-4026]],[[88682,331436],[-8779,7265],[-943,19483],[-12498,21935],[-670,6571],[12400,2592],[9349,17122],[347,4674]],[[202658,288444],[-44440,5554],[-16491,-16799],[-5853,29247],[-21153,-9255],[-6399,39705],[-9423,-9625],[-3447,6895],[-6770,-2730]],[[485021,592253],[17012,12309]],[[502033,604562],[31743,-31977],[3695,11430],[10986,7914],[74893,33782]],[[623350,625711],[10614,-22907],[-21525,-17308],[19988,-23509],[9671,-40122],[-16268,-26979]],[[625830,494886],[-19889,-40678],[6845,-18325],[-17533,-2638],[-7688,-28136],[-42134,-24435]],[[545431,380674],[-41786,42899],[-7613,-16289],[-20112,15826]],[[475920,423110],[-4985,47018],[-18922,21889],[7291,21565],[-10192,10782],[1661,12403],[-11110,6895]],[[545431,380674],[-15276,-37762],[-11755,-48961],[12846,-62427]],[[531246,231524],[-12102,-9904],[-12945,8700],[-12077,5091],[-9151,-555],[-2554,3702],[-2604,-3193],[818,-11199],[-2802,-2731],[-1984,3055],[-8308,-3055],[-13515,-15734],[-2430,139],[3323,8376],[-2555,93],[-5307,-2592],[-5009,-7636]],[[442044,204081],[-9151,46416],[-21104,4859],[-2033,21195],[28097,5415],[-7911,24341],[-670,17400],[-9870,3379],[1439,10227],[16070,5692],[5207,36975],[21749,3887],[12053,39243]],[[522294,905316],[-18054,25545],[13962,21473],[4439,23647],[19492,-19112],[11755,13189],[-6770,12865],[21625,11153],[39182,5923],[33305,-22398],[28743,-55625],[-14880,-9996]],[[657548,900272],[-12523,-28877]],[[645025,871395],[-14309,-20547]],[[838978,158499],[4861,-9626],[8010,-7451],[-322,-7496],[-8804,-23046],[-13615,-6479],[-23881,9302],[-12276,-833],[-30999,-26980],[744,-16798],[-10837,-12865],[3844,-8701],[28792,-11199],[-1687,-7126],[-9795,-7821],[-10044,-15642],[-4092,7127],[-2281,-278],[-7242,-12032],[-4761,-555],[3100,22676],[-9870,-1111],[-2480,2499],[496,8422],[-2257,5369],[-15549,6941],[-1389,13837],[-4835,5322],[-5407,-2962],[-4835,2684],[471,5553],[2752,2870],[-1611,11106],[-2307,2730],[-1661,16475],[11035,16382],[-49,8237],[-4489,7914]],[[705708,134944],[36083,14068],[967,27026],[-17459,16104],[24328,19760],[32289,17215]],[[304855,386135],[27676,-14485],[23758,50026],[45084,-16521],[24800,1296],[892,16058],[20261,1666],[5679,-7266],[22915,6201]],[[442044,204081],[-7837,-12356],[-10911,-3933],[-12052,-10088],[-4712,231],[-124,10690],[-2307,2823],[-13614,879],[-149,-5461],[-7117,2962],[-5059,-5414],[-7019,5784],[-10043,-8052],[-4836,185],[-16541,22537],[-9697,324],[-4959,11107],[-16938,3285],[-2282,-5368],[-2405,46],[-50,2731],[-7192,2915],[9127,5183]],[[199360,565828],[16343,-2221],[10093,3193],[6125,9857],[3348,1065],[5927,-5276],[3422,2175],[1166,12264],[8332,-3332],[7812,2591],[8754,10551],[2034,12588],[20137,4766],[14879,19251],[9151,20917],[372,3749],[-5084,6247],[22245,-2776],[7712,12448],[-1835,6340],[1364,3795],[10069,-8932],[5827,8839],[9920,-3378],[3720,4998],[-1810,9996]],[[369383,695543],[3992,-3980]],[[355346,525105],[-41662,-23463],[-8109,3379],[-19443,-10829],[-15177,-19622]],[[705708,134944],[-7316,5969],[-719,13421],[-11308,509],[-6870,16706],[-4786,-185],[50,2823],[-6944,5229],[-2281,5507],[2058,11708],[-4836,8052],[-19690,879],[49,5230],[4439,5044],[-4364,2175],[-3224,12171],[-3795,-4165],[-4761,5599],[-10614,-8052],[-7093,5414]],[[613703,228978],[12127,56134],[73951,3841],[12052,75293]],[[711833,364246],[-2851,9117]],[[689762,489009],[-2380,-53589]],[[687382,435420],[24451,-71174]],[[613703,228978],[-15177,-13235],[-16069,-5275],[-2753,-5276],[-6522,5461],[1388,-10644],[-14135,463],[248,2684],[-2356,92],[794,7914],[5257,5090],[992,10551],[-19095,1296],[-149,-2730],[4811,-370],[1885,-5554],[-5059,-2406],[-6448,8654],[-2753,-1111],[-3670,7081],[-3646,-139]],[[625830,494886],[27329,-14207],[36603,8330]],[[756645,565690],[-13292,-9672]],[[692639,517191],[-2877,-28182]],[[623350,625711],[-6249,21843],[26634,10597]],[[502033,604562],[29263,22954]],[[533801,696098],[59914,16891]],[[593715,712989],[19096,-39196]],[[593715,712989],[-32139,-8283]],[[527279,743856],[5183,8145]],[[619035,830579],[25990,40816]],[[118763,152436],[-9845,-2637],[-2356,3702],[4216,13883],[-1216,16243],[3547,2684],[248,3749],[-5456,3470],[-9647,-1434],[-2802,5738],[-5158,324],[-4960,6849],[322,5044],[4514,5692],[2827,36466],[-1885,3703],[-6324,1480],[-1537,11940],[5827,7451],[1513,9116],[-843,3980],[-9349,5785],[322,5229],[6621,2175],[1885,14022],[5729,-9626],[7960,13467],[-1934,2730],[-5257,-2175],[-7043,9950]]],"bbox":[31.2505,51.8595,35.2829,54.0204],"transform":{"scale":[0.000004032404032404031,0.000002160902160902166],"translate":[31.2505,51.8595]}}