{"type":"Topology","objects":{"muni":{"type":"GeometryCollection","geometries":[{"type":"MultiPolygon","arcs":[[[0,1,2,3,4,5,6]]],"properties":{"GID_2":"RUS.9.1_1","GID_0":"RUS","COUNTRY":"Russia","GID_1":"RUS.9_1","NAME_1":"Buryat","NL_NAME_1":"РеспубликаБурятия","NAME_2":"Barguzinskiyrayon","VARNAME_2":"NA","NL_NAME_2":"Баргузинскийрайон","TYPE_2":"Raion","ENGTYPE_2":"District","CC_2":"R60000","HASC_2":"RU.BU.BA"}},{"type":"MultiPolygon","arcs":[[[-3,7,8,9,10,11,12,13,14,15,16,17]]],"properties":{"GID_2":"RUS.9.2_1","GID_0":"RUS","COUNTRY":"Russia","GID_1":"RUS.9_1","NAME_1":"Buryat","NL_NAME_1":"РеспубликаБурятия","NAME_2":"Bauntovskiy","VARNAME_2":"Bauntovskiy-Zvenkiyiskiy","NL_NAME_2":"Баунтовскийрайон","TYPE_2":"Raion","ENGTYPE_2":"District","CC_2":"R60001","HASC_2":"RU.BU.BZ"}},{"type":"MultiPolygon","arcs":[[[18,19,20,21]]],"properties":{"GID_2":"RUS.9.3_1","GID_0":"RUS","COUNTRY":"Russia","GID_1":"RUS.9_1","NAME_1":"Buryat","NL_NAME_1":"РеспубликаБурятия","NAME_2":"Bichurskiyrayon","VARNAME_2":"NA","NL_NAME_2":"Бичурскийрайон","TYPE_2":"Raion","ENGTYPE_2":"District","CC_2":"R60000","HASC_2":"RU.BU.BI"}},{"type":"MultiPolygon","arcs":[[[22,23,24,25,26]]],"properties":{"GID_2":"RUS.9.4_1","GID_0":"RUS","COUNTRY":"Russia","GID_1":"RUS.9_1","NAME_1":"Buryat","NL_NAME_1":"РеспубликаБурятия","NAME_2":"Dzhidinskiyrayon","VARNAME_2":"NA","NL_NAME_2":"Джидинскийрайон","TYPE_2":"Raion","ENGTYPE_2":"District","CC_2":"R60000","HASC_2":"RU.BU.DZ"}},{"type":"MultiPolygon","arcs":[[[27]]],"properties":{"GID_2":"RUS.9.5_1","GID_0":"RUS","COUNTRY":"Russia","GID_1":"RUS.9_1","NAME_1":"Buryat","NL_NAME_1":"РеспубликаБурятия","NAME_2":"Gusinoozersk","VARNAME_2":"NA","NL_NAME_2":"Гусиноозерск","TYPE_2":"Gorsovet","ENGTYPE_2":"District","CC_2":"NA","HASC_2":"RU.BU.GU"}},{"type":"MultiPolygon","arcs":[[[28,29,30,31,32,33,34,35,36],[37]]],"properties":{"GID_2":"RUS.9.6_1","GID_0":"RUS","COUNTRY":"Russia","GID_1":"RUS.9_1","NAME_1":"Buryat","NL_NAME_1":"РеспубликаБурятия","NAME_2":"Ivolginskiyrayon","VARNAME_2":"NA","NL_NAME_2":"Иволгинскийрайон","TYPE_2":"Raion","ENGTYPE_2":"District","CC_2":"R60000","HASC_2":"RU.BU.IV"}},{"type":"MultiPolygon","arcs":[[[-25,38,39,40,41,-34,42]]],"properties":{"GID_2":"RUS.9.7_1","GID_0":"RUS","COUNTRY":"Russia","GID_1":"RUS.9_1","NAME_1":"Buryat","NL_NAME_1":"РеспубликаБурятия","NAME_2":"Kabanskiyrayon","VARNAME_2":"NA","NL_NAME_2":"Кабанскийрайон","TYPE_2":"Raion","ENGTYPE_2":"District","CC_2":"R60000","HASC_2":"RU.BU.KA"}},{"type":"MultiPolygon","arcs":[[[-17,43,44,45,46,47]]],"properties":{"GID_2":"RUS.9.8_1","GID_0":"RUS","COUNTRY":"Russia","GID_1":"RUS.9_1","NAME_1":"Buryat","NL_NAME_1":"РеспубликаБурятия","NAME_2":"Khorinskiyrayon","VARNAME_2":"NA","NL_NAME_2":"Хоринскийрайон","TYPE_2":"Raion","ENGTYPE_2":"District","CC_2":"R60002","HASC_2":"RU.BU.KH"}},{"type":"MultiPolygon","arcs":[[[-46,48,49,50,51]]],"properties":{"GID_2":"RUS.9.9_1","GID_0":"RUS","COUNTRY":"Russia","GID_1":"RUS.9_1","NAME_1":"Buryat","NL_NAME_1":"РеспубликаБурятия","NAME_2":"Kizhinginskiyrayon","VARNAME_2":"NA","NL_NAME_2":"Кижингинскийрайон","TYPE_2":"Raion","ENGTYPE_2":"District","CC_2":"R60001","HASC_2":"RU.CT.KH"}},{"type":"MultiPolygon","arcs":[[[-2,52,-10,53,-8]]],"properties":{"GID_2":"RUS.9.10_1","GID_0":"RUS","COUNTRY":"Russia","GID_1":"RUS.9_1","NAME_1":"Buryat","NL_NAME_1":"РеспубликаБурятия","NAME_2":"Kurumkanskiyrayon","VARNAME_2":"NA","NL_NAME_2":"Курумканскийрайон","TYPE_2":"Raion","ENGTYPE_2":"District","CC_2":"R60001","HASC_2":"RU.BU.KU"}},{"type":"MultiPolygon","arcs":[[[-27,54,-19,55]]],"properties":{"GID_2":"RUS.9.11_1","GID_0":"RUS","COUNTRY":"Russia","GID_1":"RUS.9_1","NAME_1":"Buryat","NL_NAME_1":"РеспубликаБурятия","NAME_2":"Kyakhtinskiyrayon","VARNAME_2":"NA","NL_NAME_2":"Кяхтинскийрайон","TYPE_2":"Raion","ENGTYPE_2":"District","CC_2":"R60001","HASC_2":"RU.BU.KY"}},{"type":"MultiPolygon","arcs":[[[-21,56,57,58,59]]],"properties":{"GID_2":"RUS.9.12_1","GID_0":"RUS","COUNTRY":"Russia","GID_1":"RUS.9_1","NAME_1":"Buryat","NL_NAME_1":"РеспубликаБурятия","NAME_2":"Mukhorshibirskiyrayon","VARNAME_2":"NA","NL_NAME_2":"Мухоршибирскийрайон","TYPE_2":"Raion","ENGTYPE_2":"District","CC_2":"R60001","HASC_2":"RU.BU.MK"}},{"type":"MultiPolygon","arcs":[[[-13,60,61,62]]],"properties":{"GID_2":"RUS.9.13_1","GID_0":"RUS","COUNTRY":"Russia","GID_1":"RUS.9_1","NAME_1":"Buryat","NL_NAME_1":"РеспубликаБурятия","NAME_2":"Muyskiy","VARNAME_2":"NA","NL_NAME_2":"Муйскийрайон","TYPE_2":"Raion","ENGTYPE_2":"District","CC_2":"R60001","HASC_2":"RU.BU.MY"}},{"type":"MultiPolygon","arcs":[[[63,64]]],"properties":{"GID_2":"RUS.9.14_1","GID_0":"RUS","COUNTRY":"Russia","GID_1":"RUS.9_1","NAME_1":"Buryat","NL_NAME_1":"РеспубликаБурятия","NAME_2":"Okinskiyrayon","VARNAME_2":"NA","NL_NAME_2":"Окинскийрайон","TYPE_2":"Raion","ENGTYPE_2":"District","CC_2":"R60001","HASC_2":"RU.BU.OK"}},{"type":"MultiPolygon","arcs":[[[-4,-18,-48,65,-37,66,-35,-42,67]]],"properties":{"GID_2":"RUS.9.15_1","GID_0":"RUS","COUNTRY":"Russia","GID_1":"RUS.9_1","NAME_1":"Buryat","NL_NAME_1":"РеспубликаБурятия","NAME_2":"Pribaykal'skiyrayon","VARNAME_2":"NA","NL_NAME_2":"Прибайкальскийрайон","TYPE_2":"Raion","ENGTYPE_2":"District","CC_2":"R60001","HASC_2":"RU.BU.PR"}},{"type":"MultiPolygon","arcs":[[[-20,-55,-26,-43,-33,68,-31,69,-57],[-28]]],"properties":{"GID_2":"RUS.9.16_1","GID_0":"RUS","COUNTRY":"Russia","GID_1":"RUS.9_1","NAME_1":"Buryat","NL_NAME_1":"РеспубликаБурятия","NAME_2":"Selenginskiyrayon","VARNAME_2":"NA","NL_NAME_2":"Селенгинскийрайон","TYPE_2":"Raion","ENGTYPE_2":"District","CC_2":"R60001","HASC_2":"RU.BU.SE"}},{"type":"MultiPolygon","arcs":[[[70]]],"properties":{"GID_2":"RUS.9.17_1","GID_0":"RUS","COUNTRY":"Russia","GID_1":"RUS.9_1","NAME_1":"Buryat","NL_NAME_1":"РеспубликаБурятия","NAME_2":"Severobaykal'sk","VARNAME_2":"Severobaykalsk","NL_NAME_2":"Северобайкальск","TYPE_2":"Raion","ENGTYPE_2":"District","CC_2":"NA","HASC_2":"RU.BU.SR"}},{"type":"MultiPolygon","arcs":[[[-1,71,72,73,74,-62,75,-11,-53],[-71]]],"properties":{"GID_2":"RUS.9.18_1","GID_0":"RUS","COUNTRY":"Russia","GID_1":"RUS.9_1","NAME_1":"Buryat","NL_NAME_1":"РеспубликаБурятия","NAME_2":"Severobaykal'skiy","VARNAME_2":"NA","NL_NAME_2":"Северобайкалрайон","TYPE_2":"Gorsovet","ENGTYPE_2":"District","CC_2":"R60001","HASC_2":"RU.BU.SG"}},{"type":"MultiPolygon","arcs":[[[-30,76,-58,-70]]],"properties":{"GID_2":"RUS.9.19_1","GID_0":"RUS","COUNTRY":"Russia","GID_1":"RUS.9_1","NAME_1":"Buryat","NL_NAME_1":"РеспубликаБурятия","NAME_2":"Tarbagatayskiyrayon","VARNAME_2":"NA","NL_NAME_2":"Тарбагатайскийрайон","TYPE_2":"Raion","ENGTYPE_2":"District","CC_2":"R60001","HASC_2":"RU.BU.TA"}},{"type":"MultiPolygon","arcs":[[[-65,77,78,79]]],"properties":{"GID_2":"RUS.9.20_1","GID_0":"RUS","COUNTRY":"Russia","GID_1":"RUS.9_1","NAME_1":"Buryat","NL_NAME_1":"РеспубликаБурятия","NAME_2":"Tunkinskiyrayon","VARNAME_2":"NA","NL_NAME_2":"Тункинскийрайон","TYPE_2":"Raion","ENGTYPE_2":"District","CC_2":"R60002","HASC_2":"RU.BU.TU"}},{"type":"MultiPolygon","arcs":[[[-38]]],"properties":{"GID_2":"RUS.9.21_1","GID_0":"RUS","COUNTRY":"Russia","GID_1":"RUS.9_1","NAME_1":"Buryat","NL_NAME_1":"РеспубликаБурятия","NAME_2":"Ulan-Ude","VARNAME_2":"NA","NL_NAME_2":"Улан-Удэ","TYPE_2":"Gorsovet","ENGTYPE_2":"District","CC_2":"NA","HASC_2":"RU.BU.UL"}},{"type":"MultiPolygon","arcs":[[[-7,80,-5,-68,-41,81,-74,82,-72]]],"properties":{"GID_2":"RUS.9.22_1","GID_0":"RUS","COUNTRY":"Russia","GID_1":"RUS.9_1","NAME_1":"Buryat","NL_NAME_1":"РеспубликаБурятия","NAME_2":"Waterbody","VARNAME_2":"NA","NL_NAME_2":"NA","TYPE_2":"Waterbody","ENGTYPE_2":"Waterbody","CC_2":"NA","HASC_2":"NA"}},{"type":"MultiPolygon","arcs":[[[-16,83,84,-50,85,-44]]],"properties":{"GID_2":"RUS.9.23_1","GID_0":"RUS","COUNTRY":"Russia","GID_1":"RUS.9_1","NAME_1":"Buryat","NL_NAME_1":"РеспубликаБурятия","NAME_2":"Yeravninskiyrayon","VARNAME_2":"NA","NL_NAME_2":"Еравнинскийрайон","TYPE_2":"Raion","ENGTYPE_2":"District","CC_2":"R60000","HASC_2":"RU.BU.YE"}},{"type":"MultiPolygon","arcs":[[[-29,-66,-47,-52,86,-59,-77]]],"properties":{"GID_2":"RUS.9.24_1","GID_0":"RUS","COUNTRY":"Russia","GID_1":"RUS.9_1","NAME_1":"Buryat","NL_NAME_1":"РеспубликаБурятия","NAME_2":"Zaigraevskiyrayon","VARNAME_2":"NA","NL_NAME_2":"Заиграевскийрайон","TYPE_2":"Raion","ENGTYPE_2":"District","CC_2":"R60000","HASC_2":"RU.BU.ZI"}},{"type":"MultiPolygon","arcs":[[[-79,87,-39,-24,88]]],"properties":{"GID_2":"RUS.9.25_1","GID_0":"RUS","COUNTRY":"Russia","GID_1":"RUS.9_1","NAME_1":"Buryat","NL_NAME_1":"РеспубликаБурятия","NAME_2":"Zakamenskiyrayon","VARNAME_2":"NA","NL_NAME_2":"Закаменскийрайон","TYPE_2":"Raion","ENGTYPE_2":"District","CC_2":"R60000","HASC_2":"RU.BU.ZK"}}]}},"arcs":[[[592290,566442],[2751,536],[6304,-1744],[3652,206],[6670,1675],[4541,2897]],[[616208,570012],[2467,-6494],[5016,-3913],[10812,-1112],[8706,3652],[5753,5711],[16980,11945],[4099,14],[1474,-3790],[152,-7619],[1594,-3556],[-169,-5272],[3646,110],[4607,-2431],[2194,-7894],[6419,-494]],[[689958,548869],[463,-5561],[-5267,-3830],[1261,-6686],[1769,-3364],[-1218,-5903],[497,-8238],[-5463,-4682],[-6725,-2608],[-7679,-12398],[-3090,-10324],[-2063,-17807],[-2019,-8389]],[[660424,459079],[-12516,-3253],[-4322,164],[-11151,-4297],[-5469,4339],[3073,5107],[1266,7812],[-1114,3940],[-7821,-3116],[-7423,-10064],[-7800,9885],[-3564,1689],[-4585,-1497],[-8269,-6535],[-10119,-16269],[-1932,-5025],[-8755,-2691],[-4808,-8347],[-6883,-2609],[-4574,-4764],[-5906,-316],[-8482,2595],[-4404,4558],[-4247,8169]],[[530619,438554],[3570,3350],[851,5011],[2358,2691],[1561,3487],[710,4531],[3460,-178],[2325,2567],[1567,316],[2625,-3693],[1643,-714],[3357,2855],[1228,3295],[3886,3488],[1850,4668],[1507,7153],[682,9198],[-453,7030],[-1681,8429],[-1490,687],[-6200,-4545],[-6670,-2320],[-3461,-2334],[-4290,-4572],[-1724,714],[2221,6000],[3182,4160],[3482,6878],[2713,6384],[4350,13112],[5726,9171],[5430,1922],[2528,-2169],[278,-5217],[-1736,-398],[350,-6371],[1430,-302],[-1179,-9720],[-2631,-5629],[2450,-124],[4656,-2361]],[[571080,505004],[4820,6933]],[[575900,511937],[-137,2169],[-1408,549],[77,3392],[1730,1153],[791,2732],[-93,3432],[-2036,2938],[1818,3913],[1883,7167],[497,4311],[6828,5601],[2380,3913],[1697,4929],[1403,1085],[5,3652],[955,3569]],[[689958,548869],[2270,4915],[2129,6714],[1048,6988],[-3990,19756],[1233,5890],[7423,5808],[1125,6301],[2854,3323],[2375,5025],[365,13633],[4301,4201],[3171,4874]],[[714262,636297],[4864,18781],[1178,5231]],[[720304,660309],[-693,4366],[-2712,3117],[-2320,4462],[420,5107],[-1659,8293],[6118,6425],[3799,16228],[4492,5368],[4918,3075],[295,4861],[-4416,6178],[-284,3144],[4465,3418],[-1921,1140]],[[730806,735491],[4072,-1620],[12122,13551],[8618,5423],[5120,-6769],[5382,-2718],[4852,-8801],[6730,2705],[3231,6096],[7276,6096],[1342,8141],[-267,11505],[1348,3391]],[[790632,772491],[-562,7895]],[[790070,780386],[38539,919],[17237,-8141],[15081,27788],[21548,4064],[36624,-4750],[21096,0]],[[940195,800266],[1561,-6838],[-606,-4022],[3013,-6494],[-126,-26868],[1927,-12110],[12199,-5972],[12488,1181],[4617,-6824],[4804,-11024],[1899,-6233],[11189,-11217],[2232,-5615],[-49,-6165],[1239,-6535],[2451,-4929],[966,-5011],[-977,-10338],[-2773,-6453],[-786,-7702],[-3023,-3254],[21,-8018],[-1975,-1963],[-3494,-8498],[-9404,-1648],[-2380,-3364],[-5349,-343],[-6353,2087],[-11860,-5368],[-19628,-6068],[-7488,-5465],[-5917,-16557],[-5027,-5437],[-7816,-4970],[-3618,-5821],[-11817,-14045],[-4661,-6632],[-13029,-7276],[-6566,-18301],[-7941,-55],[-1621,-4462],[-13367,-6027],[-5087,-3378]],[[838063,516234],[-6959,8430]],[[831104,524664],[-8084,-508],[-4721,-3926],[-4634,-1566],[-4475,-4613],[-1971,-10887],[-2123,-2787],[-2505,1414],[-2598,4119],[-764,6219],[-1676,2815],[-2194,-2526],[-4301,-13743],[-2740,-1085],[-3335,1387],[-1310,7400],[-4929,9624],[-22,8169],[-2336,2938],[-1915,-439],[-3019,-3817],[-2789,-9103],[-2843,-4022],[-20032,-15089],[-7936,-16640],[-2363,-1386],[-4639,-495],[-6681,-5011],[-4667,-9912],[-1812,-1030],[-1463,3323],[-3684,-97],[-1599,-3185],[278,-4778],[-1719,-3748],[-4241,893],[-5038,-3611],[-2107,3611],[-3826,631],[-3007,-2567],[-2456,-4517],[-5289,480],[-4301,-4860],[-19971,-15019]],[[659267,426720],[-11413,535],[-2909,2869]],[[644945,430124],[267,1593],[-655,3336],[524,3432],[2069,2225],[13514,8416],[2090,2897],[148,3514],[-2478,3542]],[[507750,33884],[-3602,590],[-6665,-3048],[-5589,2032],[-2178,-1839],[-3646,4036],[-10386,1991],[-3046,6823],[-4279,1469],[-5884,-2636],[-4077,3007],[-377,6439],[-2330,3336],[-1736,-3528],[202,-8540],[-857,-1167],[-1648,2018],[-1725,8403],[-835,7578],[-5617,17011],[-1315,9885],[1266,3473],[3128,5272],[4186,20896]],[[450740,117385],[3330,8760]],[[454070,126145],[3760,-1318],[9781,-13373],[2353,-2018],[2881,2636],[2200,7894],[6315,6192],[11882,2746],[4673,-2100],[3509,1551],[3379,8292],[3034,2952],[3810,-3926],[4689,1167],[3127,2128],[7772,-28]],[[527235,138940],[-1659,-16791],[-617,-12946],[-7226,-6028],[-1321,-6342],[5600,-9089],[4334,-124],[1402,-1881],[1223,-3295],[6059,-1826],[1222,-1455],[966,-5107],[2211,-3391],[7832,-1318],[-1648,-4270],[-994,-5767],[-2079,2183],[-5988,1291],[-8361,-9226],[-6092,-1648],[-4928,-8265],[-2096,-1826],[-2080,1483],[-2390,-439],[-2178,-5533],[-677,-3446]],[[405351,62509],[-7456,220],[-5556,3364],[-11206,-344],[-4044,2829],[-4350,782],[-3837,2829],[-3728,-138],[-1774,-1400],[-5824,-7908],[-3313,-2430],[-8875,755],[-7630,-5959],[-6474,-192],[-3329,-3913],[-2675,-1551],[-4459,714],[-5540,-1909]],[[315281,48258],[77,8156],[-961,8278],[-2096,6714],[-2713,12823],[-7570,7071],[-4377,1812],[-2757,-1387],[-1965,4682],[6239,5986],[11926,-357],[5043,3734],[2904,7648],[1403,7427],[-1589,15500]],[[318845,136345],[3974,6975],[10801,11464],[6921,4997],[3499,10503],[3701,5519],[12040,1662]],[[359781,177465],[1512,-5423],[486,-5684],[4699,-12535],[388,-5561],[-704,-6713],[-814,-3419],[1267,-5546],[4552,-3007],[693,-3254],[3007,-961],[7309,-4750],[3880,-8458],[2724,248],[1157,2183],[-1839,6466],[1064,2732],[5600,-11381],[1899,-6343],[55,-5286],[1135,-9007],[2926,1126],[1326,3872],[573,6370],[1015,4847],[2080,1386],[2407,-5395],[5180,-2279],[1544,-6590],[-1462,-5423]],[[413440,89680],[-3041,-4394],[-1430,-3995],[-191,-4064],[1125,-3350],[-1206,-3913],[-2091,-3226],[-1255,-4229]],[[434535,182544],[-879,-961],[-780,618],[-426,2348],[1381,879],[781,-1703],[-77,-1181]],[[486949,268421],[1397,-3226],[7756,-2485],[2260,-4051]],[[498362,258659],[-830,-7139],[-3646,-2842],[-4071,-27],[-3657,-2224],[-6572,-6714],[-6932,-12919],[-1326,-5629],[1490,-8993],[-1228,-2526],[-4999,-535],[-5126,-4174],[-4246,-7743],[-5043,-6563]],[[452176,190631],[-5759,-4627],[-2963,2458],[354,6343],[4230,3981],[1922,3583],[114,6371]],[[450074,208740],[-2729,3322],[-2707,2293]],[[444638,214355],[-7330,-3734],[-3690,2444],[-1654,2869],[-2696,563],[-4585,-1208],[-6342,1263]],[[418341,216552],[6124,16049],[4263,7497],[2341,1167],[4760,-1415],[4448,3556],[7336,7977],[3275,8773],[2085,934],[6806,-385],[3111,8389]],[[462890,269094],[3750,-1044],[2789,2609],[4492,-536],[3842,10037]],[[477763,280160],[2593,2883],[2309,1647]],[[482665,284690],[2532,-3295],[994,-10118],[758,-2856]],[[487419,266307],[-4209,-3117],[-8891,2060],[830,-16723],[10583,-2183],[6402,6892],[-4715,13071]],[[318845,136345],[-584,12494],[-1850,7524],[721,9693],[1299,9363]],[[318431,175419],[8318,13441],[-126,17161],[7592,-3130]],[[334215,202891],[19868,16819],[3870,1949],[10146,1744],[5355,2773],[9922,11697],[9323,2156],[5136,5066],[6391,12123],[2189,6247],[2571,10324],[1277,-3281],[982,357],[246,8855],[-1648,-137],[1550,9281],[1834,4352],[3438,4105],[1769,9995],[-1976,934],[377,8388],[1331,563],[-545,2773],[-1600,1909],[748,1675],[2080,-948],[502,5025],[1544,5135],[1305,-2499],[3700,3639],[2528,1016],[1915,3144],[1900,-2348],[3400,357],[666,-1250],[-464,-3240],[2909,-1620],[-185,-3926],[2106,-1497],[2609,-288],[3122,3583],[3838,16201],[7630,11217],[7063,6301],[6489,673],[1856,1716],[7036,13125]],[[480318,377074],[-939,-7963],[578,-6960],[-327,-5410],[-1245,-4118],[-567,-4229],[1206,-7208],[-235,-4174],[-3640,-4462],[-6916,-1235],[-13929,68],[-1741,-3665],[-868,-4201],[432,-15817],[-1747,-12026],[1321,-7675],[6691,-9103],[3406,-3295],[1092,-6507]],[[418341,216552],[-5807,-1565],[-2020,-3982],[-1566,-12260],[-1114,-2169],[-2085,1098],[-4082,7400],[-2571,1552],[-3428,-1181],[-3253,-3158],[-3821,-9336],[-6342,-3254],[-4536,-7812],[-2974,-3102],[-11473,-234],[-3488,-1084]],[[659267,426720],[1883,-5822],[-399,-6782],[-3831,-11519],[-497,-8416],[4896,-8896],[82,-2952],[-3826,-1977],[-1005,-5355],[404,-8677],[-1490,-2814],[-2538,-261],[-3160,-3034],[-1277,-11588],[103,-12205],[2293,-11629],[-792,-2883],[-3356,-425],[-2129,-6028],[-3155,-741],[-3624,-12356],[-1528,-11478],[1670,-8814],[1981,-5409]],[[639972,276659],[-3171,-5286]],[[636801,271373],[-4879,-1099],[-1234,1593],[-5594,2815],[-4181,-659],[-2276,947],[-3417,7551],[-1998,6164],[-3635,3707],[-4656,330],[-6860,-9597],[-9001,-21061]],[[589070,262064],[-6277,-5025],[-3198,605],[-2227,-2087],[-1828,-3872],[-3767,-2787],[-1883,1593],[-3547,-3364],[-11397,6260],[-6997,8128],[469,8169],[-2478,4284],[-595,5162],[3619,4901],[961,4435],[-295,7523],[1577,2115],[3728,-412],[1201,3350],[-1135,6398],[-8340,5876],[-1960,6809],[-2947,6755],[-6517,4792]],[[535237,331672],[2036,5203],[8907,10297],[2604,9789],[4175,6521],[197,6838],[3144,3679],[3815,12672],[6386,1318],[5671,2842],[9906,14237],[8990,2842],[3422,-4201],[3504,4037],[3324,-2019],[4252,3103],[4170,6288],[4181,549],[2210,-1524],[1523,1923],[-480,878],[3531,4009],[10545,2705],[13695,6466]],[[636801,271373],[5949,9885]],[[642750,281258],[3401,2622],[6697,-1332],[3679,1250],[7608,7194],[8968,12219],[2707,-989],[1043,-7496],[3466,-1441],[5572,6892],[3674,-220],[2494,-4297],[7630,-1071],[2538,4723],[2260,-1140],[464,-3102],[4006,-989],[2091,2773],[1490,-3267],[3859,-316],[4650,3075]],[[721047,296346],[-5213,-8992],[-4044,-9734],[-2647,-4833],[-4274,-2032],[-5998,-5464],[-8488,-2581],[-3040,-4229],[-6129,-1963],[-3706,-3021],[-1894,-3130],[-655,-4242],[-1299,-3542],[-7090,-7867],[-1076,-3748],[350,-5176],[-939,-3927],[-2696,-1757],[-1883,-2238],[-814,-3707],[-2996,-2210],[-6654,-618],[-6659,3034],[-1981,4160],[-1348,5697],[-6702,-384],[-14399,1373],[-3706,-1428],[-5174,-5656],[-3581,-4874],[-5774,-10901],[-10676,-4394],[-10338,-6246],[-2636,3624],[-4722,2114],[-2352,2238],[-666,5108],[-1757,-769]],[[567391,204031],[2210,9034],[6523,2443],[6069,6179],[2942,7921],[1927,9707],[-1458,5148],[-2145,5025],[5611,12576]],[[616208,570012],[1479,2444],[398,3940],[1649,5808],[4999,10228],[-2423,15802],[2227,8581],[3924,7180],[4066,5012],[9137,4956],[1943,5478],[634,13729],[1664,17409],[2735,8457],[4028,6631],[3116,8499],[3035,22516],[4372,7427],[1730,7181],[7538,2869],[4334,7057],[2767,8814],[3891,3103],[1889,5107],[3133,12260],[4339,3378],[2391,-975],[1255,-4476],[1004,-7976],[9945,-2856],[7898,-6055],[4437,-9624],[3641,-563],[5654,3858],[1916,-2650],[-147,-7070]],[[720304,660309],[-6042,-24012]],[[413440,89680],[2423,-2513],[5240,3227],[3799,5834],[5720,16984],[2963,4242],[5404,384],[2451,-1208],[9300,755]],[[507750,33884],[-1457,-7428],[-6616,-4393],[-1026,-4846],[-2439,-1648],[-917,-3419],[791,-4420],[1457,-2842],[-889,-1058],[-775,-2855],[-1922,-975],[-5398,714],[-5725,3226],[-4159,-933],[-955,769],[-1458,3912],[-1539,1648],[-2609,-3597],[-1310,-371],[-2718,2870],[-4050,1839],[-3286,6014],[-1834,5464],[-2674,13002],[-3460,5807],[-7784,9267],[-11713,4407],[-4923,-1373],[-10796,-5683],[-6102,5354],[-4116,2238],[-655,5876],[-1342,2059]],[[454070,126145],[-131,5821],[1435,2636],[4001,3762],[-82,5134],[1190,2156],[-579,7469]],[[459904,153123],[11348,6741],[1462,2883],[-212,6590],[3706,4572],[3951,2540],[4743,9857],[1943,2252],[2626,-1414],[120,-5519],[2221,-3309],[3766,1249],[279,3611],[2090,4187],[2975,-2155],[2074,1826],[420,6206],[644,3006],[2244,3089],[676,-2746],[2735,-2759],[3433,4805],[2784,6247]],[[515932,204882],[4988,3048],[8231,3144],[3188,-2362],[3187,-4970],[2445,-6274]],[[537971,197468],[-1495,-6096],[-87,-9418],[-1261,-5231],[-2418,-2773],[-912,-5327],[3766,-4599],[3139,-1442],[2090,-3336],[666,-2650],[-3307,-5862],[-2555,-2623],[-2854,-1633],[-3586,-302],[-1567,-1387],[-355,-5849]],[[790070,780386],[-786,11079]],[[789284,791465],[-9694,18287],[-8618,7455],[-6735,1360],[-541,4736],[4580,19647],[-3499,7455],[1075,9487],[7003,2032],[808,6768],[15621,4064],[3504,8128],[4847,0],[5922,10846],[5927,3391],[9694,14896],[3504,2719],[1752,3844]],[[824434,916580],[1856,-1304],[2090,-7853],[6457,-1772],[3035,1016],[2036,8815],[2581,2155],[5055,8814],[4814,-302],[11489,-3226],[2456,522],[2363,4887],[7996,1002],[4089,-782],[3018,3624],[3046,14581],[5971,14512],[3362,3144],[1495,4764],[-867,3720],[1375,7098],[-458,3570],[5103,1991],[8182,-2870],[4257,42],[4448,2347],[8100,-782],[4787,6068],[5158,8457],[5436,1016],[5922,-563],[1250,-1057],[3498,1785],[2762,-2979],[4743,-9666],[-3897,-3432],[-2641,0],[-7702,-10352],[-2423,-920],[-3875,-4489],[-1376,-3529],[-4132,-2636],[-2057,-5368],[-7156,-7180],[-120,-6247],[1616,-6865],[114,-6480],[-1604,-4105],[-3881,-4215],[-3084,-1016],[-355,-3212],[3395,-4819],[9061,-4407],[1353,-3652],[-278,-4257],[1490,-4338],[2713,-2567],[676,-4710],[-2494,-260],[-2134,-1524],[-33,-8512],[7816,-25880],[371,-4737],[-2783,-6480],[-732,-4119],[-16,-5491],[4590,-14389],[-1948,-9596],[382,-7304]],[[109811,242075],[-2543,302],[-4290,4324],[-3706,-1359],[-4116,1222],[-5097,-590],[-8417,2114],[-7161,-989],[-3307,2554],[-4749,5959],[-3351,7798],[-3106,4036],[-3297,1703],[-5196,549],[-6140,4119],[-8264,2498],[-726,1250],[-420,4132],[-759,2032],[-9633,5080],[-3188,2828],[-2685,6302],[-491,4119],[524,4462],[-1010,4173],[-1943,1634],[-2167,-3322],[-3428,467],[-1801,2759],[1321,3954],[-360,5066],[-3854,330],[-5414,-2375],[-1037,4681],[1490,5341],[-475,11519],[2364,1181],[1692,7098],[5097,6150],[863,11505],[5573,8403],[1233,6837],[475,9706],[-4110,-1057],[-1446,2993],[431,5931],[1326,4929],[1861,3789],[2871,2307],[1398,14],[2215,-4627],[2675,-2375],[5458,-1964],[1305,2513],[-623,5533],[1234,3281],[917,7798],[2778,2279],[3804,5053],[-87,7400],[3313,2897],[7025,-1373],[3133,1373],[5288,6384],[3690,2993],[2227,494],[1987,2609],[71,3638],[-917,4407],[1304,5862],[4083,852],[3264,-1030],[2352,-2032],[3259,220],[507,4379],[1927,4490],[4437,3556],[2249,-536],[601,-2883],[76,-3624],[2516,-4806],[1758,-6549],[-606,-12026],[900,-6796],[4465,-11135],[3630,-4846],[4896,-3378],[2963,-5739],[5699,-3789],[3547,-10942],[3368,-4270],[11353,-8718],[2003,-5629],[5294,-3611],[4776,-5642],[3581,-1923],[12575,-19591],[1834,-12411],[2675,-4325],[8470,-5794],[2997,-3473],[2238,-6371],[3831,-3267],[4269,2032],[1708,3597],[2374,-151],[2364,-2307],[5261,-1606],[6102,2787],[2588,-3501],[3733,508],[1430,-2142],[-311,-4943],[365,-5011],[1245,-4173],[3591,-2307],[2386,-4517],[3225,-8951],[2833,-2774],[1430,-2663],[830,-4558],[1408,-1057]],[[231789,271332],[-6741,-5465],[-3848,-1112],[-4306,948],[-2522,2375],[-2210,4764],[-3128,3940],[-4727,1208],[-10747,-3267],[-12395,-10393],[-2827,-3433],[-13007,-2498],[-3815,-2376],[-6566,-2100],[-2298,1126],[-5382,-3597],[-5976,-1538],[-5797,3309],[-5769,-2980],[-12303,-727],[-2838,-2471],[-1097,1963],[-2249,-69],[-1430,-6864]],[[535237,331672],[-1556,-6590],[-2396,-2211],[-4956,-8086],[-1435,-10105],[-2920,-2361],[-2828,302],[-4240,-1991],[-4787,-10256],[-10321,-6521],[-4689,-5698],[-873,-6041],[-2789,-3254],[-4498,-439]],[[482665,284690],[-4902,-4530]],[[480318,377074],[3182,3625],[6315,1030],[7614,-2266],[7477,6233],[5562,7208],[2947,5149],[9328,9748],[999,7029],[2233,5519],[829,4901],[284,4257],[-841,1922],[950,3487],[1627,439],[1795,3199]],[[444638,214355],[5436,-5615]],[[452176,190631],[2221,-2224],[-813,-5863],[-5087,-7372],[-988,-3886],[1163,-5176],[3334,-1112],[2653,-3089],[1305,-3899],[2401,-2128],[1539,-2759]],[[583317,777804],[-1801,-343],[-256,3144],[2161,-329],[317,-1057],[-421,-1415]],[[592290,566442],[2680,10517],[-207,7482],[-1212,6687],[-2696,7125],[1364,4874],[-1435,7730],[1899,12946],[60,6659],[1387,11176],[4508,5574],[1228,10063],[-131,2183],[-1157,3515],[2303,3542],[639,8553],[2674,2952],[-1337,8348],[753,4750],[1834,1496],[1234,5657],[-628,9459],[1097,1785],[-2854,5272],[2379,2265],[1420,2472],[878,3089],[464,3556],[-125,3926],[-1649,2238],[2893,4421],[1545,6096],[-355,5121],[655,4283],[1654,2279],[682,2760],[-3297,2224],[666,5396],[-2194,2238],[3433,3171],[2571,7894],[2893,3405],[278,4998],[-2407,1276],[-1222,2032],[-1441,5726],[-3008,1784],[-2450,3295],[-4220,-1249],[-1861,2155],[-2205,-164],[-256,3460]],[[600014,804934],[-3384,-2952],[-6365,-11286]],[[590265,790696],[-764,-4764],[-4104,-3940],[-2664,-7524],[-1402,-1222],[-2811,824],[-1212,-1524],[-33,-2128],[-1866,-1263],[780,-6714],[-1730,-4681],[3078,-7167],[573,-3268],[-1364,-2745],[-1616,-7991],[-535,-12727],[-1795,-8581],[240,-2691],[-1490,-2718],[-508,-4297],[480,-5767],[-6844,-3034],[-2178,-6109],[-3488,-2952],[-316,-3460],[1534,-4325],[-4924,-8086],[-365,-6851],[-1250,-2265],[-568,-4037],[-2849,-11011],[-420,-3569],[371,-1703],[-1861,-2279]],[[548364,640127],[-4241,-10118],[-3892,-261],[2374,5080],[1922,9432],[3717,4434],[-677,11698],[142,15816],[1719,4434],[355,4847],[-1752,3103],[163,13290],[1551,5244],[1610,10503],[223,7126],[-4579,4393],[-791,4942],[862,6494],[-284,6357],[-1146,4998],[-49,4530],[1490,4380],[1725,2938],[-1441,5684],[147,3624],[2031,3144],[1681,810],[1479,6014],[1179,8581],[524,7963],[1239,7194],[1670,7111],[2079,4504],[2549,1894],[3084,659],[9470,-1743],[2931,6466],[-1004,2595],[-4159,577],[-4416,5038],[-2227,-1455],[-1746,975],[234,3981],[-4093,4696],[-361,3102],[426,5959],[-3395,9226],[-4273,3089],[-3477,1153],[-3182,4009],[-4078,8073],[803,4750],[4012,9076],[2690,1125],[759,3007],[513,6947],[-2898,2567],[1566,3488],[5087,41],[3455,2114],[4378,288],[2101,5396],[2227,-69],[4164,6247],[6550,-535],[5988,2224],[9213,6082],[4323,-494],[6670,-2636],[5927,6329],[3646,5176],[38,6164],[1949,9817],[2330,2416],[1103,4682],[1659,2293],[4105,645],[6899,-4256],[9710,-1854],[10348,-11766],[4629,1373],[4574,2746],[4934,-3007],[9197,1428],[5097,-5615],[2309,-165],[5022,7798],[3848,3007],[1239,2238],[-503,6439],[4083,6878],[841,5877],[8088,9816],[3685,-2156],[87,-3693],[10742,-21362],[2881,-975],[3013,5203],[9568,-1894],[7063,-9529],[7838,-247],[3766,-2622],[6823,11642],[2587,2870],[4525,-687],[1157,-1578],[311,-3131],[-1245,-2828],[-404,-4846],[808,-6810],[1872,-4682],[4094,-5533],[4334,-3707],[11598,-5203],[3848,-3089],[4236,-1181],[5207,-316],[7925,4366],[4726,687],[9039,-6906]],[[789284,791465],[1348,-18974]],[[498362,258659],[1741,-4997],[1927,-2046],[3449,-672],[1540,-3666],[163,-7043],[-878,-3872],[1795,-7757],[-1424,-7675],[-1725,-5395],[1299,-7043],[3493,-549],[6190,-3062]],[[231789,271332],[7150,-4105],[2161,-3529],[4416,-2293],[2582,-7276],[1042,-7428],[-191,-3075],[1867,-4146],[174,-6467],[-1359,-4009],[71,-4654],[2113,-4311],[109,-8279],[3127,-1702],[1714,-5464],[3471,-838],[9192,2375],[5371,-1565],[4966,-3734],[2942,-5492],[366,-6906],[-759,-8237],[-431,-14389],[786,-5546]],[[282669,160262],[-4863,-4448],[-2964,1084],[-1779,12535],[-4694,3721],[-366,2896],[-2843,2087],[-3761,-2498],[-5922,2896],[-2085,-466],[-1146,-5217],[868,-6714],[114,-9501],[-764,-5134],[-1883,-3872],[-1605,-1277],[-1637,3268],[-393,8882],[-1485,4298],[-1713,1194],[-3319,-2059],[-2844,123],[-2390,1497],[-6686,-2952],[-2102,-6466],[-1916,-2582],[-2958,1291],[-2893,-1853],[-2636,1633],[-464,3542],[1010,3817],[-1550,1552],[-2593,-2403],[-2904,1249],[-1670,1936],[-3236,-1840],[-4438,-205],[-1910,2471],[-4771,274]],[[193478,163021],[-174,6330],[546,3226],[-1561,8183],[3198,4777],[142,2444],[-873,2032],[-2675,2005],[-3537,5560],[-4775,453],[-3346,3927],[-4307,-399],[-6053,5424],[-4792,-1291],[-813,673],[-1654,4160],[-1856,1784],[-5403,-164],[-1758,-1387],[-1785,-3721],[-1184,-837],[-2412,2073],[-5862,10393],[-4891,-467],[-895,481],[-1687,3212],[-3842,1470],[-4901,6301],[-4241,1895],[-2364,2856],[-4699,2773],[-3264,4585],[-1949,303]],[[575900,511937],[-2451,-4283],[-2369,-2650]],[[334215,202891],[-6648,2650],[3406,12851],[36613,32030],[38207,68070],[23879,44043],[57310,52062],[29452,44043],[22285,100114],[2025,64514],[7620,16859]],[[590265,790696],[2795,4339],[1708,4187],[5246,5712]],[[831104,524664],[2358,-2485],[4601,-5945]],[[838063,516234],[-5273,-10269],[-2308,-3227],[846,-12685],[-1289,-3556],[595,-6453],[-71,-5354],[5311,-7757],[38,-10778],[3679,-1840],[1932,-4366],[3030,-3954],[4039,714],[1058,-8443],[-3547,-5368],[2041,-3501],[5147,-453],[3417,-1662],[-1288,-3034],[-508,-14251],[-584,-1469],[-1730,-316],[-857,-14388],[-9175,-19839],[-2042,-2787],[-7002,-1263],[-6888,-2869],[-6643,-11601],[-2058,-5767],[-2658,-3391],[-4557,975],[-19535,-4915],[-3482,-2760],[-4263,-5739],[-3111,-5601],[-11576,2636],[-6097,-1140],[-4541,-3020],[-3559,-12109],[-2505,-1840],[-4345,-261],[-3717,3542],[-3651,549],[-2315,4792],[-5103,-2128],[-1168,-5602],[-3957,-3116],[-3209,-5149],[-3537,-9075]],[[642750,281258],[-2778,-4599]],[[567391,204031],[-3952,-1744],[-13067,906],[-6402,6865],[196,-7098],[-780,-5066],[-2544,-2595],[-2871,2169]],[[282669,160262],[1337,-275],[4301,2677],[4367,7208],[5365,851],[2778,1909],[3483,6631],[10676,1895],[4846,5025],[3281,-3378],[-4672,-7386]],[[315281,48258],[-2052,-1524],[-917,-2581],[-551,-2196],[-3062,-852],[-923,-2196],[-917,-4805],[-1228,-2087],[-10763,-4476],[-10501,7194],[-2566,137],[-1866,-1839],[-2053,-6000],[-1615,-1812],[-5638,3171],[-8073,7606],[-6883,-1592],[-2494,4750],[-1217,7894],[-2216,2266],[-12221,-1154],[-3547,1373],[-1365,1401],[-2183,5574],[-1425,1853],[-6500,3817],[-3461,3158],[-4050,7345],[-2052,6864],[-6904,2485],[-3717,3501],[-1856,3199],[-699,4407],[240,2527],[3543,12274],[-1239,3679],[-4405,5643],[-1648,4626],[196,5863],[1741,6906],[371,4283],[-927,4915],[-3041,9679],[-1119,9487]]],"bbox":[98.6289,49.9535,116.9503,57.2372],"transform":{"scale":[0.00001832141832141832,0.000007283707283707287],"translate":[98.6289,49.9535]}}