{"type":"Topology","objects":{"muni":{"type":"GeometryCollection","geometries":[{"type":"MultiPolygon","arcs":[[[0,1,2,3,4,5]]],"properties":{"GID_2":"RUS.10.1_1","GID_0":"RUS","COUNTRY":"Russia","GID_1":"RUS.10_1","NAME_1":"Chechnya","NL_NAME_1":"РеспубликаЧечено-Ингушская","NAME_2":"Achkhoy-Martanovskiyrayon","VARNAME_2":"NA","NL_NAME_2":"Ачхой-Мартановскийрайон","TYPE_2":"Raion","ENGTYPE_2":"District","CC_2":"R42020","HASC_2":"RU.CN.AC"}},{"type":"MultiPolygon","arcs":[[[6]]],"properties":{"GID_2":"RUS.10.2_1","GID_0":"RUS","COUNTRY":"Russia","GID_1":"RUS.10_1","NAME_1":"Chechnya","NL_NAME_1":"РеспубликаЧечено-Ингушская","NAME_2":"Argun","VARNAME_2":"NA","NL_NAME_2":"Аргу́н","TYPE_2":"Gorod","ENGTYPE_2":"City","CC_2":"NA","HASC_2":"RU.CN.AR"}},{"type":"MultiPolygon","arcs":[[[7,-1,8,9,10,11,12,13,14,15,16,17,18,19,20],[-7],[21]]],"properties":{"GID_2":"RUS.10.3_1","GID_0":"RUS","COUNTRY":"Russia","GID_1":"RUS.10_1","NAME_1":"Chechnya","NL_NAME_1":"РеспубликаЧечено-Ингушская","NAME_2":"Groznenskiyrayon","VARNAME_2":"Groznyy","NL_NAME_2":"Грозненскийрайон","TYPE_2":"Raion","ENGTYPE_2":"District","CC_2":"R42020","HASC_2":"RU.CN.GG"}},{"type":"MultiPolygon","arcs":[[[-22]]],"properties":{"GID_2":"RUS.10.4_1","GID_0":"RUS","COUNTRY":"Russia","GID_1":"RUS.10_1","NAME_1":"Chechnya","NL_NAME_1":"РеспубликаЧечено-Ингушская","NAME_2":"Groznyy","VARNAME_2":"Grozny","NL_NAME_2":"Грозный","TYPE_2":"Gorod","ENGTYPE_2":"City","CC_2":"NA","HASC_2":"RU.CN.GG"}},{"type":"MultiPolygon","arcs":[[[22]]],"properties":{"GID_2":"RUS.10.5_1","GID_0":"RUS","COUNTRY":"Russia","GID_1":"RUS.10_1","NAME_1":"Chechnya","NL_NAME_1":"РеспубликаЧечено-Ингушская","NAME_2":"Gudermes","VARNAME_2":"NA","NL_NAME_2":"Гудермес","TYPE_2":"Gorod","ENGTYPE_2":"City","CC_2":"NA","HASC_2":"RU.CN.GD"}},{"type":"MultiPolygon","arcs":[[[-17,23,24,25,26,27,28],[-23]]],"properties":{"GID_2":"RUS.10.6_1","GID_0":"RUS","COUNTRY":"Russia","GID_1":"RUS.10_1","NAME_1":"Chechnya","NL_NAME_1":"РеспубликаЧечено-Ингушская","NAME_2":"Gudermesskiyrayon","VARNAME_2":"NA","NL_NAME_2":"Гудермесскийрайон","TYPE_2":"Raion","ENGTYPE_2":"District","CC_2":"R42020","HASC_2":"RU.CN.GM"}},{"type":"MultiPolygon","arcs":[[[-5,29,30,31,32,33,34,35,36,37,38]]],"properties":{"GID_2":"RUS.10.7_1","GID_0":"RUS","COUNTRY":"Russia","GID_1":"RUS.10_1","NAME_1":"Chechnya","NL_NAME_1":"РеспубликаЧечено-Ингушская","NAME_2":"Itum-Kalinskiyrayon","VARNAME_2":"NA","NL_NAME_2":"Итум-Калинскийрайон","TYPE_2":"Raion","ENGTYPE_2":"District","CC_2":"R42021","HASC_2":"RU.CN.IT"}},{"type":"MultiPolygon","arcs":[[[-12,39,-10,40,41,42,43,44]]],"properties":{"GID_2":"RUS.10.8_1","GID_0":"RUS","COUNTRY":"Russia","GID_1":"RUS.10_1","NAME_1":"Chechnya","NL_NAME_1":"РеспубликаЧечено-Ингушская","NAME_2":"Nadterechnyyrayon","VARNAME_2":"NA","NL_NAME_2":"Надтеречныйрайон","TYPE_2":"Raion","ENGTYPE_2":"District","CC_2":"R42020","HASC_2":"RU.CN.ND"}},{"type":"MultiPolygon","arcs":[[[45,-14,46,-44,47,-42,48,49,50,51]]],"properties":{"GID_2":"RUS.10.9_1","GID_0":"RUS","COUNTRY":"Russia","GID_1":"RUS.10_1","NAME_1":"Chechnya","NL_NAME_1":"РеспубликаЧечено-Ингушская","NAME_2":"Naurskiyrayon","VARNAME_2":"NA","NL_NAME_2":"Наурскийрайон","TYPE_2":"Raion","ENGTYPE_2":"District","CC_2":"R42020","HASC_2":"RU.CN.NR"}},{"type":"MultiPolygon","arcs":[[[52,-26,53,54,55,56]]],"properties":{"GID_2":"RUS.10.10_1","GID_0":"RUS","COUNTRY":"Russia","GID_1":"RUS.10_1","NAME_1":"Chechnya","NL_NAME_1":"РеспубликаЧечено-Ингушская","NAME_2":"Nozhay-Yurtovskiyrayon","VARNAME_2":"NA","NL_NAME_2":"Ножай-Юртовскийрайон","TYPE_2":"Raion","ENGTYPE_2":"District","CC_2":"R42020","HASC_2":"RU.CN.NY"}},{"type":"MultiPolygon","arcs":[[[57]]],"properties":{"GID_2":"RUS.10.11_1","GID_0":"RUS","COUNTRY":"Russia","GID_1":"RUS.10_1","NAME_1":"Chechnya","NL_NAME_1":"РеспубликаЧечено-Ингушская","NAME_2":"Shali","VARNAME_2":"NA","NL_NAME_2":"Шали","TYPE_2":"Gorod","ENGTYPE_2":"City","CC_2":"NA","HASC_2":"RU.CN.SG"}},{"type":"MultiPolygon","arcs":[[[-18,-29,58,59,-57,60,61,62,63,64,65,66,67,68,69],[-58]]],"properties":{"GID_2":"RUS.10.12_1","GID_0":"RUS","COUNTRY":"Russia","GID_1":"RUS.10_1","NAME_1":"Chechnya","NL_NAME_1":"РеспубликаЧечено-Ингушская","NAME_2":"Shalinskiyrayon","VARNAME_2":"NA","NL_NAME_2":"Шалинскийрайон","TYPE_2":"Raion","ENGTYPE_2":"District","CC_2":"R42021","HASC_2":"RU.CN.SR"}},{"type":"MultiPolygon","arcs":[[[-38,70,71,-35,72,-65,73,74,75,76,77]]],"properties":{"GID_2":"RUS.10.13_1","GID_0":"RUS","COUNTRY":"Russia","GID_1":"RUS.10_1","NAME_1":"Chechnya","NL_NAME_1":"РеспубликаЧечено-Ингушская","NAME_2":"Shatoyskiyrayon","VARNAME_2":"Sovetskiy","NL_NAME_2":"Шатойскийрайон","TYPE_2":"Raion","ENGTYPE_2":"District","CC_2":"R42020","HASC_2":"RU.CN.ST"}},{"type":"MultiPolygon","arcs":[[[-16,78,-52,79,-50,80,-24]]],"properties":{"GID_2":"RUS.10.14_1","GID_0":"RUS","COUNTRY":"Russia","GID_1":"RUS.10_1","NAME_1":"Chechnya","NL_NAME_1":"РеспубликаЧечено-Ингушская","NAME_2":"Shelkovskiyrayon","VARNAME_2":"NA","NL_NAME_2":"Шелковскийрайон","TYPE_2":"Raion","ENGTYPE_2":"District","CC_2":"R42021","HASC_2":"RU.CN.SL"}},{"type":"MultiPolygon","arcs":[[[81,-3,82,-21,83,-19,-70,84,-68,85,86,-33,87,-31]]],"properties":{"GID_2":"RUS.10.15_1","GID_0":"RUS","COUNTRY":"Russia","GID_1":"RUS.10_1","NAME_1":"Chechnya","NL_NAME_1":"РеспубликаЧечено-Ингушская","NAME_2":"Urus-Martanovskiyrayon","VARNAME_2":"NA","NL_NAME_2":"Урус-Мартановскийрайон","TYPE_2":"Raion","ENGTYPE_2":"District","CC_2":"R42020","HASC_2":"RU.CN.UG"}},{"type":"MultiPolygon","arcs":[[[-55,88,-77,89,-75,90,-63,91,92]]],"properties":{"GID_2":"RUS.10.16_1","GID_0":"RUS","COUNTRY":"Russia","GID_1":"RUS.10_1","NAME_1":"Chechnya","NL_NAME_1":"РеспубликаЧечено-Ингушская","NAME_2":"Vedenskiyrayon","VARNAME_2":"NA","NL_NAME_2":"Веденскийрайон","TYPE_2":"Raion","ENGTYPE_2":"District","CC_2":"R42020","HASC_2":"RU.CN.VE"}}]}},"arcs":[[[217358,559295],[42181,2805],[12424,-15003],[64841,-28376],[16802,-25440]],[[353606,493281],[-12661,-28115],[-69632,-74821]],[[271313,390345],[-18577,-26745],[35556,-16764],[3727,-7176],[-2840,-18656],[20056,-15133]],[[309235,305871],[54546,-18591]],[[363781,287280],[3254,-13112],[-28161,-45532],[3018,-19634],[-6686,-7241],[-11536,-3718],[-27569,10959],[-32716,4044],[-90812,979],[-42123,9850]],[[130450,223875],[-828,13763],[25853,26550],[12779,27984],[-25025,18917],[-7218,13503],[14140,57143],[28811,44357],[42004,47293],[5384,78865],[-8992,7045]],[[543335,534572],[-5265,913],[3963,3327],[1302,-4240]],[[336330,459752],[17276,33529]],[[217358,559295],[-47152,4240],[-10708,14155],[-1065,22962],[769,17351],[12424,18526],[67858,12851]],[[239484,649380],[22422,-3979]],[[261906,645401],[35082,-18135],[15027,-3783]],[[312015,623483],[11714,3196],[22896,38161],[9702,43705],[-4733,21591]],[[351594,730136],[59102,-28767]],[[410696,701369],[36502,1305],[25794,-6654],[55553,-28245]],[[528545,667775],[42300,-2348]],[[570845,665427],[26504,-29681],[32065,-24266]],[[629414,611480],[6390,-16373],[32183,-21265],[-1538,-7176],[-9821,-5610]],[[656628,561056],[-58924,-20091],[-25558,-23483],[-25202,-14351]],[[546944,503131],[-11122,-5284],[-15501,2805]],[[520321,500652],[-18872,-7632],[-24493,-24397]],[[476956,468623],[-16446,-5936],[-22718,9654],[-533,15656],[-8933,2609],[-70934,-38030],[-12010,-587],[-9052,7763]],[[377211,651728],[-1598,-30594],[-64899,-9589],[236,-7958],[34314,2348],[38514,-73646],[38750,-29811],[42123,25962],[20351,75082],[-107791,48206]],[[690883,568427],[-3787,5610],[6153,-2935],[-2366,-2675]],[[629414,611480],[100515,18265],[22422,-3196],[33189,-25636],[19701,-1957],[35082,11350],[11004,12720]],[[851327,623026],[56381,-106392],[8519,-27985],[-5265,-25897]],[[910962,462752],[-25972,-2218],[-15264,-7632]],[[869726,452902],[-9820,20353],[-18754,9002]],[[841152,482257],[-65314,18460],[-24434,-12198]],[[751404,488519],[-14257,2152],[-33900,24006],[-46737,-15852],[-23664,2479],[-10649,10241],[34431,49511]],[[363781,287280],[-13607,3783]],[[350174,291063],[17039,11285],[-119,25832],[27628,5610],[24256,21330],[7928,-1565]],[[426906,353555],[1716,-35617],[-4023,-11154]],[[424599,306784],[5798,-11546],[21357,-16439],[13252,1827],[10353,8480],[1952,20287],[23665,24397],[3431,18852]],[[504407,352642],[6508,-24332]],[[510915,328310],[-3727,-39530],[-15737,-14155],[-9407,-46771],[-42004,-57730]],[[440040,170124],[-64072,-38617]],[[375968,131507],[-76791,-7437]],[[299177,124070],[-51056,8024],[-36739,-2153],[-25498,-16895]],[[185884,113046],[11773,-15721],[-56262,56491],[-21712,3718],[-24611,-4958],[41531,42858],[-6153,28441]],[[312015,623483],[-50109,21918]],[[239484,649380],[-48335,-12133],[-51588,1304],[-73537,41487],[-47033,4762],[-18991,15721],[8638,11090],[3608,16112],[651,38095],[6212,4827],[16092,-11481],[10767,2414],[42182,21461]],[[88150,783039],[27037,-6980],[28752,-17156],[13548,5415],[9880,14220],[18162,5153],[17630,-3653],[8342,-8415],[-10649,-18134],[-119,-10372]],[[200733,743117],[59161,-18721]],[[259894,724396],[17098,1239],[34254,18461]],[[311246,744096],[29048,-6262],[11300,-7698]],[[557119,665166],[-28574,2609]],[[410696,701369],[-18340,5480],[-67384,35942],[-13726,1305]],[[259894,724396],[-39342,9589],[-19819,9132]],[[88150,783039],[25321,14351],[20292,45466],[-1479,55904],[-5561,23157],[9288,5349],[61173,8284],[12246,-4696],[5147,-14612],[-5679,-26745],[11122,-7632],[16447,-3718],[70697,1565],[27747,7893],[15559,16569],[-8105,47488],[12660,26158],[17453,9198],[44785,-13112],[59161,-27593],[31237,-7436]],[[507661,938877],[11063,-13764],[947,-13764],[16683,-26418],[19996,-13895],[33012,-11089],[-20055,-67515],[-26859,-54077]],[[542448,738355],[769,-29549]],[[543217,708806],[17334,-29420],[-3432,-14220]],[[864816,466731],[4910,-13829]],[[910962,462752],[-12957,-17873],[-295,-21527],[6862,-24592],[16861,-13437],[27037,-4175],[4673,-9915],[-14080,-27267],[888,-17939],[22185,-25962],[-14909,-17678],[-47743,-33594],[-26090,2414],[-6034,25896]],[[867360,277103],[-10886,18591],[-21771,9394],[-8874,10045],[-651,19700],[-8697,9655],[-34786,7306],[-10472,16307],[-9820,4045],[-19997,-20222],[-12542,5610],[-6804,20026],[-8164,7567],[-10471,-65],[-7277,12654]],[[696148,397716],[45376,14156]],[[741524,411872],[22600,33007],[9111,652],[2485,-18069],[4496,-3653],[55020,4044],[4496,12982],[15204,10893],[9880,15003]],[[560018,422896],[-5324,2935],[2366,2022],[2958,-4957]],[[751404,488519],[12128,9002],[24966,978],[52654,-16242]],[[841152,482257],[23664,-15526]],[[741524,411872],[-12660,-6393],[-25794,-2609],[-16920,-22766]],[[686150,380104],[-18163,-9132],[-38750,-11742]],[[629237,359230],[-41295,10567],[-14494,-3261]],[[573448,366536],[-30113,-29224],[-10649,-3522]],[[532686,333790],[-24670,9197]],[[508016,342987],[-8697,24919],[414,15916]],[[499733,383822],[13607,31572]],[[513340,415394],[20411,14873]],[[533751,430267],[23901,32420],[7809,19830]],[[565461,482517],[-18517,20614]],[[299177,124070],[44075,2023],[32716,5414]],[[375968,131507],[22482,10502],[14257,13894],[27333,14221]],[[510915,328310],[-2899,14677]],[[532686,333790],[16269,10763]],[[548955,344553],[7691,-8024],[-591,-14546],[-14672,-35095],[10530,-24331],[14021,-12720],[23902,-6850]],[[589836,242987],[32656,5088],[18222,11351],[14909,-3849],[4614,-24788],[-42655,-92433]],[[617582,138356],[8815,-23092],[32657,-6262]],[[659054,109002],[-3964,-19570],[-9702,-14090],[-17039,-5870],[-23013,13829],[-5857,-2088],[-22363,-44488],[-53600,-31115],[-23546,-5610],[-12956,15590],[-25262,-522],[-63125,27854],[-19050,13503],[-140921,-10372],[-11773,9850],[-9289,25767],[-31710,31376]],[[570845,665427],[-13726,-261]],[[543217,708806],[-2722,14872],[1953,14677]],[[507661,938877],[69218,21526],[37804,-18069],[30409,4958],[41590,-9263],[5680,-11155],[-17867,-34246],[-1124,-21461],[10412,-12459],[15619,5870],[28575,27593],[75726,9133],[650,10893],[-9288,27985],[14376,10959],[34373,8610],[9761,22701],[15737,12720],[15855,4827],[14613,-7567],[11182,-20874],[22008,-22896],[-592,-29420],[9170,-10371],[15559,-66],[34609,-14742],[8283,-27593],[-13548,-55186],[-32065,-27397],[-26149,-43770],[-18281,-10633],[-3372,-25506],[-7395,-16568],[-44785,-52316],[-3077,-12068]],[[350174,291063],[-40939,14808]],[[271313,390345],[65017,69407]],[[476956,468623],[15323,18200],[28042,13829]],[[565461,482517],[-16506,-32941],[-15204,-19309]],[[513340,415394],[-9880,-16699],[-3727,-14873]],[[499733,383822],[4674,-31180]],[[424599,306784],[4496,40117],[-2189,6654]],[[867360,277103],[-10708,5415],[-31888,-19244],[-43602,-261],[-61113,-41161],[414,-12524],[7454,-8676],[35852,-24136],[8401,-12915],[-8993,-6524],[-21771,-8023],[-64781,-3196],[-13666,-7306],[-3905,-29550]],[[617582,138356],[33071,66014],[10057,38813],[-11773,17286],[-38750,-15981],[-20351,-1501]],[[548955,344553],[24493,21983]],[[629237,359230],[20174,4762],[36739,16112]],[[686150,380104],[9998,17612]]],"bbox":[44.9282,42.462,46.6185,43.995],"transform":{"scale":[0.000001690301690301691,0.0000015330015330015271],"translate":[44.9282,42.462]}}