{"type":"Topology","objects":{"muni":{"type":"GeometryCollection","geometries":[{"type":"MultiPolygon","arcs":[[[0,1,2,3,4,5,6,7,8,9,10]]],"properties":{"GID_2":"RUS.11.1_1","GID_0":"RUS","COUNTRY":"Russia","GID_1":"RUS.11_1","NAME_1":"Chelyabinsk","NL_NAME_1":"Челябинскаяобласть","NAME_2":"Agapovskiyrayon","VARNAME_2":"NA","NL_NAME_2":"Агаповскийрайон","TYPE_2":"Raion","ENGTYPE_2":"District","CC_2":"R52000","HASC_2":"RU.CL.AP"}},{"type":"MultiPolygon","arcs":[[[11,12,13,14,15,16,17,18,19]]],"properties":{"GID_2":"RUS.11.2_1","GID_0":"RUS","COUNTRY":"Russia","GID_1":"RUS.11_1","NAME_1":"Chelyabinsk","NL_NAME_1":"Челябинскаяобласть","NAME_2":"Argayashskiyrayon","VARNAME_2":"NA","NL_NAME_2":"Аргаяшскийрайон","TYPE_2":"Raion","ENGTYPE_2":"District","CC_2":"R52000","HASC_2":"RU.CL.AY"}},{"type":"MultiPolygon","arcs":[[[20]]],"properties":{"GID_2":"RUS.11.3_1","GID_0":"RUS","COUNTRY":"Russia","GID_1":"RUS.11_1","NAME_1":"Chelyabinsk","NL_NAME_1":"Челябинскаяобласть","NAME_2":"Asha","VARNAME_2":"NA","NL_NAME_2":"Аша","TYPE_2":"Gorod","ENGTYPE_2":"City","CC_2":"NA","HASC_2":"RU.CL.AG"}},{"type":"MultiPolygon","arcs":[[[21,22,23,24],[-21]]],"properties":{"GID_2":"RUS.11.4_1","GID_0":"RUS","COUNTRY":"Russia","GID_1":"RUS.11_1","NAME_1":"Chelyabinsk","NL_NAME_1":"Челябинскаяобласть","NAME_2":"Ashinskiyrayon","VARNAME_2":"NA","NL_NAME_2":"Ашинскийрайон","TYPE_2":"Raion","ENGTYPE_2":"District","CC_2":"R52000","HASC_2":"RU.CL.AR"}},{"type":"MultiPolygon","arcs":[[[25,26,27,28,29,30]]],"properties":{"GID_2":"RUS.11.5_1","GID_0":"RUS","COUNTRY":"Russia","GID_1":"RUS.11_1","NAME_1":"Chelyabinsk","NL_NAME_1":"Челябинскаяобласть","NAME_2":"Bredinskiyrayon","VARNAME_2":"NA","NL_NAME_2":"Брединскийрайон","TYPE_2":"Raion","ENGTYPE_2":"District","CC_2":"R52000","HASC_2":"RU.CL.BR"}},{"type":"MultiPolygon","arcs":[[[31]]],"properties":{"GID_2":"RUS.11.6_1","GID_0":"RUS","COUNTRY":"Russia","GID_1":"RUS.11_1","NAME_1":"Chelyabinsk","NL_NAME_1":"Челябинскаяобласть","NAME_2":"Chebarkul'","VARNAME_2":"NA","NL_NAME_2":"Чебаркуль","TYPE_2":"Gorod","ENGTYPE_2":"City","CC_2":"NA","HASC_2":"RU.CL.CG"}},{"type":"MultiPolygon","arcs":[[[32,33,34,35,36,37,-12,38,39,40,41,42,43,44],[-32]]],"properties":{"GID_2":"RUS.11.7_1","GID_0":"RUS","COUNTRY":"Russia","GID_1":"RUS.11_1","NAME_1":"Chelyabinsk","NL_NAME_1":"Челябинскаяобласть","NAME_2":"Chebarkul'skiyrayon","VARNAME_2":"NA","NL_NAME_2":"Чебаркульскийрайон","TYPE_2":"Raion","ENGTYPE_2":"District","CC_2":"R52002","HASC_2":"RU.CL.CR"}},{"type":"MultiPolygon","arcs":[[[45,46,47,48,49]]],"properties":{"GID_2":"RUS.11.8_1","GID_0":"RUS","COUNTRY":"Russia","GID_1":"RUS.11_1","NAME_1":"Chelyabinsk","NL_NAME_1":"Челябинскаяобласть","NAME_2":"Chelyabinskgorsovet","VARNAME_2":"Chelyabinsk","NL_NAME_2":"Челябинск(горсовет)","TYPE_2":"Gorsovet","ENGTYPE_2":"District","CC_2":"R52002","HASC_2":"RU.CL.CL"}},{"type":"MultiPolygon","arcs":[[[50,51,52,53,54,55,56,57,58]]],"properties":{"GID_2":"RUS.11.9_1","GID_0":"RUS","COUNTRY":"Russia","GID_1":"RUS.11_1","NAME_1":"Chelyabinsk","NL_NAME_1":"Челябинскаяобласть","NAME_2":"Chesmenskiyrayon","VARNAME_2":"NA","NL_NAME_2":"Чесменскийрайон","TYPE_2":"Raion","ENGTYPE_2":"District","CC_2":"R52002","HASC_2":"RU.CL.CS"}},{"type":"MultiPolygon","arcs":[[[59]]],"properties":{"GID_2":"RUS.11.10_1","GID_0":"RUS","COUNTRY":"Russia","GID_1":"RUS.11_1","NAME_1":"Chelyabinsk","NL_NAME_1":"Челябинскаяобласть","NAME_2":"Emanzhelinskgorsovet","VARNAME_2":"Emanzhelinsk","NL_NAME_2":"Еманжелинск(горсовет)","TYPE_2":"Gorsovet","ENGTYPE_2":"District","CC_2":"R52002","HASC_2":"RU.CL.EM"}},{"type":"MultiPolygon","arcs":[[[60,-40,61,62,63,64,-46,65,66,67,68,69,70,71,72,73],[-60]]],"properties":{"GID_2":"RUS.11.11_1","GID_0":"RUS","COUNTRY":"Russia","GID_1":"RUS.11_1","NAME_1":"Chelyabinsk","NL_NAME_1":"Челябинскаяобласть","NAME_2":"Etkul'skiyrayon","VARNAME_2":"NA","NL_NAME_2":"Еткульскийрайон","TYPE_2":"Raion","ENGTYPE_2":"District","CC_2":"R52000","HASC_2":"RU.CL.ET"}},{"type":"MultiPolygon","arcs":[[[74,-14,75,76,77,78,79]]],"properties":{"GID_2":"RUS.11.12_1","GID_0":"RUS","COUNTRY":"Russia","GID_1":"RUS.11_1","NAME_1":"Chelyabinsk","NL_NAME_1":"Челябинскаяобласть","NAME_2":"Karabashgorsovet","VARNAME_2":"Karabash","NL_NAME_2":"Карабаш(горсовет)","TYPE_2":"Gorsovet","ENGTYPE_2":"District","CC_2":"R52002","HASC_2":"RU.CL.KB"}},{"type":"MultiPolygon","arcs":[[[80,-31,81,82,-6,83,84,-54,85,86],[87]]],"properties":{"GID_2":"RUS.11.13_1","GID_0":"RUS","COUNTRY":"Russia","GID_1":"RUS.11_1","NAME_1":"Chelyabinsk","NL_NAME_1":"Челябинскаяобласть","NAME_2":"Kartalinskiyrayon","VARNAME_2":"NA","NL_NAME_2":"Карталинскийрайон","TYPE_2":"Raion","ENGTYPE_2":"District","CC_2":"R52000","HASC_2":"RU.CL.KR"}},{"type":"MultiPolygon","arcs":[[[-88]]],"properties":{"GID_2":"RUS.11.14_1","GID_0":"RUS","COUNTRY":"Russia","GID_1":"RUS.11_1","NAME_1":"Chelyabinsk","NL_NAME_1":"Челябинскаяобласть","NAME_2":"Kartaly","VARNAME_2":"NA","NL_NAME_2":"Карталы","TYPE_2":"Gorod","ENGTYPE_2":"City","CC_2":"NA","HASC_2":"RU.CL.KG"}},{"type":"MultiPolygon","arcs":[[[88]]],"properties":{"GID_2":"RUS.11.15_1","GID_0":"RUS","COUNTRY":"Russia","GID_1":"RUS.11_1","NAME_1":"Chelyabinsk","NL_NAME_1":"Челябинскаяобласть","NAME_2":"Kasli","VARNAME_2":"NA","NL_NAME_2":"Касли","TYPE_2":"Gorsovet","ENGTYPE_2":"District","CC_2":"NA","HASC_2":"RU.CL.KS"}},{"type":"MultiPolygon","arcs":[[[-17,89,90,91,92,93],[-89]]],"properties":{"GID_2":"RUS.11.16_1","GID_0":"RUS","COUNTRY":"Russia","GID_1":"RUS.11_1","NAME_1":"Chelyabinsk","NL_NAME_1":"Челябинскаяобласть","NAME_2":"Kaslinskiyrayon","VARNAME_2":"NA","NL_NAME_2":"Каслинскийрайон","TYPE_2":"Raion","ENGTYPE_2":"District","CC_2":"R52000","HASC_2":"RU.CL.KT"}},{"type":"MultiPolygon","arcs":[[[94]]],"properties":{"GID_2":"RUS.11.17_1","GID_0":"RUS","COUNTRY":"Russia","GID_1":"RUS.11_1","NAME_1":"Chelyabinsk","NL_NAME_1":"Челябинскаяобласть","NAME_2":"Katav-Ivanovsk","VARNAME_2":"NA","NL_NAME_2":"Каспийск","TYPE_2":"Gorsovet","ENGTYPE_2":"District","CC_2":"NA","HASC_2":"RU.CL.KA"}},{"type":"MultiPolygon","arcs":[[[95,-24,96,-22,97,98,99,100,101,102],[-95]]],"properties":{"GID_2":"RUS.11.18_1","GID_0":"RUS","COUNTRY":"Russia","GID_1":"RUS.11_1","NAME_1":"Chelyabinsk","NL_NAME_1":"Челябинскаяобласть","NAME_2":"Katav-Ivanovskiyrayon","VARNAME_2":"NA","NL_NAME_2":"Катав-Ивановскийрайон","TYPE_2":"Raion","ENGTYPE_2":"District","CC_2":"R52001","HASC_2":"RU.CL.KI"}},{"type":"MultiPolygon","arcs":[[[-9,103,-7,-83,104,-29,105,-27,106]]],"properties":{"GID_2":"RUS.11.19_1","GID_0":"RUS","COUNTRY":"Russia","GID_1":"RUS.11_1","NAME_1":"Chelyabinsk","NL_NAME_1":"Челябинскаяобласть","NAME_2":"Kizil'skiyrayon","VARNAME_2":"NA","NL_NAME_2":"Кизильскийрайон","TYPE_2":"Raion","ENGTYPE_2":"District","CC_2":"R52001","HASC_2":"RU.CL.KZ"}},{"type":"MultiPolygon","arcs":[[[-50,107,108,109]]],"properties":{"GID_2":"RUS.11.20_1","GID_0":"RUS","COUNTRY":"Russia","GID_1":"RUS.11_1","NAME_1":"Chelyabinsk","NL_NAME_1":"Челябинскаяобласть","NAME_2":"Kopeyskgorsovet","VARNAME_2":"Kopeysk","NL_NAME_2":"Копейск(горсовет)","TYPE_2":"Gorsovet","ENGTYPE_2":"District","CC_2":"R52003","HASC_2":"RU.CL.KP"}},{"type":"MultiPolygon","arcs":[[[-63,110]]],"properties":{"GID_2":"RUS.11.21_1","GID_0":"RUS","COUNTRY":"Russia","GID_1":"RUS.11_1","NAME_1":"Chelyabinsk","NL_NAME_1":"Челябинскаяобласть","NAME_2":"Korkinogorsovet","VARNAME_2":"Korkino","NL_NAME_2":"Коркино(горсовет)","TYPE_2":"Gorsovet","ENGTYPE_2":"District","CC_2":"R52003","HASC_2":"RU.CL.KO"}},{"type":"MultiPolygon","arcs":[[[111,-48,112,113,114,115,116,117,-67,118,-109]]],"properties":{"GID_2":"RUS.11.22_1","GID_0":"RUS","COUNTRY":"Russia","GID_1":"RUS.11_1","NAME_1":"Chelyabinsk","NL_NAME_1":"Челябинскаяобласть","NAME_2":"Krasnoarmeyskiyrayon","VARNAME_2":"NA","NL_NAME_2":"Красноармейскийрайон","TYPE_2":"Raion","ENGTYPE_2":"District","CC_2":"R52001","HASC_2":"RU.CL.KM"}},{"type":"MultiPolygon","arcs":[[[119,-18,-94,120,-117,121,-115,122,123]]],"properties":{"GID_2":"RUS.11.23_1","GID_0":"RUS","COUNTRY":"Russia","GID_1":"RUS.11_1","NAME_1":"Chelyabinsk","NL_NAME_1":"Челябинскаяобласть","NAME_2":"Kunashakskiyrayon","VARNAME_2":"NA","NL_NAME_2":"Кунашакскийрайон","TYPE_2":"Raion","ENGTYPE_2":"District","CC_2":"R52001","HASC_2":"RU.CL.KN"}},{"type":"MultiPolygon","arcs":[[[124,-78,125,126,127]]],"properties":{"GID_2":"RUS.11.24_1","GID_0":"RUS","COUNTRY":"Russia","GID_1":"RUS.11_1","NAME_1":"Chelyabinsk","NL_NAME_1":"Челябинскаяобласть","NAME_2":"Kusinskiyrayon","VARNAME_2":"NA","NL_NAME_2":"Кусинскийрайон","TYPE_2":"Raion","ENGTYPE_2":"District","CC_2":"R52001","HASC_2":"RU.CL.KU"}},{"type":"MultiPolygon","arcs":[[[-16,128,-80,129,130,-90]]],"properties":{"GID_2":"RUS.11.25_1","GID_0":"RUS","COUNTRY":"Russia","GID_1":"RUS.11_1","NAME_1":"Chelyabinsk","NL_NAME_1":"Челябинскаяобласть","NAME_2":"Kyshtymgorsovet","VARNAME_2":"Kyshtym","NL_NAME_2":"Кыштым(горсовет)","TYPE_2":"Gorsovet","ENGTYPE_2":"District","CC_2":"R52003","HASC_2":"RU.CL.KY"}},{"type":"MultiPolygon","arcs":[[[131,-11]]],"properties":{"GID_2":"RUS.11.26_1","GID_0":"RUS","COUNTRY":"Russia","GID_1":"RUS.11_1","NAME_1":"Chelyabinsk","NL_NAME_1":"Челябинскаяобласть","NAME_2":"Magnitogorskgorsovet","VARNAME_2":"Magnitogorsk","NL_NAME_2":"Магнитогорск(горсовет)","TYPE_2":"Gorsovet","ENGTYPE_2":"District","CC_2":"R52003","HASC_2":"RU.CL.MA"}},{"type":"MultiPolygon","arcs":[[[132,133,-76,-13,-38,134,-36,135,-34]]],"properties":{"GID_2":"RUS.11.27_1","GID_0":"RUS","COUNTRY":"Russia","GID_1":"RUS.11_1","NAME_1":"Chelyabinsk","NL_NAME_1":"Челябинскаяобласть","NAME_2":"Miassgorsovet","VARNAME_2":"Miass","NL_NAME_2":"Миасс(горсовет)","TYPE_2":"Gorsovet","ENGTYPE_2":"District","CC_2":"R52003","HASC_2":"RU.CL.MI"}},{"type":"MultiPolygon","arcs":[[[136,-4,137,138,139,140,141,-55,-85]]],"properties":{"GID_2":"RUS.11.28_1","GID_0":"RUS","COUNTRY":"Russia","GID_1":"RUS.11_1","NAME_1":"Chelyabinsk","NL_NAME_1":"Челябинскаяобласть","NAME_2":"Nagaybakskiyrayon","VARNAME_2":"NA","NL_NAME_2":"Нагайбакскийрайон","TYPE_2":"Raion","ENGTYPE_2":"District","CC_2":"R52001","HASC_2":"RU.CL.NA"}},{"type":"MultiPolygon","arcs":[[[142,143,-79,-125]]],"properties":{"GID_2":"RUS.11.29_1","GID_0":"RUS","COUNTRY":"Russia","GID_1":"RUS.11_1","NAME_1":"Chelyabinsk","NL_NAME_1":"Челябинскаяобласть","NAME_2":"Nyazepetrovskiyrayon","VARNAME_2":"NA","NL_NAME_2":"Нязепетровскийрайон","TYPE_2":"Raion","ENGTYPE_2":"District","CC_2":"R52001","HASC_2":"RU.CL.NY"}},{"type":"MultiPolygon","arcs":[[[144,145,146,147,148,149,150,151,-69,152]]],"properties":{"GID_2":"RUS.11.30_1","GID_0":"RUS","COUNTRY":"Russia","GID_1":"RUS.11_1","NAME_1":"Chelyabinsk","NL_NAME_1":"Челябинскаяобласть","NAME_2":"Oktyabr'skiy","VARNAME_2":"NA","NL_NAME_2":"Октябрьскийрайон","TYPE_2":"Raion","ENGTYPE_2":"District","CC_2":"R52001","HASC_2":"RU.CL.OK"}},{"type":"MultiPolygon","arcs":[[[153,-43,154,155,156,157,158,159]]],"properties":{"GID_2":"RUS.11.31_1","GID_0":"RUS","COUNTRY":"Russia","GID_1":"RUS.11_1","NAME_1":"Chelyabinsk","NL_NAME_1":"Челябинскаяобласть","NAME_2":"Plastgorsovet","VARNAME_2":"Plast","NL_NAME_2":"Пласт(горсовет)","TYPE_2":"Gorsovet","ENGTYPE_2":"District","CC_2":"R52003","HASC_2":"RU.CL.PL"}},{"type":"MultiPolygon","arcs":[[[160]]],"properties":{"GID_2":"RUS.11.32_1","GID_0":"RUS","COUNTRY":"Russia","GID_1":"RUS.11_1","NAME_1":"Chelyabinsk","NL_NAME_1":"Челябинскаяобласть","NAME_2":"Satka","VARNAME_2":"NA","NL_NAME_2":"Сатка","TYPE_2":"Gorod","ENGTYPE_2":"City","CC_2":"NA","HASC_2":"RU.CL.SG"}},{"type":"MultiPolygon","arcs":[[[-127,161,162,-103,163,-101,164,165],[-161]]],"properties":{"GID_2":"RUS.11.33_1","GID_0":"RUS","COUNTRY":"Russia","GID_1":"RUS.11_1","NAME_1":"Chelyabinsk","NL_NAME_1":"Челябинскаяобласть","NAME_2":"Satkinskiyrayon","VARNAME_2":"NA","NL_NAME_2":"Саткинскийрайон","TYPE_2":"Raion","ENGTYPE_2":"District","CC_2":"R52001","HASC_2":"RU.CL.SR"}},{"type":"MultiPolygon","arcs":[[[-20,166,-124,167,-113,-47,-65,168,-62,-39]]],"properties":{"GID_2":"RUS.11.34_1","GID_0":"RUS","COUNTRY":"Russia","GID_1":"RUS.11_1","NAME_1":"Chelyabinsk","NL_NAME_1":"Челябинскаяобласть","NAME_2":"Sosnovskiyrayon","VARNAME_2":"NA","NL_NAME_2":"Сосновскийрайон","TYPE_2":"Raion","ENGTYPE_2":"District","CC_2":"R52001","HASC_2":"RU.CL.SO"}},{"type":"MultiPolygon","arcs":[[[169,170]]],"properties":{"GID_2":"RUS.11.35_1","GID_0":"RUS","COUNTRY":"Russia","GID_1":"RUS.11_1","NAME_1":"Chelyabinsk","NL_NAME_1":"Челябинскаяобласть","NAME_2":"Troitskgorod","VARNAME_2":"Troitskiy","NL_NAME_2":"Троицк(город)","TYPE_2":"Gorod","ENGTYPE_2":"City","CC_2":"R52003","HASC_2":"RU.CL.TR"}},{"type":"MultiPolygon","arcs":[[[171,-59,172,173,174,175,176,177,-159,178,-157,179,180,-147,181,-145,182,-171]]],"properties":{"GID_2":"RUS.11.36_1","GID_0":"RUS","COUNTRY":"Russia","GID_1":"RUS.11_1","NAME_1":"Chelyabinsk","NL_NAME_1":"Челябинскаяобласть","NAME_2":"Troitskiyrayon","VARNAME_2":"NA","NL_NAME_2":"Троицкийрайон","TYPE_2":"Raion","ENGTYPE_2":"District","CC_2":"R52002","HASC_2":"RU.CL.TR"}},{"type":"MultiPolygon","arcs":[[[183]]],"properties":{"GID_2":"RUS.11.37_1","GID_0":"RUS","COUNTRY":"Russia","GID_1":"RUS.11_1","NAME_1":"Chelyabinsk","NL_NAME_1":"Челябинскаяобласть","NAME_2":"Ust'-Katav","VARNAME_2":"NA","NL_NAME_2":"Усть-Катав","TYPE_2":"Gorsovet","ENGTYPE_2":"District","CC_2":"NA","HASC_2":"RU.CL.US"}},{"type":"MultiPolygon","arcs":[[[184,185,-99],[-184]]],"properties":{"GID_2":"RUS.11.38_1","GID_0":"RUS","COUNTRY":"Russia","GID_1":"RUS.11_1","NAME_1":"Chelyabinsk","NL_NAME_1":"Челябинскаяобласть","NAME_2":"Ust'-Katavgorsovet","VARNAME_2":"Katav-Ivanovski","NL_NAME_2":"Усt.-Катав(горсовет)","TYPE_2":"Gorsovet","ENGTYPE_2":"District","CC_2":"R52003","HASC_2":"RU.CL.KI"}},{"type":"MultiPolygon","arcs":[[[-42,186,-74,187,-72,188,-150,189,-148,-181,190,-155],[191]]],"properties":{"GID_2":"RUS.11.39_1","GID_0":"RUS","COUNTRY":"Russia","GID_1":"RUS.11_1","NAME_1":"Chelyabinsk","NL_NAME_1":"Челябинскаяобласть","NAME_2":"Uvel'skiyrayon","VARNAME_2":"NA","NL_NAME_2":"Увельскийрайон","TYPE_2":"Raion","ENGTYPE_2":"District","CC_2":"R52002","HASC_2":"RU.CL.UV"}},{"type":"MultiPolygon","arcs":[[[192,-45,193,-160,-178,194,-176,195,196]]],"properties":{"GID_2":"RUS.11.40_1","GID_0":"RUS","COUNTRY":"Russia","GID_1":"RUS.11_1","NAME_1":"Chelyabinsk","NL_NAME_1":"Челябинскаяобласть","NAME_2":"Uyskiyrayon","VARNAME_2":"NA","NL_NAME_2":"Уйскийрайон","TYPE_2":"Raion","ENGTYPE_2":"District","CC_2":"R52002","HASC_2":"RU.CL.UY"}},{"type":"MultiPolygon","arcs":[[[-87,197,-52,198]]],"properties":{"GID_2":"RUS.11.41_1","GID_0":"RUS","COUNTRY":"Russia","GID_1":"RUS.11_1","NAME_1":"Chelyabinsk","NL_NAME_1":"Челябинскаяобласть","NAME_2":"Varnenskiyrayon","VARNAME_2":"NA","NL_NAME_2":"Варненскийрайон","TYPE_2":"Raion","ENGTYPE_2":"District","CC_2":"R52000","HASC_2":"RU.CL.VA"}},{"type":"MultiPolygon","arcs":[[[199,-197,200,-174,201,-57,202,-141,203,-139,204,-2]]],"properties":{"GID_2":"RUS.11.42_1","GID_0":"RUS","COUNTRY":"Russia","GID_1":"RUS.11_1","NAME_1":"Chelyabinsk","NL_NAME_1":"Челябинскаяобласть","NAME_2":"Verkhneural'skiyrayon","VARNAME_2":"NA","NL_NAME_2":"Верхнеуральскийрайон","TYPE_2":"Raion","ENGTYPE_2":"District","CC_2":"R52000","HASC_2":"RU.CL.VE"}},{"type":"MultiPolygon","arcs":[[[-92,205,-130,-144,206]]],"properties":{"GID_2":"RUS.11.43_1","GID_0":"RUS","COUNTRY":"Russia","GID_1":"RUS.11_1","NAME_1":"Chelyabinsk","NL_NAME_1":"Челябинскаяобласть","NAME_2":"VerkhniyUfaleygorsovet","VARNAME_2":"VerkhniyUfaley","NL_NAME_2":"ВерхнийУфалей(горсовет)","TYPE_2":"Gorsovet","ENGTYPE_2":"District","CC_2":"R52002","HASC_2":"RU.CL.VU"}},{"type":"MultiPolygon","arcs":[[[-192]]],"properties":{"GID_2":"RUS.11.44_1","GID_0":"RUS","COUNTRY":"Russia","GID_1":"RUS.11_1","NAME_1":"Chelyabinsk","NL_NAME_1":"Челябинскаяобласть","NAME_2":"Yuzhnoural'sk","VARNAME_2":"NA","NL_NAME_2":"Южноуральск","TYPE_2":"Gorsovet","ENGTYPE_2":"District","CC_2":"NA","HASC_2":"RU.CL.YU"}},{"type":"MultiPolygon","arcs":[[[207,-162,-126,-77,-134]]],"properties":{"GID_2":"RUS.11.45_1","GID_0":"RUS","COUNTRY":"Russia","GID_1":"RUS.11_1","NAME_1":"Chelyabinsk","NL_NAME_1":"Челябинскаяобласть","NAME_2":"Zlatoustgorsovet","VARNAME_2":"Zlatoust","NL_NAME_2":"Златоуст(горсовет)","TYPE_2":"Gorsovet","ENGTYPE_2":"District","CC_2":"R52002","HASC_2":"RU.CL.ZL"}}]}},"arcs":[[[279463,351770],[-9328,12762],[11616,14667]],[[281751,379199],[18943,5758],[3728,17137],[6288,-453],[4624,-11402],[7711,-3673],[3296,-14168],[8336,-7322],[2672,-10518]],[[337349,354558],[8816,-5055],[23695,-1655]],[[369860,347848],[4448,-5508],[1744,-5055],[-2016,-9136],[6495,-12399],[12544,-3967],[6112,-7594],[13615,-5350],[4176,-6664]],[[416978,292175],[6032,-20674]],[[423010,271501],[-2048,-6189],[-6896,-5916]],[[414066,259396],[-26047,-16843],[-12575,-3151]],[[375444,239402],[-19472,3967],[-13583,-4806],[-20640,-11923],[-4511,-1610]],[[317238,225030],[-7552,680],[-10208,8252]],[[299478,233962],[-13327,20651],[1392,6891],[-4880,17432],[-12272,12105],[9008,6211],[-1488,13284],[832,6143]],[[278743,316679],[31023,-1949],[13183,15573],[-5631,19926],[-27552,13442],[-10303,-11901]],[[560526,710885],[-7520,4896],[-11232,1972],[-5680,-1972],[-4128,-9929],[-30719,17160]],[[501247,723012],[-8991,2131],[-5024,3219],[-4704,7299],[12208,4421],[4320,5191],[2655,7208],[-704,8410],[-10847,11879]],[[490160,772770],[4096,7004],[22703,15642],[16239,2538]],[[533198,797954],[14080,18883]],[[547278,816837],[11568,6869],[21359,-771],[13087,9544]],[[593292,832479],[8848,-363],[5200,2630],[9024,5508],[3360,6528]],[[619724,846782],[9151,2471],[11488,-838],[5344,5576],[8543,2698],[7776,-998],[2960,-4556],[-5872,-7390],[-11631,-4307],[-208,-5917]],[[647275,833521],[12687,-12966]],[[659962,820555],[5680,-8773],[-8784,-15006],[672,-5463],[3712,-7821],[-3984,-8773],[-11695,-2017],[-25135,-15619],[-6656,-5304],[-3072,-8365],[-6720,-8274],[-7104,-1677],[-8687,3332],[-2640,-4285],[896,-10223],[-3200,-3582],[-8544,-4397],[-14175,-3423]],[[29983,676315],[-2736,816],[-48,2789],[3808,-1157],[-1024,-2448]],[[142875,684181],[-10527,680],[-7776,-2425],[-9360,-6279],[-3808,-4149],[-2096,-6143],[-9471,-431],[-5344,1904]],[[94493,667338],[-4944,-2833],[-10400,-7934]],[[79149,656571],[-6335,-22510],[-6672,-12490],[464,-5985]],[[66606,615586],[-4784,4194],[-8016,3310],[-11087,4556],[-25488,15052],[-9151,7616],[48,6982],[13519,12831],[2256,7276],[-6112,8388],[-17791,14530],[1104,8614],[10864,10269],[3855,11153],[6528,6755],[32335,18520],[12864,2381],[11615,-3287],[21424,-1723],[24047,-6211],[23391,-2698],[5536,-10722],[-4336,-9340],[-10192,-9679],[224,-11742],[6992,-13851],[-3376,-4579]],[[574285,162352],[-448,-13533],[4736,-1338],[672,-2402],[12735,-2245],[2128,-1926],[352,-20969],[960,-2085],[19920,-3106],[816,-10405],[6687,-10019],[8176,-17160],[-11951,-8229],[-5280,-6302],[-19824,-9045],[-7263,-521],[-4080,-8183],[-7600,-6030],[-11888,-2652],[-17039,2516],[-6080,-2856],[-20511,-16684],[-12640,-13466],[-10687,-4987],[-18112,-725],[-6064,6529],[-15023,6301],[6688,5962],[3232,8954],[1136,8728],[6127,9611],[10144,5917],[12704,11379],[-3024,8320],[1184,8727],[-672,9657],[-5936,7639],[-15376,2199],[-8399,-3831],[-10016,-1768],[-5840,1655],[-9743,9498],[-5856,1654],[-5728,-4329],[-19007,8138],[-12064,-5010],[-7664,-431],[-2432,1610],[-2592,7616],[-7135,-1133],[-14624,-7571]],[[362084,106021],[-1840,8070],[18783,10994],[3040,4828],[-1344,10382],[928,4579],[7088,4126]],[[388739,149000],[8576,-2108],[8960,-6937]],[[406275,139955],[8239,-272],[6448,-2334],[7696,408],[14735,7503],[8256,-295],[2608,2516],[3376,19042],[9760,6574],[2080,3196]],[[469473,176293],[-4368,5554]],[[465105,181847],[13663,-1292],[13040,2403],[10559,-12060],[8848,-4012],[4272,408],[16703,9430],[10464,-6121],[6176,-6506],[25455,-1745]],[[520303,671578],[-1456,-590],[-1392,2584],[3072,680],[-224,-2674]],[[434818,599786],[12943,26545],[-6944,7095]],[[440817,633426],[11792,12785],[64,5282],[-8336,10292],[-16991,9793],[-2704,7027]],[[424642,678605],[6096,4352]],[[430738,682957],[7296,-45],[17615,-11221],[11808,-12377]],[[467457,659314],[5807,-3219],[14144,-23]],[[487408,656072],[2176,3718],[12879,9181],[-464,29061],[-3167,18792],[2415,6188]],[[560526,710885],[13487,-1791],[11456,-3831],[11327,-9748],[6560,-8296],[1472,-21626],[3280,-4148]],[[608108,661445],[-4096,-6960],[-23791,-12309],[2144,-5712],[6256,-9453],[-2656,-7231],[3168,-10065]],[[589133,609715],[15087,-14621],[3504,-5985]],[[607724,589109],[-5952,-6029],[1712,-12785]],[[603484,570295],[-19455,612],[-14496,-2721]],[[569533,568186],[-24815,38877]],[[544718,607063],[-6320,6460],[-13391,1769],[-20144,-4738],[-9807,-4216],[-9840,-10111],[-4192,-2221],[-5840,-182],[-5839,2789],[-3872,4805],[-4736,1406],[-25919,-3038]],[[695241,699958],[-11184,-5644]],[[684057,694314],[-21935,544],[-2416,4602],[2448,6075],[-368,6596],[1584,5645],[-5920,18316],[2672,4262],[5488,3740],[1168,9294],[11680,1995],[3152,-7118],[17311,8659],[6608,-5395],[3456,1723]],[[708985,753252],[3231,-11901]],[[712216,741351],[448,-19109]],[[712664,722242],[-3775,-2857],[-1056,-14077],[-6352,-4148],[-6240,-1202]],[[619180,438137],[-2384,-3876],[1104,-3604],[6255,-227],[4816,-3174],[6096,1338],[6256,-1610],[1584,-4352],[9695,-6642],[1840,-3740],[-32,-4353],[-10495,-8115],[-6672,-10156],[-10176,-4012],[-512,-11606],[-1520,-2086],[-2496,680],[-3167,6438],[-7120,182],[-11472,13918]],[[600780,393140],[-5712,2856],[-17791,-8568],[-1968,-10927],[-10096,-521],[-7919,-3287],[3807,-7843],[11936,-15301],[272,-4806],[-15215,-10269],[5423,-12898],[-1632,-6846],[-5951,-1270]],[[555934,313460],[-11392,2698]],[[544542,316158],[-4608,4420],[-9504,-1224],[-5695,2834],[-8752,14077],[-18511,5735]],[[497472,342000],[-13472,21444],[-2224,5735],[-864,8479],[-5232,8047],[-3328,10110],[-11855,16344],[-2512,7549],[1280,7208]],[[459265,426916],[23359,-2675],[26591,590]],[[509215,424831],[6576,6528]],[[515791,431359],[-1920,3899]],[[513871,435258],[16,5939],[4112,5191],[6896,4693],[7695,2176],[7696,-816],[6560,-8319],[19503,589],[30959,-8093],[12080,-476],[9792,1995]],[[695673,633290],[-28783,-19540],[-5200,15845],[8592,7300],[-2704,3468],[9392,4783],[18703,-11856]],[[600108,598812],[-10975,10903]],[[608108,661445],[5344,793],[14239,-15052],[10688,1587],[9216,-1111],[7215,-3128],[13472,1043],[-1680,9815]],[[666602,655392],[21919,-8274],[23088,11697],[911,18838],[-36142,-8773]],[[676378,668880],[4256,5282]],[[680634,674162],[1311,15210],[2112,4942]],[[695241,699958],[17999,-9362]],[[713240,690596],[8400,-9316],[9152,-4126],[41695,1496]],[[772487,678650],[6415,-8410],[13936,-30716],[-3552,-4647],[-2800,-7208],[9712,-9657],[12783,-9068]],[[808981,608944],[-160,-10699]],[[808821,598245],[-8031,-20447]],[[800790,577798],[-12976,-4602]],[[787814,573196],[-8608,522],[-9183,8954],[-2240,7571],[-2768,544],[-5952,-3015],[976,-12082]],[[760039,575690],[-12640,-3491]],[[747399,572199],[-11919,1700],[-10352,7367],[-1760,6869],[-9920,3695],[-6175,-1179],[-8848,2267],[-14256,9249],[-11423,974],[-12432,5305],[-11119,2085],[-4256,8524],[-336,9543],[-9280,-1836],[-8864,-8456],[-12895,-1768],[736,-5485],[9071,-7005],[-3455,-4715],[-19808,-521]],[[542894,811669],[-9696,-13715]],[[490160,772770],[-27103,6347]],[[463057,779117],[-5888,6279]],[[457169,785396],[1456,21603],[-8944,10926]],[[449681,817925],[-784,5441],[3184,3604],[6896,3582],[8800,16253]],[[467777,846805],[17279,-7571],[-7008,-9476],[12528,-317],[12415,-6234],[17088,68],[22815,-11606]],[[627035,223376],[-3488,-612],[1312,-7934],[6384,-6189],[-2544,-4806],[-6544,-5984],[-19247,-11765],[-3312,-6823],[-3392,-3401],[-4560,-2403],[-15487,-2493],[-1936,-2267],[64,-6347]],[[465105,181847],[-5952,4647]],[[459153,186494],[-14560,6800],[-9023,9929],[-1760,8048],[4112,9384],[-368,4829],[-10992,13850],[-3232,14259],[-9264,5803]],[[423010,271501],[-2256,5735]],[[420754,277236],[6208,-499],[4032,2267],[6080,8433],[14527,5146],[11280,6301],[10111,-8364],[2704,-476],[8032,7480],[10560,-136],[-32,2993],[-3280,4148],[-5536,12898],[3472,5917],[2896,12558],[5664,6098]],[[544542,316158],[4608,-1451]],[[549150,314707],[6240,-6506],[3536,-8977],[10559,-6143],[-2160,-12105],[3248,-4171],[6752,-1269],[6208,2425],[19727,14735],[6768,-1292],[4560,-4421],[-1392,-11674],[11007,-12808],[512,-6641],[-4095,-17093],[7999,-13465],[-1584,-1926]],[[558222,244253],[496,2607],[-3152,-385],[528,-2448],[2128,226]],[[585021,880060],[-1952,-635],[-1248,2086],[2016,861],[1184,-2312]],[[593292,832479],[-6127,15301],[-4096,6642],[-8608,9203],[-9808,7617],[-7135,1224],[-16064,-1383],[272,11788],[-16319,408],[-9632,-7844]],[[515775,875435],[-20959,-2992]],[[494816,872443],[3152,27837],[6959,3582],[13936,-6483],[22447,2720],[2752,17863],[-5088,3219],[4128,14689],[-176,15414],[8960,10315]],[[551886,961599],[12543,4397],[6080,136],[13408,-5848],[13375,1859],[35599,317],[9056,2561],[-96,4761],[-2112,5712],[-6768,5350],[-2096,5690],[4304,6959],[9232,5509],[7871,997],[19200,-6959],[11551,5667],[6656,-612],[7168,-9000],[8512,-4511],[6783,2358],[20848,-1428],[2192,-2766],[-272,-5916],[6080,68],[11359,-5055]],[[752359,971845],[-10399,-41529],[-10848,-3355],[-2368,-7889],[1696,-6846],[-8704,-1382],[-14111,-6914],[-9216,7050],[-19055,-8433],[-5392,-5554],[-10656,-453],[-6048,7617],[-528,8387],[-10351,8387],[-19904,-8931],[-6015,-7843],[6287,-9408],[688,-5463],[-2704,-11969],[-7711,-16412],[2704,-14123]],[[175994,625946],[-2432,-612],[-624,1836],[1472,861],[1584,-2085]],[[297078,593870],[-13295,-4375],[-17184,-2607],[-7136,-5939],[-1264,-8637],[-4079,-5236],[-13856,-794],[-11776,8274],[-15087,6415],[-7776,590],[-28687,-6279],[-11119,-11267],[-16048,-11130],[-13471,-2720],[-10848,2743],[-14848,17364],[-9311,6596],[-5712,16616],[-18080,12468],[-10895,9634]],[[79149,656571],[15344,10767]],[[142875,684181],[-9135,-12377],[6751,-2131]],[[140491,669673],[7376,-5735],[10112,-3219],[5696,-6664],[13983,-2040],[4304,9339],[8656,-91],[6272,-7390],[5807,3242],[6768,-5100],[6656,3695],[3408,-4013],[22463,12468]],[[241992,664165],[2064,-9725]],[[244056,654440],[6496,-6256],[13743,-6234],[13136,-2630],[11247,-10563]],[[288678,628757],[-24927,-13760],[-5248,-3899]],[[258503,611098],[-1615,-3876],[5343,-4942],[5312,-1995],[14720,1224],[14815,-7639]],[[317238,225030],[32862,16956],[10736,1134],[7056,-3015],[7552,-703]],[[459153,186494],[8384,-6279],[1936,-3922]],[[406275,139955],[-4640,4398],[-9440,4647],[-3456,0]],[[362084,106021],[-8224,226],[-8351,-3899],[-4032,-6460],[-1120,-5758],[5600,-17069],[-128,-4149],[-21472,9657],[-9743,6438],[-8560,16367],[-4464,5531],[-16543,-3763],[-6240,3445],[-7616,10791],[7984,12966],[-16128,16979],[320,5304],[6448,12014],[-1360,7368],[1552,15188],[448,16570],[3392,17251],[21055,21444],[4576,-8500]],[[712664,722242],[-96,12513]],[[712568,734755],[9920,-6642],[5072,-363],[1088,6325],[5536,3717],[7424,-4987],[-2832,-14938],[4191,-8524],[-3023,-5372],[-8416,1609],[-4304,-2176],[864,-7299],[-10112,-7005]],[[717976,689100],[-22735,10858]],[[666602,655392],[9776,13488]],[[712568,734755],[-352,6596]],[[708985,753252],[2608,9022],[-2928,5305],[-7472,4964],[-5648,8773],[8160,5032],[3712,7640]],[[707417,793988],[640,-5486]],[[708057,788502],[3776,-4874],[18047,3174],[2160,-2789],[15647,0],[4352,2154]],[[752039,786167],[11744,51956]],[[763783,838123],[-320,11380],[14399,25252],[26127,16480],[14016,3877]],[[818005,895112],[20095,-907],[-7231,-11130],[19951,-18203],[6752,-2539],[8527,-6438],[-5743,-6868],[640,-7073],[5727,-4556],[2800,-6665],[-720,-8319],[-6463,-7571],[-5584,-2358],[-352,-2131],[7615,454],[7696,-3809],[16,-7752],[-4816,-7232],[-14463,-6868],[-15616,-4670],[-10207,816],[-7760,3899],[-6720,431],[-6800,-2131],[-1056,-4738],[4928,-10745],[5136,-5191],[-1168,-3423],[-22127,-4987],[-2496,-3241],[-848,-3491],[1328,-2766],[15615,-14621],[13648,-16843],[1616,-6551],[-2528,-6075],[-4672,-3242],[-2784,-11969],[-8175,-181],[-4256,5622],[-6864,4307],[-7328,249],[-10032,-4012],[-2287,-7889],[1488,-5055]],[[713240,690596],[4736,-1496]],[[654170,826358],[-6895,7163]],[[752359,971845],[3856,-9657],[4912,-6257],[8448,-4556],[6095,45],[8784,-3423],[14208,-10450],[3072,-7140],[10079,-11448],[-304,-10677],[6496,-13170]],[[763783,838123],[-8400,-40690],[-3344,-11266]],[[708057,788502],[-2384,12331]],[[705673,800833],[-4208,8524],[-12976,4171],[-1600,17523],[-11247,5055],[-10144,-4103],[-5872,-4874],[-5456,-771]],[[403907,818288],[18207,1791],[14128,-8206],[5967,204],[7472,5848]],[[457169,785396],[-6608,-8931],[-21423,-17115],[-9712,-11969],[-9904,-1315],[-8239,-9271],[-23439,-5645],[-16624,907],[-15199,3604]],[[346021,735661],[-10144,12196],[-8192,-499],[-7616,7662]],[[320069,755020],[8192,9317],[560,5191],[-4800,7209],[6224,7276],[4256,2290],[45054,3491],[8000,11085],[16352,17409]],[[547278,816837],[-4384,-5168]],[[467777,846805],[15807,6257],[25567,21421]],[[509151,874483],[6624,952]],[[278743,316679],[1840,13579],[-1120,21512]],[[440817,633426],[-1439,11357],[5967,7662],[704,3423],[-18239,-4443],[-6208,1179],[-5968,4670],[-2608,8092],[-1408,998],[-7935,-7254]],[[403683,659110],[2336,18520],[22703,34592],[15647,18044],[12064,18067],[848,22895],[5776,7889]],[[487408,656072],[-8112,-975],[-11839,4217]],[[430738,682957],[-3376,-1791],[-2720,-2561]],[[420754,277236],[-3776,14939]],[[369860,347848],[-15504,272],[-13407,3469]],[[340949,351589],[25343,12286],[5632,6143],[448,5259],[-16160,3945],[-3088,5259],[-976,8455],[9392,10269],[11344,9317],[192,7072],[1840,5010]],[[374916,424604],[12815,6121]],[[387731,430725],[624,-6620],[2256,-5735],[7184,-5962],[15711,-9226],[8480,-294],[9216,9067],[3776,7050],[-6432,15346],[7936,3355],[17071,-9498]],[[453553,428208],[5712,-1292]],[[403907,818288],[-22736,703],[-15023,10609],[-15088,-4103],[-512,12422],[-3951,7662],[4591,9294],[-9391,6755],[-8832,182],[-11968,8296],[4880,10428],[11760,17001],[-800,11312],[-3408,9929],[10368,8410],[13535,6166],[912,6324],[-7440,8795],[-23631,-4669],[-10063,4465],[-12672,-5757],[3184,18316],[9232,-1950],[7487,2993],[4048,4103],[-3408,21671],[5808,5009],[11888,2335],[9807,-5599],[8368,-2448],[10112,-1542],[19679,499],[9248,-2017],[15087,-19450],[8080,-680],[9024,5645],[21727,2425],[16047,-7299]],[[469856,964523],[-4223,-9929],[-7696,-11742],[-8512,-9249],[-2144,-7911],[-6176,-9022],[4768,-7254],[-21071,-31396],[16175,-9113],[11296,-10700],[15504,-11402]],[[834164,461984],[7008,17115],[128,10722],[3280,6484],[-1872,8727],[-7808,5735],[-4207,5645],[-4912,23620],[8399,9045],[544,7050],[-9631,1972]],[[825093,558099],[-6080,-5985],[-7232,-2946]],[[811781,549168],[-2848,793]],[[808933,549961],[1280,4511],[-1472,5055]],[[808741,559527],[-11263,11765]],[[797478,571292],[-960,4375]],[[796518,575667],[4272,2131]],[[800790,577798],[6415,14802],[1616,5645]],[[808981,608944],[25631,5010],[5168,2562],[6128,5916],[11024,2562],[8319,-1678],[5088,-5214],[-128,-2946],[-5632,-6620],[29200,-2947],[9839,975],[19456,8546],[27983,4942],[11759,-45],[9328,-3151],[5200,-7050],[-512,-4081],[-2768,-4193],[3120,-9022],[8287,-11312],[160,-6596],[-5839,-4761],[-21104,-9294],[5216,-11833],[-6992,-11085],[7920,-7639],[12352,-2607],[11999,-13284],[8560,-612],[2256,-14757],[-13472,1247],[-5135,-2244],[-4448,2697],[-10512,-2833],[-2320,-3809],[2496,-4737],[-1216,-6325],[-6496,-4307],[-9455,-1677],[-21248,3831],[-18111,-340],[-784,-1587],[1088,-2652],[-2976,-3673],[-10752,-4443],[-3503,-5259],[-9696,-5032],[-2432,-4874],[-6496,-2154],[-7152,-11651],[2096,-4579],[-1856,-3060],[-15455,5916],[-2000,2403],[-4848,11425],[352,1972],[9264,3763],[2896,3151],[-8320,6574],[-5856,-1564],[-9488,-2925]],[[564909,575576],[4624,-7390]],[[603484,570295],[15936,-11244],[11615,-2766]],[[631035,556285],[-1984,-1994]],[[629051,554291],[2592,-9408]],[[631643,544883],[-19391,-15981]],[[612252,528902],[-7248,-2811],[-9968,657],[-4719,-1518],[-18480,-18566],[-17263,-14077],[-7984,-317],[-10736,6097],[-7695,6710],[-7728,794],[-7488,-3990],[-4992,-5622]],[[507951,496259],[-2144,17568],[12816,13715],[2000,7956],[1280,22284],[7024,7639],[-816,2516],[2671,16117],[10592,1678],[4912,-9181],[18623,-975]],[[307542,682186],[-1664,-340],[-1744,2585],[4016,1065],[560,-2652],[-1168,-658]],[[346021,735661],[-9312,-5009],[3936,-4738],[-12624,-12717],[3376,-7027],[9264,5009],[13503,-42775],[-39342,-66736]],[[314822,601668],[-10240,-6619],[-7504,-1179]],[[258503,611098],[30175,17659]],[[244056,654440],[-4096,16480]],[[239960,670920],[-2832,3378],[18128,6052],[19759,15778],[-9408,18474],[-21663,3854],[-2576,4511],[5168,4375],[11311,9566],[-895,8365],[17135,10337],[8752,-159],[15823,-10042],[21407,9611]],[[659962,820555],[-5792,5803]],[[705673,800833],[1744,-6845]],[[680634,674162],[-14032,-18770]],[[695401,470462],[-2112,2562],[-8304,816]],[[684985,473840],[-12159,6393],[12271,6528],[23136,24573],[9471,2924],[848,-6121],[12000,69],[-2144,-29356],[-33007,-8388]],[[684985,473840],[-16447,-3196],[-1072,-2902],[-6960,-6030],[-1760,-4783],[5056,-7594],[-3936,-8138],[1312,-5168],[-2432,-1338],[-9295,1995],[-4736,8592],[-19328,-1678],[-6207,-5463]],[[513871,435258],[-6032,13556]],[[507839,448814],[-9327,8795],[-5776,11697],[-2752,3446],[-7152,3060],[1920,4987]],[[484752,480799],[4688,1542]],[[489440,482341],[4688,-1428]],[[494128,480913],[11039,3967]],[[505167,484880],[16,5939],[2768,5440]],[[612252,528902],[15439,11969],[3952,4012]],[[629051,554291],[7872,5077]],[[636923,559368],[8000,-2697],[3440,-8977],[960,-20968],[5231,-2176],[8096,3218],[3712,5849],[1520,5644],[2288,3129],[2224,181],[9631,-15505],[4144,-794],[12000,14962],[5520,9656],[11215,3786],[8512,-3423],[-2624,-4262],[-7904,-5009],[-1535,-5668],[1983,-8704],[2992,-2358],[4208,2154],[2304,3128],[-144,4783],[4208,2154],[12416,-2403],[4271,-5577],[2960,-13102],[2960,-2358],[8560,-476],[9872,-3740],[3360,1723],[1264,4511],[-1648,9861],[2335,3128],[27920,14122],[7759,6801]],[[811781,549168],[9872,4375],[3440,4556]],[[834164,461984],[-18687,1088],[-6736,-1564],[-7167,1451],[-5504,3582],[-4864,68],[-5264,-3695],[-3504,113],[-2448,-2584],[6272,-13125],[16,-3514],[-9632,-2108],[-5199,0],[-2912,2516],[-9104,2063],[5360,9612],[-4496,2198],[-4672,-1972],[-976,1156],[2464,2766],[-912,1292],[-5424,-2176],[320,-2879],[-1680,-3808],[-3184,-2063],[-6719,5780],[-1984,4466],[-12640,-3944],[-2832,-3491],[-3536,-8954],[-1712,-499],[-1760,1655],[-2496,7526],[-10015,2697],[-3744,2743],[-3392,12082]],[[165419,660561],[-1664,1042],[2320,748],[-656,-1790]],[[140491,669673],[11280,8342],[11136,19087],[3871,17999],[15248,12445],[13376,-11312],[8287,-11152],[3200,-8093],[8752,-6007],[8640,2833],[15679,-22895]],[[239960,670920],[2032,-6755]],[[607724,589109],[-7616,9703]],[[747399,572199],[9248,1768],[3392,1723]],[[787814,573196],[8704,2471]],[[797478,571292],[6479,-5440],[4784,-6325]],[[636923,559368],[-5888,-3083]],[[666266,553973],[576,1655],[-1296,1065],[-2608,-612],[400,-2312],[2928,204]],[[404835,494536],[5727,-2606],[5232,884],[208,15936],[5776,9090],[1904,10903],[-8864,2108],[-11103,10745],[9119,7912],[4144,8160],[-8063,14372],[1391,2720],[18080,11720],[6432,13306]],[[544718,607063],[20191,-31487]],[[505167,484880],[-4144,-2222],[-6895,-1745]],[[489440,482341],[-14320,-5758]],[[475120,476583],[-4960,272],[-4143,725],[-7456,7844],[-16816,1745],[-7423,-4058],[-5728,-12037],[-3296,-1790],[-11408,18543],[-9055,6709]],[[549150,314707],[6784,-1247]],[[600780,393140],[11648,-13488],[-6688,-2062],[-736,-9136],[1072,-1360],[18927,-1088],[11008,-2902],[8576,-6846],[31759,-2221],[12095,7413],[11552,-91],[8480,-3740],[4751,-9408],[-80,-6528],[-16623,-9816],[-10016,-589],[-3792,1745],[-2767,6098],[-7904,-91],[-4304,3242],[-7024,-861],[-1888,-2902],[-1696,-12060],[-12383,-11538],[2176,-18157],[4560,-4285],[6847,-3264],[24431,-1360],[10816,-9816],[8784,-2244],[16655,590],[2048,1314],[1056,5531],[4160,1179],[9344,-5735],[5392,-9589],[6335,-5304],[20288,-6869],[17071,658],[13184,-4466],[3888,-11085],[-304,-13420],[-19104,-11697],[-6640,136],[-5967,4262],[-7392,8387],[-2544,136],[-7856,-3536],[-18079,408],[-8352,-8160],[-3392,385],[-12127,10019],[-16960,6302],[-14143,-10949],[-7776,952],[-8208,7957],[-5536,1315],[-17183,-9634],[-2128,-4353],[-11056,2857]],[[281751,379199],[2832,6619],[6943,57986],[22976,3922],[16287,12082],[17695,36678],[11808,4534],[17136,-3469],[14335,2925],[13072,-5940]],[[475120,476583],[9632,4216]],[[507839,448814],[2480,-4602],[-16,-2969],[5488,-9884]],[[509215,424831],[-40014,22],[-15648,3355]],[[387731,430725],[-5472,-2041],[-7343,-4080]],[[340949,351589],[-3600,2969]],[[494816,872443],[14335,2040]],[[469856,964523],[30112,2765],[13183,6688],[12160,362],[26575,-12739]],[[403683,659110],[-3904,-6415],[-13440,-4285],[-13951,-24232],[-32511,-26545],[-11392,-2290],[-13663,6325]]],"bbox":[57.1279,51.9973,63.3781,56.4087],"transform":{"scale":[0.000006250206250206256,0.000004411404411404412],"translate":[57.1279,51.9973]}}