{"type":"Topology","objects":{"muni":{"type":"GeometryCollection","geometries":[{"type":"MultiPolygon","arcs":[[[0]],[[1]],[[2]],[[3]],[[4]],[[5]],[[6]],[[7]],[[8,9,10,11,12,13,14,15,16,17,18,19,20,21,22]]],"properties":{"GID_2":"RUS.12.1_1","GID_0":"RUS","COUNTRY":"Russia","GID_1":"RUS.12_1","NAME_1":"Chukot","NL_NAME_1":"ЧукотскийАОк","NAME_2":"Anadyrskiyrayon","VARNAME_2":"NA","NL_NAME_2":"Анадырскийрайон","TYPE_2":"Raion","ENGTYPE_2":"District","CC_2":"R70010","HASC_2":"RU.CK.AR"}},{"type":"MultiPolygon","arcs":[[[23]],[[24]],[[25]],[[26]],[[27]],[[28]],[[29]],[[30]],[[31]],[[32]],[[33]],[[34]],[[35]],[[36]],[[-9,37,38,39,40,-11,41]],[[42]],[[43]],[[44]],[[45]],[[46]],[[47]],[[48]],[[49]],[[50]],[[51]],[[52]],[[53]],[[54]],[[55]],[[56]],[[57]],[[58]],[[59]],[[60]],[[61]],[[62]],[[63]],[[64]],[[65]],[[66]],[[67]],[[68]],[[69]],[[70]]],"properties":{"GID_2":"RUS.12.2_1","GID_0":"RUS","COUNTRY":"Russia","GID_1":"RUS.12_1","NAME_1":"Chukot","NL_NAME_1":"ЧукотскийАОк","NAME_2":"Beringovskiyrayon","VARNAME_2":"NA","NL_NAME_2":"Беринговский","TYPE_2":"Raion","ENGTYPE_2":"District","CC_2":"NA","HASC_2":"RU.CK.BE"}},{"type":"MultiPolygon","arcs":[[[71,-13,72,73,-15]],[[74]]],"properties":{"GID_2":"RUS.12.3_1","GID_0":"RUS","COUNTRY":"Russia","GID_1":"RUS.12_1","NAME_1":"Chukot","NL_NAME_1":"ЧукотскийАОк","NAME_2":"Bilibinskiyrayon","VARNAME_2":"NA","NL_NAME_2":"Билибинскийрайон","TYPE_2":"Raion","ENGTYPE_2":"District","CC_2":"R70010","HASC_2":"RU.CK.BI"}},{"type":"MultiPolygon","arcs":[[[-74,75,76,77,-16]],[[78]],[[79]],[[80]],[[81]],[[82]],[[83]],[[84]],[[85]],[[86]],[[87]],[[88]],[[89]],[[90]],[[91]],[[92]],[[93]],[[94]],[[95]],[[96]],[[97]],[[98]],[[99]],[[100]],[[101]],[[102]],[[103]],[[104]]],"properties":{"GID_2":"RUS.12.4_1","GID_0":"RUS","COUNTRY":"Russia","GID_1":"RUS.12_1","NAME_1":"Chukot","NL_NAME_1":"ЧукотскийАОк","NAME_2":"Chaunskiyrayon","VARNAME_2":"NA","NL_NAME_2":"Чаунскийрайон","TYPE_2":"Raion","ENGTYPE_2":"District","CC_2":"R70010","HASC_2":"RU.CK.CH"}},{"type":"MultiPolygon","arcs":[[[105]],[[106]],[[107]],[[108]],[[109]],[[110]],[[111]],[[112]],[[113]],[[114]],[[115,116,117,118,119,120]],[[121]],[[122]],[[123]],[[124]],[[125]],[[126]],[[127]],[[128]],[[129]],[[130]],[[131]],[[132]],[[133]],[[134]],[[135]],[[136]],[[137]],[[138]],[[139]],[[140]],[[141]],[[142]],[[143]],[[144]],[[145]],[[146]],[[147]],[[148]],[[149]],[[150]],[[151]],[[152]],[[153]],[[154]],[[155]],[[156]],[[157]],[[158]],[[159]],[[160]],[[161]],[[162]],[[163]],[[164]],[[165]],[[166]],[[167]],[[168]],[[169]],[[170]],[[171]],[[172]],[[173]]],"properties":{"GID_2":"RUS.12.5_1","GID_0":"RUS","COUNTRY":"Russia","GID_1":"RUS.12_1","NAME_1":"Chukot","NL_NAME_1":"ЧукотскийАОк","NAME_2":"Chukotskiyrayon","VARNAME_2":"NA","NL_NAME_2":"Чукотскийрайон","TYPE_2":"Raion","ENGTYPE_2":"District","CC_2":"R70010","HASC_2":"RU.CK.CK"}},{"type":"MultiPolygon","arcs":[[[174]],[[175,176,177,-22]]],"properties":{"GID_2":"RUS.12.6_1","GID_0":"RUS","COUNTRY":"Russia","GID_1":"RUS.12_1","NAME_1":"Chukot","NL_NAME_1":"ЧукотскийАОк","NAME_2":"Iyul'tinskiyrayon","VARNAME_2":"NA","NL_NAME_2":"Иультинскийрайон","TYPE_2":"Raion","ENGTYPE_2":"District","CC_2":"R70010","HASC_2":"RU.CK.IY"}},{"type":"MultiPolygon","arcs":[[[178]],[[179]],[[180]],[[181]],[[182]],[[183]],[[184]],[[185]],[[186]],[[187]],[[188]],[[189]],[[190]],[[191]],[[192]],[[193]],[[194]],[[195]],[[196]],[[197]],[[198]],[[199]],[[200]],[[201]],[[202]],[[203]],[[204]],[[205]],[[206]],[[207]],[[208]],[[209]],[[210]],[[211]],[[212]],[[213]],[[214]],[[215]],[[216]],[[-116,217,-120,218,219,220,221,222,-118,223]],[[224]]],"properties":{"GID_2":"RUS.12.7_1","GID_0":"RUS","COUNTRY":"Russia","GID_1":"RUS.12_1","NAME_1":"Chukot","NL_NAME_1":"ЧукотскийАОк","NAME_2":"Providenskiyrayon","VARNAME_2":"NA","NL_NAME_2":"Провиденскийрайон","TYPE_2":"Raion","ENGTYPE_2":"District","CC_2":"R70010","HASC_2":"RU.CK.PR"}},{"type":"MultiPolygon","arcs":[[[225]],[[226]],[[227]],[[228]],[[229]],[[230]],[[231]],[[232]],[[233]],[[234]],[[235]],[[236]],[[237]],[[238]],[[239]],[[240]],[[241]],[[242]],[[243]],[[244]],[[245]],[[246]],[[247]],[[248]],[[249]],[[250]],[[251]],[[252]],[[-18,253,-77,254,255,-177,256,-20,257]],[[258]],[[259]],[[260]],[[261]],[[262]],[[263]],[[264]],[[265]],[[266]],[[267]],[[268]],[[269]],[[270]],[[271]],[[272]],[[273]],[[274]],[[275]],[[276]],[[277]],[[278]],[[279]],[[280]],[[281]],[[282]],[[283]],[[284]],[[285]],[[286]],[[287]],[[288]],[[289]],[[290]],[[291]],[[292]],[[293]],[[294]],[[295]],[[296]],[[297]],[[298]],[[299]],[[300]],[[301]],[[302]],[[303]],[[304]],[[305]],[[306]],[[307]],[[308]],[[309]],[[310]],[[311]],[[312]],[[313]],[[314]],[[315]],[[316]],[[317]],[[318]],[[319]],[[320]],[[321]],[[322]],[[323]],[[324]],[[325]],[[326]],[[327]],[[328]],[[329]],[[330]],[[331]],[[332]],[[333]],[[334]],[[335]],[[336]],[[337]],[[338]],[[339]],[[340]],[[341]],[[342]],[[343]],[[344]],[[345]],[[346]],[[347]],[[348]],[[349]],[[350]],[[351]],[[352]],[[353]],[[354]],[[355]],[[356]],[[357]],[[358]],[[359]],[[360]],[[361]],[[362]],[[363]],[[364]],[[365]],[[366]],[[367]],[[368]],[[369]],[[370]],[[371]],[[372]],[[373]],[[374]],[[375]],[[376]],[[377]],[[378]],[[379]],[[380]],[[381]],[[382]],[[383]],[[384]],[[385]],[[386]],[[387]],[[388]],[[389]],[[390]],[[391]],[[392]],[[393]],[[394]],[[395]],[[396]],[[397]],[[398]],[[399]],[[400]],[[401]],[[402]],[[403]],[[404]],[[-220,405,-222,406]],[[407]],[[408]],[[409]],[[410]],[[411]],[[412]],[[413]],[[414]],[[415]],[[416]],[[417]],[[418]],[[419]],[[420]],[[421]],[[422]],[[423]],[[424]],[[425]],[[426]],[[427]],[[428]],[[429]],[[430]],[[431]],[[432]],[[433]],[[434]],[[435]],[[436]],[[437]],[[438]],[[439]],[[440]],[[441]],[[442]],[[443]],[[444]],[[445]],[[446]],[[447]],[[448]],[[449]],[[450]],[[451]],[[452]],[[453]],[[454]],[[455]],[[456]],[[457]],[[458]],[[459]],[[460]],[[461]],[[462]],[[463]],[[464]],[[465]],[[466]],[[467]],[[468]],[[469]],[[470]],[[471]],[[472]],[[473]],[[474]],[[475]],[[476]],[[477]],[[478]],[[479]],[[480]],[[481]],[[482]],[[483]],[[484]],[[485]],[[486]],[[487]],[[488]],[[489]],[[490]],[[491]],[[492]],[[493]],[[494]],[[495]]],"properties":{"GID_2":"RUS.12.8_1","GID_0":"RUS","COUNTRY":"Russia","GID_1":"RUS.12_1","NAME_1":"Chukot","NL_NAME_1":"ЧукотскийАОк","NAME_2":"Shmidtovskiyrayon","VARNAME_2":"NA","NL_NAME_2":"Шмидтовскийрайон","TYPE_2":"Raion","ENGTYPE_2":"District","CC_2":"R70010","HASC_2":"RU.CK.SH"}}]}},"arcs":[[[996191,193093],[-208,-1309],[-93,439],[33,327],[-20,508],[120,613],[128,-431],[143,682],[-103,-829]],[[996355,195231],[8,0],[0,-76],[-8,0],[0,76]],[[996349,195524],[9,0],[0,-77],[-9,0],[0,77]],[[996633,196575],[-215,-1274],[132,1274],[83,0]],[[993396,185545],[4,-105],[-8,0],[4,105]],[[995167,197007],[74,111],[-16,-257],[-58,146]],[[995120,197153],[34,-111],[-38,0],[4,111]],[[990178,226024],[22,-258],[-72,147],[50,111]],[[993725,169494],[113,-1010],[-88,-745],[114,-3447],[26,-3524],[-230,-229],[-391,-2215],[-118,-2890],[157,-2653],[-37,-2820],[-143,-2479],[-306,-1560],[-309,627],[-644,-1560],[31,-522],[-361,-509],[-276,-3273],[59,-1706],[-204,-1567],[-4,-2771],[68,-3684],[350,-849],[1080,4721],[354,-397],[191,-4262],[40,-2346],[-182,-5056],[-1,-5132],[191,-4039],[217,-2368],[74,-2938],[-162,-6595],[55,-5501],[-44,-2932],[-174,-3419],[-308,-3607],[-207,-968],[-197,1915],[-280,-968],[-129,1748],[-309,-1051],[-188,-1888],[27,-4282],[-154,-1344],[-401,-1609],[-335,-2388],[-162,-1755],[-176,1462],[33,3712],[-2,2932],[-212,327],[-166,947],[-474,-230],[-110,1247],[-478,-460],[-255,550],[-92,2152],[427,6030],[482,2800],[35,2702],[-344,779],[-479,2312],[-388,279],[-440,-2201],[148,-3816],[-224,-1706],[-110,-2089],[15,-3078],[-146,-877],[-472,-112],[-302,2375],[-560,-2354],[-102,-2409],[-216,-2305],[-249,1455],[-263,14],[-352,-1560],[-218,356],[-401,2541],[-805,-1065],[-807,-4847],[-76,-2263],[-30,-3127],[-234,-1420],[-108,1741],[75,1894],[-138,884],[-37,2110],[-179,1010],[-123,-2563],[-217,550],[-197,3566],[12,-3969],[-165,-2744],[-220,-794],[-89,3308],[-171,898],[-140,-2827],[-286,-843],[-92,-2179],[-208,-1658],[-305,1142],[-96,-1782],[51,-4067],[-111,-3767],[-343,-1163],[-118,-3162],[103,-2716],[-396,-2834],[-289,-2897],[-252,-174],[-241,1421],[-167,251],[-277,-1595],[-154,-2570],[-1109,-3593]],[[976498,43578],[-261,-3154],[-538,-4896]],[[975699,35528],[-354,-543]],[[975345,34985],[-92,787],[-161,-940],[-93,-3106],[-265,-390],[-9,-2716],[-225,-884],[-257,0],[-82,-2389],[-250,188],[-309,2765],[-549,1407],[-218,1218],[-168,-2660],[-198,-1079],[-166,1664],[-9,2695],[-117,1950],[18,2291],[-218,2952],[69,2856],[-282,3419],[81,5125],[-112,3781],[-298,286],[-238,2674],[-256,-140],[-329,6671],[-521,3998],[-222,2938],[-557,4102],[-433,-1205],[-488,2312],[-187,3280],[-336,1372],[-388,3412],[29,3099],[268,1176],[96,2347],[348,843],[193,3509],[148,899],[-5,4902],[225,1727],[125,3900],[376,1594],[240,4875],[236,2249],[475,1351],[294,2785],[-30,1741],[187,2953],[-107,2576],[-208,10689],[-400,2688],[29,4032],[-265,1511],[-273,-229],[-399,968],[-105,2214],[-295,3043],[-149,5327],[-64,6678],[-548,1351],[-185,2890],[-99,5710],[-529,-1378],[-151,1121],[-273,-2723],[-432,-1226],[-257,947],[-50,3538],[-390,-1449],[-187,871],[-48,3252],[10,3523],[-442,2459],[-287,3405],[-294,5048],[-134,3259],[-190,-654],[-287,-4513],[-448,-2005],[-345,661],[-458,-1559],[-174,1671],[-282,3892],[-468,927],[-340,1518],[-286,-4443],[-307,-717],[-198,1309],[105,4073],[-137,3162],[-41,3607],[-151,1901],[-428,-299],[-594,926],[-64,2493],[-162,2716]],[[958898,208330],[284,4533],[317,2444],[45,1428],[-44,2186],[52,2556],[217,2945],[95,2403],[-96,1553],[-268,1121],[-131,-313],[-85,-1672],[-207,1839],[85,3663],[451,10668],[218,1337],[236,3739],[92,4631],[7,2946],[-230,1267],[-174,-794],[-148,1964],[-6,1441],[486,5745],[246,1839],[241,-1052],[412,6177],[6,3440],[-72,2945],[213,2034],[38,2298],[-165,2395],[-12,4074],[363,3287],[90,3704],[253,3301],[-80,3976],[373,3169],[362,599],[335,-1031],[341,-1978],[435,-3551],[187,-49],[723,5376],[487,1671],[270,-2172],[373,-369],[610,-2556]],[[966123,303487],[391,1121],[443,1692]],[[966957,306300],[-107,2772],[30,3189],[122,3990],[233,1762],[264,-752],[603,1532],[317,-682],[331,675],[269,2159],[268,3154],[-55,6316],[46,2646],[304,759],[-167,1372],[-259,174],[-134,1073],[-37,2507],[205,2848],[258,2005],[352,724],[142,-1044],[402,550],[310,1316],[276,2946],[431,1601],[167,-2110],[359,1386],[371,-2841],[432,1045],[518,403],[790,1922],[228,1205],[-70,1922],[-524,3029],[-314,3120],[335,3489],[271,1901],[332,1016],[471,523],[171,1950]],[[974898,367852],[381,257],[154,1852],[359,279],[232,1720],[-26,3231],[-125,2946],[229,2618],[305,2549],[287,-1038],[315,153],[430,2096],[179,3113],[-16,2987],[156,3002],[230,2138],[221,2841],[38,4930],[213,5383],[466,4171],[326,-28],[246,-2298],[1974,2103],[562,1442],[-21,2360],[-68,2890],[-200,4624],[202,3343],[176,6295],[-148,2618],[303,2263],[490,-1170],[237,425],[264,2444],[-77,3552],[223,3050],[196,1796]],[[983611,448789],[169,-3593]],[[983780,445196],[714,-1003],[392,-2165],[331,-4290],[99,-3788],[-455,-11044],[56,-3419],[248,-1637],[427,759],[408,-432],[345,-1741],[160,-2862],[-182,-2172],[-610,-334],[-334,-1637],[-230,-3175],[129,-2876],[1477,-5717],[599,-3426],[400,-3893]],[[987754,390344],[315,-42],[740,1114],[243,-717]],[[989052,390699],[270,-2618],[283,-885]],[[989605,387196],[423,188]],[[990028,387384],[-226,-3440],[57,-2674],[347,-1128],[242,1226],[340,620],[140,-1330],[23,-5202],[-24,-4353],[92,-6239],[215,-4108],[63,-864],[277,153],[198,1108],[204,-843],[142,-1671],[-153,-1727],[-195,-947],[-168,-1901],[0,-3399],[261,-3781],[655,-369],[207,-2005],[673,-1198],[69,-1588],[34,-2061],[184,-1741],[472,-404],[104,1825],[228,-28],[108,-2507],[140,-1985],[188,-1142],[92,2131],[-84,2855],[116,1066],[334,1225],[294,2054],[233,-1573],[-121,-3426],[235,-3204],[154,857],[167,-1275],[-70,-2353],[137,-2284],[-28,-3412],[-130,-2438],[-281,-2256],[-111,-1629],[179,-1038],[412,1274],[266,-640],[520,2360],[181,-1218],[139,-1713],[-190,-2201],[-22,-3356],[176,-4603],[-173,-1637],[-80,-2061],[147,-7228],[17,-2744],[264,-5759],[221,-3050],[293,-1859],[-30,-2368],[-125,-4526],[-153,-3886],[-304,-4595],[-270,-2946],[-759,-2904],[-220,-5961],[-34,-3307],[-1542,-10307],[-137,-1720],[133,-2165],[56,-2417],[-82,-2186],[-190,-2458],[-24,-2570],[262,-2834],[342,-1650],[408,-21],[250,-3399],[403,-584],[740,981],[284,1477],[10,2144],[90,1059],[168,-1741],[-14,-2228],[183,-2577],[-97,-1964],[198,-1664],[771,878],[594,-836],[66,-1254]],[[999189,216017],[-282,-3377],[-168,-2465],[-64,-1163],[-1,-543],[-637,-871],[-249,-1448],[-196,-439],[-329,-2646],[-483,-5292],[-148,-871],[78,871],[-5,362],[-149,1629],[-284,-292],[-220,-1448],[-509,-293],[16,-397],[-80,-327],[-144,292],[-41,1017],[-463,870],[-347,-2033],[51,620],[-6,1372],[-120,1058],[-417,-292],[-341,724],[-87,724],[-127,-146],[23,439],[73,-112],[18,655],[-101,1086],[-9,1233],[-58,870],[-234,223],[95,1448],[-35,1233],[-97,473],[-167,-731],[-139,1456],[231,285],[115,1490],[-125,1017],[43,1302],[-10,543],[28,836],[-20,292],[49,801],[3,940],[137,328],[-150,0],[-52,-1017],[-637,292],[-103,906],[50,1594],[-21,655],[32,362],[-14,216],[16,473],[-68,906],[-38,1232],[-230,620],[-139,1302],[-191,293],[10,689],[-23,432],[-155,905],[-301,-432],[-231,-1309],[-151,-1594],[-266,-1017],[-33,42],[-44,1956],[-33,328],[-208,431],[-42,1129],[-84,215],[-7,690],[-120,-543],[-6,1086],[46,1163],[350,4568],[67,1525],[85,-543],[149,327],[-247,543],[-320,-4463],[-119,-794],[26,-293],[-20,-146],[9,-508],[-72,-940],[-18,-1525],[16,-620],[85,-181],[13,-690],[-18,-689],[-294,-759],[-162,1448],[-305,-250],[316,-181],[41,-871],[174,-292],[52,-871],[75,0],[65,1268],[120,473],[97,-613],[-32,-947],[133,-2033],[248,-467],[208,0],[446,1595],[162,1595],[219,0],[70,870],[77,-3879],[97,251],[94,-1699],[286,-1525],[15,-801],[31,-216],[-20,-362],[74,-620],[114,-34],[-37,-725],[3,-940],[-27,-76],[15,-146],[-15,-648],[38,-655],[-43,-1016],[11,-801],[41,-724],[97,-181],[85,-975],[-74,-1198],[-110,139],[-277,-2026],[-116,432],[-156,-1156],[-25,835],[-85,905],[-190,35],[-29,871],[32,1163],[-26,578],[9,362],[-132,1051],[-260,-1016],[-25,981],[-68,474],[-220,0],[-92,724],[-260,-2360],[-99,-1560],[-272,-147],[44,1707],[-63,1740],[-569,3232],[-22,-2180],[38,-2716],[113,-801],[67,-3266],[49,-362],[-9,-362],[110,-2033],[130,-1087],[70,-1525],[-55,-362],[26,-139],[-23,-947],[-161,-1629],[-260,-439],[-184,-1776],[-116,-2319],[-20,-1093],[-101,-794],[14,-223],[-155,-3516],[28,-105],[82,1706],[63,-766],[5,-1671],[-137,-1629],[-56,619],[25,1379],[-31,-292],[-18,-655],[44,-1232],[-6,-509],[-101,-1379],[-9,-1086],[-73,-801],[-17,-1086],[26,-70],[25,-982],[35,439],[191,-1017],[207,35],[-92,543],[-110,-285],[-108,613],[-19,689],[-46,-578],[-68,613],[-2,543],[70,1017],[13,-975],[43,-293],[-38,1303],[12,1239],[298,3552],[-6,1086],[-32,216],[27,654],[-32,1595],[295,5223],[45,181],[127,-1010],[197,286],[189,1636],[94,3154],[232,-146],[328,-2792],[145,-2326],[-3,-501],[109,-3232],[270,2361],[3,1518],[35,724],[583,7152],[116,-585],[283,439],[342,3335],[231,-1016],[121,292],[150,-473],[5,-362],[-32,-216],[9,-801],[-107,-2681],[-23,-1017],[14,-216],[-20,-223],[12,-1232],[49,-578],[-32,-216],[-9,-655],[-89,-654],[-76,-3043],[-40,-3050],[0,-1525],[32,-940],[-20,-362],[55,-655],[135,-4276],[206,-1963],[504,-9777]],[[984443,1017],[-11,-154],[-39,0],[50,154]],[[985484,6560],[-9,0],[0,76],[9,0],[0,-76]],[[985462,6964],[-16,-112],[49,362],[-33,-250]],[[985340,7542],[0,146],[11,-42],[-11,-104]],[[985594,7576],[-9,0],[0,70],[9,0],[0,-70]],[[985624,7973],[0,-139],[-22,104],[22,35]],[[985653,8844],[12,292],[23,-146],[-35,-146]],[[985322,9025],[-9,76],[4,35],[5,-111]],[[985287,9533],[0,-69],[-9,0],[0,69],[9,0]],[[986375,11204],[-9,70],[9,0],[0,-70]],[[986925,19616],[-9,0],[0,77],[9,0],[0,-77]],[[986996,19582],[21,-112],[-16,-181],[-5,293]],[[991438,49065],[-43,-139],[16,251],[27,-112]],[[992418,51934],[0,-146],[-10,35],[10,111]],[[993725,169494],[-383,7639],[284,-2215],[124,-2249],[288,-3663],[342,-2026],[79,327],[-16,690],[110,-147],[63,-327],[2,-801],[86,-759],[359,-439],[63,-578],[-58,1017],[-114,35],[49,146],[-27,543],[-35,-578],[-45,181],[-43,1519],[-61,369],[-11,647],[338,2542],[255,3774],[-26,578],[20,509],[-23,577],[-67,655],[9,940],[-20,439],[26,146],[60,-2103],[32,-223],[3,-794],[84,-1671],[-72,-285],[6,-516],[67,404],[28,-473],[36,-1414],[-39,-35],[-11,-654],[101,-509],[59,-1852],[-22,-181],[0,-940],[67,-70],[29,-724],[-9,-369],[32,-216],[58,-1741],[-20,-216],[66,-800],[249,-6602],[-178,-35],[-121,-2172],[-174,146],[85,-690],[-84,-362],[-111,-1420],[-69,0],[-128,-1010],[-87,578],[-73,-543],[68,251],[144,-725],[87,871],[81,-146],[168,1162],[46,-870],[-44,-397],[56,105],[16,-544],[-103,258],[-27,-404],[149,-613],[121,871],[139,-1456],[197,-285],[63,-871],[57,105],[-43,-362],[72,-362],[11,-794],[-72,-293],[84,-216],[72,-5445],[38,-648],[-20,-362],[55,-1525],[-5,-1998],[74,-3949],[12,-2834],[-21,-432],[26,-76],[-14,-502],[26,-654],[-16,-543],[23,-2034],[-29,-431],[-56,905],[16,543],[-19,836],[-143,320],[-35,731],[-132,467],[-8,1093],[-63,35],[-38,-181],[14,-216],[-26,-731],[66,-794],[3,-655],[52,-870],[121,-474],[57,585],[178,-1706],[-20,-76],[-1,-683],[-51,683],[-54,-1122],[-98,293],[-93,-1456],[-85,913],[15,1372],[-32,222],[-26,1518],[-115,913],[-110,-585],[-40,724],[-85,-543],[112,-648],[35,-1093],[-23,-1449],[-97,-759],[-27,467],[32,439],[-9,1232],[43,432],[-294,-104],[-98,292],[-22,251],[26,578],[-85,327],[-17,-292],[13,-683],[43,-439],[-72,-69],[-49,-1525],[-136,-947],[32,-432],[-15,-655],[156,-2757],[149,-759],[230,2068],[118,2430],[167,-585],[168,731],[104,-1455],[253,836],[-17,-794],[-85,-620],[-58,439],[-62,-474],[-87,-1455],[103,-397],[82,1560],[61,0],[20,-2396],[119,-724],[-109,-905],[-132,-251],[16,-473],[47,431],[114,-181],[23,-647],[-40,-731],[-39,550],[-41,-732],[-114,328],[-35,438],[33,975],[-29,732],[-104,-147],[-50,-1051],[124,285],[-3,-1232],[109,-1052],[-57,-473],[26,-940],[-113,-509],[9,-794],[-107,-292],[236,-2068],[75,292],[46,-438],[83,1559],[79,181],[110,1163],[47,-724],[62,467],[-67,292],[55,655],[-55,794],[-37,1963],[-38,-76],[20,292],[-11,794],[-38,508],[-55,2250],[-26,76],[16,543],[-27,975],[20,871],[-26,731],[26,578],[-32,1741],[66,-146],[-2,-1811],[15,-181],[-15,-689],[32,-801],[-3,-1233],[49,-1379],[26,-1956],[26,-216],[9,-1233],[55,-654],[-3,-655],[81,-2173],[26,-76],[-9,-362],[182,-3552],[-112,509],[-12,216],[26,578],[-55,76],[-69,1010],[50,543],[-162,-432],[-68,-759],[-12,-1671],[177,-1811],[-14,-1378],[25,-147],[76,1017],[-32,362],[39,327],[120,-619],[-39,-690],[51,-689],[-90,-578],[68,111],[27,-689],[-31,-146],[114,-181],[92,-871],[174,-146],[51,-689],[-55,-871],[103,397],[62,-613],[59,-1560],[28,544],[-44,285],[161,42],[172,-1490],[98,-1017],[160,-3259],[164,-2110],[-10,-2138],[34,-327],[5,-1811],[-91,-327],[-87,871],[-133,0],[-97,-1198],[-88,-2430],[-33,619],[20,362],[-45,759],[-266,0],[-294,-3224],[6,-947],[126,-905],[278,724],[-10,-397],[44,-35],[11,397],[-67,2250],[0,1525],[56,466],[120,-466],[-8,-1525],[49,-655],[-26,-794],[32,-223],[-15,-508],[26,-794],[-8,-947],[101,-1957],[14,-1525],[64,-1156],[485,-1197],[108,-1637],[12,-501],[-20,-293],[49,70],[17,-870],[-26,-725],[9,-508],[-90,-508],[0,-794],[205,-2103],[24,-1964],[-62,-759],[50,-620],[19,-975],[-39,-1344],[20,-654],[-68,-613],[-347,2033],[-45,-188],[68,-828],[313,-1602],[16,-543],[-12,-871],[-64,-724],[-178,-35],[-195,-2499],[55,-1672],[-26,-508],[-3,-1233],[-96,-1378],[9,-655],[-120,-1191],[-110,-292],[-353,1016],[-143,-1490],[-90,-1957],[-37,-215],[23,-1525],[176,-1957],[-97,-2577],[31,-1560],[72,-724],[-72,-1671],[14,-216],[-17,-439],[-161,-905],[-39,474],[9,793],[-73,370],[-20,1664],[-68,1344],[-584,2172],[-104,1017],[-388,1163],[-64,724],[-174,293],[-40,578],[-1007,4352],[-266,3189],[-556,585],[-654,1449],[-1047,-725]],[[992418,51934],[190,328],[-132,104],[-329,-613],[235,147],[-184,-544],[-278,0],[-440,-2179],[-52,292],[-208,-870],[41,-293],[120,544],[-570,-3552],[85,1121],[46,-146],[155,1198],[-234,-1017],[113,1455],[-80,-181],[1,397],[183,1672],[-62,689],[-99,-146],[-184,-1198],[-14,-1525],[-120,-1344],[24,-1121],[40,-474],[40,578],[85,-250],[-628,-4568],[-156,-1888],[-165,-3119],[-201,-1776],[-943,-3050],[-29,-578],[-949,-5515],[-399,-3189],[-41,438],[-35,-870],[-179,-146],[-64,-1017],[-39,35],[21,508],[-55,-70],[-70,1156],[16,836],[-16,251],[49,870],[-60,-285],[-35,-1672],[90,-1664],[-3,-1379],[26,-585],[-55,-1086],[14,-216],[-17,-439],[-104,-1594],[-109,-759],[-341,-2034],[-295,-870],[-376,-2758],[-18,0]],[[985624,7973],[28,328],[-21,362],[45,-105],[57,829],[-213,473],[-133,-724],[-83,1706],[-74,35],[-69,1017],[-58,-146],[-16,-251],[73,-947],[-9,-362],[206,-2827],[2,-509],[90,-654],[-6,-363],[-72,-800],[-9,-1233],[-39,-613],[-336,-2033],[-352,-1156],[-63,320],[-36,836],[-93,-139]],[[984443,1017],[120,264],[35,3294],[-198,2075],[-65,4346],[-224,2200],[-4,3419],[-114,2396],[-331,-968],[-189,1622],[25,4631],[-84,3795],[-290,2013],[211,3830],[253,2493],[-138,5257],[-243,2194],[-351,292],[-130,3022],[-301,1094],[-394,-1637],[-371,-578],[-883,-4269],[-356,-3272],[-281,-857],[-227,-2563],[-324,3308],[-518,2347],[-373,-961],[-168,-1922],[-452,-251],[-135,2939],[-335,1608],[-211,-1385],[-202,-2075],[-112,132],[-181,-2096],[-13,-1936],[-612,-1650],[-215,-2131],[-422,-1365],[57,3259],[-95,320],[-152,-2068],[-145,-474],[40,4276]],[[975699,35528],[181,1386],[618,6664]],[[998008,83271],[10,-112],[-26,0],[16,112]],[[997435,102713],[39,-689],[-43,-147],[-3,648],[-32,439],[39,-251]],[[997367,103764],[26,-731],[-72,439],[10,543],[36,-251]],[[997314,104454],[4,-112],[-14,0],[10,112]],[[997237,106007],[52,-794],[-89,870],[0,655],[37,-731]],[[997191,106808],[-9,69],[5,42],[4,-111]],[[997185,107100],[-4,-35],[-4,105],[8,-70]],[[996469,112142],[52,-871],[122,286],[-128,-1156],[-33,181],[-52,1448],[14,362],[-26,147],[28,327],[23,-724]],[[996677,113444],[33,-690],[-79,-466],[-39,466],[14,655],[-26,146],[68,328],[29,-439]],[[996590,123743],[5,-105],[-20,0],[15,105]],[[996603,124286],[15,-216],[-20,-146],[5,362]],[[996376,110832],[22,-250],[-32,0],[10,250]],[[996282,111376],[6,-216],[-14,0],[8,216]],[[996504,123165],[-35,-439],[-41,293],[41,438],[35,-292]],[[996411,147106],[10,-112],[-26,0],[16,112]],[[996358,149822],[-5,-112],[-4,42],[9,70]],[[996334,151131],[-8,-77],[0,77],[8,0]],[[996267,152614],[4,-104],[-15,0],[11,104]],[[996249,152906],[16,-111],[-26,0],[10,111]],[[996268,153380],[9,70],[5,-216],[-14,146]],[[996195,155044],[41,-794],[-32,-146],[-19,836],[-108,251],[17,577],[57,182],[44,-906]],[[996103,156716],[13,-35],[-22,-112],[9,147]],[[995756,125595],[-5,-111],[-4,42],[9,69]],[[995767,125741],[0,-76],[-9,0],[0,76],[9,0]],[[995728,154069],[10,-111],[-20,0],[10,111]],[[993327,177425],[-8,140],[6,-35],[2,-105]],[[995259,179598],[5,-105],[-9,0],[4,105]],[[995254,179890],[10,-111],[-15,0],[5,111]],[[995138,181917],[120,-1846],[-148,871],[-34,1957],[62,-982]],[[966957,306300],[-834,-2813]],[[958898,208330],[-255,1037],[-444,-1622],[-125,-2451],[118,-2765],[13,-3127],[-226,-1810],[-105,1016],[-51,2661],[-132,2451],[-177,2200],[-332,56],[-135,1783],[-969,6894],[-362,55],[-257,-2388],[-474,-209],[-223,2207],[-335,321],[-172,1580],[-309,-5396],[-294,-3454],[-297,592],[-139,-1108],[-14,-2430],[211,-2291],[15,-2771],[-1230,-558],[-231,1908],[-182,3092],[-170,1525],[-289,-111],[-1025,2535],[-559,4192],[-348,6288],[-267,7179],[-422,787],[-631,4833],[-625,1936],[-723,21],[-504,1615],[-511,5390],[-642,8934],[-102,5599],[-157,2688],[-780,1755],[-229,3698],[-431,1824],[-606,1393],[-736,3475],[-451,5278],[-19,9268],[47,7438],[192,5034],[514,7201],[33,2555],[-758,425],[-625,4018],[-102,3259],[-373,306],[-220,2953],[6,1692],[-117,2911],[330,2326],[105,4526],[200,3753],[288,3447],[-28,3406],[184,3690],[422,2382],[-56,2402],[-442,5543],[117,6442],[-95,4310],[-843,4143],[-484,759],[-173,3127],[-216,996],[-147,2918],[-513,1601],[-82,1985],[47,3301],[31,4742],[-325,5703],[-58,6358],[114,4115],[29,5327],[447,1024],[351,-571],[383,1602],[151,2486],[-26,1357],[-351,1762],[-154,3614],[413,5077],[13,3328],[230,5801],[509,3482],[603,216],[423,-808],[441,4443],[365,1580],[271,2654],[85,-467],[150,-2012],[280,-105],[157,1093],[431,-1859],[187,4171],[213,2138],[285,683],[2071,-1978],[594,2235],[877,7382],[394,842],[1712,-4839],[1047,-4520],[225,3524],[-20,5828],[161,2744],[-34,6699],[340,1915],[-41,2980],[137,3273],[-314,2235],[-35,3970],[345,2047],[270,4345],[-147,2159],[-137,3350],[-476,1678],[-168,2834],[69,7590],[116,2814],[556,1135],[-14,2033],[-828,9394],[30,3266],[-65,2012],[-355,1581],[103,3517],[-290,3767],[275,1184],[51,2277],[155,2911],[-34,2855],[81,1246],[0,627],[-17,870],[-49,439],[68,-111],[75,-1017],[168,-139],[13,-690],[102,-912],[28,111],[-96,801],[-5,648],[120,42],[52,724],[110,285],[139,-431],[249,-2034],[387,0],[133,1309],[562,1449],[220,1594],[202,439],[156,0],[452,-2179],[526,-147],[446,1017],[224,1776],[119,1963],[78,509],[-20,216],[102,327],[323,-620],[29,-801],[-49,-362],[12,-362],[118,-139],[-159,-508],[29,-509],[136,509],[14,-947],[212,-2103],[-3,-509],[494,-3551],[-45,-543],[128,0],[370,-1888],[695,-1309],[376,293],[619,1741],[27,-35],[-37,-293],[10,-250],[174,578],[648,-1309],[833,146],[353,-1156],[405,-2180],[388,-1163],[752,-724],[591,1309],[39,-473],[-246,-578],[21,-543],[80,396],[13,-396],[-29,-871],[-68,320],[-42,1129],[-110,-293],[-16,-251],[28,-327],[52,-292],[-45,689],[56,42],[57,-620],[-38,-362],[125,-362],[-219,-690],[260,293],[40,466],[-26,293],[11,801],[103,613],[214,-1163],[173,438],[145,-292],[10,-251],[-39,-327],[29,-578],[29,578],[116,0],[214,1163],[336,2695],[815,-7061]],[[965143,530960],[-18,-3322],[-333,-4074],[-494,-4234],[-655,-9533],[178,-3823],[332,-1392],[335,-2326],[164,-3886],[294,-5362],[243,-7305],[-97,-3314],[-385,-2946],[-229,-2702],[-258,-4575],[161,-2521],[-377,-2952],[127,-4958],[539,-4464],[394,-2305],[436,313],[312,2069],[-144,-5509],[-8,-2075],[-284,-3050],[-498,-4289],[-210,-3482],[149,-6260],[264,-2090],[44,-2611],[185,-2576],[354,34],[289,-2625],[58,-2138],[245,-1859],[343,-91],[141,-3593],[110,-1977],[405,-3837],[447,-871],[234,-3607],[357,-2939],[296,195],[761,3705],[192,-780],[249,-3349],[453,-2431],[352,-160],[119,-3064],[245,-1309],[628,850],[134,1525],[244,-1268],[209,-2458],[356,251],[-1,-2082],[-112,-2257],[210,-2019],[285,-1713],[145,-1699],[39,-3572],[388,-1303],[42,-2667],[311,-111],[326,-3524],[509,-1859],[225,-2952]],[[956793,543014],[-10,250],[49,-146],[-39,-104]],[[965143,530960],[-814,7082],[206,1232],[-27,508],[466,4283],[96,1379],[49,-77],[12,223],[-26,286],[604,5877],[21,654],[101,509],[48,975],[81,585],[544,0],[104,-1163],[212,-620],[3,-508],[44,-362],[-44,-286],[21,-731],[-21,-502],[38,-76],[-9,-362],[90,-2034],[-143,836],[-86,-759],[-101,-1818],[-79,258],[-34,-397],[508,-4826],[365,-1448],[85,-1058],[-55,-2027],[26,-439],[0,-1956],[-61,-1665],[9,-508],[-43,-655],[14,-508],[-27,-473],[-92,34],[102,-215],[0,-509],[-44,-654],[3,-1372],[-26,-223],[15,-432],[-15,-216],[20,-76],[-14,-1811],[20,-146],[-20,-439],[20,-69],[12,-1017],[-9,-1379],[20,-69],[-8,-363],[84,-2395],[-3,-508],[26,-216],[-21,-509],[38,-69],[20,-801],[99,-1163],[455,-905],[649,-146],[40,-578],[492,-2180],[133,-1595],[323,-2068],[94,-1414],[347,-870],[294,404],[-3,-508],[52,-732],[109,-466],[-11,-258],[44,-362],[75,-3335],[20,-3844],[26,-439],[-17,-1156],[-90,-1818],[-6,-647],[32,-508],[-22,-982],[14,-564],[60,-927],[73,-2242],[241,-1344],[145,-1448],[376,-293],[602,1449],[69,-286],[81,724],[232,-146],[295,871],[371,2465],[235,-2215],[18,-654],[-38,-362],[20,-286],[-14,-508],[218,1121],[17,585],[74,-1344],[-3,-655],[159,-1810],[-2,-655],[137,-620],[-120,836],[130,439],[-170,362],[-9,1086],[-55,216],[-93,2472],[107,216],[-288,613],[0,439],[-23,-439],[-104,146],[-131,1267],[391,1929],[359,3768],[80,-1052],[-44,-2249],[38,-70],[-14,-216],[43,-947],[-16,-181],[19,-759],[45,105],[74,-906],[-9,-362],[55,-940],[-32,-585],[16,-250],[45,975],[-49,800],[2,1087],[-141,1887],[55,216],[-26,654],[39,620],[58,-585],[102,258],[-130,654],[-127,2103],[201,613],[46,724],[52,-146],[2,404],[166,1344],[132,613],[-3,508],[124,655],[32,794],[96,654],[14,940],[68,766],[68,105],[-20,-1233],[56,-759],[203,1163],[103,35],[-45,250],[108,-181],[-259,328],[-36,-836],[-32,0],[-23,293],[-9,1086],[-55,947],[21,432],[-21,362],[61,1379],[-12,1232],[-150,2758],[-234,1232],[72,1595],[-9,508],[55,1671],[-20,216],[33,620],[-15,613],[14,223],[-20,216],[14,2103],[-95,1810],[14,223],[-20,70],[-3,793],[-124,1818],[3,655],[-92,905],[-104,-293],[-56,906],[0,2103],[27,1636],[-21,181],[8,1086],[-199,1525],[0,1957],[20,578],[-20,77],[-21,1664],[-49,1233],[15,222],[-58,871],[-143,1776],[-186,870],[-399,-292],[-336,-1156],[-208,146],[-126,905],[29,2249],[73,1087],[25,1086],[155,2068],[120,35],[-55,293],[35,800],[288,1484],[330,146],[249,2172],[73,42],[-84,871],[-25,1518],[-67,801],[12,1671],[25,216],[-20,285],[9,3120],[-46,1163],[-90,940],[44,1017],[-27,508],[51,1344],[-17,1448],[45,1491],[-27,647],[102,1379],[-20,146],[20,585],[-20,216],[55,362],[-44,1163],[44,362],[-73,1017],[99,1594],[293,-543],[2,-550],[37,-69],[-32,-147],[12,-362],[39,-181],[463,724],[62,-34],[-49,-147],[16,-397],[353,432],[184,-1198],[-67,0],[10,-397],[226,293],[359,-1309],[301,585],[357,-1490],[-39,-397],[110,146],[127,-871],[232,0],[324,-1309],[144,0],[-44,-181],[44,-397],[394,-870],[365,-146],[86,-578],[243,146],[76,-731],[341,-1156],[561,0],[417,1448],[115,-1344],[-9,-362],[20,-285],[-38,-585],[58,-1156],[357,-2215],[174,-1741],[295,-1448],[352,-42],[-61,-362],[90,-362],[92,-1525],[-211,-940],[0,-940],[103,-766],[133,292],[-6,-724],[203,1595],[46,-578],[85,397],[-15,-544],[208,578],[143,1706],[-124,655],[49,724],[-20,146],[8,363],[-114,181],[4,397],[-89,508],[3,654],[-316,1811],[67,801],[-67,-77],[9,509],[-68,619],[-155,-1344],[-52,-870],[20,-216],[-46,-1163],[-49,146],[52,1811],[121,1455],[184,1191],[532,877],[60,-1128],[139,-1302],[205,-1093],[-33,-689],[69,438],[167,-759],[-271,-174]],[[982279,561084],[-371,-2347],[242,460],[122,-808],[62,-2249],[356,-836],[42,-821],[-135,-1149],[167,-1240],[-291,-1553],[48,-2813],[272,-10055],[106,-6156],[539,-3162],[461,-8565],[252,-2695],[937,-5564],[144,-3962],[-183,-3308],[-317,-3064],[-741,-4721],[-242,-2911],[80,-4923],[509,-5641],[149,-2792],[95,-5181],[-50,-4735],[-219,-1825],[-9,-3147],[-124,-3022],[-236,-3538],[-482,-1991],[-39,-4596]],[[983423,452174],[188,-3385]],[[974131,490640],[45,-689],[-96,940],[51,-251]],[[974530,499052],[22,112],[-10,-258],[-12,146]],[[975022,505584],[5,-111],[-9,0],[4,111]],[[972464,486574],[12,-140],[-16,35],[4,105]],[[973580,487632],[-96,-585],[49,585],[-4,397],[51,-397]],[[972464,549685],[0,-1017],[-87,0],[-52,578],[70,731],[69,-292]],[[972939,549977],[68,-111],[-78,0],[10,111]],[[973797,556760],[16,35],[0,-147],[-16,112]],[[973790,576669],[28,-147],[-28,-146],[0,293]],[[973871,577685],[23,0],[-34,-111],[11,111]],[[973836,578409],[4,-111],[-14,0],[10,111]],[[973795,577107],[10,-111],[-14,0],[4,111]],[[973778,578409],[68,-981],[-91,-759],[-104,0],[-203,578],[-39,766],[369,396]],[[967366,546495],[1,-689],[26,-292],[-68,-328],[-85,474],[67,431],[-26,439],[16,397],[69,-432]],[[966920,547366],[5,-112],[-15,7],[10,105]],[[966868,551572],[5,-112],[-15,0],[10,112]],[[966170,555158],[14,0],[6,-216],[-15,0],[-5,216]],[[965983,555632],[4,-105],[-14,0],[10,105]],[[966093,555778],[56,-112],[-66,0],[10,112]],[[968142,571738],[80,0],[-10,-257],[161,-1337],[318,-731],[116,-871],[775,-1448],[22,-251],[-61,0],[44,-508],[-3,-509],[213,-2214],[266,-146],[156,-1163],[168,-286],[259,-1344],[52,-1302],[-9,-1093],[32,-578],[-26,-871],[20,-146],[-81,-1595],[-66,-362],[27,-543],[-40,-724],[-272,139],[-41,439],[-45,-474],[23,-940],[90,-947],[-136,-1156],[90,-1455],[-10,-975],[27,-327],[-14,-146],[14,-1957],[-173,-4060],[-145,-2033],[-473,689],[-284,-724],[-851,2611],[-98,871],[-127,139],[-313,1887],[-167,439],[-342,2319],[-127,146],[-207,2360],[20,502],[-20,654],[14,216],[-20,147],[26,76],[0,655],[-27,320],[-498,2611],[-220,439],[-195,1344],[416,7326],[253,2500],[74,34],[35,439],[-9,509],[178,1629],[255,1163],[174,-146],[79,473],[-16,251],[128,-293],[231,871],[29,-578],[41,578],[23,-432],[197,146]],[[966068,556251],[-39,-181],[-10,251],[49,-70]],[[972851,554295],[-122,-2542],[-161,-1776],[-27,35],[3,508],[-62,906],[-214,292],[-51,613],[80,982],[208,1163],[363,397],[-38,-293],[21,-285]],[[970455,563431],[11,146],[12,-362],[-23,216]],[[969982,566369],[306,-1309],[139,-1156],[-81,0],[-173,1156],[-145,0],[-103,1198],[57,111]],[[969843,566801],[79,-397],[-137,-473],[-120,620],[16,396],[162,-146]],[[969738,565931],[18,146],[10,-251],[-28,105]],[[968176,572024],[4,-105],[-8,0],[4,105]],[[22050,255654],[27,-35],[-11,-146],[-16,181]],[[22500,255619],[33,-111],[-224,-327],[-161,543],[311,-251],[0,578],[41,-432]],[[22429,255724],[-14,-70],[4,112],[10,-42]],[[22627,255905],[28,-105],[-38,0],[10,105]],[[23222,257834],[-9,0],[0,69],[9,0],[0,-69]],[[21931,260877],[-8,0],[0,76],[8,0],[0,-76]],[[22007,261023],[-9,0],[0,70],[9,0],[0,-70]],[[24184,274769],[22,105],[-32,-362],[10,257]],[[20231,269254],[16,-111],[-26,0],[10,111]],[[20638,269435],[28,112],[-12,-293],[-16,181]],[[20461,256511],[-675,-3956],[-133,-3913],[-226,-4708],[-406,-3662],[-440,-1686],[-149,-1267],[-28,-2451],[-130,-3329],[-128,-696],[-206,2200],[4,3273],[-73,3078],[235,3956],[-102,4387],[194,4777],[-63,2270],[-106,-1073],[-66,-1908],[-101,-334],[-46,1922],[99,3816],[128,9387],[-54,3844],[-194,1351],[-354,-2479],[-222,3342],[100,3775],[-151,3300],[-294,933],[-97,1310],[160,11002],[-110,4582],[-122,-766],[-155,-2632],[-374,-1783],[-149,-1671],[36,-5237],[-17,-4373],[-267,-4331],[-194,-2201],[98,-3008],[174,-627],[238,98],[-138,-3162],[-310,-1936],[-368,-961],[-203,-2674],[-87,-2938],[-226,-3022],[-176,0],[-99,2562],[-301,627],[66,2771],[-212,1811],[62,3245],[-67,2228],[-422,-264],[-71,2214],[-290,2117],[-94,2827],[252,3956],[51,5278],[-324,2242],[-45,2145],[-172,488],[-242,-975],[182,3189],[100,5696],[830,5710],[64,2869],[-50,7688],[-77,5320],[69,2591],[180,3551]],[[13977,326216],[49,3162]],[[14026,329378],[-42,6713],[14,1998]],[[13998,338089],[63,-543],[9,-648],[142,-654],[63,-1163],[-11,-794],[-165,-1525],[16,-251],[69,578],[353,-146],[110,870],[75,-146],[74,-327],[48,-829],[139,-438],[191,-1888],[220,-724],[50,-620],[-14,-1518],[112,-2179],[-131,-327],[16,-251],[-73,-801],[27,-139],[-9,-509],[20,-438],[-32,-655],[15,-794],[-32,-76],[22,-1121],[-22,-544],[32,-800],[-22,-544],[220,-1887],[-213,-1267],[38,-216],[-15,-223],[38,-647],[-20,-1094],[95,-216],[23,-292],[-4,-543],[97,327],[-33,689],[69,-724],[120,-111],[-43,508],[72,216],[64,1602],[-32,285],[-3,1379],[-20,362],[23,508],[107,947],[-3,509],[46,870],[219,906],[7,689],[49,362],[12,801],[-55,1086],[3,509],[-96,69],[-23,940],[120,-828],[382,1156],[126,-759],[52,-871],[-43,-870],[26,-655],[-55,-508],[32,-1156],[-9,-655],[130,-1671],[-6,-1811],[-68,-34],[-155,-1491],[-51,-2319],[26,-870],[-18,-801],[-120,-905],[97,-35],[36,-1413],[28,181],[-16,543],[97,-35],[5,-369],[-118,-1010],[62,-35],[149,-1420],[-22,404],[16,250],[-95,509],[38,724],[-9,654],[95,655],[78,2103],[333,2103],[-114,975],[-93,-139],[-68,1121],[63,620],[138,-439],[259,1051],[-32,362],[61,216],[36,982],[-21,327],[20,363],[-32,1162],[84,2034],[-12,724],[-60,362],[9,509],[-24,285],[-234,947],[0,794],[66,439],[-95,216],[-70,1309],[11,250],[-353,439],[-99,871],[-202,0],[-86,466],[-18,1414],[-68,-35],[-100,-1706],[-16,404],[37,1156],[-120,41],[-17,286],[16,258],[-67,647],[73,731],[18,829],[22,-181],[-20,-362],[97,-1198],[145,439],[114,1198],[14,1378],[22,181],[-74,-34],[392,3224],[127,292],[18,-439],[68,35],[-72,585],[49,286],[-12,223],[-68,-112],[-79,1198],[-18,801],[21,285],[-27,77],[21,940],[-32,508],[26,1957],[-28,766],[28,829],[-55,654],[20,947],[-37,940],[-44,2974],[-142,2827],[34,1706],[-81,3189],[102,690],[-270,-397],[-87,724],[-104,0],[-74,-327],[-7,-829],[-45,181],[9,648],[-16,181],[-68,-689],[-6,362],[125,1239],[24,975],[-22,474],[21,146],[-12,362],[-55,654],[55,578],[-6,509],[-56,473],[-666,-2179],[-97,111],[149,1191],[81,292],[41,-431],[22,250],[-49,293],[91,759],[347,146],[-16,251],[294,1058],[1197,-438],[167,759],[30,1706],[80,-181],[35,-432],[-10,-258],[1537,-3809],[-37,-648],[49,-1016],[-45,-327],[-28,473],[9,501],[-79,42],[10,251],[-28,327],[-68,-327],[21,-362],[-34,-328],[-110,1017],[-162,0],[-27,474],[79,543],[-254,724],[-39,-397],[68,-473],[63,292],[28,-473],[17,-1233],[-32,-77],[6,-647],[271,-620],[56,-1121],[-33,-620],[-91,181],[-24,439],[17,397],[-220,-578],[-122,-1741],[-81,1156],[-155,-613],[74,-982],[156,293],[33,-620],[-10,-397],[-139,146],[-62,-1413],[172,689],[8,-689],[66,-655],[-20,-508],[38,-146],[-67,-363],[-11,-793],[112,-1456],[-101,-647],[-6,-947],[44,-578],[-73,-725],[29,-731],[109,-613],[34,432],[342,0],[166,1344],[-20,724],[32,293],[-12,362],[-149,35],[-108,766],[101,1156],[-6,654],[-46,578],[-138,181],[-5,-724],[-45,543],[176,1233],[8,1706],[-16,543],[20,292],[-38,216],[12,509],[184,619],[75,871],[27,-404],[-49,-940],[26,-724],[-9,-509],[18,-724],[49,-223],[25,-1267],[225,-1017],[336,-139],[35,-585],[301,-870],[86,585],[213,-112],[12,508],[-50,363],[38,431],[-21,836],[92,0],[116,-1449],[104,0],[191,871],[75,-293],[-27,397],[172,1198],[-46,871],[-76,0],[-202,1887],[-214,1016],[-487,871],[-121,-293],[-376,1741],[-266,-578],[-68,474],[14,794],[-51,327],[29,578],[336,-578],[-16,-397],[33,-181],[51,35],[-45,397],[64,0],[81,-871],[108,474],[-68,257],[81,140],[13,-543],[150,-906],[370,-1302],[179,0],[261,-877],[21,257],[-205,1163],[207,-404],[155,-612],[-97,-544],[468,-1455],[539,-432],[-28,-181],[28,-543],[329,1302],[39,328],[12,508],[-26,146],[28,181],[79,-620],[-9,-508],[102,-501],[-132,-404],[145,-146],[52,438],[81,-438],[75,585],[324,-1163],[62,-613],[42,-1421],[-206,-1922],[72,-1009],[-21,-293],[18,-508],[254,-2904],[264,-1664],[-16,-258],[52,146],[185,-1302],[195,-620],[24,-870],[-12,-362],[-119,-655],[9,-362],[-32,-724],[44,-1087],[-21,-146],[26,-585],[-14,-216],[110,-2026],[205,-1525],[350,-3990],[404,-2646],[69,-1163],[196,-1052],[205,-2827],[321,-2395],[267,-3628],[3,-655],[83,-940],[4,-655],[517,-2534],[-165,-871],[-8,-801],[-39,-612],[-22,34],[14,1087],[-50,34],[-7,-543],[-107,-800],[66,-648],[-61,-655],[3,-1086],[-39,-766],[-110,870],[-166,-34],[130,-871],[-84,0],[38,-146],[3,-648],[114,-327],[19,543],[50,35],[24,-724],[7,543],[136,1233],[-9,362],[29,438],[142,940],[-3,509],[119,69],[-9,801],[45,474],[81,-585],[69,724],[191,0],[12,-578],[85,-181],[133,-2033],[-8,-362],[34,-871],[90,-794],[-9,-362],[32,-223],[-9,-501],[21,-223],[-32,-648],[55,-1093],[-190,-835],[-87,1016],[-69,146],[4,-689],[-26,77],[-8,-947],[-32,-70],[29,-508],[264,-1198],[80,759],[-4,689],[137,42],[-124,578],[85,689],[313,-2033],[339,-327],[-112,-578],[37,0],[3,-655],[34,-181],[23,293],[-16,397],[61,76],[-9,794],[149,905],[293,-1922],[18,-431],[-9,-801],[32,-362],[-9,-794],[44,-1379],[-32,-146],[-26,-1964],[-58,-1010],[-61,-76],[32,-286],[-6,-801],[-56,-905],[-278,286],[-91,1058],[-9,794],[-85,759],[-318,-285],[16,396],[-22,35],[-33,-466],[15,-404],[-438,-2068],[-37,-1665],[-114,-654],[-88,-1414],[-173,-292],[-133,-1010],[-91,104],[8,-654],[-194,-1957],[-84,-1810],[-101,-655],[-59,-982],[-80,-35],[-11,-362],[16,-181],[179,146],[-39,544],[45,327],[79,-905],[-8,-363],[60,-1817],[-130,-1741],[-34,-1156],[49,-585],[-49,-870],[11,-801],[55,-362],[12,-578],[-32,-724],[27,-544],[-21,-257],[26,-70],[-32,-801],[49,-940],[-38,-438],[15,-1087],[-78,-216],[-32,-1671],[-109,-1337],[-138,-292],[-579,1448],[-28,258],[44,724],[-86,1051],[-827,3628],[-2,836],[-34,871],[-186,3043],[-101,362],[-26,654],[-165,1087],[-204,2284],[-93,292],[-62,-473],[68,-975],[91,-42],[-31,-1233],[101,-2534],[-9,-362],[368,-2542],[-109,473],[-69,-292],[1,-543],[73,-794],[-44,-146],[23,-801],[63,111],[68,-905],[69,-1163],[3,-947],[201,-35],[237,-1163],[120,-905],[3,-1086],[58,-1017],[101,-216],[-37,-870],[60,-871],[-11,-1525],[-20,-69],[8,-801],[-31,-648],[8,-1239],[-149,-2208],[-87,0],[-133,1302],[-121,147],[-83,1413],[-259,1490],[-497,-1163],[-469,147],[-214,-1017],[-45,181],[38,439],[-22,543],[-29,-585],[-52,585],[-214,432],[-353,-286],[-157,2173],[-225,439],[-18,431],[-73,-327],[43,-508],[-132,-1198],[-68,327],[21,362],[-22,474],[-207,-112],[90,732],[46,870],[12,940],[-281,2681],[-6,362],[49,369],[8,543],[57,-585],[40,258],[-55,362],[49,432],[-18,508],[-143,1344],[-33,-35],[20,-947],[-39,-181],[-56,328],[-25,982],[-179,724],[-261,-871],[-35,871],[-85,-397],[15,794],[-51,473],[-116,-870],[-185,0],[-191,-1017],[-143,689],[131,-1121],[191,286],[132,-467],[23,-292],[-11,-509],[-61,-793],[-23,-947],[79,-906],[116,-585],[209,585],[426,-2792],[-61,-724],[-35,-1470]],[[21106,260208],[-184,-2082]],[[20922,258126],[-95,1497],[-366,-3112]],[[21636,359349],[12,-111],[-26,0],[14,111]],[[27215,304476],[-14,-77],[4,112],[10,-35]],[[26798,313250],[-8,0],[0,70],[8,0],[0,-70]],[[26771,313647],[16,-251],[-26,0],[10,251]],[[22151,358075],[-8,0],[0,76],[8,0],[0,-76]],[[16694,307589],[-8,0],[0,76],[8,0],[0,-76]],[[16752,308898],[-9,0],[0,69],[9,0],[0,-69]],[[16787,309114],[-5,-105],[-10,35],[15,70]],[[16771,310604],[45,-258],[-102,-654],[-1,-544],[-39,112],[-2,-543],[-62,759],[86,1128],[75,0]],[[16821,310708],[-14,-69],[4,111],[10,-42]],[[16781,310855],[-4,-105],[-11,35],[5,104],[10,-34]],[[16839,310855],[-15,-70],[5,104],[10,-34]],[[16758,311070],[-9,0],[0,77],[9,0],[0,-77]],[[15554,312087],[-8,0],[0,77],[8,0],[0,-77]],[[15629,312742],[-14,-77],[4,111],[10,-34]],[[15728,312811],[-9,0],[0,77],[9,0],[0,-77]],[[15571,315499],[-4,-111],[-10,35],[14,76]],[[15677,315388],[-27,257],[89,286],[-62,-543]],[[15574,324635],[27,-215],[-15,0],[-12,215]],[[15955,327282],[16,-251],[-26,0],[10,251]],[[16231,332330],[-4,-111],[-10,35],[14,76]],[[16885,338416],[-14,-69],[4,111],[10,-42]],[[16904,339182],[22,-257],[-27,0],[5,257]],[[18685,349085],[-9,0],[0,69],[9,0],[0,-69]],[[19201,351654],[11,-104],[-26,0],[15,104]],[[16301,334141],[28,69],[-43,-215],[15,146]],[[16347,334357],[-5,-112],[-10,42],[15,70]],[[15017,364572],[5,-112],[-38,0],[33,112]],[[15207,364606],[-182,-292],[27,689],[110,-146],[0,439],[103,111],[-58,-801]],[[19171,351696],[-9,0],[0,70],[9,0],[0,-70]],[[19200,362866],[-9,0],[0,69],[9,0],[0,-69]],[[19168,363374],[28,-112],[-29,-285],[1,397]],[[19131,363659],[-15,-69],[4,111],[11,-42]],[[15637,366598],[-180,0],[22,-251],[-120,-327],[-10,397],[66,0],[-91,327],[-185,-431],[56,-544],[-143,-181],[-39,-327],[20,-369],[-21,-181],[-70,-139],[-21,466],[63,1233],[74,327],[336,439],[237,0],[6,-439]],[[15334,365909],[-66,-432],[33,836],[33,-404]],[[15265,366201],[-9,0],[0,70],[9,0],[0,-70]],[[15735,367037],[4,-112],[-84,0],[80,112]],[[22632,358367],[-9,0],[0,77],[9,0],[0,-77]],[[21800,358910],[4,-104],[-32,0],[28,104]],[[21724,359056],[5,-111],[-38,0],[33,111]],[[21678,359203],[10,-112],[-26,0],[16,112]],[[21597,359495],[10,-111],[-84,216],[74,-105]],[[21469,359746],[-5,-112],[-10,42],[15,70]],[[21493,359781],[4,-105],[-14,0],[10,105]],[[21326,360219],[21,-111],[-32,0],[11,111]],[[21301,360324],[-9,-70],[0,77],[9,-7]],[[21204,360651],[56,-251],[-39,-327],[-68,690],[51,-112]],[[20671,362100],[91,-397],[-160,-181],[-62,835],[131,-257]],[[19398,361814],[-62,397],[78,292],[6,-508],[-22,-181]],[[20197,363409],[299,-982],[-184,111],[-189,982],[74,-111]],[[20109,363659],[-15,-69],[4,111],[11,-42]],[[19871,363736],[-9,0],[0,70],[9,0],[0,-70]],[[20080,363736],[-9,0],[0,70],[9,0],[0,-70]],[[999692,221672],[-4,111],[9,0],[-5,-111]],[[990028,387384],[962,1644]],[[990990,389028],[229,-613],[258,-1922],[440,-1017],[174,-1253],[264,-223],[743,3914],[645,2576],[537,515],[255,-431],[97,-1337],[645,-126],[482,-3008],[326,-1058],[420,1838],[238,-279],[160,-1545],[1496,3175],[711,2869],[349,2862],[540,2430]],[[999999,396395],[-6,-172112],[-58,293],[-357,-2215],[-266,-4066],[-3,-794],[-120,-1484]],[[18905,170643],[-9,0],[0,69],[9,0],[0,-69]],[[19524,183769],[-4,-111],[-11,41],[15,70]],[[19553,183846],[-9,0],[0,69],[9,0],[0,-69]],[[19634,184424],[-9,0],[0,69],[9,0],[0,-69]],[[18592,174556],[-8,0],[0,77],[8,0],[0,-77]],[[14554,206296],[92,-982],[-57,-619],[-52,292],[-45,1414],[62,-105]],[[14414,206477],[-9,0],[0,70],[9,0],[0,-70]],[[14351,206763],[-9,0],[0,76],[9,0],[0,-76]],[[19606,184535],[-34,-146],[-10,397],[44,-251]],[[19745,186130],[11,-112],[-27,0],[16,112]],[[19502,210064],[-50,257],[84,578],[-6,-801],[-28,-34]],[[19844,210649],[10,-112],[-26,0],[16,112]],[[19954,210934],[16,-104],[-26,0],[10,104]],[[19758,211192],[49,-362],[-50,-42],[1,404]],[[19744,211115],[-9,0],[0,77],[9,0],[0,-77]],[[21445,181959],[-8,0],[0,69],[8,0],[0,-69]],[[21214,185802],[-15,-76],[5,111],[10,-35]],[[20370,197153],[116,293],[151,-732],[63,732],[168,146],[109,-1344],[5,-801],[-137,-1483],[-46,432],[-23,-432],[-59,432],[-323,-147],[-51,328],[-3,1093],[-23,285],[-103,-250],[-23,431],[110,2034],[69,-1017]],[[20693,200523],[-9,0],[0,77],[9,0],[0,-77]],[[20729,200635],[5,-112],[-21,0],[16,112]],[[21157,210649],[278,-293],[151,-1595],[387,-2179],[74,-1121],[-172,104],[0,-724],[-313,-432],[-180,-1998],[-144,-759],[-237,146],[-174,-585],[-40,-578],[-75,432],[-62,-321],[27,-404],[-23,-285],[-201,905],[23,1086],[90,1233],[31,1818],[165,2249],[58,1156],[9,801],[120,181],[150,1302],[58,-139]],[[20109,209959],[-9,0],[0,70],[9,0],[0,-70]],[[20728,215544],[0,-77],[-9,0],[0,77],[9,0]],[[21515,181596],[46,-800],[-120,397],[29,870],[45,-467]],[[21790,231066],[21,35],[10,-251],[-31,216]],[[21538,237375],[-9,0],[0,69],[9,0],[0,-69]],[[21599,238176],[45,466],[15,-327],[-15,-543],[-51,41],[6,363]],[[20398,237737],[0,-70],[-9,0],[0,70],[9,0]],[[21370,251372],[-14,-70],[4,111],[10,-41]],[[21401,251413],[10,-111],[-27,0],[17,111]],[[21661,251267],[10,-111],[-14,0],[4,111]],[[21538,251880],[40,77],[-10,-258],[-30,181]],[[21902,254206],[61,1810],[26,0],[-87,-1810]],[[21561,255508],[3,1233],[43,146],[24,-724],[-70,-655]],[[14339,207417],[0,-69],[-9,0],[0,69],[9,0]],[[14003,209451],[0,-77],[-9,0],[0,77],[9,0]],[[12564,213984],[10,-111],[-20,0],[10,111]],[[11273,245606],[4,-105],[-8,0],[4,105]],[[11063,249672],[110,-912],[19,-682],[-22,-404],[21,-432],[-61,432],[-110,2103],[43,-105]],[[20461,256511],[368,3119],[93,-1504]],[[21106,260208],[18,-926],[252,-3266],[17,-508],[-33,-467],[-266,578],[-115,-905],[137,-724],[14,-1240],[142,-1232],[8,-509],[306,-320],[46,432],[-16,-543],[68,-474],[45,620],[-55,578],[55,432],[-38,654],[107,-431],[-34,-1379],[-32,-216],[-38,-2103],[-32,-77],[20,-146],[0,-794],[-60,-1817],[0,-1665],[107,-1093],[-39,-1553],[27,-550],[-40,-578],[-57,-327],[-214,1017],[-335,-147],[-70,-724],[-92,293],[-180,-725],[-1,543],[-51,321],[-197,585],[-172,-1344],[-11,-1087],[25,-438],[-31,-286],[91,-473],[104,870],[116,-1448],[115,-293],[186,871],[295,-578],[353,578],[120,-1052],[20,-1525],[107,-2103],[-4,-543],[-97,258],[-70,-1456],[96,-1163],[3,-940],[45,-905],[-22,-397],[161,-42],[1,550],[78,432],[-92,-2542],[-252,-2388],[-3,-655],[-121,-2465],[-229,-1525],[-111,-1413],[-162,-871],[-238,1449],[-191,0],[203,-578],[-22,-690],[72,-438],[-108,-35],[-174,-1741],[-173,-724],[-83,-1414],[-178,-1490],[-40,585],[-220,431],[-156,1017],[-209,-146],[-191,-1887],[-97,-181],[-23,-1087],[78,-362],[19,-543],[-13,-404],[-103,-905],[-247,-759],[27,-1414],[93,578],[104,-292],[167,1058],[101,1957],[153,1086],[26,1087],[125,146],[-55,-1233],[149,251],[24,-829],[119,-508],[12,-223],[-55,-139],[205,-1379],[35,-947],[-52,-1302],[-90,-362],[55,0],[0,-655],[-177,70],[-17,-794],[39,-1051],[-19,-690],[-392,-759],[-282,-2361],[155,-689],[25,689],[131,906],[70,-724],[86,1448],[87,-870],[132,-328],[-84,-1156],[-49,-1379],[-78,-654],[-26,-1379],[-154,-1448],[97,-474],[151,439],[21,689],[-101,286],[61,362],[8,801],[121,759],[185,292],[156,-578],[30,-1413],[254,-181],[50,-474],[3,-947],[80,-759],[145,-146],[104,-725],[183,112],[18,-871],[-26,-438],[20,-146],[-9,-509],[50,-647],[2,-947],[61,-216],[-78,-509],[148,-801],[52,-1232],[-57,-467],[-53,975],[-63,42],[-67,-912],[21,-1268],[-48,-1413],[-178,-1344],[-289,-871],[-185,1310],[-178,466],[49,2542],[-81,1448],[-38,77],[-11,1664],[14,146],[-37,801],[14,940],[-73,35],[-24,-724],[-463,-432],[-45,-620],[3,-508],[-112,-655],[-58,-1232],[72,-216],[-49,-508],[68,-328],[52,725],[139,0],[75,1016],[22,-34],[-5,-544],[105,578],[125,-466],[41,-1163],[12,-1086],[-73,-1233],[20,-362],[-31,-1741],[56,-912],[-74,-2354],[16,-404],[-19,-1267],[-172,-613],[39,836],[-136,1810],[23,1957],[32,655],[-39,1121],[46,1309],[-28,292],[-92,-1782],[21,-940],[-32,-1087],[10,-689],[-35,-1887],[60,-1999],[55,-794],[-24,-947],[-264,-35],[-186,-1302],[-220,432],[-41,836],[-90,508],[26,146],[-22,397],[-69,-146],[-120,766],[43,578],[-3,1086],[90,1818],[6,940],[-38,508],[32,724],[-16,258],[-85,-1059],[-26,-1664],[-32,-69],[-9,-801],[-78,-1087],[20,-369],[-32,-139],[21,-292],[-92,-35],[-23,870],[8,1414],[55,1525],[-26,1086],[83,-216],[-8,655],[60,216],[9,794],[49,76],[65,1268],[40,111],[11,-655],[-20,-292],[37,-146],[3,654],[131,947],[8,794],[84,362],[-27,404],[39,467],[-12,216],[-79,181],[-83,-1414],[-109,-327],[34,1058],[-12,648],[-83,362],[17,655],[38,0],[-44,215],[9,655],[-39,327],[-25,-982],[-32,-69],[-6,-940],[21,-585],[-131,-1525],[-101,-1957],[-218,-2214],[-190,-760],[51,-543],[-52,-292],[-12,731],[-35,-585],[-127,0],[-93,-724],[-283,2173],[-150,292],[-80,905],[0,655],[61,216],[-21,369],[47,1302],[43,216],[15,947],[112,1379],[-27,1121],[29,292],[-103,-619],[-3,-655],[-40,-432],[-38,70],[-37,-1525],[-61,-362],[-106,-1992],[-312,1449],[-51,473],[26,655],[-130,2249],[-3,1086],[-38,70],[32,1309],[-37,146],[43,1741],[-43,871],[20,647],[-39,-397],[-81,578],[-520,4972],[16,543],[138,474],[-79,578],[32,801],[-212,-543],[-76,-732],[-109,147],[-174,1887],[-550,3050],[-33,466],[3,509],[-96,947],[44,139],[5,947],[-20,293],[38,362],[-16,543],[22,397],[-21,292],[44,655],[-9,794],[107,1086],[-26,223],[67,1741],[-55,940],[20,578],[-17,947],[-79,508],[26,794],[-154,1344],[-64,-146],[98,-1156],[-56,-1198],[9,-362],[-26,-508],[14,-509],[-20,-223],[20,-362],[-46,-2026],[-155,-1344],[-156,578],[-81,-871],[-139,732],[-39,-474],[95,-292],[9,-509],[72,-216],[-10,-397],[-265,760],[0,1232],[125,655],[-67,1163],[15,2103],[-34,181],[-114,-620],[-17,-940],[37,-724],[-27,-1198],[25,-1560],[37,-439],[-114,-1483],[-174,-292],[-226,870],[-109,0],[-53,-578],[-156,870],[-179,-146],[-139,1302],[-143,-1413],[-15,1379],[-55,438],[97,181],[87,1156],[57,-250],[31,800],[26,-76],[24,1086],[-34,620],[-156,-146],[-41,-871],[-110,0],[-56,906],[16,835],[-16,397],[61,585],[-87,870],[-32,-146],[5,-404],[-76,-139],[-33,467],[26,222],[-46,578],[-271,1484],[-29,585],[-370,1302],[-10,257],[66,70],[-32,293],[27,793],[-316,2396],[57,836],[121,292],[80,905],[-15,509],[33,466],[-21,912],[14,794],[-26,509],[32,1016],[-14,655],[60,362],[3,655],[49,362],[42,1413],[-7,975],[-43,369],[14,216],[-159,2103],[84,293],[0,647],[-188,947],[20,286],[-11,362],[-159,2110],[49,578],[-38,794],[67,-70],[34,940],[-23,1017],[-142,1671],[90,1741],[-26,146],[9,509],[-38,793],[9,509],[-44,1232],[15,216],[-80,1198],[-276,1636],[-18,509],[61,362],[-39,397],[-162,-578],[-231,578],[-693,3231],[48,445]],[[9986,258279],[117,7479],[145,1769],[-13,2967],[-176,2409],[9,2465],[163,2173],[-31,3356],[-223,2020],[-51,5960],[-189,1477],[-74,1922],[-257,724],[12,1379],[-164,1170],[-220,-1156],[-284,2423],[66,4749],[-24,4499],[-116,4025],[-279,1462],[-155,1462],[-1,2312],[413,-1532],[830,-209],[207,975],[205,4387],[172,1309],[409,1226],[197,1295],[29,-1727],[1,-3509],[269,-2257],[1,-3370],[-65,-3064],[473,-4262],[388,-83],[191,2924],[269,9053],[303,2089],[23,9680],[164,4108],[337,2451],[14,3747],[103,6100],[122,4819],[347,752]],[[13643,350227],[309,-3858]],[[13952,346369],[497,0],[145,1114],[91,-446]],[[14685,347037],[1,669],[29,-2542],[-97,-327],[93,-286],[-2,-404],[-166,404],[-35,-724],[-87,-146],[-111,-2430],[-114,-181],[-74,-766],[14,-648],[-78,-77],[61,-654],[-155,-35],[-80,-759],[74,327],[40,-369]],[[14026,329378],[-29,-1894],[-20,-1268]],[[14138,339329],[4,-112],[-15,0],[11,112]],[[999639,221853],[-9,0],[0,70],[9,0],[0,-70]],[[998737,512833],[11,-104],[-32,0],[21,104]],[[998373,516176],[-28,251],[50,-147],[-22,-104]],[[998345,516789],[0,69],[9,0],[0,-69],[-9,0]],[[996741,519797],[4,-251],[-26,0],[22,251]],[[997898,520089],[-104,-292],[18,439],[86,-147]],[[997794,520960],[0,-293],[-10,181],[10,112]],[[997573,522325],[-10,-56],[-5,105],[15,-49]],[[997308,524149],[-10,112],[14,0],[-4,-112]],[[998703,621786],[-10,111],[14,0],[-4,-111]],[[996596,638902],[-10,112],[15,0],[-5,-112]],[[997123,645873],[-10,104],[14,0],[-4,-104]],[[996400,638178],[10,-251],[-32,0],[22,251]],[[996261,638617],[-11,104],[15,0],[-4,-104]],[[996504,639487],[-11,112],[15,0],[-4,-112]],[[996394,640211],[-11,112],[15,0],[-4,-112]],[[14608,381869],[0,70],[9,0],[0,-70],[-9,0]],[[14602,382301],[-46,223],[27,327],[19,-550]],[[13046,384919],[0,70],[8,0],[0,-70],[-8,0]],[[13410,385205],[0,76],[9,0],[0,-76],[-9,0]],[[14790,375992],[-14,-70],[4,112],[10,-42]],[[14721,377301],[29,-362],[-96,508],[67,-146]],[[14695,378025],[20,-508],[-74,543],[-39,-251],[39,1122],[54,-906]],[[14964,394418],[75,-940],[-33,-620],[-51,35],[-69,1963],[78,-438]],[[13750,392426],[-10,104],[14,0],[-4,-104]],[[13928,392893],[-10,-35],[-4,111],[14,-76]],[[13738,394167],[11,-258],[-27,0],[16,258]],[[13709,394313],[-10,105],[15,0],[-5,-105]],[[983780,445196],[-357,6978]],[[982279,561084],[159,-111],[-42,-516],[38,-362],[14,-801],[93,-1302],[120,-620],[16,1560],[-61,655],[-1,836],[46,724],[139,-146],[6,578],[87,0],[27,-397],[-38,-509],[3,-508],[-60,-146],[131,-321],[97,467],[-130,146],[17,947],[28,181],[-39,467],[16,397],[75,-724],[168,438],[19,-835],[154,-620],[-40,731],[-86,251],[16,473],[86,181],[-73,509],[121,327],[85,-474],[-5,-543],[63,-35],[-10,-981],[44,34],[25,982],[451,-1016],[255,438],[376,-2033],[116,578],[307,-578],[729,-146],[-22,-544],[45,-327],[85,474],[-27,397],[243,438],[69,-438],[261,146],[40,-146]],[[986515,559260],[-5,-432],[69,0],[33,320],[-32,223],[39,181],[151,146],[-57,-404],[69,-612],[63,431],[127,-1016],[122,146],[40,585],[273,-146],[96,466],[65,1853],[209,146],[-120,-836],[33,-327],[51,397],[-28,-543],[13,-690],[91,-320],[156,432],[40,-328],[-11,-250],[145,0],[51,-913],[-44,-285],[32,-146],[-8,-362],[177,111],[22,-404],[-26,-432],[113,-800],[-9,-509],[63,-466],[39,34],[11,509],[-72,578],[108,1198],[16,-544],[-26,-222],[21,-578],[-15,-216],[68,-759],[475,-147],[177,759],[-37,509],[72,794],[-32,146],[38,731],[-20,139],[10,690],[-22,257],[15,147],[-93,1740],[-97,760],[-197,438],[-225,-1741],[-13,543],[-107,502],[21,404],[-191,-146],[-104,870],[-149,35],[624,-613],[364,724],[13,-689],[55,-362],[-14,-223],[483,-4714],[-4,-397],[-213,-906],[33,-835],[70,-432],[301,432],[202,-1887],[666,-3044],[-11,-257],[212,-940],[-26,-293],[21,-250],[122,0],[336,-1595],[110,-1163],[376,-432],[156,-731],[17,-724],[87,-146],[347,585],[-16,-982],[57,-328],[64,725],[56,-35],[-22,-543],[47,438],[173,-146],[35,-585],[98,439],[502,-2939],[-78,-1671],[80,-759],[237,0],[46,439],[793,-4067],[475,-578],[29,-439],[86,293],[-50,-982],[114,-905],[87,146],[35,870],[44,-250],[12,362],[-32,285],[34,327],[73,35],[-27,690],[185,-140],[-75,-292],[364,-585],[185,-724],[-21,-181],[21,-251],[87,146],[18,-731],[642,-2750],[606,-5188],[-73,-474],[-168,871],[-157,-1163],[16,766],[-14,216],[56,1343],[-59,836],[-178,327],[-87,1156],[-179,-431],[-139,870],[-33,-689],[56,104],[27,-543],[-31,-70],[3,-508],[-50,-1086],[3,-655],[-72,-1086],[22,-404],[-11,-690],[219,-1775],[133,0],[203,1016],[202,-146],[12,-578],[220,0],[92,871],[116,-1017],[249,292],[150,-1016],[87,146],[195,-1922],[44,-1093],[333,-2827],[379,-4422],[101,-655],[-15,-216],[70,-870],[171,-1233],[-26,-223],[86,-1016],[206,-1665],[-44,-215],[92,-35],[75,-1163],[-45,-258],[74,-35],[143,-1267],[-86,-181],[-138,1017],[-324,3335],[-122,-146],[22,982],[-86,613],[45,257],[-170,1233],[14,216],[-58,1016],[-143,906],[-51,-474],[-23,-1232],[78,76],[-55,-1379],[304,-1817],[-9,-362],[32,-216],[-8,-655],[31,-216],[-26,-292],[15,-648],[-26,-438],[276,-1630],[214,-585],[99,293],[168,-578],[79,327],[-14,216],[21,466],[6,-103235]],[[990990,389028],[-961,-1644],[-424,-188]],[[989052,390699],[-185,543],[-1113,-898]],[[996371,529811],[-11,104],[15,0],[-4,-104]],[[996162,530827],[-10,105],[15,0],[-5,-105]],[[995705,532568],[4,-111],[-31,0],[27,111]],[[987840,561147],[5,-112],[-26,0],[21,112]],[[987574,561293],[4,-111],[-49,0],[45,111]],[[984025,561328],[-14,69],[10,42],[4,-111]],[[987950,561579],[11,-105],[-32,0],[21,105]],[[983123,562198],[-11,-35],[-4,105],[15,-70]],[[983240,562741],[4,-111],[-26,0],[22,111]],[[988338,561147],[103,-404],[-195,258],[-76,-871],[-18,836],[-40,181],[-75,0],[-52,-724],[-121,724],[474,0]],[[988020,561725],[68,111],[-113,-216],[45,105]],[[996463,637168],[-10,251],[32,-146],[-22,-105]],[[996428,637308],[-10,111],[15,0],[-5,-111]],[[996284,640643],[-10,111],[14,0],[-4,-111]],[[996232,642676],[10,-104],[-38,0],[28,104]],[[996318,642969],[-10,104],[15,0],[-5,-104]],[[996433,646339],[-21,77],[16,35],[5,-112]],[[996388,646597],[-10,104],[14,0],[-4,-104]],[[996423,646597],[-11,104],[15,0],[-4,-104]],[[996515,646597],[-10,104],[15,0],[-5,-104]],[[996336,646743],[-10,105],[14,0],[-4,-105]],[[996892,646304],[-11,112],[15,0],[-4,-112]],[[996932,646451],[-6,-147],[-11,147],[5,146],[12,-146]],[[996868,646597],[5,-111],[-32,0],[27,111]],[[996589,647064],[-16,-35],[-4,111],[16,35],[4,-111]],[[996556,647321],[10,-111],[-32,0],[22,111]],[[996492,647467],[39,-111],[-124,0],[85,111]],[[9126,435224],[434,-3489],[-168,439],[-144,1595],[-86,181],[-127,1671],[91,-397]],[[8980,436276],[-10,-42],[-4,111],[14,-69]],[[7996,439026],[-14,77],[10,35],[4,-112]],[[8009,439430],[-4,105],[9,0],[-5,-105]],[[8314,440767],[-14,77],[10,35],[4,-112]],[[8219,441422],[-46,292],[61,-146],[-15,-146]],[[7151,447954],[-4,-112],[-22,35],[5,111],[21,-34]],[[7338,448135],[-22,250],[44,-146],[-22,-104]],[[7313,448532],[-4,-112],[-22,42],[26,70]],[[7216,448713],[-21,-251],[0,216],[21,35]],[[14874,394996],[9,0],[0,-70],[-9,0],[0,70]],[[986515,559260],[0,125],[10,-91],[-10,-34]],[[986550,559260],[-4,111],[14,0],[-10,-111]],[[986874,559406],[-62,397],[159,292],[-97,-689]],[[992922,541997],[-5,104],[15,0],[-10,-104]],[[992904,542143],[-4,105],[14,0],[-10,-105]],[[992696,542721],[10,-111],[-43,0],[33,111]],[[992529,542833],[9,0],[0,-77],[-9,0],[0,77]],[[992654,542756],[-80,111],[29,147],[51,-258]],[[992545,542867],[-4,105],[14,0],[-10,-105]],[[991029,547220],[-4,104],[14,0],[-10,-104]],[[988668,559406],[58,292],[6,-438],[-80,-397],[16,543]],[[987985,559260],[-50,689],[43,292],[7,-981]],[[987053,560130],[-16,111],[150,182],[-134,-293]],[[987302,560562],[-85,111],[95,0],[-10,-111]],[[987424,561001],[74,-112],[-136,0],[62,112]],[[7014,652251],[10,-397],[-90,0],[22,251],[-16,404],[27,181],[47,-439]],[[6823,652544],[0,292],[62,-181],[-62,-111]],[[7008,652690],[-10,105],[14,0],[-4,-105]],[[6991,652836],[-10,105],[14,0],[-4,-105]],[[6926,653233],[34,-362],[-50,-327],[16,397],[-68,181],[68,111]],[[6784,653157],[55,76],[-28,-257],[-27,181]],[[6697,653303],[49,76],[-22,-257],[-27,181]],[[6829,653414],[-5,105],[15,0],[-10,-105]],[[7054,653846],[-10,111],[15,0],[-5,-111]],[[7118,655155],[-10,105],[14,0],[-4,-105]],[[996631,648192],[-87,-147],[58,439],[29,-292]],[[996971,648373],[36,-35],[-50,-112],[14,147]],[[996902,648373],[18,-35],[-33,-112],[15,147]],[[996884,648442],[-14,-69],[4,111],[10,-42]],[[996664,648665],[-10,-42],[-4,112],[14,-70]],[[996851,649062],[10,-111],[-32,0],[22,111]],[[996809,648951],[-10,-35],[-4,111],[14,-76]],[[997058,649243],[-15,70],[10,35],[5,-105]],[[997052,650183],[-14,-69],[4,111],[10,-42]],[[999930,638324],[-492,-1448],[-103,-1344],[16,-543],[-13,-544],[-415,-3231],[-151,0],[-22,404],[32,286],[-21,181],[-311,-327],[107,-286],[-74,-397],[-307,432],[-446,-293],[-329,-1016],[-220,-1302],[-261,-2466],[-197,-870],[63,982],[-107,216],[61,1232],[-55,216],[14,216],[-61,1525],[15,362],[-73,801],[51,543],[-39,759],[9,508],[-131,1379],[-66,2103],[-55,216],[39,690],[69,-432],[86,250],[-113,801],[14,362],[-21,181],[-68,35],[14,362],[-22,181],[-102,-104],[49,655],[-55,215],[55,0],[-3,794],[45,35],[22,-251],[-32,-146],[45,-613],[79,251],[-14,-216],[20,-146],[-32,-70],[32,-438],[-10,-251],[75,578],[45,-181],[-14,-509],[72,-215],[-84,-801],[97,257],[4,544],[-38,431],[137,293],[-207,620],[-86,974],[178,-689],[22,181],[-22,397],[16,258],[-32,146],[61,578],[-45,181],[-40,-724],[-151,438],[-87,-731],[40,836],[-132,-251],[10,397],[-20,293],[91,905],[97,104],[-103,328],[-139,-432],[10,397],[-20,146],[32,70],[-20,1525],[102,181],[-56,257],[103,181],[7,-689],[33,-181],[93,1017],[50,-112],[-3,655],[80,181],[-10,397],[22,181],[27,-251],[17,362],[-37,140],[84,362],[-15,369],[109,466],[85,-466],[-14,-223],[37,-432],[-142,-362],[55,-216],[-83,-508],[5,-801],[132,689],[4,-543],[-31,-438],[154,-35],[-11,438],[16,251],[-21,146],[28,181],[35,-724],[40,432],[62,-613],[-45,-689],[103,181],[-78,870],[32,509],[-155,473],[-45,613],[22,397],[189,35],[-10,550],[-206,181],[4,543],[75,-292],[39,327],[-10,397],[97,42],[-49,285],[26,439],[-22,250],[-509,-1448],[-18,432],[76,1016],[75,0],[54,982],[55,70],[-17,397],[120,-105],[-37,286],[32,439],[-20,654],[31,1163],[-20,286],[124,76],[-55,140],[22,689],[313,1741],[289,870],[98,1017],[138,35],[-38,654],[99,2034],[143,1197],[120,182],[175,2715],[213,474],[-44,1671],[92,905],[208,432],[243,1455],[330,0],[74,906],[0,508],[-50,286],[144,766],[81,-147],[73,759],[-31,439],[17,362],[101,655],[-14,508],[34,578],[138,35],[-10,258],[27,181],[0,-38739],[-63,0]],[[4,219388],[-4,0],[0,69],[4,0],[0,-69]],[[0,220293],[4,35],[0,-216],[-4,181]],[[0,221164],[4,34],[0,-216],[-4,182]],[[0,222180],[4,35],[0,-216],[-4,181]],[[0,222939],[4,293],[0,-362],[-4,69]],[[10,224318],[-6,-432],[-4,397],[10,35]],[[4,224757],[-4,0],[0,69],[4,0],[0,-69]],[[1389,250250],[-10,112],[14,0],[-4,-112]],[[1512,252465],[0,69],[9,0],[0,-69],[-9,0]],[[1723,254853],[-139,-1810],[-72,-293],[43,293],[-14,801],[90,216],[-9,508],[35,578],[66,-293]],[[1654,261817],[11,-362],[-26,0],[15,362]],[[1257,270891],[0,69],[9,0],[0,-69],[-9,0]],[[1969,260006],[55,-870],[-201,-2792],[56,1559],[-72,-215],[-32,1664],[-103,620],[12,431],[149,-689],[-27,689],[34,1017],[129,-1414]],[[3142,285646],[16,-104],[-26,0],[10,104]],[[4126,299720],[-22,-251],[0,216],[22,35]],[[1979,308570],[-10,112],[15,0],[-5,-112]],[[3665,310346],[0,77],[8,0],[0,-77],[-8,0]],[[1668,314845],[0,76],[9,0],[0,-76],[-9,0]],[[4201,472361],[74,-836],[-159,1233],[45,181],[40,-578]],[[4081,473559],[44,-293],[-45,-181],[-62,836],[63,-362]],[[647,298668],[-6,-362],[-9,0],[0,216],[15,146]],[[592,298452],[0,70],[8,0],[0,-70],[-8,0]],[[995,300158],[29,-146],[-39,35],[10,111]],[[12,499923],[-12,111],[16,0],[-4,-111]],[[3686,478015],[22,-250],[-26,146],[4,104]],[[2963,484840],[-10,104],[14,0],[-4,-104]],[[2423,487918],[-10,-35],[-4,111],[14,-76]],[[2380,488280],[27,-105],[-45,-111],[18,216]],[[1784,489373],[0,70],[8,0],[0,-70],[-8,0]],[[1759,492089],[-4,111],[33,-111],[-29,0]],[[1724,492667],[17,-251],[-27,146],[10,105]],[[1707,492667],[-10,111],[15,0],[-5,-111]],[[6933,445670],[-10,104],[14,0],[-4,-104]],[[6633,446498],[26,-362],[-182,-1156],[12,940],[43,-69],[32,1232],[69,-585]],[[6991,447118],[4,-258],[-26,0],[22,258]],[[6944,447264],[10,-111],[-31,-146],[21,257]],[[7280,448713],[4,-112],[-43,0],[39,112]],[[7118,449291],[-10,111],[14,0],[-4,-111]],[[6940,450488],[9,-146],[-57,404],[48,-258]],[[6879,450990],[-14,-63],[4,105],[10,-42]],[[6298,447877],[0,77],[8,0],[0,-77],[-8,0]],[[6291,447988],[-11,112],[15,0],[-4,-112]],[[5723,448713],[-10,111],[15,0],[-5,-111]],[[6144,457236],[12,-216],[-26,0],[14,216]],[[6117,457271],[-56,397],[38,42],[18,-439]],[[6071,457849],[-10,111],[14,0],[-4,-111]],[[5885,459597],[-68,250],[28,182],[40,-432]],[[5827,460175],[5,-112],[-26,0],[21,112]],[[5162,464959],[647,-4603],[-74,-35],[-371,3189],[-52,-146],[-247,1852],[97,-257]],[[4653,464381],[-10,111],[14,0],[-4,-111]],[[4640,464631],[-26,-69],[4,111],[22,-42]],[[4539,465070],[60,-76],[-78,-286],[18,362]],[[4612,465105],[-10,111],[15,0],[-5,-111]],[[5110,465544],[-10,104],[14,0],[-4,-104]],[[5052,465975],[-10,112],[14,0],[-4,-112]],[[5039,466233],[-26,-77],[4,112],[22,-35]],[[4711,468155],[299,-1852],[-74,-181],[-330,2319],[105,-286]],[[4894,467389],[-26,-70],[5,112],[21,-42]],[[4861,467431],[-10,104],[15,0],[-5,-104]],[[4848,467681],[-4,-111],[-22,42],[26,69]],[[4811,467751],[0,77],[8,0],[0,-77],[-8,0]],[[4670,468733],[-10,111],[14,0],[-4,-111]],[[4618,469311],[28,-251],[-44,0],[16,251]],[[4591,469346],[0,76],[8,0],[0,-76],[-8,0]],[[9964,257667],[3,-21],[-6,35],[3,-14]],[[9941,257806],[2,-14],[-3,21],[1,-7]],[[9637,260515],[37,-216],[-10,-181],[-27,397]],[[8113,264178],[74,-251],[-90,-293],[16,544]],[[8264,264178],[-74,-112],[258,509],[-184,-397]],[[10856,409543],[-85,543],[68,34],[17,-577]],[[10282,412042],[-21,-34],[-5,111],[22,35],[4,-112]],[[11279,415489],[-4,112],[14,0],[-10,-112]],[[7755,258231],[-22,-112],[10,258],[12,-146]],[[7849,259066],[-60,-689],[-27,327],[43,286],[-16,543],[74,-181],[-14,-286]],[[9986,258279],[-245,1149],[15,794],[-69,620],[-185,-439],[-121,293],[-70,870],[-87,-146],[-756,3085],[66,940],[-112,508],[-35,439],[5,508],[167,35],[12,432],[-22,404],[136,362],[-138,689],[-69,-1016],[-132,-474],[-23,-432],[15,-800],[-536,-3991],[-153,-2534],[-67,-509],[-130,-2541],[-265,-1344],[-86,-140],[-25,683],[-50,42],[-40,-474],[28,-397],[-342,-146],[-445,-1017],[-203,1163],[-150,-724],[-365,0],[-347,870],[-174,-146],[-75,-724],[-104,-146],[-98,578],[-87,-293],[-284,731],[-129,1992],[-79,-111],[-13,689],[-61,146],[52,1595],[125,947],[-21,508],[45,1052],[-50,1991],[95,801],[6,655],[-20,139],[37,1525],[-8,1379],[107,1379],[11,1671],[-38,216],[15,216],[-20,69],[3,655],[-87,1594],[-80,620],[-98,0],[-185,-1163],[-103,906],[26,146],[-6,508],[-78,362],[-11,362],[20,293],[-26,69],[32,439],[8,1379],[32,292],[-205,-515],[-24,293],[5,2144],[-30,829],[-368,3558],[32,509],[-55,139],[78,369],[-15,216],[28,759],[-6,1448],[-62,1491],[-9,1525],[-78,508],[259,-1344],[128,0],[24,1128],[153,940],[-8,362],[66,655],[-39,1992],[57,1197],[-21,439],[6,1086],[207,35],[70,1017],[86,-146],[57,612],[-3,801],[78,1456],[-29,863],[-101,870],[95,1672],[32,1232],[84,801],[-143,1992],[162,2179],[-51,1337],[22,690],[-29,870],[39,912],[-16,690],[22,397],[-18,870],[-49,508],[20,578],[-11,363],[-213,766],[-21,-474],[25,-870],[-20,-439],[9,-1379],[-97,-320],[-13,543],[-68,181],[-56,-912],[-6,-502],[43,-731],[-55,-940],[15,-801],[-38,-794],[3,-654],[-182,-1671],[-44,-2103],[-37,-509],[8,-1518],[-328,-2646],[-179,-292],[-213,1483],[14,223],[-49,362],[26,362],[-52,1302],[-194,2103],[18,1525],[78,508],[17,1163],[-33,829],[27,766],[-32,870],[9,801],[-32,502],[32,438],[-20,432],[10,836],[-36,835],[-107,-578],[9,-508],[-55,-801],[-12,-1086],[26,-70],[6,-654],[-20,-223],[14,-216],[-22,-467],[22,-550],[-49,-508],[8,-1233],[-85,-612],[-145,1163],[-190,578],[-109,1051],[-48,1121],[-282,1128],[32,-508],[-84,-293],[120,-34],[16,-251],[-26,-146],[78,-223],[12,-362],[-32,-432],[45,-766],[-22,-682],[101,-801],[-8,-801],[107,-216],[63,-870],[-3,-509],[131,-1525],[-26,-362],[49,-362],[-15,-362],[29,-724],[67,-216],[-44,-1163],[9,-508],[-191,-2319],[-178,-1052],[-503,-438],[-63,327],[90,654],[-101,1525],[22,690],[-13,397],[-144,1197],[-195,-905],[-13,-982],[51,-327],[-23,-794],[-73,-508],[-61,-1240],[-199,-1086],[32,-578],[-26,-146],[23,-509],[72,-654],[3,-1233],[20,-362],[-43,-1156],[26,-223],[-38,-647],[9,-509],[-32,-76],[15,-216],[-67,-3844],[20,-439],[-20,-647],[61,-2974],[-38,-654],[84,-801],[49,-2103],[55,-940],[-14,-216],[20,-585],[-95,-2026],[50,397],[35,-725],[114,-181],[243,-3628],[20,-947],[113,-647],[-32,-655],[125,-801],[23,-508],[-55,-146],[46,-725],[34,404],[57,-292],[24,724],[68,-473],[-26,-140],[3,-654],[-61,-362],[-18,-1379],[92,-181],[79,759],[-20,223],[40,724],[51,181],[317,-1852],[-90,-216],[9,-1525],[-58,-1017],[-43,-70],[37,-292],[-23,-508],[-78,362],[11,-509],[61,-216],[6,-508],[-132,-181],[-29,1017],[-79,-181],[9,-509],[-50,-362],[12,-1232],[49,-362],[-9,-655],[27,-70],[-15,-222],[26,-70],[-15,-216],[53,-1309],[55,-724],[-6,-439],[-142,-940],[3,-940],[-51,104],[-56,-905],[-23,-432],[14,-947],[-35,-578],[-143,-327],[-39,-474],[26,-285],[-10,-258],[-284,724],[-57,725],[-203,-286],[-150,-1163],[-81,439],[-104,-293],[-53,-1162],[-98,146],[-68,-474],[20,-285],[-16,-258],[-97,-320],[-5,-516],[43,-431],[-61,-725],[73,-362],[-78,-870],[28,-947],[92,-759],[179,-293],[51,328],[-9,362],[32,223],[11,793],[-91,1052],[-62,-104],[-61,1518],[-60,585],[97,905],[86,-146],[87,1309],[69,-878],[58,0],[161,1198],[13,550],[145,432],[104,-871],[110,147],[144,-871],[63,35],[14,940],[45,42],[87,-2326],[-80,-1629],[-14,-940],[-32,-223],[9,-509],[-38,-1664],[14,-801],[-56,-2792],[22,-327],[-6,-655],[-281,-4129],[-87,-2034],[3,-508],[-108,404],[-151,-731],[-120,-1337],[-60,-1379],[-92,-35],[-192,-2291],[-174,-871],[2,273725],[68,-181],[-15,-654],[130,-941],[-14,-222],[246,-1518],[48,-1129],[92,-431],[87,285],[-33,-543],[91,-35],[41,-724],[486,432],[301,1448],[-11,-397],[26,-216],[-14,-508],[101,-508],[-14,-509],[26,-146],[-44,-285],[223,-1525],[-103,181],[-28,-439],[102,-1191],[-32,-508],[102,-801],[13,-836],[110,-431],[295,431],[16,-320],[-15,-369],[80,-759],[411,-578],[156,-585],[6,-578],[69,439],[-10,-404],[72,-216],[-10,-258],[149,-466],[116,-1163],[-14,-216],[55,-362],[-15,-362],[72,-509],[133,-2318],[-31,-369],[26,-363],[-9,-793],[67,-1087],[-32,-146],[32,-1233],[-49,-508],[33,-1414],[-41,-731],[68,-905],[-14,-508],[27,-35],[-33,-474],[20,-654],[-66,-432],[195,-473],[52,-725],[179,-870],[435,-871],[108,-905],[-55,-654],[78,-70],[-32,-362],[45,-474],[23,871],[39,-35],[-31,-439],[15,-397],[58,439],[174,-1017],[133,725],[62,-759],[-32,-223],[57,111],[93,-1163],[179,-1017],[173,-285],[45,-620],[9,-794],[72,-1525],[-11,-1093],[-38,-362],[15,-216],[-21,-432],[105,-1741],[89,-146],[-142,-1232],[-40,-1017],[9,-362],[-131,-801],[-47,-1414],[162,-146],[81,724],[39,-250],[-49,-216],[-6,-508],[56,-35],[74,612],[-26,293],[32,292],[-22,251],[259,1052],[-26,292],[22,543],[318,1595],[266,-293],[-10,-396],[26,-439],[-20,-286],[26,-76],[12,-1665],[-271,-766],[-109,-1121],[16,-473],[57,327],[-5,404],[110,285],[29,-431],[53,431],[160,-327],[-200,-1302],[3,-801],[-49,-362],[-11,-655],[91,-759],[139,1449],[79,181],[71,1414],[39,-35],[-16,-397],[57,250],[-15,-501],[26,-146],[-27,-181],[102,104],[-188,-1594],[57,181],[17,-578],[145,1594],[185,578],[48,836],[91,473],[69,147],[174,-1017],[334,-2939],[-107,-146],[-6,-654],[67,-432],[-90,-2180],[103,-1051],[97,-181],[13,-836],[87,-432],[10,251],[-67,731],[369,1337],[288,-1922],[11,-216],[-37,-724],[72,-216],[9,-508],[184,-620],[-11,-397],[177,-1232],[29,-439],[-26,-724],[3,-794],[-159,-1525],[89,-1093],[-363,257],[-137,-689],[137,-759],[249,285],[103,-759],[1,-397],[139,-146],[80,-1344],[7,-1121],[45,320],[-16,836],[81,-139],[6,-439],[98,439],[184,-1344],[-3,-1525],[155,-474],[631,1163],[179,-578],[58,871],[508,-2939],[-229,-1163],[-104,-1595],[-13,-835],[21,-397],[-60,-362],[-6,-1087],[28,-181],[-11,-1559],[154,-948],[28,-1016],[-21,-251],[-87,432],[-451,-578],[-139,292],[-7,-982],[-41,-724],[-91,-181],[-52,-724],[-156,139],[33,-543],[-109,-613],[-190,1449],[-213,473],[-3,794],[-55,369],[37,502],[-60,-70],[33,543],[-93,146],[45,-473],[-39,-251],[-307,146],[325,-870],[45,-620],[-15,-216],[38,-69],[-11,-404],[296,-432],[121,-2033],[98,146],[64,724],[209,146],[167,1017],[-10,-1128],[64,-871],[270,-2353],[724,431],[56,-327],[-21,-543],[21,-543],[-61,-801],[-40,-1664],[80,-474],[-5,543],[56,181],[116,-431],[185,292],[6,-731],[271,-1191],[-32,-1093],[74,-1337],[110,139],[191,-1016],[81,146],[-10,-251],[85,-620],[166,474],[-159,146],[-11,362],[49,362],[-38,293],[10,250],[-40,-724],[-34,328],[97,835],[47,-292],[-5,543],[55,439],[-154,612],[-40,-327],[-2,-940],[-68,-35],[-70,-870],[-139,1016],[-68,-111],[102,1525],[-80,1051],[-242,467],[131,1455],[11,648],[-26,293],[26,584],[-153,794],[-12,362],[20,147],[-39,759],[-224,619],[16,690],[-260,-1887],[120,4825],[-61,871],[20,362],[-375,35],[-15,397],[253,620],[184,1629],[36,982],[156,0],[74,327],[19,690],[137,-1198],[-96,-578],[-11,-508],[22,-189],[104,0],[46,-724],[62,328],[-78,585],[16,689],[317,-2215],[-4,-403],[-92,-35],[63,-543],[87,578],[85,-467],[-15,-216],[28,-473],[174,-578],[347,-2619],[114,-181],[64,-794],[-160,-1086],[12,-1093],[26,-70],[3,-947],[81,-1448],[38,-70],[-15,-362],[49,-216],[6,-801],[-32,-292],[96,-1233],[-9,-654],[39,111],[132,-1344],[-74,-251],[-27,328],[26,146],[-12,216],[-51,35],[-17,-578],[27,-181],[-20,-362],[78,-655],[-37,-1163],[39,-1267],[-28,-690],[61,-1594],[-142,-362],[-66,-3413],[-78,-362],[-90,-1671],[-90,-794],[-1,-397],[102,321],[-124,-1087],[-30,-975],[42,-982],[66,432],[-55,293],[21,1016],[-15,216],[229,947],[-16,543],[226,-292],[15,-251],[-20,-438],[68,-35],[45,473],[-22,397],[288,1198],[99,1887],[-9,508],[118,1372],[25,1999],[132,-905],[-9,-509],[26,-146],[-61,-1595],[26,-76],[-8,-648],[34,-731],[154,508],[42,-1121],[-34,-404],[67,-69],[25,-690],[97,-35],[78,-2395],[26,-70],[-219,-835],[-50,-759],[2,-509],[-72,-654],[39,-1268],[-62,-766],[20,-654],[-45,-759],[16,-474],[-14,-940],[27,-181],[-39,-1198],[6,-654],[26,-70],[-32,-870],[21,-1087],[-26,-724],[26,-292],[-73,-2103],[-13,-1414],[51,-1052],[-20,-2103],[118,-1378],[-33,-982],[36,-1268],[90,-654],[-21,-293],[12,-362],[119,-1232],[3,-655],[89,-647],[-8,-509],[130,-76],[-153,-1017],[23,-1372],[66,-801],[-10,-1267],[74,-2939],[-26,-578],[19,-961]],[[13952,346369],[-115,1211],[-194,2647]],[[7928,443490],[-33,397],[55,-286],[-22,-111]],[[13089,385929],[-22,-35],[-4,112],[21,34],[5,-111]],[[13410,386946],[96,-578],[-160,-439],[55,585],[-43,794],[52,-362]],[[14235,389996],[-15,69],[10,181],[5,-250]],[[14155,390824],[-10,112],[14,0],[-4,-112]],[[14786,366598],[27,-2207],[-20,-363],[20,-584],[-79,-759],[-80,181],[0,940],[64,870],[72,0],[-66,216],[20,292],[-20,655],[49,292],[-51,613],[-27,-397],[-53,1379],[56,-146],[-21,-362],[22,-181],[29,724],[58,-1163]],[[14718,366131],[9,0],[0,-76],[-9,0],[0,76]],[[14654,369028],[45,35],[-29,-578],[-16,543]],[[14695,369467],[8,0],[0,-77],[-8,0],[0,77]],[[14686,369829],[-14,0],[0,216],[14,0],[0,-216]],[[14659,371535],[27,-111],[-44,-146],[17,257]],[[14815,372406],[-4,104],[14,0],[-10,-104]],[[14793,374544],[26,0],[-6,-509],[-20,509]],[[14653,367907],[-5,105],[15,0],[-10,-105]],[[14612,379223],[-11,-292],[-57,689],[68,-397]],[[14602,380205],[32,139],[-16,-689],[-16,550]],[[14611,381437],[-15,70],[10,181],[5,-251]],[[14751,375156],[-4,112],[14,0],[-10,-112]],[[14735,375414],[9,0],[0,-70],[-9,0],[0,70]],[[14786,375449],[-4,111],[14,0],[-10,-111]],[[14738,375630],[-14,76],[10,181],[4,-257]],[[13960,392099],[8,0],[0,-77],[-8,0],[0,77]],[[13601,392245],[9,0],[0,-77],[-9,0],[0,77]],[[13576,392426],[-4,104],[14,0],[-10,-104]],[[13977,392433],[-11,97],[14,0],[-3,-97]],[[13692,394452],[-56,690],[43,146],[13,-836]],[[13630,395650],[26,-146],[-107,654],[81,-508]],[[13540,396597],[-4,-111],[-22,35],[5,111],[21,-35]],[[13507,396778],[-5,105],[15,0],[-10,-105]],[[13484,396918],[-10,111],[14,0],[-4,-111]],[[13455,397502],[10,-111],[-32,-146],[22,257]],[[13351,397356],[-5,112],[15,0],[-10,-112]],[[13316,397934],[-4,112],[14,0],[-10,-112]],[[11810,403268],[-4,-111],[-22,42],[26,69]],[[11979,415343],[5,-104],[-27,0],[22,104]],[[11753,417230],[5,-111],[-44,0],[39,111]],[[11690,417377],[6,292],[33,-181],[-39,-111]],[[11678,417669],[-74,251],[84,-147],[-10,-104]],[[11593,418066],[9,0],[0,-70],[-9,0],[0,70]],[[11568,419264],[-4,111],[14,0],[-10,-111]],[[11574,419556],[-4,105],[14,0],[-10,-105]],[[11412,420280],[166,-257],[-67,-613],[-174,1017],[75,-147]],[[11582,420712],[20,-104],[-32,-293],[12,397]],[[11181,421436],[4,-104],[-32,0],[28,104]],[[9664,425064],[-4,112],[14,0],[-10,-112]],[[10376,426227],[22,-257],[-86,111],[-39,689],[103,-543]],[[10259,426986],[-15,77],[11,35],[4,-112]],[[10201,427495],[-4,-112],[-22,42],[26,70]],[[10132,427933],[-5,-111],[-21,35],[4,111],[22,-35]],[[10083,428261],[26,-112],[-50,-146],[24,258]],[[9711,430872],[351,-2577],[-79,105],[-358,2576],[86,-104]],[[4496,470042],[-10,105],[15,0],[-5,-105]],[[4462,470328],[-33,257],[43,-146],[-10,-111]],[[4410,470766],[-11,105],[15,0],[-4,-105]],[[4346,470766],[-10,105],[14,0],[-4,-105]],[[4368,470947],[-10,-41],[-5,111],[15,-70]],[[4294,471344],[10,-111],[-26,0],[16,111]],[[3883,475258],[-51,404],[28,181],[33,-327],[-10,-258]],[[3808,476275],[-45,403],[61,-146],[-16,-257]],[[3754,477403],[12,-216],[-26,0],[14,216]],[[3728,477619],[0,69],[9,0],[0,-69],[-9,0]],[[6967,651095],[-56,105],[90,0],[-34,-105]],[[6904,651235],[-57,404],[28,34],[29,-438]],[[6997,651527],[-11,112],[15,0],[-4,-112]],[[6914,651562],[-49,362],[51,181],[15,-397],[-17,-146]],[[4,500250],[-4,146],[4,509],[0,-655]],[[0,501483],[6,35],[4,-105],[-10,70]],[[4,502430],[-4,139],[4,508],[0,-647]],[[4,504818],[0,-216],[-4,35],[4,181]],[[0,506921],[0,77],[4,0],[0,-77],[-4,0]],[[7,507576],[-3,-362],[2,835],[1,-473]],[[0,508265],[10,181],[0,-216],[-10,35]],[[0,509247],[0,70],[4,0],[0,-70],[-4,0]],[[1686,492924],[8,0],[0,-69],[-8,0],[0,69]],[[1672,492959],[-4,112],[14,0],[-10,-112]],[[2824,680830],[353,-871],[359,293],[457,-1595],[174,147],[607,-2466],[145,-1016],[-288,613],[66,-363],[-14,-508],[67,-216],[-15,-362],[22,-181],[184,-766],[-41,-940],[-49,-70],[33,-404],[58,439],[265,-397],[6,502],[-45,619],[62,-34],[25,-690],[46,432],[87,-578],[39,-397],[-130,-439],[114,-473],[58,438],[108,-905],[-72,-292],[27,-543],[-137,-35],[153,-1017],[-112,-724],[66,-578],[-15,-223],[28,-181],[69,870],[186,-578],[88,-1413],[217,-2103],[-20,-362],[37,69],[96,-1525],[168,-1594],[85,-181],[162,-1741],[313,292],[-16,-181],[14,-362],[-55,-508],[67,-585],[-38,-216],[155,-35],[56,-327],[18,-362],[-21,-293],[34,-327],[-80,-613],[14,-216],[-23,-585],[-49,77],[9,-508],[-49,69],[66,-292],[-4,-397],[-81,146],[-41,724],[-127,-578],[-189,251],[49,-286],[-16,-403],[97,-181],[-10,-397],[149,-181],[-108,-439],[102,-362],[-38,-362],[33,-544],[-62,-1197],[9,-509],[-72,-362],[8,-1086],[-143,-474],[-185,-1740],[-41,292],[-11,-724],[-208,-439],[-353,-2611],[-672,-724],[-359,-1595],[-306,0],[-394,-1449],[-474,-438],[-336,-1449],[-643,-1741],[-46,-724],[-162,-585],[-115,-139],[-58,724],[-429,-585],[-254,439],[-22,-258],[32,-139],[-103,-473],[-156,1448],[178,-104],[-33,1413],[-238,-146],[-289,1595],[-307,578],[-306,1309],[-278,146],[0,38300],[225,-293],[64,-578],[93,432],[185,-286],[-80,321],[-110,1379],[45,473],[243,-439],[63,620],[-15,216],[33,474],[-16,250],[103,327],[-27,-974],[56,-913],[116,147],[-10,550],[178,905],[115,-1163],[99,293],[21,-328],[-10,-404],[99,0],[86,732],[145,-585],[99,292],[125,-1344],[-14,-362],[45,-35],[127,1017],[133,-293],[133,578],[87,1602],[284,-585],[-51,404],[113,578],[-142,870],[178,-111]],[[2118,677933],[-16,105],[20,0],[-4,-105]],[[4,509755],[0,-222],[-4,41],[4,181]],[[1383,678804],[-4,104],[14,0],[-10,-104]],[[1371,678950],[-15,104],[20,0],[-5,-104]],[[1411,679200],[-5,-111],[-27,42],[32,69]],[[1156,679855],[-10,-42],[-5,112],[15,-70]],[[1139,680001],[-10,-42],[-5,112],[15,-70]],[[2581,679382],[-16,111],[20,0],[-4,-111]],[[3333,680398],[5,-111],[-55,0],[50,111]],[[3252,680252],[-4,111],[14,0],[-10,-111]],[[2205,681561],[-139,-292],[-114,397],[253,-105]],[[1927,681415],[-68,104],[90,0],[-22,-104]],[[2533,999957],[-26,-69],[5,111],[21,-42]]],"bbox":[-180,61.8063,180,76.1667],"transform":{"scale":[0.00036000036000036,0.000014360414360414366],"translate":[-180,61.8063]}}