{"type":"Topology","objects":{"muni":{"type":"GeometryCollection","geometries":[{"type":"MultiPolygon","arcs":[[[0]]],"properties":{"GID_2":"RUS.13.1_1","GID_0":"RUS","COUNTRY":"Russia","GID_1":"RUS.13_1","NAME_1":"Chuvash","NL_NAME_1":"ЧувашскаяРеспублика","NAME_2":"Alatyr'","VARNAME_2":"NA","NL_NAME_2":"Алаты́рь","TYPE_2":"Gorod","ENGTYPE_2":"City","CC_2":"NA","HASC_2":"RU.CV.AG"}},{"type":"MultiPolygon","arcs":[[[1,2,3,4,5],[-1]]],"properties":{"GID_2":"RUS.13.2_1","GID_0":"RUS","COUNTRY":"Russia","GID_1":"RUS.13_1","NAME_1":"Chuvash","NL_NAME_1":"ЧувашскаяРеспублика","NAME_2":"Alatyrskiyrayon","VARNAME_2":"NA","NL_NAME_2":"Алатырскийрайон","TYPE_2":"Raion","ENGTYPE_2":"District","CC_2":"R23000","HASC_2":"RU.CV.AR"}},{"type":"MultiPolygon","arcs":[[[6,7,8,9,10,11,12,13,14,15,16]]],"properties":{"GID_2":"RUS.13.3_1","GID_0":"RUS","COUNTRY":"Russia","GID_1":"RUS.13_1","NAME_1":"Chuvash","NL_NAME_1":"ЧувашскаяРеспублика","NAME_2":"Alikovskiyrayon","VARNAME_2":"NA","NL_NAME_2":"Аликовскийрайон","TYPE_2":"Raion","ENGTYPE_2":"District","CC_2":"R23000","HASC_2":"RU.CV.AL"}},{"type":"MultiPolygon","arcs":[[[-3,17,18,19,20,21,22]]],"properties":{"GID_2":"RUS.13.4_1","GID_0":"RUS","COUNTRY":"Russia","GID_1":"RUS.13_1","NAME_1":"Chuvash","NL_NAME_1":"ЧувашскаяРеспублика","NAME_2":"Batyrevskiyrayon","VARNAME_2":"NA","NL_NAME_2":"Батыревскийрайон","TYPE_2":"Raion","ENGTYPE_2":"District","CC_2":"R23000","HASC_2":"RU.CV.BA"}},{"type":"MultiPolygon","arcs":[[[23,24,25,26,27,28],[29],[30]]],"properties":{"GID_2":"RUS.13.5_1","GID_0":"RUS","COUNTRY":"Russia","GID_1":"RUS.13_1","NAME_1":"Chuvash","NL_NAME_1":"ЧувашскаяРеспублика","NAME_2":"Cheboksarskiyrayon","VARNAME_2":"NA","NL_NAME_2":"Чебоксарскийрайон","TYPE_2":"Raion","ENGTYPE_2":"District","CC_2":"R23001","HASC_2":"RU.CV.CR"}},{"type":"MultiPolygon","arcs":[[[-30]]],"properties":{"GID_2":"RUS.13.6_1","GID_0":"RUS","COUNTRY":"Russia","GID_1":"RUS.13_1","NAME_1":"Chuvash","NL_NAME_1":"ЧувашскаяРеспублика","NAME_2":"Cheboksary","VARNAME_2":"NA","NL_NAME_2":"Чебоксары","TYPE_2":"Gorsovet","ENGTYPE_2":"District","CC_2":"NA","HASC_2":"RU.CV.CG"}},{"type":"MultiPolygon","arcs":[[[-2,31,32,33,34,35,-18]]],"properties":{"GID_2":"RUS.13.7_1","GID_0":"RUS","COUNTRY":"Russia","GID_1":"RUS.13_1","NAME_1":"Chuvash","NL_NAME_1":"ЧувашскаяРеспублика","NAME_2":"Ibresinskiyrayon","VARNAME_2":"NA","NL_NAME_2":"Ибресинскийрайон","TYPE_2":"Raion","ENGTYPE_2":"District","CC_2":"R23000","HASC_2":"RU.CV.IB"}},{"type":"MultiPolygon","arcs":[[[36]]],"properties":{"GID_2":"RUS.13.8_1","GID_0":"RUS","COUNTRY":"Russia","GID_1":"RUS.13_1","NAME_1":"Chuvash","NL_NAME_1":"ЧувашскаяРеспублика","NAME_2":"Kanash","VARNAME_2":"NA","NL_NAME_2":"Канаш","TYPE_2":"Gorod","ENGTYPE_2":"City","CC_2":"NA","HASC_2":"RU.CV.KG"}},{"type":"MultiPolygon","arcs":[[[-35,37,38,39,40,41,42,43,44,45,46,47],[-37]]],"properties":{"GID_2":"RUS.13.9_1","GID_0":"RUS","COUNTRY":"Russia","GID_1":"RUS.13_1","NAME_1":"Chuvash","NL_NAME_1":"ЧувашскаяРеспублика","NAME_2":"Kanashskiyrayon","VARNAME_2":"NA","NL_NAME_2":"Канашскийрайон","TYPE_2":"Raion","ENGTYPE_2":"District","CC_2":"R23000","HASC_2":"RU.CV.KR"}},{"type":"MultiPolygon","arcs":[[[48,-19,-36,-48,49,50]]],"properties":{"GID_2":"RUS.13.10_1","GID_0":"RUS","COUNTRY":"Russia","GID_1":"RUS.13_1","NAME_1":"Chuvash","NL_NAME_1":"ЧувашскаяРеспублика","NAME_2":"Komsomol'skiyrayon","VARNAME_2":"NA","NL_NAME_2":"Комсомольскийрайон","TYPE_2":"Raion","ENGTYPE_2":"District","CC_2":"R23000","HASC_2":"RU.CV.KM"}},{"type":"MultiPolygon","arcs":[[[51,52,53,54],[55]]],"properties":{"GID_2":"RUS.13.11_1","GID_0":"RUS","COUNTRY":"Russia","GID_1":"RUS.13_1","NAME_1":"Chuvash","NL_NAME_1":"ЧувашскаяРеспублика","NAME_2":"Kozlovskiyrayon","VARNAME_2":"NA","NL_NAME_2":"Козловскийрайон","TYPE_2":"Raion","ENGTYPE_2":"District","CC_2":"R23000","HASC_2":"RU.CV.KZ"}},{"type":"MultiPolygon","arcs":[[[-8,56,57,-24,58,59,-41,60,61]]],"properties":{"GID_2":"RUS.13.12_1","GID_0":"RUS","COUNTRY":"Russia","GID_1":"RUS.13_1","NAME_1":"Chuvash","NL_NAME_1":"ЧувашскаяРеспублика","NAME_2":"Krasnoarmeyskiyrayon","VARNAME_2":"NA","NL_NAME_2":"Красноармейскийрайон","TYPE_2":"Raion","ENGTYPE_2":"District","CC_2":"R23000","HASC_2":"RU.CV.KA"}},{"type":"MultiPolygon","arcs":[[[-15,62,63,64,65]]],"properties":{"GID_2":"RUS.13.13_1","GID_0":"RUS","COUNTRY":"Russia","GID_1":"RUS.13_1","NAME_1":"Chuvash","NL_NAME_1":"ЧувашскаяРеспублика","NAME_2":"Krasnochetayskiyrayon","VARNAME_2":"NA","NL_NAME_2":"Красночетайскийрайон","TYPE_2":"Raion","ENGTYPE_2":"District","CC_2":"R23001","HASC_2":"RU.CV.KC"}},{"type":"MultiPolygon","arcs":[[[-28,66,-53,67,68]]],"properties":{"GID_2":"RUS.13.14_1","GID_0":"RUS","COUNTRY":"Russia","GID_1":"RUS.13_1","NAME_1":"Chuvash","NL_NAME_1":"ЧувашскаяРеспублика","NAME_2":"Mariinsko-Posadskiyrayon","VARNAME_2":"NA","NL_NAME_2":"Мариинско-Посадскийрайон","TYPE_2":"Raion","ENGTYPE_2":"District","CC_2":"R23001","HASC_2":"RU.CV.MA"}},{"type":"MultiPolygon","arcs":[[[-17,69,70,-26,71,72]]],"properties":{"GID_2":"RUS.13.15_1","GID_0":"RUS","COUNTRY":"Russia","GID_1":"RUS.13_1","NAME_1":"Chuvash","NL_NAME_1":"ЧувашскаяРеспублика","NAME_2":"Morgaushskiyrayon","VARNAME_2":"NA","NL_NAME_2":"Моргаушскийрайон","TYPE_2":"Raion","ENGTYPE_2":"District","CC_2":"R23001","HASC_2":"RU.CV.MO"}},{"type":"MultiPolygon","arcs":[[[-31]]],"properties":{"GID_2":"RUS.13.16_1","GID_0":"RUS","COUNTRY":"Russia","GID_1":"RUS.13_1","NAME_1":"Chuvash","NL_NAME_1":"ЧувашскаяРеспублика","NAME_2":"Novocheboksarsk","VARNAME_2":"NA","NL_NAME_2":"Новочебоксарск","TYPE_2":"Gorsovet","ENGTYPE_2":"District","CC_2":"NA","HASC_2":"RU.CV.NO"}},{"type":"MultiPolygon","arcs":[[[-6,73,74,-32]]],"properties":{"GID_2":"RUS.13.17_1","GID_0":"RUS","COUNTRY":"Russia","GID_1":"RUS.13_1","NAME_1":"Chuvash","NL_NAME_1":"ЧувашскаяРеспублика","NAME_2":"Poretsskiyrayon","VARNAME_2":"NA","NL_NAME_2":"Порецкая","TYPE_2":"Raion","ENGTYPE_2":"District","CC_2":"R23001","HASC_2":"RU.CV.PO"}},{"type":"MultiPolygon","arcs":[[[-4,-23,75]]],"properties":{"GID_2":"RUS.13.18_1","GID_0":"RUS","COUNTRY":"Russia","GID_1":"RUS.13_1","NAME_1":"Chuvash","NL_NAME_1":"ЧувашскаяРеспублика","NAME_2":"Shemurshinskiyrayon","VARNAME_2":"NA","NL_NAME_2":"Шемуршинскийрайон","TYPE_2":"Raion","ENGTYPE_2":"District","CC_2":"R23001","HASC_2":"RU.CV.SH"}},{"type":"MultiPolygon","arcs":[[[76,-13,77,78,-33,-75,79,-63],[80]]],"properties":{"GID_2":"RUS.13.19_1","GID_0":"RUS","COUNTRY":"Russia","GID_1":"RUS.13_1","NAME_1":"Chuvash","NL_NAME_1":"ЧувашскаяРеспублика","NAME_2":"Shumerlinskiyrayon","VARNAME_2":"NA","NL_NAME_2":"Шумерлинскийрайон","TYPE_2":"Raion","ENGTYPE_2":"District","CC_2":"R23001","HASC_2":"RU.CV.SR"}},{"type":"MultiPolygon","arcs":[[[-81]]],"properties":{"GID_2":"RUS.13.20_1","GID_0":"RUS","COUNTRY":"Russia","GID_1":"RUS.13_1","NAME_1":"Chuvash","NL_NAME_1":"ЧувашскаяРеспублика","NAME_2":"Shumerlya","VARNAME_2":"NA","NL_NAME_2":"Шумерля","TYPE_2":"Gorod","ENGTYPE_2":"City","CC_2":"NA","HASC_2":"RU.CV.SG"}},{"type":"MultiPolygon","arcs":[[[-29,-69,81,82,83,-43,84,-59]]],"properties":{"GID_2":"RUS.13.21_1","GID_0":"RUS","COUNTRY":"Russia","GID_1":"RUS.13_1","NAME_1":"Chuvash","NL_NAME_1":"ЧувашскаяРеспублика","NAME_2":"Tsivil'skiyrayon","VARNAME_2":"NA","NL_NAME_2":"Цивильскийрайон","TYPE_2":"Raion","ENGTYPE_2":"District","CC_2":"R23001","HASC_2":"RU.CV.TS"}},{"type":"MultiPolygon","arcs":[[[85,-44,86,-83,-55,87,88]]],"properties":{"GID_2":"RUS.13.22_1","GID_0":"RUS","COUNTRY":"Russia","GID_1":"RUS.13_1","NAME_1":"Chuvash","NL_NAME_1":"ЧувашскаяРеспублика","NAME_2":"Urmarskiyrayon","VARNAME_2":"NA","NL_NAME_2":"Урмарскийрайон","TYPE_2":"Raion","ENGTYPE_2":"District","CC_2":"R23001","HASC_2":"RU.CV.UR"}},{"type":"MultiPolygon","arcs":[[[-56]]],"properties":{"GID_2":"RUS.13.23_1","GID_0":"RUS","COUNTRY":"Russia","GID_1":"RUS.13_1","NAME_1":"Chuvash","NL_NAME_1":"ЧувашскаяРеспублика","NAME_2":"Volzhsk","VARNAME_2":"NA","NL_NAME_2":"Вольск","TYPE_2":"Gorsovet","ENGTYPE_2":"District","CC_2":"NA","HASC_2":"RU.ME.VG"}},{"type":"MultiPolygon","arcs":[[[89,-11,90,-9,-62,91,-39,92,-79]]],"properties":{"GID_2":"RUS.13.24_1","GID_0":"RUS","COUNTRY":"Russia","GID_1":"RUS.13_1","NAME_1":"Chuvash","NL_NAME_1":"ЧувашскаяРеспублика","NAME_2":"Vurnarskiyrayon","VARNAME_2":"NA","NL_NAME_2":"Вурнарскийрайон","TYPE_2":"Raion","ENGTYPE_2":"District","CC_2":"R23000","HASC_2":"RU.CV.VU"}},{"type":"MultiPolygon","arcs":[[[-16,93,-65,94,-70]]],"properties":{"GID_2":"RUS.13.25_1","GID_0":"RUS","COUNTRY":"Russia","GID_1":"RUS.13_1","NAME_1":"Chuvash","NL_NAME_1":"ЧувашскаяРеспублика","NAME_2":"Yadrinskiyrayon","VARNAME_2":"NA","NL_NAME_2":"Ядринскийрайон","TYPE_2":"Raion","ENGTYPE_2":"District","CC_2":"R23001","HASC_2":"RU.CV.YD"}},{"type":"MultiPolygon","arcs":[[[-21,95,-51,96],[97]]],"properties":{"GID_2":"RUS.13.26_1","GID_0":"RUS","COUNTRY":"Russia","GID_1":"RUS.13_1","NAME_1":"Chuvash","NL_NAME_1":"ЧувашскаяРеспублика","NAME_2":"Yal'chikskiyrayon","VARNAME_2":"NA","NL_NAME_2":"Яльчикскийрайон","TYPE_2":"Raion","ENGTYPE_2":"District","CC_2":"R23002","HASC_2":"RU.CV.YL"}},{"type":"MultiPolygon","arcs":[[[-98]]],"properties":{"GID_2":"RUS.13.27_1","GID_0":"RUS","COUNTRY":"Russia","GID_1":"RUS.13_1","NAME_1":"Chuvash","NL_NAME_1":"ЧувашскаяРеспублика","NAME_2":"Yalchikskiy","VARNAME_2":"NA","NL_NAME_2":"Яльчикский","TYPE_2":"Gorod","ENGTYPE_2":"City","CC_2":"NA","HASC_2":"NA"}},{"type":"MultiPolygon","arcs":[[[-46,98,-89,99]]],"properties":{"GID_2":"RUS.13.28_1","GID_0":"RUS","COUNTRY":"Russia","GID_1":"RUS.13_1","NAME_1":"Chuvash","NL_NAME_1":"ЧувашскаяРеспублика","NAME_2":"Yantikovskiyrayon","VARNAME_2":"NA","NL_NAME_2":"Янтиковскийрайон","TYPE_2":"Raion","ENGTYPE_2":"District","CC_2":"R23002","HASC_2":"RU.CV.YN"}}]}},"arcs":[[[267554,129169],[-6797,-1516],[644,6532],[6475,-1750],[-322,-3266]],[[347945,270235],[31730,-2041]],[[379675,268194],[-443,-23676],[6033,-19069],[19343,-17553],[18540,-8048],[38204,117],[11502,-40530]],[[472854,159435],[965,-60823],[-7560,-36039],[-15966,-18078]],[[450293,44495],[-10617,2916],[-26542,-6298],[-8284,-6124],[-10738,-22393],[-12507,-9097],[-16408,-3499],[-11300,4665],[-9330,18895],[-8888,4956],[-28111,-3907],[-36033,9914],[-73795,48869],[-7360,25833],[2413,17029],[-10737,23909],[-14800,13704],[-32816,17437],[-8927,8864],[-2856,10205],[6395,10030],[22601,14813],[-3982,9855]],[[147671,235071],[35189,4432],[49666,20235],[31449,7057],[83970,3440]],[[398415,697807],[36596,-52368]],[[435011,645439],[22923,-13996]],[[457934,631443],[-23003,1108],[-30926,-12013],[-10094,-10730]],[[393911,609808],[-26180,-8397]],[[367731,601411],[-16489,6706]],[[351242,608117],[-22279,-13004]],[[328963,595113],[-16368,466],[-18137,7173],[-16006,-13938]],[[278452,588814],[-30403,-3965],[-31287,8747]],[[216762,593596],[-7400,13996],[1126,31607],[-3660,19244],[-7922,12422],[804,16037]],[[199710,686902],[29036,14520],[6515,24959]],[[235261,726381],[11944,-291],[5027,6531],[18941,-2332],[34787,-20819],[39491,5598],[52964,-17261]],[[379675,268194],[44398,-28050],[15925,-408],[61128,26242]],[[501126,265978],[60122,4782],[52521,12771],[52843,-1458]],[[666612,282073],[68809,-15570],[19746,-8864]],[[755167,257639],[11099,-10905],[15242,-26592],[-2252,-19652]],[[779256,200490],[-24572,4023],[-14276,-2332],[-2453,-8398],[2413,-9214]],[[740368,184569],[-18982,7407],[-46731,-1867],[-48821,4841],[-34706,-24493],[-58112,-9156],[-32212,3674],[-27950,-5540]],[[493766,744109],[-11341,-5656],[-15241,3965],[-38768,-18719],[-40256,12363],[-15603,-2275]],[[372557,733787],[-7802,9739]],[[364755,743526],[-3258,13471],[7319,19769],[13191,20411],[6596,22101],[1327,17845],[-8285,50152],[8365,15453],[25979,27409],[15926,26300]],[[431915,956437],[33861,14521],[25457,23793],[31448,-1867],[35631,7115],[17132,-8048],[7399,-8630],[604,-19419],[20590,-26359],[6274,-22860],[22923,-7464],[29116,-18487]],[[662350,888732],[13592,-24142],[-9651,-16562],[-28111,-29858],[19424,-25017]],[[657604,793153],[-4464,-14812],[-60484,-3558],[-37079,-9797],[-23124,-233],[-17815,-5190],[-20872,-15454]],[[512868,870713],[9572,0],[2252,4723],[-9974,3266],[-3338,-3849],[1488,-4140]],[[596115,835840],[2614,2683],[-3660,4723],[-9973,-3790],[6595,-6532],[4424,2916]],[[347945,270235],[563,19303],[-26784,70212],[-3499,26942]],[[318225,386692],[10135,12363],[2212,8747],[-4263,13471]],[[326309,421273],[186077,16853],[16609,-2041]],[[528995,436085],[28553,-19244],[33701,-6415]],[[591249,410426],[6072,-17494],[5791,-55284],[-8123,-6648],[-42026,0],[-24652,-23209],[-10536,-16795],[-1810,-10614],[-14839,-14404]],[[619922,505539],[-5791,2391],[5831,2916],[-40,-5307]],[[528995,436085],[-32494,1050]],[[496501,437135],[-2293,38080],[-6233,30791],[17695,23443],[6314,14696],[-1126,10671],[-17172,23735],[0,11838],[7761,12654]],[[501447,603043],[27709,-13937]],[[529156,589106],[11461,408],[25859,28225]],[[566476,617739],[23365,6765],[44840,2857]],[[634681,627361],[34344,16795]],[[669025,644156],[10456,-52076]],[[679481,592080],[22883,-35281]],[[702364,556799],[-643,-12596],[-4947,-6065],[-21234,-7464],[-14115,-19361],[11863,-21052],[22239,-23560],[4062,-13821],[1086,-43853],[7681,-10555]],[[708356,398472],[-2091,-12013],[-34907,3732]],[[671358,390191],[-80109,20235]],[[710045,272218],[-43433,9855]],[[671358,390191],[34786,-3674],[-3820,-35573],[9732,-2099]],[[712056,348845],[-4384,-62048],[2373,-14579]],[[738397,690109],[-9008,18428]],[[729389,708537],[47132,8747],[28312,-4840],[35309,27467],[31931,12304]],[[872073,752215],[42629,-16503],[64385,-32715],[14035,-1866],[6877,-20236],[-4826,-13121],[-57508,-9331],[-12949,-8164],[-8204,-9972],[362,-12596],[-8767,-8689],[-40337,-5948]],[[867770,613074],[-30201,14987],[-9532,9447],[-5871,11780],[4102,5307],[-1488,13471],[-5751,7464],[-24049,4957],[-30403,-23676],[-13150,-2275],[-13151,22219],[121,13354]],[[910881,696640],[3740,2916],[-2091,4199],[-8123,-1691],[6474,-5424]],[[435011,645439],[-17695,22802],[-26743,45253]],[[390573,713494],[-18016,20293]],[[493766,744109],[1528,-19594],[20269,-23443],[43232,-21343],[7480,-10555],[402,-36506],[12909,-11138]],[[579586,621530],[-13110,-3791]],[[529156,589106],[-35551,17903]],[[493605,607009],[-5871,9214],[-29800,15220]],[[216762,593596],[-37602,3733],[-18781,15395],[-9088,-117],[-15724,-15920],[-26864,-50735],[-8486,-27117]],[[100217,518835],[-79144,51027],[-15483,19652],[-5590,22335],[5228,15687],[25899,35223],[31127,27467],[1528,11896]],[[63782,702122],[14960,-5248],[31449,3673]],[[110191,700547],[29719,-9913],[43352,-6298],[16448,2566]],[[662350,888732],[33459,292],[75444,-10730],[12306,-5890],[12427,-13996],[4303,-9564],[1729,-29799],[13955,-33356],[34022,-25426],[22078,-8048]],[[729389,708537],[-23084,24026]],[[706305,732563],[-16528,27816],[-16489,11664],[-15684,21110]],[[235261,726381],[-14196,35223],[1488,9039],[19504,21577],[-8928,26300],[764,6123],[24049,19769],[6033,13705],[-2534,20177]],[[261441,878294],[15081,-7173],[28030,4082],[39813,39130],[87550,42104]],[[364755,743526],[25818,-30032]],[[390573,713494],[7842,-15687]],[[147671,235071],[-10697,18544],[-8405,6998],[-13472,1458],[-16006,-23035],[-6113,-21576],[-7681,-10497],[-14638,-525],[-3057,17611],[-17292,48636],[-11703,16328],[-3137,18428],[1689,11780],[8003,8689],[6153,14928],[61731,34523],[2212,28808],[14316,23618]],[[129574,429787],[4706,-17436],[26864,-26417],[27869,-14346],[26623,-6706],[42306,13762],[46610,2041],[13673,6007]],[[740368,184569],[8726,-25950],[11140,-17087],[-25054,9506],[-30765,-6881],[14075,-21286],[-7359,-11896],[-9008,-1283],[-10657,9156],[-45042,-642],[-42870,36739],[-12346,-991],[-2212,-10789],[7159,-9097],[-27186,-19128],[7038,-18136],[23204,-19885],[-18057,-11722],[-63058,-16620],[-14356,-20935],[-19666,-7406],[-33781,24259]],[[216762,593596],[46770,-8805],[14920,4023]],[[328963,595113],[8888,4606]],[[337851,599719],[-29237,-76102],[-19384,-31432],[-1086,-12888],[8767,-20235],[29398,-37789]],[[129574,429787],[54372,30266],[-161,11313],[-2614,12538],[-7641,11314],[-73313,23617]],[[195568,493818],[1046,3266],[-4786,3849],[-3579,-3616],[7319,-3499]],[[706305,732563],[29076,-31957],[3016,-10497]],[[738397,690109],[-13392,-26067]],[[725005,664042],[-14839,-8048],[-41141,-11838]],[[634681,627361],[-55095,-5831]],[[696452,569162],[-16971,22918]],[[669025,644156],[24492,4665],[31488,15221]],[[867770,613074],[-26944,-14987],[-7802,-11197],[2413,-11313],[7641,-8223],[42508,-11546],[1890,-7290],[-45966,-28166]],[[841510,520352],[-52964,13062],[-92094,35748]],[[337851,599719],[13391,8398]],[[367731,601411],[14719,3499],[11461,4898]],[[493605,607009],[7842,-3966]],[[496501,437135],[-170192,-15862]],[[199710,686902],[-37722,-117],[-51797,13762]],[[63782,702122],[482,30441],[-12346,36622],[21194,20177],[2614,20061],[6314,13704],[39572,10964],[33218,15220],[11783,11896],[25497,8398],[36153,21752],[18540,758],[14638,-13821]],[[755167,257639],[-45122,14579]],[[712056,348845],[15081,-5307],[29598,29450],[12708,-4782],[10979,2741],[-3137,33123],[18339,2624],[12587,-10788],[-5630,-10439],[10537,-21227],[19705,-17028],[14116,-24376],[5027,-19652],[-27347,-3849],[-25778,-20469],[-7882,-32890],[23124,-26067],[52843,18253],[-402,-17962],[-31006,-12771],[-56262,-6939]],[[842193,315663],[-4142,8923],[-33942,-13238],[242,-7406],[20751,-1983],[17091,13704]],[[702364,556799],[-5912,12363]],[[841510,520352],[-47334,-45195],[-14960,-27933],[-19183,-20469],[-43795,-10672],[-7882,-17611]]],"bbox":[45.9643,54.6333,48.4509,56.3481],"transform":{"scale":[0.000002486602486602482,0.0000017148017148017185],"translate":[45.9643,54.6333]}}