{"type":"Topology","objects":{"muni":{"type":"GeometryCollection","geometries":[{"type":"MultiPolygon","arcs":[[[0]],[[1]],[[2]],[[3]],[[4]],[[5]],[[6]],[[7]],[[8]]],"properties":{"GID_2":"RUS.14.1_1","GID_0":"RUS","COUNTRY":"Russia","GID_1":"RUS.14_1","NAME_1":"CityofSt.Petersburg","NL_NAME_1":"Санкт-Петербург(горсовет)","NAME_2":"Sankt-Peterburggorsovet","VARNAME_2":"Petrogradskiy","NL_NAME_2":"Санкт-Петербург(горсовет)","TYPE_2":"Raion","ENGTYPE_2":"District","CC_2":"R06011","HASC_2":"RU.SP.PG"}}]}},"arcs":[[[691053,796379],[26590,-12669],[-14985,-22776],[-16013,-50377],[2498,-35143],[20493,-26093],[106655,-71795],[3820,-16591],[-5583,-40574],[-17775,-62292],[-1910,-29563],[16013,-54902],[138827,-79637],[38270,-32429],[12046,-27149],[-2865,-22625],[-14250,-30618],[-51564,-44947],[-27839,-3771],[-32614,16441],[-23799,-11916],[-17188,-21870],[-22917,-72247],[-75217,-37557],[-35184,-5279],[-91744,15535],[-9402,19005],[-118481,92609],[-86675,123228],[-69561,54148],[0,33936],[-48994,-4977],[-78816,58672],[14104,104676],[62509,-302],[5803,-22021],[129645,-48416],[47158,-35294],[57587,10558],[34009,-11312],[-4480,4977],[4480,9352],[18364,-3469],[-4922,5128],[5363,9200],[-26150,20061],[-260320,108446],[-26149,26094],[-119142,28657],[68532,-16893],[10210,13273],[-13148,34238],[-29822,14178],[2644,5430],[56633,-18853],[30630,3167],[-5729,-21116],[40399,-31071],[-16747,-16139],[6978,-7541],[-15499,6787],[16307,-18401],[276259,-116139],[29014,22172],[-4921,9201],[4921,10105],[7713,-754],[-2865,-7994],[15426,8296],[1616,11312],[-9476,15083],[-10430,-5430],[-9770,26395],[7346,20966],[27324,9200],[-34229,3017],[16674,18401],[-31805,1659],[4921,2112],[-3305,12519],[-8521,-11313],[-37608,3017],[-48553,18854],[-44881,754],[60086,3921],[-53548,0],[-28280,14028],[735,26696],[-11459,11011],[9990,9502],[0,23530],[-20714,14177],[13001,11011],[-23652,20362],[17555,25189],[-10724,54901],[-45468,32278],[-12267,-3168],[-61260,31524],[-145365,25038],[-45908,-28206],[-24461,-3167],[-24460,-25189],[-20787,0],[6097,50981],[24680,33936],[62730,59578],[31732,14781],[40032,302],[134787,-45550],[49068,-34842],[177170,-84766],[164757,-38462]],[[441310,592458],[0,-5430],[-7345,3771],[7345,1659]],[[375789,642533],[-13368,2263],[13368,7089],[0,-9352]],[[353239,720210],[3012,6335],[5362,0],[-8374,-6335]],[[222932,558069],[-1616,2111],[3305,1207],[-1689,-3318]],[[244601,565610],[-441,3771],[2498,0],[-2057,-3771]],[[262524,633031],[4260,-2262],[-5362,0],[1102,2262]],[[296606,633785],[13369,8748],[5729,-3921],[-19098,-4827]],[[347069,712367],[0,1659],[2350,0],[0,-1659],[-2350,0]]],"bbox":[29.4134,59.6032,30.7748,60.2662],"transform":{"scale":[0.0000013614013614013612,6.630006630006597e-7],"translate":[29.4134,59.6032]}}