{"type":"Topology","objects":{"muni":{"type":"GeometryCollection","geometries":[{"type":"MultiPolygon","arcs":[[[0,1,2,3,4,5,6,7,8,9,10]]],"properties":{"GID_2":"RUS.15.1_1","GID_0":"RUS","COUNTRY":"Russia","GID_1":"RUS.15_1","NAME_1":"Dagestan","NL_NAME_1":"РеспубликаДагестан","NAME_2":"Agul'skiyrayon","VARNAME_2":"NA","NL_NAME_2":"Агульскийрайон","TYPE_2":"Raion","ENGTYPE_2":"District","CC_2":"R39000","HASC_2":"RU.DA.AG"}},{"type":"MultiPolygon","arcs":[[[11,12,13,14,15,16,17]]],"properties":{"GID_2":"RUS.15.2_1","GID_0":"RUS","COUNTRY":"Russia","GID_1":"RUS.15_1","NAME_1":"Dagestan","NL_NAME_1":"РеспубликаДагестан","NAME_2":"Akhtynskiyrayon","VARNAME_2":"NA","NL_NAME_2":"Ахтынскийрайон","TYPE_2":"Raion","ENGTYPE_2":"District","CC_2":"R39000","HASC_2":"RU.DA.AT"}},{"type":"MultiPolygon","arcs":[[[18,19,20,21,22]]],"properties":{"GID_2":"RUS.15.3_1","GID_0":"RUS","COUNTRY":"Russia","GID_1":"RUS.15_1","NAME_1":"Dagestan","NL_NAME_1":"РеспубликаДагестан","NAME_2":"Akhvakhskiyrayon","VARNAME_2":"NA","NL_NAME_2":"Ахвахскийрайон","TYPE_2":"Raion","ENGTYPE_2":"District","CC_2":"R39000","HASC_2":"RU.DA.AV"}},{"type":"MultiPolygon","arcs":[[[23,24,25,26,27,28,29,30,31]]],"properties":{"GID_2":"RUS.15.4_1","GID_0":"RUS","COUNTRY":"Russia","GID_1":"RUS.15_1","NAME_1":"Dagestan","NL_NAME_1":"РеспубликаДагестан","NAME_2":"Akushinskiyrayon","VARNAME_2":"NA","NL_NAME_2":"Акушинскийрайон","TYPE_2":"Raion","ENGTYPE_2":"District","CC_2":"R39000","HASC_2":"RU.DA.AS"}},{"type":"MultiPolygon","arcs":[[[32,33,34,35,36,37,38,39,40]]],"properties":{"GID_2":"RUS.15.5_1","GID_0":"RUS","COUNTRY":"Russia","GID_1":"RUS.15_1","NAME_1":"Dagestan","NL_NAME_1":"РеспубликаДагестан","NAME_2":"Babayurtovskiyrayon","VARNAME_2":"NA","NL_NAME_2":"Бабаюртовскийрайон","TYPE_2":"Raion","ENGTYPE_2":"District","CC_2":"R39000","HASC_2":"RU.DA.BA"}},{"type":"MultiPolygon","arcs":[[[41,42,43,44,45,-19,46,47]]],"properties":{"GID_2":"RUS.15.6_1","GID_0":"RUS","COUNTRY":"Russia","GID_1":"RUS.15_1","NAME_1":"Dagestan","NL_NAME_1":"РеспубликаДагестан","NAME_2":"Botlikhskiyrayon","VARNAME_2":"NA","NL_NAME_2":"Ботлихскийрайон","TYPE_2":"Raion","ENGTYPE_2":"District","CC_2":"R39000","HASC_2":"RU.DA.BO"}},{"type":"MultiPolygon","arcs":[[[48]]],"properties":{"GID_2":"RUS.15.7_1","GID_0":"RUS","COUNTRY":"Russia","GID_1":"RUS.15_1","NAME_1":"Dagestan","NL_NAME_1":"РеспубликаДагестан","NAME_2":"Buynaksk","VARNAME_2":"NA","NL_NAME_2":"Буйнакск","TYPE_2":"Gorod","ENGTYPE_2":"City","CC_2":"NA","HASC_2":"RU.DA.BG"}},{"type":"MultiPolygon","arcs":[[[49,50,51,52,53,54,55,56,57,58,59,60,61,62],[-49]]],"properties":{"GID_2":"RUS.15.8_1","GID_0":"RUS","COUNTRY":"Russia","GID_1":"RUS.15_1","NAME_1":"Dagestan","NL_NAME_1":"РеспубликаДагестан","NAME_2":"Buynakskiyrayon","VARNAME_2":"NA","NL_NAME_2":"Буйнакскийрайон","TYPE_2":"Raion","ENGTYPE_2":"District","CC_2":"R39000","HASC_2":"RU.DA.BR"}},{"type":"MultiPolygon","arcs":[[[63,64,65,66,67,68,69,70,71,72]]],"properties":{"GID_2":"RUS.15.9_1","GID_0":"RUS","COUNTRY":"Russia","GID_1":"RUS.15_1","NAME_1":"Dagestan","NL_NAME_1":"РеспубликаДагестан","NAME_2":"Charodinskiyrayon","VARNAME_2":"NA","NL_NAME_2":"Чародинскийрайон","TYPE_2":"Raion","ENGTYPE_2":"District","CC_2":"R39003","HASC_2":"RU.DA.CH"}},{"type":"MultiPolygon","arcs":[[[73]]],"properties":{"GID_2":"RUS.15.10_1","GID_0":"RUS","COUNTRY":"Russia","GID_1":"RUS.15_1","NAME_1":"Dagestan","NL_NAME_1":"РеспубликаДагестан","NAME_2":"DagestanskieOg","VARNAME_2":"DagestankiyeOgni","NL_NAME_2":"ДагестанскиеОгни","TYPE_2":"Gorod","ENGTYPE_2":"City","CC_2":"NA","HASC_2":"RU.DA.DO"}},{"type":"MultiPolygon","arcs":[[[-11,74,-24,75,76]]],"properties":{"GID_2":"RUS.15.11_1","GID_0":"RUS","COUNTRY":"Russia","GID_1":"RUS.15_1","NAME_1":"Dagestan","NL_NAME_1":"РеспубликаДагестан","NAME_2":"Dakhadayevskiyrayon","VARNAME_2":"NA","NL_NAME_2":"Дахадаевскийрайон","TYPE_2":"Raion","ENGTYPE_2":"District","CC_2":"R39001","HASC_2":"RU.DA.DA"}},{"type":"MultiPolygon","arcs":[[[77]]],"properties":{"GID_2":"RUS.15.12_1","GID_0":"RUS","COUNTRY":"Russia","GID_1":"RUS.15_1","NAME_1":"Dagestan","NL_NAME_1":"РеспубликаДагестан","NAME_2":"Derbent","VARNAME_2":"NA","NL_NAME_2":"Дербент","TYPE_2":"Gorod","ENGTYPE_2":"City","CC_2":"NA","HASC_2":"RU.DA.DG"}},{"type":"MultiPolygon","arcs":[[[78,79,80,81,82,83,84,85,86],[-74],[-78]]],"properties":{"GID_2":"RUS.15.13_1","GID_0":"RUS","COUNTRY":"Russia","GID_1":"RUS.15_1","NAME_1":"Dagestan","NL_NAME_1":"РеспубликаДагестан","NAME_2":"Derbentskiyrayon","VARNAME_2":"NA","NL_NAME_2":"Дербентскийрайон","TYPE_2":"Raion","ENGTYPE_2":"District","CC_2":"R39001","HASC_2":"RU.DA.DR"}},{"type":"MultiPolygon","arcs":[[[87,88,89,90,91,92,93,94]]],"properties":{"GID_2":"RUS.15.14_1","GID_0":"RUS","COUNTRY":"Russia","GID_1":"RUS.15_1","NAME_1":"Dagestan","NL_NAME_1":"РеспубликаДагестан","NAME_2":"Gergebil'skiyrayon","VARNAME_2":"NA","NL_NAME_2":"Гергебильскийрайон","TYPE_2":"Raion","ENGTYPE_2":"District","CC_2":"R39000","HASC_2":"RU.DA.GE"}},{"type":"MultiPolygon","arcs":[[[95,96,97,98,99,100,101,102,-44,103,-42]]],"properties":{"GID_2":"RUS.15.15_1","GID_0":"RUS","COUNTRY":"Russia","GID_1":"RUS.15_1","NAME_1":"Dagestan","NL_NAME_1":"РеспубликаДагестан","NAME_2":"Gumbetovskiyrayon","VARNAME_2":"NA","NL_NAME_2":"Гумбетовскийрайон","TYPE_2":"Raion","ENGTYPE_2":"District","CC_2":"R39000","HASC_2":"RU.DA.GM"}},{"type":"MultiPolygon","arcs":[[[-73,104,105,106,107,108,-91,109,110,111,112,113,114]]],"properties":{"GID_2":"RUS.15.16_1","GID_0":"RUS","COUNTRY":"Russia","GID_1":"RUS.15_1","NAME_1":"Dagestan","NL_NAME_1":"РеспубликаДагестан","NAME_2":"Gunibskiyrayon","VARNAME_2":"NA","NL_NAME_2":"Гунибскийрайон","TYPE_2":"Raion","ENGTYPE_2":"District","CC_2":"R39001","HASC_2":"RU.DA.GN"}},{"type":"MultiPolygon","arcs":[[[115]]],"properties":{"GID_2":"RUS.15.17_1","GID_0":"RUS","COUNTRY":"Russia","GID_1":"RUS.15_1","NAME_1":"Dagestan","NL_NAME_1":"РеспубликаДагестан","NAME_2":"Izberbash","VARNAME_2":"NA","NL_NAME_2":"Избербаш","TYPE_2":"Gorsovet","ENGTYPE_2":"District","CC_2":"NA","HASC_2":"RU.DA.IZ"}},{"type":"MultiPolygon","arcs":[[[116,117,118,119,120,-62,121,122],[123]]],"properties":{"GID_2":"RUS.15.18_1","GID_0":"RUS","COUNTRY":"Russia","GID_1":"RUS.15_1","NAME_1":"Dagestan","NL_NAME_1":"РеспубликаДагестан","NAME_2":"Karabudokhkentskiyrayon","VARNAME_2":"Karabudokhkents|Leninskiy","NL_NAME_2":"Карабудахкентскийрайон","TYPE_2":"Raion","ENGTYPE_2":"District","CC_2":"R39002","HASC_2":"RU.DA.KB"}},{"type":"MultiPolygon","arcs":[[[-124]]],"properties":{"GID_2":"RUS.15.19_1","GID_0":"RUS","COUNTRY":"Russia","GID_1":"RUS.15_1","NAME_1":"Dagestan","NL_NAME_1":"РеспубликаДагестан","NAME_2":"Kaspiysk","VARNAME_2":"NA","NL_NAME_2":"Каспийск","TYPE_2":"Gorod","ENGTYPE_2":"City","CC_2":"NA","HASC_2":"RU.DA.KP"}},{"type":"MultiPolygon","arcs":[[[124,-87,125,126,127,128,129,-118],[-116]]],"properties":{"GID_2":"RUS.15.20_1","GID_0":"RUS","COUNTRY":"Russia","GID_1":"RUS.15_1","NAME_1":"Dagestan","NL_NAME_1":"РеспубликаДагестан","NAME_2":"Kayakentskiyrayon","VARNAME_2":"NA","NL_NAME_2":"Каякентскийрайон","TYPE_2":"Raion","ENGTYPE_2":"District","CC_2":"R39001","HASC_2":"RU.DA.KK"}},{"type":"MultiPolygon","arcs":[[[-1,-77,-128,130,-84,131,132]]],"properties":{"GID_2":"RUS.15.21_1","GID_0":"RUS","COUNTRY":"Russia","GID_1":"RUS.15_1","NAME_1":"Dagestan","NL_NAME_1":"РеспубликаДагестан","NAME_2":"Kaytagskiyrayon","VARNAME_2":"NA","NL_NAME_2":"Кайтагскийрайон","TYPE_2":"Raion","ENGTYPE_2":"District","CC_2":"R39001","HASC_2":"RU.DA.KA"}},{"type":"MultiPolygon","arcs":[[[133,134,135,136,137,-54,-97]]],"properties":{"GID_2":"RUS.15.22_1","GID_0":"RUS","COUNTRY":"Russia","GID_1":"RUS.15_1","NAME_1":"Dagestan","NL_NAME_1":"РеспубликаДагестан","NAME_2":"Kazbekovskiyrayon","VARNAME_2":"NA","NL_NAME_2":"Казбековскийрайон","TYPE_2":"Raion","ENGTYPE_2":"District","CC_2":"R39001","HASC_2":"RU.DA.KZ"}},{"type":"MultiPolygon","arcs":[[[138,-39,139,-37,140,141,142,143,144]]],"properties":{"GID_2":"RUS.15.23_1","GID_0":"RUS","COUNTRY":"Russia","GID_1":"RUS.15_1","NAME_1":"Dagestan","NL_NAME_1":"РеспубликаДагестан","NAME_2":"Khasavyurtovskiyrayon","VARNAME_2":"NA","NL_NAME_2":"Хасавюртовскийрайон","TYPE_2":"Raion","ENGTYPE_2":"District","CC_2":"R39003","HASC_2":"RU.DA.KG"}},{"type":"MultiPolygon","arcs":[[[145,-4,146,147,148,149,150]]],"properties":{"GID_2":"RUS.15.24_1","GID_0":"RUS","COUNTRY":"Russia","GID_1":"RUS.15_1","NAME_1":"Dagestan","NL_NAME_1":"РеспубликаДагестан","NAME_2":"Khivskiyrayon","VARNAME_2":"NA","NL_NAME_2":"Хивскийрайон","TYPE_2":"Raion","ENGTYPE_2":"District","CC_2":"R39003","HASC_2":"RU.DA.KV"}},{"type":"MultiPolygon","arcs":[[[-20,-46,151,-102,152,-93,153,-108,154,155,156]]],"properties":{"GID_2":"RUS.15.25_1","GID_0":"RUS","COUNTRY":"Russia","GID_1":"RUS.15_1","NAME_1":"Dagestan","NL_NAME_1":"РеспубликаДагестан","NAME_2":"Khunzakhskiyrayon","VARNAME_2":"NA","NL_NAME_2":"Хунзахскийрайон","TYPE_2":"Raion","ENGTYPE_2":"District","CC_2":"R39003","HASC_2":"RU.DA.KH"}},{"type":"MultiPolygon","arcs":[[[157]]],"properties":{"GID_2":"RUS.15.26_1","GID_0":"RUS","COUNTRY":"Russia","GID_1":"RUS.15_1","NAME_1":"Dagestan","NL_NAME_1":"РеспубликаДагестан","NAME_2":"Kizilyurt","VARNAME_2":"NA","NL_NAME_2":"Кизилюрт","TYPE_2":"Gorsovet","ENGTYPE_2":"District","CC_2":"NA","HASC_2":"RU.DA.KI"}},{"type":"MultiPolygon","arcs":[[[158,159,160,161,162,-56,163,-137,164,-143,165,-141,-36,166,-34],[-158]]],"properties":{"GID_2":"RUS.15.27_1","GID_0":"RUS","COUNTRY":"Russia","GID_1":"RUS.15_1","NAME_1":"Dagestan","NL_NAME_1":"РеспубликаДагестан","NAME_2":"Kizilyurtovskiy/Dokuzparinskiyr","VARNAME_2":"Kizilyurtovskiy","NL_NAME_2":"Кизилюртовский/Докузпаринскийра","TYPE_2":"Raion","ENGTYPE_2":"District","CC_2":"R39001","HASC_2":"RU.DA.KT"}},{"type":"MultiPolygon","arcs":[[[167]]],"properties":{"GID_2":"RUS.15.28_1","GID_0":"RUS","COUNTRY":"Russia","GID_1":"RUS.15_1","NAME_1":"Dagestan","NL_NAME_1":"РеспубликаДагестан","NAME_2":"Kizlyar","VARNAME_2":"NA","NL_NAME_2":"Кизляр","TYPE_2":"Gorsovet","ENGTYPE_2":"District","CC_2":"NA","HASC_2":"RU.DA.KY"}},{"type":"MultiPolygon","arcs":[[[168,-41,169,170,171,172],[-168]]],"properties":{"GID_2":"RUS.15.29_1","GID_0":"RUS","COUNTRY":"Russia","GID_1":"RUS.15_1","NAME_1":"Dagestan","NL_NAME_1":"РеспубликаДагестан","NAME_2":"Kizlyarskiyrayon","VARNAME_2":"NA","NL_NAME_2":"Кизлярскийрайон","TYPE_2":"Raion","ENGTYPE_2":"District","CC_2":"R39001","HASC_2":"RU.DA.KL"}},{"type":"MultiPolygon","arcs":[[[-10,173,174,175,176,-28,177,-26,178]]],"properties":{"GID_2":"RUS.15.30_1","GID_0":"RUS","COUNTRY":"Russia","GID_1":"RUS.15_1","NAME_1":"Dagestan","NL_NAME_1":"РеспубликаДагестан","NAME_2":"Kulinskiyrayon","VARNAME_2":"NA","NL_NAME_2":"Кулинскийрайон","TYPE_2":"Raion","ENGTYPE_2":"District","CC_2":"R39001","HASC_2":"RU.DA.KU"}},{"type":"MultiPolygon","arcs":[[[-6,179,180,181,182,183,184,-16,185,186]]],"properties":{"GID_2":"RUS.15.31_1","GID_0":"RUS","COUNTRY":"Russia","GID_1":"RUS.15_1","NAME_1":"Dagestan","NL_NAME_1":"РеспубликаДагестан","NAME_2":"Kurakhskiyrayon","VARNAME_2":"NA","NL_NAME_2":"Курахскийрайон","TYPE_2":"Raion","ENGTYPE_2":"District","CC_2":"R39001","HASC_2":"RU.DA.KS"}},{"type":"MultiPolygon","arcs":[[[-29,-177,187,188,-64,-115,189,-113,190,191,192,193]]],"properties":{"GID_2":"RUS.15.32_1","GID_0":"RUS","COUNTRY":"Russia","GID_1":"RUS.15_1","NAME_1":"Dagestan","NL_NAME_1":"РеспубликаДагестан","NAME_2":"Lakskiyrayon","VARNAME_2":"NA","NL_NAME_2":"Лакскийрайон","TYPE_2":"Raion","ENGTYPE_2":"District","CC_2":"R39002","HASC_2":"RU.DA.LA"}},{"type":"MultiPolygon","arcs":[[[-31,194,195,-192,-111,196,-89,197,-63,-121,198]]],"properties":{"GID_2":"RUS.15.33_1","GID_0":"RUS","COUNTRY":"Russia","GID_1":"RUS.15_1","NAME_1":"Dagestan","NL_NAME_1":"РеспубликаДагестан","NAME_2":"Levashinskiyrayon","VARNAME_2":"NA","NL_NAME_2":"Левашинскийрайон","TYPE_2":"Raion","ENGTYPE_2":"District","CC_2":"R39002","HASC_2":"RU.DA.LE"}},{"type":"MultiPolygon","arcs":[[[-18,199,-184,200,201,202,203,204,205,206,-80,207]]],"properties":{"GID_2":"RUS.15.34_1","GID_0":"RUS","COUNTRY":"Russia","GID_1":"RUS.15_1","NAME_1":"Dagestan","NL_NAME_1":"РеспубликаДагестан","NAME_2":"Magaramkentskiyrayon","VARNAME_2":"NA","NL_NAME_2":"Магарамкентскийрайон","TYPE_2":"Raion","ENGTYPE_2":"District","CC_2":"R39002","HASC_2":"RU.DA.MG"}},{"type":"MultiPolygon","arcs":[[[208,-123,209,-60,210,211,212,-160]]],"properties":{"GID_2":"RUS.15.35_1","GID_0":"RUS","COUNTRY":"Russia","GID_1":"RUS.15_1","NAME_1":"Dagestan","NL_NAME_1":"РеспубликаДагестан","NAME_2":"Makhachkalagorsovet","VARNAME_2":"Makhachkala","NL_NAME_2":"Махачкала(горсовет)","TYPE_2":"Gorsovet","ENGTYPE_2":"District","CC_2":"R39004","HASC_2":"RU.DA.MK"}},{"type":"MultiPolygon","arcs":[[[213,214]]],"properties":{"GID_2":"RUS.15.36_1","GID_0":"RUS","COUNTRY":"Russia","GID_1":"RUS.15_1","NAME_1":"Dagestan","NL_NAME_1":"РеспубликаДагестан","NAME_2":"Nogayskiyrayon","VARNAME_2":"NA","NL_NAME_2":"Ногайскийрайон","TYPE_2":"Raion","ENGTYPE_2":"District","CC_2":"R39002","HASC_2":"RU.DA.NG"}},{"type":"MultiPolygon","arcs":[[[-145,215,-135,216]]],"properties":{"GID_2":"RUS.15.37_1","GID_0":"RUS","COUNTRY":"Russia","GID_1":"RUS.15_1","NAME_1":"Dagestan","NL_NAME_1":"РеспубликаДагестан","NAME_2":"Novolakskiyrayon","VARNAME_2":"NA","NL_NAME_2":"Новолакскийрайон","TYPE_2":"Raion","ENGTYPE_2":"District","CC_2":"R39002","HASC_2":"RU.DA.NV"}},{"type":"MultiPolygon","arcs":[[[217,-65,-189,-175,218,-8,219,220,-14,221,222]]],"properties":{"GID_2":"RUS.15.38_1","GID_0":"RUS","COUNTRY":"Russia","GID_1":"RUS.15_1","NAME_1":"Dagestan","NL_NAME_1":"РеспубликаДагестан","NAME_2":"Rutul'skiyrayon","VARNAME_2":"NA","NL_NAME_2":"Рутульскийрайон","TYPE_2":"Raion","ENGTYPE_2":"District","CC_2":"R39002","HASC_2":"RU.DA.RU"}},{"type":"MultiPolygon","arcs":[[[-32,-199,-120,223,-129,-76]]],"properties":{"GID_2":"RUS.15.39_1","GID_0":"RUS","COUNTRY":"Russia","GID_1":"RUS.15_1","NAME_1":"Dagestan","NL_NAME_1":"РеспубликаДагестан","NAME_2":"Sergokalinskiyrayon","VARNAME_2":"NA","NL_NAME_2":"Сергокалинскийрайон","TYPE_2":"Raion","ENGTYPE_2":"District","CC_2":"R39002","HASC_2":"RU.DA.SE"}},{"type":"MultiPolygon","arcs":[[[-21,-157,224,225,-106,226,-71,227,228,229,230,231]]],"properties":{"GID_2":"RUS.15.40_1","GID_0":"RUS","COUNTRY":"Russia","GID_1":"RUS.15_1","NAME_1":"Dagestan","NL_NAME_1":"РеспубликаДагестан","NAME_2":"Shamil'skiyrayon","VARNAME_2":"Sovetskiy","NL_NAME_2":"Шамильскийрайон","TYPE_2":"Raion","ENGTYPE_2":"District","CC_2":"R39002","HASC_2":"RU.DA.SH"}},{"type":"MultiPolygon","arcs":[[[232,-206,233,234,-203,235,-201,236,-182,237,-150,238,239]]],"properties":{"GID_2":"RUS.15.41_1","GID_0":"RUS","COUNTRY":"Russia","GID_1":"RUS.15_1","NAME_1":"Dagestan","NL_NAME_1":"РеспубликаДагестан","NAME_2":"Suleyman-Stal'skiyrayon","VARNAME_2":"NA","NL_NAME_2":"Сулейманстальскийрайон","TYPE_2":"Raion","ENGTYPE_2":"District","CC_2":"R39002","HASC_2":"RU.DA.SU"}},{"type":"MultiPolygon","arcs":[[[240,-2,-133,241,-82,242,-240,243,-148]]],"properties":{"GID_2":"RUS.15.42_1","GID_0":"RUS","COUNTRY":"Russia","GID_1":"RUS.15_1","NAME_1":"Dagestan","NL_NAME_1":"РеспубликаДагестан","NAME_2":"Tabasaranskiyrayon","VARNAME_2":"NA","NL_NAME_2":"Табасаранскийрайон","TYPE_2":"Raion","ENGTYPE_2":"District","CC_2":"R39003","HASC_2":"RU.DA.TB"}},{"type":"MultiPolygon","arcs":[[[-173,244,-171,245,-214,246]]],"properties":{"GID_2":"RUS.15.43_1","GID_0":"RUS","COUNTRY":"Russia","GID_1":"RUS.15_1","NAME_1":"Dagestan","NL_NAME_1":"РеспубликаДагестан","NAME_2":"Tarumovskiyrayon","VARNAME_2":"NA","NL_NAME_2":"Тарумовскийрайон","TYPE_2":"Raion","ENGTYPE_2":"District","CC_2":"R39003","HASC_2":"RU.DA.TR"}},{"type":"MultiPolygon","arcs":[[[247,248,249,250,-229,251,-69,252,-67,253,254]]],"properties":{"GID_2":"RUS.15.44_1","GID_0":"RUS","COUNTRY":"Russia","GID_1":"RUS.15_1","NAME_1":"Dagestan","NL_NAME_1":"РеспубликаДагестан","NAME_2":"Tlyaratinskiyrayon","VARNAME_2":"NA","NL_NAME_2":"Тляратинскийрайон","TYPE_2":"Raion","ENGTYPE_2":"District","CC_2":"R39003","HASC_2":"RU.DA.TL"}},{"type":"MultiPolygon","arcs":[[[-47,-23,255,-231,256,-250,257,258,259,260,261]]],"properties":{"GID_2":"RUS.15.45_1","GID_0":"RUS","COUNTRY":"Russia","GID_1":"RUS.15_1","NAME_1":"Dagestan","NL_NAME_1":"РеспубликаДагестан","NAME_2":"Tsumadinskiyrayon","VARNAME_2":"NA","NL_NAME_2":"Цумадинскийрайон","TYPE_2":"Raion","ENGTYPE_2":"District","CC_2":"R39003","HASC_2":"RU.DA.TM"}},{"type":"MultiPolygon","arcs":[[[-261,262,263,264,-248,265]]],"properties":{"GID_2":"RUS.15.46_1","GID_0":"RUS","COUNTRY":"Russia","GID_1":"RUS.15_1","NAME_1":"Dagestan","NL_NAME_1":"РеспубликаДагестан","NAME_2":"Tsuntinskiyrayon","VARNAME_2":"NA","NL_NAME_2":"Цунтинскийрайон","TYPE_2":"Raion","ENGTYPE_2":"District","CC_2":"R39003","HASC_2":"RU.DA.TS"}},{"type":"MultiPolygon","arcs":[[[266,-51,267,-95,268,-100]]],"properties":{"GID_2":"RUS.15.47_1","GID_0":"RUS","COUNTRY":"Russia","GID_1":"RUS.15_1","NAME_1":"Dagestan","NL_NAME_1":"РеспубликаДагестан","NAME_2":"Untsukul'skiyrayon","VARNAME_2":"NA","NL_NAME_2":"Унцукульскийрайон","TYPE_2":"Raion","ENGTYPE_2":"District","CC_2":"R39003","HASC_2":"RU.DA.UN"}}]}},"arcs":[[[761810,202963],[16152,-6611],[9376,-2221],[4809,1306]],[[792147,195437],[-15576,-7709],[-1513,-2848]],[[775058,184880],[14216,-7369]],[[789274,177511],[4870,-19285],[6170,-7918],[-12129,-11759]],[[788185,138549],[-6563,-14477],[-8106,-2717]],[[773516,121355],[-9286,4363],[-13792,14425],[-4961,-627],[182,-16358],[-2722,-3763],[-4809,-1647],[-14277,6925],[-7712,-4834],[-11070,-2064],[-13732,2743]],[[691337,120518],[-11857,9042]],[[679480,129560],[-9527,19311],[-13883,14189]],[[656070,163060],[393,7187]],[[656463,170247],[4960,6480],[12069,6611]],[[673492,183338],[27433,3685],[10737,-8388],[3811,-7997],[12583,-3266],[9769,13588],[23592,17796],[393,4207]],[[847589,55686],[-4598,-4050],[-10919,-3711],[-2722,-3240],[-1149,-12413],[-11917,-10426],[423,-9015],[-2420,-3319],[-7803,-2091],[-20235,-339],[-7440,-6063],[-6231,-1019],[-10072,2221],[-8741,6820],[-12189,79],[-7955,3711],[-12159,-5697],[-14609,-2352],[-12250,7866],[515,4965],[-3811,2639],[-24076,-26],[-24137,6585],[-16696,7055],[-5081,11890],[0,7186],[3025,2431]],[[624342,55373],[10071,1724]],[[634413,57097],[1210,-2404],[33634,18710],[4991,-627],[-3176,-5879],[25800,5017],[3448,10740],[11221,6559],[1301,2900]],[[712842,92113],[-3781,5305],[16696,4050]],[[725757,101468],[8076,-1541]],[[733833,99927],[80394,-33292],[3841,-1150]],[[818068,65485],[4507,3528],[6987,-941],[18027,-12386]],[[318553,358628],[9799,9120],[30186,6716],[22171,-6324],[6654,1986]],[[387363,370126],[-2390,-6794],[14065,-10609],[-182,-2979]],[[398856,349744],[-18510,-1986],[-18572,-13981],[-4173,-914],[-11131,4651]],[[346470,337514],[-9165,10217]],[[337305,347731],[-18752,10897]],[[715836,280756],[-16393,-21349],[7440,-11184],[4991,-2038],[1149,-4861],[-6321,-9773],[454,-20905]],[[707156,210646],[-27827,-18606]],[[679329,192040],[-7985,9747],[-151,5540],[8741,10453]],[[679934,217780],[-2541,4050],[-30609,22081]],[[646784,243911],[-2510,8127],[-4688,4625],[-6836,1647],[-11070,-4208]],[[621680,254102],[-8499,7918],[-15577,23127]],[[597604,285147],[9558,21898]],[[607162,307045],[8166,-26],[31517,-7500],[26223,9564],[10798,496],[13127,-7316],[14881,1750],[2722,2614]],[[714596,306627],[7562,-6481],[726,-3475],[-7048,-15915]],[[684622,647512],[-2571,-2222],[3116,-5147],[-3146,-8807],[-20053,-10086],[1421,-1464],[14730,1437],[-6170,-9590],[10979,-8466],[5021,4050],[13702,34833],[1966,15104],[19115,23701],[5203,16045],[6624,9146],[14155,5880],[14004,1149],[7471,-1907],[3629,-5043],[-10737,-8572],[-42587,-59867],[-32121,-62951],[6261,-13065]],[[694634,561670],[-10949,-5775],[-11978,-1856]],[[671707,554039],[-124070,21298]],[[547637,575337],[1180,5043]],[[548817,580380],[4779,5017]],[[553596,585397],[-5505,8205]],[[548091,593602],[-11161,1725],[-33634,-2848],[-35297,1751],[-24469,6846],[-2994,6376],[-4235,1411],[-17089,-11550],[-5626,810],[-2480,10610],[-29490,5958]],[[381616,614691],[1724,10217],[9346,4259],[13369,17535],[16393,10975]],[[422448,657677],[10919,-3789],[17301,5226],[22291,-1934],[14609,9538],[5868,1281],[40711,-4573],[27827,19389],[10889,1228],[45097,-3344],[32726,-5723],[4900,-3685],[-333,-6062],[8288,-10557],[15334,-9172],[5747,2012]],[[364648,433312],[-10919,-3162],[-10677,-7160],[14851,-17743],[-9981,-9198],[6412,-5384]],[[354334,390665],[7924,-3083],[15607,-366]],[[377865,387216],[27706,-4782]],[[405571,382434],[-3206,-418]],[[402365,382016],[-15002,-11890]],[[318553,358628],[-14035,1934],[-6139,3031],[-15910,-888],[-12945,6115],[-5959,731],[-8499,6794]],[[255066,376345],[1996,11838],[6987,2927],[33120,1280],[15728,5827],[-4295,5174],[-18329,9669],[-3811,3476],[-212,5017],[31244,16489],[22292,104],[16302,7709],[5475,-2169],[3085,-10374]],[[586020,418548],[-8621,-5828],[-2631,5174],[-9830,3450],[12885,5461],[7985,-3318],[212,-4939]],[[566148,370440],[3266,5932]],[[569414,376372],[-3720,2404],[-15607,2116],[-3841,9408],[-41982,25713],[6654,17665],[-181,5775]],[[510737,439453],[-12431,-2718],[-17059,-7447]],[[481247,429288],[-19448,2953],[-8469,3972]],[[453330,436213],[5565,1986],[16545,22603],[5232,1673],[8136,-4207],[3902,3083],[3116,3815],[-5203,6585],[635,3633],[18783,14581],[877,4259],[-3054,3502],[-8863,2064]],[[499001,499790],[15668,6795],[5323,1097]],[[519992,507682],[12189,-3188],[13006,4129],[8439,235],[45732,-18318],[4235,2117],[5293,10348],[4869,2116],[9830,-1594],[16545,6899],[2510,-1019],[-7773,-10740],[-605,-4495],[3418,-4886]],[[637680,489286],[11826,-2509]],[[649506,486777],[-1603,-3528]],[[647903,483249],[1603,-3554],[9619,-14215]],[[659125,465480],[6986,-3031]],[[666111,462449],[19781,-16306]],[[685892,446143],[-1905,-2535],[3599,-6429],[-3055,-2926],[-40802,2090],[-9497,-1986],[-2147,-9459],[6079,-24433],[-6261,-9251],[11947,-15025]],[[643850,376189],[-21626,-6324],[-56076,575]],[[525406,263275],[3237,-5201],[-273,-12072],[-2873,-8650],[18178,1176],[4325,-1672],[-1028,-5174],[-12673,-7840],[-2692,-5069],[3145,-22029]],[[534752,196744],[-17452,-13667],[-6019,758],[-12310,9956],[-8045,862],[-12069,-5540]],[[478857,189113],[-7561,-6663]],[[471296,182450],[-242,9355]],[[471054,191805],[-7047,11132]],[[464007,202937],[-27615,-287],[726,12020],[-4840,5906],[-4022,12334],[11886,5618],[-3085,2639],[-7592,1333],[-22079,-1803],[-5082,2822],[1785,3946],[-2511,5043],[10435,11237]],[[412013,263745],[21445,8676]],[[433458,272421],[3387,6140],[-2419,5775],[1815,2718],[20597,2718],[26829,17430]],[[483667,307202],[11039,-6246]],[[494706,300956],[1241,-10688],[9678,-5801],[-665,-10060],[20446,-11132]],[[906871,235079],[-2843,-236],[-1361,2274],[3055,1176],[1149,-3214]],[[673492,183338],[8438,11472],[25226,15836]],[[715836,280756],[6896,-6768],[12250,-52],[6684,2221],[29037,-3632]],[[770703,272525],[-3721,-13536],[-5111,-2822],[20960,-14660],[999,-5279],[-1180,-4390],[-16091,-3815],[-1210,-8963],[3176,-5435],[-6170,-3972],[-545,-6690]],[[956807,187964],[-19781,-6167],[-10646,1568],[10556,17717],[-28099,21062],[10435,15809],[8892,-4338],[2934,-9538],[10072,-13431],[-60,-4390],[9527,-14085],[6170,-4207]],[[869063,300590],[25105,-33500],[25164,-20357],[16031,-23335],[4355,-10479],[12885,-16933],[7138,-7291],[7985,-3527],[14488,-575]],[[982214,184593],[-8045,-10636],[-8590,-20304],[-4507,-1725]],[[961072,151928],[-56621,18266]],[[904451,170194],[-19387,12204],[6321,3658],[17029,-3293],[6382,5018],[-22594,19703],[-6413,3031],[-13701,967],[-3841,2744],[1089,10348],[-2360,7291],[-5263,3344],[-5051,445],[-2903,-1882],[-17936,-15574],[-6201,6219]],[[829622,224417],[-695,4390]],[[828927,228807],[8801,15156],[-9255,22552],[-6624,9799]],[[821849,276314],[8015,1699]],[[829864,278013],[5596,3815],[7531,10400],[21233,2849]],[[864224,295077],[4839,5513]],[[568235,373131],[-5475,-6036]],[[562760,367095],[22261,-11001],[-635,-4756],[16152,-4025],[2268,-2273]],[[602806,345040],[-23562,-18083],[-22624,-6324]],[[556620,320633],[-9739,-157],[-7410,3032],[-16212,13457]],[[523259,336965],[-2662,16646]],[[520597,353611],[-10314,7160]],[[510283,360771],[22443,-1672]],[[532726,359099],[9558,9120],[25951,4912]],[[364648,433312],[13338,-967],[24409,13458]],[[402395,445803],[12310,2404],[7955,-2352],[6654,-9329],[24016,-313]],[[453330,436213],[18147,-6272],[9770,-653]],[[481247,429288],[24136,9642]],[[505383,438930],[-4325,-8231],[-24136,-21114],[-12552,1437],[-25861,-13589],[-756,-3527],[8771,-7239],[-9467,-6480]],[[437057,380187],[-4023,-575]],[[433034,379612],[-10555,4834]],[[422479,384446],[-16908,-2012]],[[377865,387216],[-7380,-1071],[-16151,4520]],[[494706,300956],[-23561,15993],[-1966,3318]],[[469179,320267],[17452,6246],[-10707,9381]],[[475924,335894],[1149,3920]],[[477073,339814],[13429,-706],[13006,-4129],[19055,11211]],[[522563,346190],[696,-9225]],[[556620,320633],[15275,4521]],[[571895,325154],[-1664,-21036]],[[570231,304118],[-6170,-10348],[-3599,-3528]],[[560462,290242],[-14791,-4834]],[[545671,285408],[-4597,-3554],[-5656,-5984]],[[535418,275870],[-3025,-7291],[-6987,-5304]],[[809418,344178],[-7350,-680],[-13550,4939],[90,7709],[12976,-5383],[7834,-6585]],[[718437,461795],[27645,-9120],[12522,-11053],[-1089,-15679],[3660,-35330],[11524,-13771],[20083,-11629]],[[792782,365213],[-10676,-4181],[-1059,-12700]],[[781047,348332],[-3751,-2273],[-12431,2874]],[[764865,348933],[-1694,-3344],[-10737,-5122],[-15002,4756],[-20204,-706],[-7985,-2979],[-9074,-11262],[-7320,-2666]],[[692849,327610],[-9195,2378],[-7350,4625],[5082,7082],[-2450,1803],[-17664,7709],[-10919,1777],[-6503,23205]],[[685892,446143],[8651,-1934],[10344,2221]],[[704887,446430],[8469,5618],[5081,9747]],[[738642,445045],[-14397,11393],[-19237,-16280],[22866,-10191],[26254,7970],[-15486,7108]],[[792782,365213],[5445,-2979],[7047,-9930],[4386,-2378],[4930,-11314],[12885,-8990],[10677,-10896],[17784,-8781],[13127,-9355]],[[864224,295077],[-23804,-4208],[-998,-5984],[-9558,-6872]],[[829864,278013],[-33240,-5488]],[[796624,272525],[-25921,0]],[[770703,272525],[7077,6847],[4477,10452],[-2783,4207],[-13732,5227],[-6261,5984],[5868,16672],[17543,8231],[-272,9381]],[[782620,339526],[-9195,6690],[7622,2116]],[[796624,272525],[25225,3789]],[[828927,228807],[1119,-8205]],[[830046,220602],[-10768,-19703],[-27131,-5462]],[[402395,445803],[7622,7081],[-11342,10401],[-454,7186],[7199,10923],[-2390,3972],[-4748,470]],[[398282,485836],[19297,3998],[8106,15784]],[[425685,505618],[39501,2744]],[[465186,508362],[-3145,-4965],[877,-2692],[11251,-366],[10163,-4860]],[[484332,495479],[14669,4311]],[[382191,539641],[-28825,42620],[1573,4835],[22896,20957],[3781,6638]],[[548091,593602],[4265,-3945],[1240,-4260]],[[548817,580380],[-11342,-3737]],[[537475,576643],[-9528,967],[-9951,-3867]],[[517996,573743],[3297,-4939],[-1029,-8859],[-24741,-17848],[-5081,-18396],[-4174,-6821]],[[486268,516880],[-15638,-7238],[-36144,-4181]],[[434486,505461],[-8771,2326],[-6322,6637],[6443,11890],[-3902,2927],[-27403,4677],[-12340,5723]],[[783104,127966],[5081,10583]],[[789274,177511],[-2632,2456]],[[786642,179967],[21838,-1123],[12522,-8807],[13308,2326],[6624,-1646],[26768,-19625],[6503,-2143]],[[874205,148949],[9044,209]],[[883249,149158],[1240,-7107],[-6715,-4756],[-24015,-5828],[121,-10217],[-3297,-1777],[-18360,7238],[-17149,-7342]],[[815074,119369],[-13671,6846],[-18299,1751]],[[402365,382016],[20114,2430]],[[433034,379612],[12159,-758],[65090,-18083]],[[520597,353611],[1966,-7421]],[[477073,339814],[-2601,-7160]],[[474472,332654],[-23804,-366],[-8469,1280]],[[442199,333568],[-3932,8702],[-4476,2874],[-34935,4600]],[[511916,547663],[3358,-6925],[22080,3110],[18631,-11655],[-30730,-1515],[-10798,-20931],[-3992,12098],[-11645,12465],[13096,13353]],[[694634,561670],[4930,-3972],[4627,1803],[3479,10270],[4295,810],[11221,-5645],[3841,-9982],[-23289,-11550],[-9679,-15574],[-4023,-20749],[-6745,-12386]],[[683291,494695],[-8015,2169]],[[675276,496864],[-23441,-7448]],[[651835,489416],[-2329,-2639]],[[649506,486777],[-6079,261],[-5747,2248]],[[519992,507682],[-29883,-11733],[-5777,-470]],[[465186,508362],[21082,8518]],[[517996,573743],[2873,2325],[16606,575]],[[547637,575337],[2995,-758],[121075,-20540]],[[473746,691543],[-20810,-10191],[-14004,78],[-3750,17143],[30730,1594],[7834,-8624]],[[522533,851415],[20356,-2247],[6956,-4390],[8620,-30809],[4326,-7839],[16121,-16228],[6987,-941],[17300,8624],[10284,-7552],[3267,-3894],[4779,-17874],[7289,-8310],[33120,-27621],[6654,-12673],[12764,-7709],[8862,-12021],[13368,-8205],[2692,-4285],[182,-10897],[-13187,-11237],[-8651,-17795]],[[422448,657677],[6927,22107],[-4235,11054],[-17694,5905]],[[407446,696743],[18511,6141],[11282,1019],[-1150,7265],[2299,3423],[8862,601],[10435,8780],[8227,-130],[7592,-6037],[4839,340]],[[478343,718145],[30,7395]],[[478373,725540],[-7531,6115],[-3781,8336],[8318,14137],[9709,7291],[-1815,16201],[11827,12935],[1784,6951],[-6261,13850],[24530,28771],[8318,5069],[-938,6219]],[[656463,170247],[-1603,-11812]],[[654860,158435],[-15970,-2561],[-21929,3998],[-5474,2587],[-6836,7343],[-14004,53],[-9678,2482],[-7895,6559]],[[573074,178896],[13581,34049]],[[586655,212945],[-13399,12308],[-1059,6193],[2722,5044],[5687,5409],[16968,1098],[9588,11210],[14518,-105]],[[646784,243911],[22836,-15914],[10314,-10217]],[[679329,192040],[-5837,-8702]],[[773516,121355],[6049,731],[3539,5880]],[[783104,127966],[24106,-3763],[3871,-2274]],[[811081,121929],[-2147,-10531],[3962,-4311],[6201,-2221],[8106,836],[14578,6115],[2148,-1176]],[[843929,110641],[-817,-16698]],[[843112,93943],[2299,-4129],[-5626,-8362],[-13036,1385],[-9286,-7082],[-16998,-2796]],[[800465,72959],[-66632,26968]],[[725757,101468],[-13520,-2299]],[[712237,99169],[-20900,21349]],[[586655,212945],[-696,-5148],[-12885,-28901]],[[573074,178896],[-10102,1463],[-20083,8180],[-8137,8205]],[[535418,275870],[10253,9538]],[[560462,290242],[9769,13876]],[[570231,304118],[7834,-10165]],[[578065,293953],[9043,-6742],[9468,-5880]],[[596576,281331],[1028,3816]],[[607162,307045],[-10586,-25714]],[[596576,281331],[-18511,12622]],[[571895,325154],[15576,6376],[15335,13510]],[[562760,367095],[3388,3345]],[[692849,327610],[21142,993],[7108,-5879],[-2026,-12047],[-4477,-4050]],[[818068,65485],[-17603,7474]],[[843112,93943],[10375,-6089]],[[853487,87854],[10253,3789],[22624,16254]],[[886364,107897],[3357,4468],[-2419,5305],[20355,6219],[9226,8702]],[[916883,132591],[29459,2456]],[[946342,135047],[9558,9852]],[[955900,144899],[998,8388]],[[956898,153287],[4174,-1359]],[[982214,184593],[6412,-1255],[6019,-5513],[5354,-1385],[-2147,-1960],[514,-7212],[-3993,-2823],[-14276,-25818],[-6019,-21140],[-5414,-6899],[-13792,-7316],[-22564,-6664],[-8892,-9642],[-17634,-4835],[-17119,418],[-27827,-4259],[-6019,-14686],[-7228,-7918]],[[683291,494695],[-1966,-10923],[4446,-6507],[32666,-15470]],[[704887,446430],[-14004,-2091],[-14427,7892],[-10345,10218]],[[659125,465480],[-11222,17769]],[[647903,483249],[3932,6167]],[[651835,489416],[6503,2483],[16938,4965]],[[358901,983118],[-4265,-53334],[16787,-75337],[4628,-42176],[4053,-14948],[-22141,-5644],[-3841,-30626],[20537,-3058],[908,-10426],[-13006,-16228]],[[362561,731341],[-8046,-5095],[-4990,-9094],[-17573,-3449],[-7350,-4390],[4749,-11211],[-333,-4364],[-38715,-3658],[-14609,-11054],[-7985,-2352],[-5323,4991],[574,8598],[9135,13719],[-2904,4468],[-21263,3711],[-15547,-1986],[-19327,7238],[-35388,-8623],[-15970,2979],[-49634,16384],[-3387,19259],[7501,15078],[-5324,6559],[-7077,3031],[-16364,2561],[-15183,-1594],[-24197,-8780],[-20174,9460],[-21899,-889],[-5958,5749],[8469,10348],[15516,209],[28250,10583],[20930,1359],[12704,12700],[6110,10400],[-2904,10113],[-6563,5749],[-10163,4155],[-22745,-2116],[-12764,1071],[-7108,4155],[10072,8179],[696,5305],[-7078,11053],[2722,3763],[8923,3476],[27857,4965],[19418,6925],[7077,9459],[21414,17273],[14065,19337],[-2238,7213],[-14428,21114],[16878,10714],[19327,17090],[35963,6820],[168501,-16881]],[[434486,505461],[-8801,157]],[[398282,485836],[-9074,1202],[-8620,5383],[-3509,9852],[151,8623],[6624,7160],[2692,10375],[-4355,11210]],[[465882,175708],[12975,13405]],[[654860,158435],[1210,4625]],[[679480,129560],[27494,-23100],[5263,-7291]],[[712237,99169],[-3478,-3554],[4083,-3502]],[[634413,57097],[-4204,-1855],[-2026,1097],[-3841,-966]],[[624342,55373],[-3025,-3868],[-1603,3240],[-9709,1464],[91,4730],[3478,5278],[-8378,2509],[-7017,9224],[-4023,2274],[575,7160],[-10919,6428],[-2602,7970],[-3236,2221],[-11796,-3214],[-3599,-4860],[-14851,0],[-6684,10348],[4295,7708],[-4931,3136],[-7894,627],[-5747,4600],[-6563,7395],[-2571,10139],[-4386,1933],[-15093,-78],[-19569,14137],[-6049,17665],[-3781,2639],[-2873,-470]],[[764865,348933],[5928,-1123],[11827,-8284]],[[442199,333568],[32273,-914]],[[474472,332654],[1452,3240]],[[469179,320267],[14488,-13065]],[[433458,272421],[-16575,-7552]],[[416883,264869],[-6231,-236],[-4658,7997],[-9951,8675],[-14699,105],[-5172,2717],[4264,8728],[-4869,3267],[-12915,4416],[-16333,-5122],[-4809,1751],[-5505,8284]],[[336005,305451],[1694,6794]],[[337699,312245],[14639,9486],[1966,5566]],[[354304,327297],[-7834,10217]],[[941836,158853],[15062,-5566]],[[955900,144899],[-4416,-5984],[-5142,-3868]],[[946342,135047],[-8257,-1724],[-21202,-732]],[[886364,107897],[-28915,-19468],[-3962,-575]],[[843112,93943],[1543,10609],[-726,6089]],[[811081,121929],[3993,-2560]],[[883249,149158],[44341,-5147]],[[927590,144011],[14246,14842]],[[786642,179967],[-11584,4913]],[[830046,220602],[-424,3815]],[[904451,170194],[37385,-11341]],[[927590,144011],[-53385,4938]],[[478373,725540],[1483,-4129],[-1513,-3266]],[[407446,696743],[-7955,26],[-4688,4155],[303,11786],[-11252,9172],[-5716,8362],[-7471,3031],[-8106,-1934]],[[358901,983118],[18178,-6115],[32273,-20069],[18904,-2979],[40741,-12360],[26617,3162],[17966,7918],[-6684,-4861],[12280,1438],[-7653,-7840],[-605,-5853],[-8257,-2535],[-3539,-17404],[-4174,-1881],[-5474,5827],[-7229,-4024],[-544,-11367],[2208,-3841],[8710,2116],[1906,-4338],[-11766,-8179],[-1815,-3554],[6322,-3188],[8953,1019],[4809,-4703],[-5747,-4286],[-18662,2274],[-6291,-6664],[8620,-10034],[18390,3501],[11614,-2508],[13581,-10375]],[[276783,221908],[32666,9512],[9467,6089],[816,2848],[14549,4547],[665,2953],[-35842,5697],[-15909,-1777],[-16061,10322],[22231,13222],[1210,11655]],[[290575,286976],[15063,1411]],[[305638,288387],[24106,6298],[7501,4651]],[[337245,299336],[-1240,6115]],[[416883,264869],[-4870,-1124]],[[464007,202937],[3962,-5540],[3085,-5592]],[[471296,182450],[-5414,-6742]],[[465882,175708],[-9951,-3998],[-4053,-4913],[-13792,1542],[-18965,-6350],[-7168,-261],[-6049,4651],[-363,12595],[-1906,1542],[-31002,3920],[-11978,6559],[-2752,10479],[-7108,-3868],[-6866,2927],[-2056,-4495],[-6050,-444],[-302,2535],[-20265,14424],[-15002,-3763],[-7955,262],[-12976,7813],[-4053,-6846],[-5051,914],[-4476,4129],[-1966,6350],[13006,496]],[[337305,347731],[16999,-20434]],[[337699,312245],[-454,-12909]],[[305638,288387],[-22715,-2091]],[[282923,286296],[-21384,-8257],[-4688,-810]],[[256851,277229],[-4658,1829],[-9588,9773]],[[242605,288831],[-8469,3397],[-8862,17508],[-4386,26],[-3085,-8989],[-14246,-9198],[-9316,-9982],[-21354,11288]],[[172887,292881],[-8166,-1646],[0,3397],[-5777,3815],[1875,3450],[-1301,7317],[14095,16750],[121,6716],[12038,2247],[27403,12465],[11433,17821],[2994,837],[11766,-5540],[8711,2352],[4960,5644],[2027,7839]],[[242605,288831],[3054,-4495],[11192,-7107]],[[256851,277229],[26072,9067]],[[282923,286296],[7652,680]],[[276783,221908],[-16363,706],[-8923,-4756],[-3418,4756],[-12280,104],[-9618,-4128],[-5989,2221],[-5444,7369],[-726,6794],[-6775,3737],[-10254,2822],[-12491,-496],[-12159,3789],[-12371,8728],[-25860,9276],[-10768,6037],[9285,17455],[2783,1621],[7925,-1960],[29550,6898]],[[505383,438930],[5354,523]],[[569414,376372],[-1179,-3241]],[[532726,359099],[-13974,1724],[-4567,-1359],[-77128,20723]]],"bbox":[45.1989,41.1889,48.5051,45.0157],"transform":{"scale":[0.0000033062033062033033,0.000003826803826803832],"translate":[45.1989,41.1889]}}