{"type":"Topology","objects":{"muni":{"type":"GeometryCollection","geometries":[{"type":"MultiPolygon","arcs":[[[0,1,2,3,4,5,6,7,8,9,10]]],"properties":{"GID_2":"UKR.6.1_1","GID_0":"UKR","COUNTRY":"Ukraine","GID_1":"UKR.6_1","NAME_1":"Donets'k","NL_NAME_1":"Доне́цька","NAME_2":"Amvrosi‹vs'kyi","VARNAME_2":"Amvrosiivskyi","NL_NAME_2":"NA","TYPE_2":"Raion","ENGTYPE_2":"District","CC_2":"NA","HASC_2":"UA.DT.AS","terra_incognita":true,"NAME_1_REGION_RU":"Донецкая область"}},{"type":"MultiPolygon","arcs":[[[11,12,13,14,15]],[[16,17]]],"properties":{"GID_2":"UKR.6.2_1","GID_0":"UKR","COUNTRY":"Ukraine","GID_1":"UKR.6_1","NAME_1":"Donets'k","NL_NAME_1":"Доне́цька","NAME_2":"Artemivs'ka","VARNAME_2":"NA","NL_NAME_2":"NA","TYPE_2":"Mis'kaRada","ENGTYPE_2":"CityofRegionalSignificance","CC_2":"NA","HASC_2":"UA.DT.AM","terra_incognita":true,"NAME_1_REGION_RU":"Донецкая область"}},{"type":"MultiPolygon","arcs":[[[18,19,20,21,22,23,24,25,26,27,28,29,30,31,32,33,34,35,36,37],[-15,38,-13,39,40],[-17,41]]],"properties":{"GID_2":"UKR.6.3_1","GID_0":"UKR","COUNTRY":"Ukraine","GID_1":"UKR.6_1","NAME_1":"Donets'k","NL_NAME_1":"Доне́цька","NAME_2":"Artemivs'kyi","VARNAME_2":"Artemivskyi","NL_NAME_2":"NA","TYPE_2":"Raion","ENGTYPE_2":"District","CC_2":"NA","HASC_2":"UA.DT.AR","terra_incognita":true,"NAME_1_REGION_RU":"Донецкая область"}},{"type":"MultiPolygon","arcs":[[[42,43,44]],[[45,46,47]],[[48]],[[49,50]]],"properties":{"GID_2":"UKR.6.4_1","GID_0":"UKR","COUNTRY":"Ukraine","GID_1":"UKR.6_1","NAME_1":"Donets'k","NL_NAME_1":"Доне́цька","NAME_2":"Dobropil's'ka","VARNAME_2":"Dobropillia","NL_NAME_2":"NA","TYPE_2":"Mis'kaRada","ENGTYPE_2":"CityofRegionalSignificance","CC_2":"NA","HASC_2":"UA.DT.DM","terra_incognita":true,"NAME_1_REGION_RU":"Донецкая область"}},{"type":"MultiPolygon","arcs":[[[51,52,53,54,55,56,57,58,59,60,61,62,63],[-43,64,65],[66,67,68],[-49],[-50,69]]],"properties":{"GID_2":"UKR.6.5_1","GID_0":"UKR","COUNTRY":"Ukraine","GID_1":"UKR.6_1","NAME_1":"Donets'k","NL_NAME_1":"Доне́цька","NAME_2":"Dobropil's'kyi","VARNAME_2":"Dobropolskyi","NL_NAME_2":"NA","TYPE_2":"Raion","ENGTYPE_2":"District","CC_2":"NA","HASC_2":"UA.DT.DR","terra_incognita":true,"NAME_1_REGION_RU":"Донецкая область"}},{"type":"MultiPolygon","arcs":[[[70,-7,71,72,73,74,75,76,77,78,79,80]]],"properties":{"GID_2":"UKR.6.6_1","GID_0":"UKR","COUNTRY":"Ukraine","GID_1":"UKR.6_1","NAME_1":"Donets'k","NL_NAME_1":"Доне́цька","NAME_2":"Donets'ka","VARNAME_2":"Donetsk","NL_NAME_2":"NA","TYPE_2":"Mis'kaRada","ENGTYPE_2":"CityofRegionalSignificance","CC_2":"NA","HASC_2":"UA.DT.DN","terra_incognita":true,"NAME_1_REGION_RU":"Донецкая область"}},{"type":"MultiPolygon","arcs":[[[81,82,83,84,85,86]]],"properties":{"GID_2":"UKR.6.7_1","GID_0":"UKR","COUNTRY":"Ukraine","GID_1":"UKR.6_1","NAME_1":"Donets'k","NL_NAME_1":"Доне́цька","NAME_2":"Dzerzhyns'ka","VARNAME_2":"Dzerzhinsk-Don","NL_NAME_2":"NA","TYPE_2":"Mis'kaRada","ENGTYPE_2":"CityofRegionalSignificance","CC_2":"NA","HASC_2":"UA.DT.DZ","terra_incognita":true,"NAME_1_REGION_RU":"Донецкая область"}},{"type":"MultiPolygon","arcs":[[[-21,87,-19,88,89,90,91,92,93,94,95,96,97]]],"properties":{"GID_2":"UKR.6.8_1","GID_0":"UKR","COUNTRY":"Ukraine","GID_1":"UKR.6_1","NAME_1":"Donets'k","NL_NAME_1":"Доне́цька","NAME_2":"Horlivs'ka","VARNAME_2":"Gorlivka","NL_NAME_2":"NA","TYPE_2":"Mis'kaRada","ENGTYPE_2":"CityofRegionalSignificance","CC_2":"NA","HASC_2":"UA.DT.HO","terra_incognita":true,"NAME_1_REGION_RU":"Донецкая область"}},{"type":"MultiPolygon","arcs":[[[98,99]],[[100,101]]],"properties":{"GID_2":"UKR.6.9_1","GID_0":"UKR","COUNTRY":"Ukraine","GID_1":"UKR.6_1","NAME_1":"Donets'k","NL_NAME_1":"Доне́цька","NAME_2":"Iasynuvats'ka","VARNAME_2":"NA","NL_NAME_2":"NA","TYPE_2":"Misto","ENGTYPE_2":"City","CC_2":"NA","HASC_2":"UA.DT.IM","terra_incognita":true,"NAME_1_REGION_RU":"Донецкая область"}},{"type":"MultiPolygon","arcs":[[[-78,102,103,104,105,106,107,108,109,110,111,112,113,114,115,116,-85,117,-83,118,-93,119,-91,120,121,122,123,124,125,126,-99,127,128],[-101,129]]],"properties":{"GID_2":"UKR.6.10_1","GID_0":"UKR","COUNTRY":"Ukraine","GID_1":"UKR.6_1","NAME_1":"Donets'k","NL_NAME_1":"Доне́цька","NAME_2":"Iasynuvats'kyi","VARNAME_2":"Yasynuvatskyi","NL_NAME_2":"NA","TYPE_2":"Raion","ENGTYPE_2":"District","CC_2":"NA","HASC_2":"UA.DT.IR","terra_incognita":true,"NAME_1_REGION_RU":"Донецкая область"}},{"type":"MultiPolygon","arcs":[[[-38,130,131,132,133,134,135,136,137,-124,138,-122,139,-89]]],"properties":{"GID_2":"UKR.6.11_1","GID_0":"UKR","COUNTRY":"Ukraine","GID_1":"UKR.6_1","NAME_1":"Donets'k","NL_NAME_1":"Доне́цька","NAME_2":"Ienakiievs'ka","VARNAME_2":"Yenakiyeve","NL_NAME_2":"NA","TYPE_2":"Mis'kaRada","ENGTYPE_2":"CityofRegionalSignificance","CC_2":"NA","HASC_2":"UA.DT.IE","terra_incognita":true,"NAME_1_REGION_RU":"Донецкая область"}},{"type":"MultiPolygon","arcs":[[[140]]],"properties":{"GID_2":"UKR.6.12_1","GID_0":"UKR","COUNTRY":"Ukraine","GID_1":"UKR.6_1","NAME_1":"Donets'k","NL_NAME_1":"Доне́цька","NAME_2":"Khartsyz'ka","VARNAME_2":"Khartsyzk","NL_NAME_2":"NA","TYPE_2":"Mis'kaRada","ENGTYPE_2":"CityofRegionalSignificance","CC_2":"NA","HASC_2":"UA.DT.KH","terra_incognita":true,"NAME_1_REGION_RU":"Донецкая область"}},{"type":"MultiPolygon","arcs":[[[141]]],"properties":{"GID_2":"UKR.6.13_1","GID_0":"UKR","COUNTRY":"Ukraine","GID_1":"UKR.6_1","NAME_1":"Donets'k","NL_NAME_1":"Доне́цька","NAME_2":"Kirovs'ka","VARNAME_2":"Kirovske","NL_NAME_2":"NA","TYPE_2":"Misto","ENGTYPE_2":"City","CC_2":"NA","HASC_2":"UA.DT.KI","terra_incognita":true,"NAME_1_REGION_RU":"Донецкая область"}},{"type":"MultiPolygon","arcs":[[[142,143]],[[144,145]]],"properties":{"GID_2":"UKR.6.14_1","GID_0":"UKR","COUNTRY":"Ukraine","GID_1":"UKR.6_1","NAME_1":"Donets'k","NL_NAME_1":"Доне́цька","NAME_2":"Kostiantynivs'ka","VARNAME_2":"Kostyantynivka","NL_NAME_2":"NA","TYPE_2":"Misto","ENGTYPE_2":"City","CC_2":"NA","HASC_2":"UA.DT.KT","terra_incognita":true,"NAME_1_REGION_RU":"Донецкая область"}},{"type":"MultiPolygon","arcs":[[[-25,146,-23,147,-97,148,-95,-87,149,-116,150,151,152,-112,153,154,-60,155,156,157,158,159,-30,160,161],[-143,162],[-145,163]]],"properties":{"GID_2":"UKR.6.15_1","GID_0":"UKR","COUNTRY":"Ukraine","GID_1":"UKR.6_1","NAME_1":"Donets'k","NL_NAME_1":"Доне́цька","NAME_2":"Kostiantynivs'kyi","VARNAME_2":"Kostyantynivskyi","NL_NAME_2":"NA","TYPE_2":"Raion","ENGTYPE_2":"District","CC_2":"NA","HASC_2":"UA.DT.KS","terra_incognita":true,"NAME_1_REGION_RU":"Донецкая область"}},{"type":"MultiPolygon","arcs":[[[-158,164,165,166,167,168,169,170,171]]],"properties":{"GID_2":"UKR.6.16_1","GID_0":"UKR","COUNTRY":"Ukraine","GID_1":"UKR.6_1","NAME_1":"Donets'k","NL_NAME_1":"Доне́цька","NAME_2":"Kramators'ka","VARNAME_2":"Kramatorsk","NL_NAME_2":"NA","TYPE_2":"Mis'kaRada","ENGTYPE_2":"CityofRegionalSignificance","CC_2":"NA","HASC_2":"UA.DT.KM","terra_incognita":true,"NAME_1_REGION_RU":"Донецкая область"}},{"type":"MultiPolygon","arcs":[[[172,173]],[[174,175,176,177,178,179]]],"properties":{"GID_2":"UKR.6.17_1","GID_0":"UKR","COUNTRY":"Ukraine","GID_1":"UKR.6_1","NAME_1":"Donets'k","NL_NAME_1":"Доне́цька","NAME_2":"Krasnoarmiis'ka","VARNAME_2":"NA","NL_NAME_2":"NA","TYPE_2":"Mis'kaRada","ENGTYPE_2":"CityofRegionalSignificance","CC_2":"NA","HASC_2":"UA.DT.KA","terra_incognita":true,"NAME_1_REGION_RU":"Донецкая область"}},{"type":"MultiPolygon","arcs":[[[-64,180,-62,181,-154,182,-110,183,-108,184,185,186,187,188,189],[-173,190],[-179,191,-177,192,-175,193],[194,195],[196,197]]],"properties":{"GID_2":"UKR.6.18_1","GID_0":"UKR","COUNTRY":"Ukraine","GID_1":"UKR.6_1","NAME_1":"Donets'k","NL_NAME_1":"Доне́цька","NAME_2":"Krasnoarmiis'kyi","VARNAME_2":"Krasnoarmeyskyi-D","NL_NAME_2":"NA","TYPE_2":"Raion","ENGTYPE_2":"District","CC_2":"NA","HASC_2":"UA.DT.KR","terra_incognita":true,"NAME_1_REGION_RU":"Донецкая область"}},{"type":"MultiPolygon","arcs":[[[198]]],"properties":{"GID_2":"UKR.6.19_1","GID_0":"UKR","COUNTRY":"Ukraine","GID_1":"UKR.6_1","NAME_1":"Donets'k","NL_NAME_1":"Доне́цька","NAME_2":"Krasnolymans'ka","VARNAME_2":"NA","NL_NAME_2":"NA","TYPE_2":"Mis'kaRada","ENGTYPE_2":"CityofRegionalSignificance","CC_2":"NA","HASC_2":"UA.DT.KY","terra_incognita":true,"NAME_1_REGION_RU":"Донецкая область"}},{"type":"MultiPolygon","arcs":[[[-34,199,200,201]]],"properties":{"GID_2":"UKR.6.20_1","GID_0":"UKR","COUNTRY":"Ukraine","GID_1":"UKR.6_1","NAME_1":"Donets'k","NL_NAME_1":"Доне́цька","NAME_2":"Krasnolymans'kyi","VARNAME_2":"Krasnolymanskyi","NL_NAME_2":"NA","TYPE_2":"Raion","ENGTYPE_2":"District","CC_2":"NA","HASC_2":"UA.DT.KL","terra_incognita":true,"NAME_1_REGION_RU":"Донецкая область"}},{"type":"MultiPolygon","arcs":[[[202,-9,203,-81,204,-79,-129,205,206,-125,-138,207,208,209,210,211,212]]],"properties":{"GID_2":"UKR.6.21_1","GID_0":"UKR","COUNTRY":"Ukraine","GID_1":"UKR.6_1","NAME_1":"Donets'k","NL_NAME_1":"Доне́цька","NAME_2":"Maki‹vs'ka","VARNAME_2":"Makiivka","NL_NAME_2":"NA","TYPE_2":"Mis'kaRada","ENGTYPE_2":"CityofRegionalSignificance","CC_2":"NA","HASC_2":"UA.DT.MK","terra_incognita":true,"NAME_1_REGION_RU":"Донецкая область"}},{"type":"MultiPolygon","arcs":[[[213,-75,214,215,216,217,218,219,220,221,222,-186,223,-106,224,-104,225],[226,227],[228,229]]],"properties":{"GID_2":"UKR.6.22_1","GID_0":"UKR","COUNTRY":"Ukraine","GID_1":"UKR.6_1","NAME_1":"Donets'k","NL_NAME_1":"Доне́цька","NAME_2":"Mar‹ns'kyi","VARNAME_2":"Mariinskyi","NL_NAME_2":"NA","TYPE_2":"Raion","ENGTYPE_2":"District","CC_2":"NA","HASC_2":"UA.DT.MN","terra_incognita":true,"NAME_1_REGION_RU":"Донецкая область"}},{"type":"MultiPolygon","arcs":[[[230,231,232,233]]],"properties":{"GID_2":"UKR.6.23_1","GID_0":"UKR","COUNTRY":"Ukraine","GID_1":"UKR.6_1","NAME_1":"Donets'k","NL_NAME_1":"Доне́цька","NAME_2":"Mariupol's'ka","VARNAME_2":"Mariupol","NL_NAME_2":"NA","TYPE_2":"Mis'kaRada","ENGTYPE_2":"CityofRegionalSignificance","CC_2":"NA","HASC_2":"UA.DT.MP","terra_incognita":true,"NAME_1_REGION_RU":"Донецкая область"}},{"type":"MultiPolygon","arcs":[[[234,235,236,237,238]]],"properties":{"GID_2":"UKR.6.24_1","GID_0":"UKR","COUNTRY":"Ukraine","GID_1":"UKR.6_1","NAME_1":"Donets'k","NL_NAME_1":"Доне́цька","NAME_2":"n.a.(181)","VARNAME_2":"NA","NL_NAME_2":"NA","TYPE_2":"Misto","ENGTYPE_2":"City","CC_2":"NA","HASC_2":"NA","terra_incognita":true,"NAME_1_REGION_RU":"Донецкая область"}},{"type":"MultiPolygon","arcs":[[[239]]],"properties":{"GID_2":"UKR.6.25_1","GID_0":"UKR","COUNTRY":"Ukraine","GID_1":"UKR.6_1","NAME_1":"Donets'k","NL_NAME_1":"Доне́цька","NAME_2":"n.a.(319)","VARNAME_2":"NA","NL_NAME_2":"NA","TYPE_2":"Misto","ENGTYPE_2":"City","CC_2":"NA","HASC_2":"NA","terra_incognita":true,"NAME_1_REGION_RU":"Донецкая область"}},{"type":"MultiPolygon","arcs":[[[240]]],"properties":{"GID_2":"UKR.6.26_1","GID_0":"UKR","COUNTRY":"Ukraine","GID_1":"UKR.6_1","NAME_1":"Donets'k","NL_NAME_1":"Доне́цька","NAME_2":"n.a.(384)","VARNAME_2":"NA","NL_NAME_2":"NA","TYPE_2":"Misto","ENGTYPE_2":"City","CC_2":"NA","HASC_2":"NA","terra_incognita":true,"NAME_1_REGION_RU":"Донецкая область"}},{"type":"MultiPolygon","arcs":[[[241,242,-27,243,-161]]],"properties":{"GID_2":"UKR.6.27_1","GID_0":"UKR","COUNTRY":"Ukraine","GID_1":"UKR.6_1","NAME_1":"Donets'k","NL_NAME_1":"Доне́цька","NAME_2":"n.a.(394)","VARNAME_2":"NA","NL_NAME_2":"NA","TYPE_2":"Misto","ENGTYPE_2":"City","CC_2":"NA","HASC_2":"NA","terra_incognita":true,"NAME_1_REGION_RU":"Донецкая область"}},{"type":"MultiPolygon","arcs":[[[244]]],"properties":{"GID_2":"UKR.6.28_1","GID_0":"UKR","COUNTRY":"Ukraine","GID_1":"UKR.6_1","NAME_1":"Donets'k","NL_NAME_1":"Доне́цька","NAME_2":"n.a.(488)","VARNAME_2":"NA","NL_NAME_2":"NA","TYPE_2":"Misto","ENGTYPE_2":"City","CC_2":"NA","HASC_2":"NA","terra_incognita":true,"NAME_1_REGION_RU":"Донецкая область"}},{"type":"MultiPolygon","arcs":[[[245]]],"properties":{"GID_2":"UKR.6.29_1","GID_0":"UKR","COUNTRY":"Ukraine","GID_1":"UKR.6_1","NAME_1":"Donets'k","NL_NAME_1":"Доне́цька","NAME_2":"n.a.(493)","VARNAME_2":"NA","NL_NAME_2":"NA","TYPE_2":"Misto","ENGTYPE_2":"City","CC_2":"NA","HASC_2":"NA","terra_incognita":true,"NAME_1_REGION_RU":"Донецкая область"}},{"type":"MultiPolygon","arcs":[[[246,247,248]]],"properties":{"GID_2":"UKR.6.30_1","GID_0":"UKR","COUNTRY":"Ukraine","GID_1":"UKR.6_1","NAME_1":"Donets'k","NL_NAME_1":"Доне́цька","NAME_2":"n.a.(511)","VARNAME_2":"NA","NL_NAME_2":"NA","TYPE_2":"Misto","ENGTYPE_2":"City","CC_2":"NA","HASC_2":"NA","terra_incognita":true,"NAME_1_REGION_RU":"Донецкая область"}},{"type":"MultiPolygon","arcs":[[[249]],[[-233,250,251,252,253,254,255,256,257]]],"properties":{"GID_2":"UKR.6.31_1","GID_0":"UKR","COUNTRY":"Ukraine","GID_1":"UKR.6_1","NAME_1":"Donets'k","NL_NAME_1":"Доне́цька","NAME_2":"Novoazovs'kyi","VARNAME_2":"Novoazovskyi","NL_NAME_2":"NA","TYPE_2":"Raion","ENGTYPE_2":"District","CC_2":"NA","HASC_2":"UA.DT.NA","terra_incognita":true,"NAME_1_REGION_RU":"Донецкая область"}},{"type":"MultiPolygon","arcs":[[[-197,258]],[[-195,259]]],"properties":{"GID_2":"UKR.6.32_1","GID_0":"UKR","COUNTRY":"Ukraine","GID_1":"UKR.6_1","NAME_1":"Donets'k","NL_NAME_1":"Доне́цька","NAME_2":"Novohrodivs'ka","VARNAME_2":"Novohrodivka","NL_NAME_2":"NA","TYPE_2":"Misto","ENGTYPE_2":"City","CC_2":"NA","HASC_2":"UA.DT.NH","terra_incognita":true,"NAME_1_REGION_RU":"Донецкая область"}},{"type":"MultiPolygon","arcs":[[[260,261,262,-55,263,-53],[-241]]],"properties":{"GID_2":"UKR.6.33_1","GID_0":"UKR","COUNTRY":"Ukraine","GID_1":"UKR.6_1","NAME_1":"Donets'k","NL_NAME_1":"Доне́цька","NAME_2":"Oleksandrivs'kyi","VARNAME_2":"Oleksandrivskyi","NL_NAME_2":"NA","TYPE_2":"Raion","ENGTYPE_2":"District","CC_2":"NA","HASC_2":"UA.DT.OL","terra_incognita":true,"NAME_1_REGION_RU":"Донецкая область"}},{"type":"MultiPolygon","arcs":[[[-231,264,265]]],"properties":{"GID_2":"UKR.6.34_1","GID_0":"UKR","COUNTRY":"Ukraine","GID_1":"UKR.6_1","NAME_1":"Donets'k","NL_NAME_1":"Доне́цька","NAME_2":"Pershotravnevyi","VARNAME_2":"NA","NL_NAME_2":"NA","TYPE_2":"Raion","ENGTYPE_2":"District","CC_2":"NA","HASC_2":"UA.DT.PE","terra_incognita":true,"NAME_1_REGION_RU":"Донецкая область"}},{"type":"MultiPolygon","arcs":[[[-229,266]],[[-227,267]]],"properties":{"GID_2":"UKR.6.35_1","GID_0":"UKR","COUNTRY":"Ukraine","GID_1":"UKR.6_1","NAME_1":"Donets'k","NL_NAME_1":"Доне́цька","NAME_2":"Selydovs'ka","VARNAME_2":"Selydove","NL_NAME_2":"NA","TYPE_2":"Mis'kaRada","ENGTYPE_2":"CityofRegionalSignificance","CC_2":"NA","HASC_2":"UA.DT.SE","terra_incognita":true,"NAME_1_REGION_RU":"Донецкая область"}},{"type":"MultiPolygon","arcs":[[[268,269,270,271]]],"properties":{"GID_2":"UKR.6.36_1","GID_0":"UKR","COUNTRY":"Ukraine","GID_1":"UKR.6_1","NAME_1":"Donets'k","NL_NAME_1":"Доне́цька","NAME_2":"Shakhtars'ka","VARNAME_2":"Shahtarsk-Don","NL_NAME_2":"NA","TYPE_2":"Mis'kaRada","ENGTYPE_2":"CityofRegionalSignificance","CC_2":"NA","HASC_2":"UA.DT.SK","terra_incognita":true,"NAME_1_REGION_RU":"Донецкая область"}},{"type":"MultiPolygon","arcs":[[[-11,272,273,-248,274,-211,275,-209,276,-136,277,-134,278,279,280,-235,281,282,283,284,285,-270,286,287,288,289],[-141],[-142],[-245],[-246],[290]]],"properties":{"GID_2":"UKR.6.37_1","GID_0":"UKR","COUNTRY":"Ukraine","GID_1":"UKR.6_1","NAME_1":"Donets'k","NL_NAME_1":"Доне́цька","NAME_2":"Shakhtars'kyi","VARNAME_2":"Shahtarskyi-Don","NL_NAME_2":"NA","TYPE_2":"Raion","ENGTYPE_2":"District","CC_2":"NA","HASC_2":"UA.DT.SH","terra_incognita":true,"NAME_1_REGION_RU":"Донецкая область"}},{"type":"MultiPolygon","arcs":[[[291]]],"properties":{"GID_2":"UKR.6.38_1","GID_0":"UKR","COUNTRY":"Ukraine","GID_1":"UKR.6_1","NAME_1":"Donets'k","NL_NAME_1":"Доне́цька","NAME_2":"Slovians'ka","VARNAME_2":"Sloviansk","NL_NAME_2":"NA","TYPE_2":"Mis'kaRada","ENGTYPE_2":"CityofRegionalSignificance","CC_2":"NA","HASC_2":"UA.DT.SV","terra_incognita":true,"NAME_1_REGION_RU":"Донецкая область"}},{"type":"MultiPolygon","arcs":[[[292,-32,293,-159,-172,294,-170,295,-168,296,-166,297,-156,298,-58,299,300,-262,301,-201],[-199],[-240],[-292]]],"properties":{"GID_2":"UKR.6.39_1","GID_0":"UKR","COUNTRY":"Ukraine","GID_1":"UKR.6_1","NAME_1":"Donets'k","NL_NAME_1":"Доне́цька","NAME_2":"Slovians'kyi","VARNAME_2":"Slovyanskyi-Don","NL_NAME_2":"NA","TYPE_2":"Raion","ENGTYPE_2":"District","CC_2":"NA","HASC_2":"UA.DT.SL","terra_incognita":true,"NAME_1_REGION_RU":"Донецкая область"}},{"type":"MultiPolygon","arcs":[[[302,-283,303,-289,304]]],"properties":{"GID_2":"UKR.6.40_1","GID_0":"UKR","COUNTRY":"Ukraine","GID_1":"UKR.6_1","NAME_1":"Donets'k","NL_NAME_1":"Доне́цька","NAME_2":"Snizhnens'ka","VARNAME_2":"Snezhnoye","NL_NAME_2":"NA","TYPE_2":"Mis'kaRada","ENGTYPE_2":"CityofRegionalSignificance","CC_2":"NA","HASC_2":"UA.DT.SN","terra_incognita":true,"NAME_1_REGION_RU":"Донецкая область"}},{"type":"MultiPolygon","arcs":[[[305,306,307,308,309,310,311,312,313,-72,-6,314,-4,315,-2]]],"properties":{"GID_2":"UKR.6.41_1","GID_0":"UKR","COUNTRY":"Ukraine","GID_1":"UKR.6_1","NAME_1":"Donets'k","NL_NAME_1":"Доне́цька","NAME_2":"Starobeshivs'kyi","VARNAME_2":"Starobeshevskyi","NL_NAME_2":"NA","TYPE_2":"Raion","ENGTYPE_2":"District","CC_2":"NA","HASC_2":"UA.DT.ST","terra_incognita":true,"NAME_1_REGION_RU":"Донецкая область"}},{"type":"MultiPolygon","arcs":[[[316,-257,317,-255,318,-253,319,320,321,322,323,324,325,-309,326,-307]]],"properties":{"GID_2":"UKR.6.42_1","GID_0":"UKR","COUNTRY":"Ukraine","GID_1":"UKR.6_1","NAME_1":"Donets'k","NL_NAME_1":"Доне́цька","NAME_2":"Tel'manivs'kyi","VARNAME_2":"Telmanivskyi-Don","NL_NAME_2":"NA","TYPE_2":"Raion","ENGTYPE_2":"District","CC_2":"NA","HASC_2":"UA.DT.TE","terra_incognita":true,"NAME_1_REGION_RU":"Донецкая область"}},{"type":"MultiPolygon","arcs":[[[-272,327,-285,-305,-288,328]]],"properties":{"GID_2":"UKR.6.43_1","GID_0":"UKR","COUNTRY":"Ukraine","GID_1":"UKR.6_1","NAME_1":"Donets'k","NL_NAME_1":"Доне́цька","NAME_2":"Torez'ka","VARNAME_2":"Torez-Don","NL_NAME_2":"NA","TYPE_2":"Mis'kaRada","ENGTYPE_2":"CityofRegionalSignificance","CC_2":"NA","HASC_2":"UA.DT.TO","terra_incognita":true,"NAME_1_REGION_RU":"Донецкая область"}},{"type":"MultiPolygon","arcs":[[[-189,329,-221,330,-219,331,-217,332,333,334,335,336]]],"properties":{"GID_2":"UKR.6.44_1","GID_0":"UKR","COUNTRY":"Ukraine","GID_1":"UKR.6_1","NAME_1":"Donets'k","NL_NAME_1":"Доне́цька","NAME_2":"Velykonovosilkivs'kyi","VARNAME_2":"Velykonovoselivsk","NL_NAME_2":"NA","TYPE_2":"Raion","ENGTYPE_2":"District","CC_2":"NA","HASC_2":"UA.DT.VE","terra_incognita":true,"NAME_1_REGION_RU":"Донецкая область"}},{"type":"MultiPolygon","arcs":[[[-74,337,-313,338,-311,339,-325,340,-323,341,342,343,-336,344,-334,345,-215]]],"properties":{"GID_2":"UKR.6.45_1","GID_0":"UKR","COUNTRY":"Ukraine","GID_1":"UKR.6_1","NAME_1":"Donets'k","NL_NAME_1":"Доне́цька","NAME_2":"Volnovas'kyi","VARNAME_2":"Volnovaskyi","NL_NAME_2":"NA","TYPE_2":"Raion","ENGTYPE_2":"District","CC_2":"NA","HASC_2":"UA.DT.VV","terra_incognita":true,"NAME_1_REGION_RU":"Донецкая область"}},{"type":"MultiPolygon","arcs":[[[-232,-266,346,-343,347,-321,348,-251]]],"properties":{"GID_2":"UKR.6.46_1","GID_0":"UKR","COUNTRY":"Ukraine","GID_1":"UKR.6_1","NAME_1":"Donets'k","NL_NAME_1":"Доне́цька","NAME_2":"Volodars'kyi","VARNAME_2":"Volodarskyi","NL_NAME_2":"NA","TYPE_2":"Raion","ENGTYPE_2":"District","CC_2":"NA","HASC_2":"UA.DT.VD","terra_incognita":true,"NAME_1_REGION_RU":"Донецкая область"}},{"type":"MultiPolygon","arcs":[[[349,-36,350,-239,351,-237,352,-280,353,-132]]],"properties":{"GID_2":"UKR.6.47_1","GID_0":"UKR","COUNTRY":"Ukraine","GID_1":"UKR.6_1","NAME_1":"Donets'k","NL_NAME_1":"Доне́цька","NAME_2":"Vuhledars'ka","VARNAME_2":"Vuhledar","NL_NAME_2":"NA","TYPE_2":"Misto","ENGTYPE_2":"City","CC_2":"NA","HASC_2":"UA.DT.VU","terra_incognita":true,"NAME_1_REGION_RU":"Донецкая область"}},{"type":"MultiPolygon","arcs":[[[-291]]],"properties":{"GID_2":"UKR.6.48_1","GID_0":"UKR","COUNTRY":"Ukraine","GID_1":"UKR.6_1","NAME_1":"Donets'k","NL_NAME_1":"Доне́цька","NAME_2":"Zhdanivs'ka","VARNAME_2":"Zhdanivka","NL_NAME_2":"NA","TYPE_2":"Mis'kaRada","ENGTYPE_2":"CityofRegionalSignificance","CC_2":"NA","HASC_2":"UA.DT.ZH","terra_incognita":true,"NAME_1_REGION_RU":"Донецкая область"}}]}},"arcs":[[[906681,410588],[-3838,-14511],[-13568,-3931],[633,-16603],[-11828,-33999],[-38768,4725],[-1463,-13257],[-12422,-3889],[-6883,-6566],[-62067,-543],[3679,-11626],[-41062,-1004]],[[719094,309384],[356,2509],[-9889,3262],[909,7528],[-6764,460],[1464,12420],[-6211,5395],[554,4935],[-3086,2718],[-3402,209],[-4233,-7235],[-6804,419],[-16179,8405],[3956,4768],[-10483,-1882],[514,4935],[-3402,209],[-3679,-2300],[-2057,12546],[-10562,-1882],[11353,9284],[2888,-5102]],[[654337,370985],[10799,4349]],[[665136,375334],[554,4935],[3125,-2677],[3719,2259],[554,4976]],[[673088,384827],[7951,9452]],[[681039,394279],[-10246,585],[-593,-4935],[-10523,-1882],[-8623,15390]],[[651054,403437],[-10325,586],[-6330,5311],[-6883,376],[831,7402],[-6646,2844],[7437,4558],[554,4935],[-3165,2635],[-28126,-3429],[-29946,11584]],[[568455,440239],[277,2467],[25239,8573],[24961,6064]],[[618932,457343],[277,2468],[-12975,8196],[7437,4559]],[[613671,472566],[13568,-3221]],[[627239,469345],[-277,-2509],[14083,1715],[-830,-7402],[3164,-2635],[10641,1882],[2888,-5102],[7200,2091],[3165,-2677],[3718,2259],[-6013,7820],[7477,4558],[6606,-2885],[-4312,-7193],[3165,-2677],[3758,2300],[-910,-7402],[3165,-2676],[3758,2258],[-871,-7402],[22153,11208],[-2848,5144],[7477,4516],[16614,-5855],[-4035,-4767],[3165,-2677],[20293,-3596],[2809,-5102],[7477,4558],[632,4935],[3719,2258],[13410,-3220],[7437,4600],[-1503,-12337],[13846,-710],[1819,14762],[20848,-1129],[-2414,-19656],[25516,8490],[20847,-1171],[2848,-5102],[7239,2007],[-1582,-12211],[-7239,-2049],[2255,-9954],[14083,1590],[3718,2216],[-3125,2677],[6883,-460],[16140,-8406],[1385,-3639]],[[597491,729633],[-8109,-9535]],[[589382,720098],[-10800,-1882],[-553,-4976],[3520,-168]],[[581549,713072],[-316,-2467],[-17762,-1547]],[[563471,709058],[-554,-4935],[-13687,3220],[3758,2258],[-2650,7611],[7555,4601],[-6725,2843],[277,2468],[11591,9326],[4628,9702],[-3520,209],[7318,2091],[6448,-5311],[-3798,-2300],[-553,-4935]],[[573559,735906],[9929,-5520],[3797,2300],[10206,-3053]],[[610862,753805],[-30697,9117],[-3244,2676],[1701,14846],[10799,1924],[-1424,-12379],[10523,-585],[2967,-5144],[20768,-3597]],[[622255,760663],[-514,-4265],[-10879,-2593]],[[664147,606557],[-2610,7611],[14241,1756],[-6132,7779],[593,4935],[3798,2300],[-3204,2634],[870,7444],[-10483,544],[-1464,-12337],[-14518,-4224],[-8465,17899],[-28205,-962],[554,4935],[-17446,962],[-9612,7988],[-2651,7569],[4352,7235],[-3244,2676],[-7239,-2091],[-1662,-14846]],[[571620,656364],[-3797,-2300],[-3482,209]],[[564341,654273],[831,7402]],[[565172,661675],[4075,4768]],[[569247,666443],[-3521,209],[554,4935],[-6963,376],[-553,-4935],[-11314,-6858],[-2097,12546],[7002,-376],[4589,9702],[-3244,2676]],[[553700,684718],[-21480,-3847],[-6685,2844],[-2137,12587]],[[523398,696302],[-9929,5479],[-2927,5144]],[[510542,706925],[3758,2300]],[[514300,709225],[-3521,167],[3798,2300],[514,4935]],[[515091,716627],[11314,6858],[-3204,2677]],[[523201,726162],[-17762,-1547],[-3244,2634]],[[502195,727249],[1108,9912],[-7002,376],[-2967,5144],[554,4935],[11037,4391],[553,4934],[-10245,3053],[-6171,7779]],[[489062,767773],[7793,7025]],[[496855,774798],[-2413,10079],[11590,9368],[1108,9869]],[[507140,804114],[11076,4433],[16971,-5896]],[[535187,802651],[8149,9535],[7041,-377],[1108,9911],[-7042,377],[1108,9869],[3798,2300],[28165,-1463],[554,4935],[3521,-168],[4628,9702],[-10839,-1923],[594,4976],[12817,19238]],[[588789,869563],[14399,1756],[20847,-3597],[32319,3221],[3244,-2635],[-1147,-9911],[2927,-5144],[-2927,-24758],[14083,-794],[2967,-5144],[20807,-3638],[-10839,-1882],[-8228,-9493],[2928,-5144],[-7596,-4601],[2928,-5143],[6725,-2844],[-594,-4935],[3244,-2676],[7318,2091],[6409,-5353],[-277,-2468],[-7041,377],[-1464,-12337],[3521,-209],[-277,-2468],[-10839,-1923],[-594,-4935],[-10839,-1882],[-554,-4977],[-7041,377],[-870,-7402],[10245,-3053],[-1463,-12379],[8188,-20324],[-4114,-4768],[9336,-10455],[6725,-2886],[-593,-4934],[-7279,-2091],[-1187,-9912],[10483,-543],[-4351,-7235],[9889,-5520],[14241,1714],[6409,-5353],[6962,-376],[594,4935],[7278,2091],[5776,-10288],[1701,-15013],[6369,-5312]],[[747537,629390],[-29076,-8364],[-13924,795],[-594,-4977],[6963,-376],[6092,-7778],[3481,-210],[-4391,-7234]],[[716088,601246],[-28126,-920]],[[687962,600326],[-9574,7987],[-14241,-1756]],[[563471,709058],[14004,-753],[4074,4767]],[[589382,720098],[7832,7068],[277,2467]],[[597491,729633],[-6725,2844],[-9019,-2008],[-8188,5437]],[[610862,753805],[10958,3345],[435,3513]],[[215989,636123],[-2808,7528],[10443,-334]],[[223624,643317],[2809,-7528]],[[226433,635789],[-2730,84],[-7714,250]],[[254717,639720],[-10681,-2091],[-3441,125]],[[240595,637754],[-3046,5061],[237,2509]],[[237786,645324],[10681,2091],[3718,-2969],[2532,-4726]],[[211361,661132],[-3956,-4851],[-10681,-2133],[-6487,5186],[7199,2216],[436,4977],[-9732,7778],[475,4935],[7200,2258],[10206,-2802],[3006,-5102],[7239,2258],[3244,-2592],[-1187,-12379],[-6962,251]],[[196487,688942],[-6250,7653],[10443,-334],[3046,-5102]],[[203726,691159],[-7239,-2217]],[[99450,617179],[673,7444],[3678,2384],[-2571,9995],[7121,2300],[-3007,5060],[6923,-167],[870,9911],[-3441,84],[-2809,7527],[3679,2384],[-3481,84],[672,7444],[10642,2216],[-2374,12504],[21085,1882],[435,4977]],[[137545,693208],[10443,-293],[4154,7318]],[[152142,700233],[17643,1966]],[[169785,702199],[-475,-4977],[3719,2384],[3244,-2593],[3718,2384],[475,4977],[16970,-5521],[950,9912],[-3521,83],[-3006,5102],[7199,2217],[712,7444],[7002,-209],[238,2467],[3481,-125],[-475,-4935],[17722,1882],[13727,-3011],[-3046,5102],[17722,1840]],[[256141,726622],[3244,-2635]],[[259385,723987],[3758,2384],[6725,-2760],[3758,2342]],[[273626,725953],[5776,-12672],[10443,-376],[3758,2300],[-2769,7569]],[[290834,722774],[7239,2217],[6488,-5269]],[[304561,719722],[-752,-7403],[3244,-2634],[14478,4349],[-474,-4935],[-3758,-2300],[2729,-7569],[7002,-335],[3006,-5102],[-3758,-2300],[3244,-2635],[-514,-4934],[-10958,-4475],[-474,-4977],[27137,-8656],[-1227,-12337],[6963,-335],[-752,-7402],[-7239,-2175],[3521,-125],[-277,-2467],[3758,2300],[2967,-5102]],[[352427,638173],[-752,-7444],[-28324,-3680]],[[323351,627049],[-27849,1171],[3718,2341],[277,2468],[-3481,125],[3956,4810],[-24605,-1506],[-475,-4935],[-17168,3137],[-4668,-12253],[6962,-251],[3006,-5061],[10681,2050],[-475,-4935],[-10680,-2049],[-17129,3094],[-31568,-1380],[475,4935],[-20847,669],[-11116,-7109],[-6488,5185],[475,4935],[-6725,2677],[-6923,209],[-672,-7444],[-10404,334],[-2809,7528],[-10602,-2175],[-6289,7612],[-436,-4977],[3482,-84]],[[134974,626170],[-7833,-9702]],[[127141,616468],[-27691,711]],[[215989,636123],[10444,-334]],[[226433,635789],[-1543,4182],[-1266,3346]],[[237786,645324],[2809,-7570]],[[240595,637754],[14122,1966]],[[254717,639720],[-6211,7695],[-10720,-2091]],[[196487,688942],[3521,-125],[3718,2342]],[[575892,444797],[-7437,-4558]],[[651054,403437],[-18830,-13842],[277,2467],[-6884,377],[3996,4725],[-16694,5897],[-514,-4977],[-10325,586],[-3718,-2300],[3204,-2635],[-3719,-2300],[-10324,544],[791,7402],[-6883,376],[-5815,10288],[-6607,2844],[-7437,-4601],[-13727,753],[-7437,-4558],[3442,-168],[-514,-4976],[-3442,209],[-5815,10246],[514,4976],[7398,4559],[-3442,167],[-2927,5144],[-7121,-2091],[-2927,5144],[-20373,3596],[-1305,-12378],[-6883,376]],[[497013,419287],[-3165,2676]],[[493848,421963],[3679,2301],[514,4934],[-3164,2635],[-14281,-4182],[-20373,3638],[-3678,-2300]],[[456545,428989],[-2928,5144],[-23814,3806],[475,4934],[-10562,-1923],[-34021,6858],[7398,4559],[712,7402],[7437,4558],[23893,-3764],[-3204,2635],[514,4935],[-6646,2843]],[[415799,470976],[950,7403]],[[416749,478379],[20214,-3597],[3719,2300]],[[440682,477082],[989,9870],[7674,7067],[6923,-418],[8149,12002],[6922,-376],[2928,-5144],[6922,-376],[3956,4767],[13529,-3262]],[[498674,501212],[5064,-17648],[24684,3597],[12224,-15599],[3441,-167],[-514,-4935]],[[543573,466460],[13529,-3220],[7675,7026]],[[564777,470266],[2927,-5144],[3441,-168],[-514,-4976],[-3718,-2258],[6329,-5312],[-514,-4934],[3164,-2677]],[[540132,625752],[-22509,-13717]],[[517623,612035],[6685,-2844],[-554,-4934],[-10404,585],[-1621,-14846]],[[511729,589996],[-3482,167],[-6131,7821]],[[502116,597984],[831,7402]],[[502947,605386],[-10167,3053]],[[492780,608439],[2136,19781],[-6962,376],[-12540,13090],[10404,-544],[4035,4726],[14162,1714],[3243,-2635],[7477,4559],[10167,-3053],[276,2467],[14202,1715],[5617,-12713],[-10720,-1924],[-831,-7402],[6686,-2844]],[[564341,654273],[7279,2091]],[[664147,606557],[-4074,-4726],[-6685,2844],[-7279,-2091],[6408,-5353],[-3758,-2258],[-16852,5896],[-593,-4976],[-13925,752],[-554,-4934],[10167,-3011],[-14201,-1715]],[[612801,586985],[2887,-5144]],[[615688,581841],[-14201,-1714],[-20294,6063],[-4588,-9702],[-22232,-11208],[-515,-4934],[13292,-5688],[-277,-2509],[-10681,-1882],[-6369,5311],[-2650,7611],[-7200,-2091],[831,7403],[-10404,585]],[[530400,569086],[-2690,7611],[7516,4559]],[[535226,581256],[-6685,2843],[554,4935],[-6409,5353],[554,4935],[18474,8908],[-6171,7820]],[[535543,616050],[-10681,-1924],[277,2468],[14993,9158]],[[540132,625752],[-277,-2467]],[[539855,623285],[3481,-209],[3758,2300]],[[547094,625376],[554,4935],[14201,1714],[-6685,2844],[4589,9702],[-2928,5144],[1108,9869]],[[557933,659584],[7239,2091]],[[497329,521202],[554,4935],[11433,9284],[6645,-2844],[10642,1924],[2650,-7611]],[[529253,526890],[-7991,-9493],[-20728,1129],[-3205,2676]],[[494402,526304],[-514,-4934],[-14360,-4182],[-12777,10664],[-3719,-2301],[-3165,2677],[515,4935],[-16536,8364],[11156,6816],[10364,-543],[3204,-2677],[-514,-4935],[10364,-585],[-4232,-7193]],[[474188,532410],[10364,-586],[-237,-2467],[10087,-3053]],[[440682,477082],[-14044,-1714],[475,4934],[-3442,209],[752,7403],[-3204,2634]],[[421219,490548],[751,7444]],[[421970,497992],[-31607,-3262],[-3244,2635]],[[387119,497365],[515,4935],[-3482,209],[752,7402],[-6923,376],[-2729,7570],[-13371,5645]],[[361881,523502],[4708,12170]],[[366589,535672],[-3007,5144],[-6685,2802],[3956,4767]],[[360853,548385],[-9890,5437]],[[350963,553822],[-17604,-1673],[515,4977],[18315,9033],[10641,2007],[10167,-3011],[10958,4391],[7437,4600],[237,2468],[-3481,167],[14439,4224]],[[402587,581005],[4470,9702]],[[407057,590707],[34495,-4349],[2967,-5144]],[[444519,581214],[14122,1714]],[[458641,582928],[-4826,20158]],[[453815,603086],[14676,6649],[14123,1715]],[[482614,611450],[2966,-5102]],[[485580,606348],[17367,-962]],[[502116,597984],[2927,-5144],[6686,-2844]],[[517623,612035],[17920,4015]],[[535226,581256],[-7753,-7026],[2927,-5144]],[[615688,581841],[6686,-2844]],[[622374,578997],[-2572,-22248],[-17366,920],[-2611,7611],[4035,4768],[-6962,376],[-1147,-9869],[-3442,167],[-3204,2677],[1385,12336],[-6646,2844]],[[583844,578579],[-4589,-9702],[-7793,-7026],[2927,-5102],[10681,1882]],[[585070,558631],[23458,-8740],[-554,-4935],[3165,-2677]],[[611139,542279],[-21915,-8740],[-277,-2467],[-9850,5520],[-554,-4935],[-3758,-2300]],[[574785,529357],[-10641,-1882],[-23419,8741]],[[540725,536216],[-11472,-9326]],[[497329,521202],[13569,-3262],[14083,1715]],[[524981,519655],[3204,-2635],[-1622,-14846],[-17801,-3973],[-10088,3011]],[[494402,526304],[-3204,2677],[-17010,3429]],[[687962,600326],[17405,-962]],[[705367,599364],[2888,-5144],[7239,2091],[-277,-2467],[3482,-210],[-11631,-9284]],[[707068,584350],[-16812,5897]],[[690256,590247],[-7556,-4600],[-870,-7402],[13925,-753],[-277,-2467],[-13925,752]],[[681553,575777],[2611,-7611],[6329,-5311]],[[690493,562855],[-7832,-7026],[-17643,-1547],[2887,-5144],[-14478,-4182],[-3204,2676],[-7239,-2091],[-9850,5479],[553,4976],[-6645,2844]],[[627042,558840],[-11275,-6858]],[[615767,551982],[-4628,-9703]],[[585070,558631],[-7200,-2091],[-6685,2844],[12659,19195]],[[622374,578997],[-9890,5479],[317,2509]],[[693342,527852],[-317,-2468],[6646,-2844],[-593,-4934],[-6607,2843],[-4074,-4767],[-6646,2886],[4351,7193],[7240,2091]],[[757347,566619],[-7555,-4559],[316,2468],[-3481,209],[7556,4558],[1503,12337],[6923,-376],[-4352,-7235],[3442,-167],[-594,-4977],[-3758,-2258]],[[434234,715958],[13212,-8155],[6962,-376],[6171,-7779],[24725,1171],[2413,-10079],[-10760,-1923],[3125,-3848],[-3916,-3554],[-10167,3052],[-7516,-4600],[-13964,753],[-13173,8155],[554,4935],[3718,2300],[-6962,376],[-12936,10622],[7239,2091],[9969,-5478],[514,4935]],[[433442,708556],[-3481,167],[277,2467],[3996,4768]],[[431781,726036],[-3996,-4767],[6725,-2844],[-18553,-8949],[-13212,8113],[514,4976],[7556,4559]],[[410815,727124],[13727,-3179],[7239,2091]],[[523398,696302],[-553,-4976],[5894,-10246],[24961,3638]],[[569247,666443],[-317,-2467],[-10997,-4392]],[[547094,625376],[-7239,-2091]],[[492780,608439],[3204,-2677],[-10404,586]],[[482614,611450],[-25081,-6064],[-3718,-2300]],[[453815,603086],[-554,-4935],[5380,-15223]],[[458641,582928],[-10681,-1881],[-3441,167]],[[407057,590707],[7991,9493],[-6686,2844],[-3758,-2300],[-15863,15766],[-22152,-11291],[-2967,5102],[-6725,2802],[7476,4600],[-3244,2634],[-10680,-1965],[-3007,5102]],[[347442,623494],[4985,14679]],[[304561,719722],[14478,4391],[-3006,5102],[10483,-460]],[[326516,728755],[277,2467],[13212,-8029]],[[340005,723193],[-7239,-2175],[-514,-4935],[6250,-7736],[7991,9576],[14241,1799],[1028,9869],[7002,-334],[-4509,-9703],[11274,6901],[10245,-3011],[10760,1923],[4787,12170],[-10246,3011],[791,7444],[-3243,2635],[-3758,-2301],[-554,-4934],[-7002,376],[-514,-4977],[-7002,377],[11788,11835],[10800,1924],[6764,-2844],[11551,9368],[16457,-10790],[14557,4182],[3204,-2635],[7556,4559],[4549,9702]],[[457019,764469],[20729,-3555]],[[477748,760914],[11314,6859]],[[502195,727249],[-6685,2886],[-7279,-2133],[2690,-7611],[6725,-2844],[-3758,-2258],[3204,-2677],[-3758,-2258],[-514,-4977]],[[492820,705377],[6685,-2843],[11037,4391]],[[434234,715958],[-4154,-5897],[3362,-1505]],[[431781,726036],[-10760,-1923],[-10206,3011]],[[340005,723193],[-9731,7862],[19779,21453]],[[350053,752508],[-6250,7737],[751,7444],[7002,-334],[277,2467],[-7002,334],[238,2468],[-10760,-2008],[-27770,3722]],[[306539,774338],[-2532,10037]],[[304007,784375],[38332,-4182],[7279,2175],[475,4935],[-16496,10706],[1780,17313],[3521,-167],[6250,-7737],[17564,-836],[21599,3889],[6804,-2802],[15072,9159],[-4550,-9703],[6765,-2843],[10285,-3011],[10760,1923],[20254,-8489]],[[449701,794705],[7556,4600],[6724,-2844]],[[463981,796461],[-791,-7444]],[[463190,789017],[-11036,-4391],[5933,-10246]],[[458087,774380],[-1068,-9911]],[[222635,558966],[435,4976],[7437,4684],[3481,-125]],[[233988,568501],[2730,-7486],[-14083,-2049]],[[293326,605971],[-7912,-9576],[-712,-7444],[6963,-251],[-475,-4977],[-7437,-4642],[-13648,3011],[475,4935],[3481,-126],[-2532,9995],[-14359,-4391],[-238,-2467],[6963,-293],[-3956,-4809],[-3244,2593],[-475,-4935],[-27335,5938],[-14122,-2007],[-3244,2593],[238,2467],[14162,2008],[435,4934],[3718,2384]],[[230072,600911],[6725,-2718],[-237,-2468],[18078,6775]],[[254638,602500],[-475,-4935]],[[254163,597565],[10681,2091]],[[264844,599656],[237,2468],[-3481,125],[11116,7026],[6725,-2760],[3719,2342],[474,4976],[6725,-2760]],[[290359,611073],[2967,-5102]],[[127141,616468],[3679,2384],[435,4935],[3719,2383]],[[323351,627049],[24843,3847],[-752,-7402]],[[407057,590707],[-475,-4977],[-3481,210],[-514,-4935]],[[350963,553822],[6685,-2802],[3205,-2635]],[[366589,535672],[-3956,-4726],[-21322,-3931]],[[341311,527015],[-712,-7402],[2966,-5102],[-23735,6022],[-7437,-4642],[3007,-5060],[10601,2007],[-7397,-4642],[-17327,753],[-2966,5060],[-13846,586],[5973,-10163],[-3718,-2342],[-6685,2761],[-475,-4935],[-10602,-2049],[13371,-5479],[-514,-4934],[9691,-7821],[-474,-4935]],[[291032,474698],[-23538,8364],[-14517,-6900]],[[252977,476162],[-6923,251]],[[246054,476413],[-2532,9995],[-12421,15306],[474,4935],[3679,2342],[-3441,125],[-3007,5060],[-7397,-4725]],[[221409,509451],[-87543,-9744],[3679,2383],[672,7403],[-8979,15138],[-4866,22416],[14004,2091],[237,2467],[-3442,126],[3679,2384],[10365,-293],[435,4935],[-8584,20073],[-1662,19906],[-17485,-2007],[435,4977],[-20966,-1924],[-2808,7486],[435,4976],[3679,2384],[-3244,2551]],[[222635,558966],[14083,2007],[-2690,4600],[-40,2928]],[[264844,599656],[-7200,-2216],[-3481,125]],[[254638,602500],[-10641,-2091],[-3956,-4809],[-9969,5311]],[[293326,605971],[-3204,2635],[237,2467]],[[296412,566159],[-7160,-2175],[9691,-7862],[2730,-7528],[6923,-292],[514,4934],[3679,2342]],[[312789,555578],[-9890,5353],[-6487,5228]],[[307646,538432],[-17089,3178],[-475,-4934],[-10166,2885],[-3956,-4809],[6962,-293],[-3956,-4767],[3244,-2635],[21006,1631]],[[303216,528688],[3718,2342],[712,7402]],[[492028,827324],[-14280,-1756],[-1899,15055],[7556,4558],[-831,-7402],[6764,-2843],[-791,-7444],[3481,-168]],[[535187,802651],[-20492,6063]],[[514695,808714],[7833,7068],[2967,-5144],[3521,-209],[8109,9535],[554,4977],[-10800,-1924],[-3243,2635],[3520,-168],[-2690,7612],[1385,12378],[-20531,6064],[-14083,711],[-7555,-4600],[-3244,2676],[4312,7235],[-2967,5144],[-7279,-2133],[-3006,5144],[4074,4768],[-10285,3011],[554,4976],[-7042,335],[-4035,-4768],[-17603,878],[-13529,5688],[554,4935],[7555,4600],[-3006,5102],[14874,6733],[-2967,5102],[4075,4809],[-14083,669],[-3007,5144],[-7318,-2133],[-16812,8281],[3797,2300],[-6527,5311],[-10562,502],[237,2467],[-13845,3137]],[[376597,937562],[36631,10664],[-3283,2676],[553,4935],[-3520,167],[514,4935],[-5973,10246],[-17406,3304],[791,7402],[22786,13842],[31765,-1505],[-277,-2468],[76981,-11249],[9296,19488],[9218,-12922],[10641,-544],[9494,-10455],[-7081,376],[-7635,-4600],[2690,-7611],[-3837,-2342],[10048,-5478],[45690,-4852],[1147,9912],[10641,-544],[3244,-2676],[-1464,-12379],[-3797,-2300],[-1148,-9953],[-3837,-2259],[-1424,-12420],[11828,-20576],[-593,-4934],[-18197,-4057],[2927,-5144],[-7318,-2091],[-3244,2677],[-3797,-2300],[-594,-4977],[-3521,209],[2967,-5144],[10286,-3052]],[[620594,472189],[-6923,377]],[[618932,457343],[-43040,-12546]],[[564777,470266],[-11156,-6859],[277,2467],[-10325,586]],[[524981,519655],[8267,12002],[7477,4559]],[[540725,536216],[16496,-8364],[17564,1505]],[[615767,551982],[10998,4391],[-4906,-12170]],[[621859,544203],[19701,-11040],[20530,-3597]],[[662090,529566],[-18790,-11417],[-25396,-8531]],[[617904,509618],[-11512,-9326],[-870,-7402]],[[605522,492890],[10127,-3053],[12421,-13089]],[[628070,476748],[-7476,-4559]],[[416749,478379],[-712,-4935],[-238,-2468]],[[456545,428989],[-3442,209],[-8624,-16937],[-24803,-6064],[712,-27350],[-10285,586],[-1029,-9912],[-63056,-6356],[-10087,3011],[712,7360],[-23894,3680],[-6448,5228],[-17010,3220],[475,4934],[-6883,293],[-7160,-2174],[-1424,-14805],[9850,-5353],[-7358,-4600],[-712,-7402],[-40904,6482],[2295,-12420]],[[237470,350619],[-3679,-2342],[-10365,376]],[[223426,348653],[4154,7277],[-3442,83],[238,2468],[-7358,-4684]],[[217018,353797],[-16971,3053]],[[200047,356850],[673,7360],[-3442,126],[1424,14762],[-3441,125],[910,9828],[3678,2342],[6686,-2676],[2294,24632]],[[208829,413349],[7398,4725]],[[216227,418074],[-10127,2802],[4391,9744],[-3007,5019],[3442,-84],[-2730,7486],[-3481,125],[1662,17272],[10839,4600],[-475,-4935],[3442,-125],[-238,-2468],[10365,-334],[237,2467],[10166,-2844],[673,7403],[3481,-126],[4154,7277],[-20531,3178],[237,2468],[10641,2132]],[[239368,479131],[13609,-2969]],[[252977,476162],[17999,6733],[20056,-8197]],[[341311,527015],[25001,6190],[-4431,-9703]],[[387119,497365],[6686,-2844],[28165,3471]],[[421219,490548],[5657,-12713],[-10127,544]],[[325289,505436],[-7160,-2175],[2967,-5102],[-11116,-6942],[14360,4350],[10364,-502]],[[334704,495065],[752,7402],[-3481,167],[-6686,2802]],[[320622,493225],[-1187,-12337],[13568,-3095],[989,9870],[-3481,167],[514,4935]],[[331025,492765],[-3718,-2300],[-6685,2760]],[[362474,66076],[3719,2300],[-2809,5185],[3402,-209],[871,7444],[3402,-167],[-2809,5144],[3679,2300],[-3086,2676],[871,7444],[-3402,209],[593,4977],[-3125,2676],[1147,9912],[3402,-168],[2809,-5185],[3679,2300],[553,4935],[-10166,627],[554,4935],[10206,-586],[1108,9912]],[[377072,132737],[-2849,5143],[11314,9326],[24131,1088]],[[409668,148294],[-1978,-17314],[-3402,209],[13371,-3220],[-594,-4976],[10008,-2970],[14281,4266],[7951,9535],[10602,2007],[514,4893],[10088,-2885],[7714,7067],[13489,-3011],[-2136,-19530],[-3442,126],[2334,-9870],[-3679,-2300],[-16891,3053],[791,7318],[-3204,2593],[-27849,-1296],[-4787,-12128],[6646,-2760],[-277,-2426],[10641,2050],[-4786,-12086],[3441,-126],[-277,-2467]],[[448237,92046],[-18592,3178],[-9217,-4391],[-2295,2216],[-6369,-4767],[-4391,8489],[2057,-4307],[-21757,-5353],[-9889,-13006],[-11314,-8239],[-3996,210]],[[735471,587738],[-4984,-12170],[6962,-376],[3165,-2677],[-593,-4934],[-24012,3805]],[[716009,571386],[909,7444]],[[716918,578830],[6923,-376]],[[723841,578454],[8466,11960]],[[732307,590414],[3164,-2676]],[[409470,913599],[-14597,-4224],[-3284,2635],[7873,7067],[10562,-501],[-554,-4977]],[[173701,744354],[-7674,-7235],[-6527,5185],[11155,7110],[3046,-5060]],[[502195,727249],[13727,-3220],[277,2509],[7002,-376]],[[523201,726162],[2927,-5144],[-11037,-4391]],[[514300,709225],[-7556,-4600],[-10720,-1882],[-3204,2634]],[[676569,533748],[-277,-2467],[-10444,585],[-3164,2635],[870,7444],[10404,-586],[-277,-2467],[3481,-209],[-593,-4935]],[[795086,534626],[6250,-5311],[-4035,-4767],[-6922,376],[-277,-2467],[-6607,2885],[950,7403],[10641,1881]],[[628070,476748],[-18790,18400]],[[609280,495148],[10641,1924],[10127,-3053],[7477,4559],[6962,-377],[-4352,-7235],[6923,-376],[-3718,-2258],[-594,-4935],[-6922,376]],[[635824,483773],[-7754,-7025]],[[447130,89662],[3520,-1631],[-3639,251],[119,1380]],[[409668,148294],[-3442,209],[277,2467],[13094,-5687],[3956,4725],[9692,-5478],[10285,-544],[3679,2300],[-2572,7570],[20848,1463]],[[465485,155319],[6606,-2760],[7674,7026]],[[479765,159585],[3205,-2593],[-3719,-2300]],[[479251,154692],[6646,-2718],[3956,4725],[-6092,7653]],[[483761,164352],[7160,2175],[8188,11919],[10088,-2886],[3718,2300],[-6131,7653],[3718,2300],[34416,-1547],[7121,2133],[514,4893],[3718,2300],[13688,-627],[14201,4265],[3165,-2551],[-7398,-4558],[-514,-4893],[-7120,-2133],[-1108,-9702],[6844,-251],[6013,-7444],[10522,2133],[554,4767]],[[595118,174598],[10048,-2551],[237,2384],[35128,2049],[3758,2342]],[[644289,178822],[514,4768]],[[644803,183590],[19898,1338],[3007,-2802],[36631,-878],[4272,-5311],[-870,-14679],[-15903,-2049],[-1503,-4768],[-17524,-3471],[-3877,-15181],[3283,-14929],[-3876,-15181],[-18909,-10204],[-10206,-12295],[-25278,-16059],[16258,10790],[-1978,6273],[-12856,14177],[-14597,4307],[-12422,-9619],[-14082,3931],[-10563,-1965],[4312,-2802],[-36710,9660],[-36592,-10705],[-45373,-1255],[-7042,2384],[5934,-251]],[[307646,538432],[-474,-4935],[-3956,-4809]],[[296412,566159],[13173,-7988],[3204,-2593]],[[137545,693208],[-3007,5060],[-10245,2760],[-3007,5060],[-13924,377],[-6488,5144],[633,7443],[-17129,2970],[-7199,-2300],[-2176,14971],[-3244,2593],[870,9911],[-9375,12714],[198,2467],[10681,2216],[-8941,17690],[3917,4893],[-3046,5060],[-7002,168],[-3046,5060],[22034,11877],[-237,-2468],[6764,-2676],[-3916,-4893],[13727,-2844],[237,2468],[10483,-293],[3046,-5060],[7002,-168],[4589,12295],[28244,1673],[3007,-5102],[10760,2175],[474,4976],[3482,-125],[9573,-10246],[-435,-4977],[16812,-8029],[3718,2384],[475,4976],[-7002,209],[475,4977],[-7002,209],[-3046,5102],[7477,4726],[474,4935],[17525,-586],[4470,9828],[7279,2216],[-3284,2593],[24566,-878],[-475,-4935],[3521,-167],[3007,-5060],[10285,-2886]],[[254124,813691],[6052,-10162],[-475,-4977],[10483,-376],[13529,-5520],[11037,4516],[10285,-2885],[-7793,-7152],[-2452,-24757],[-4510,-9744],[-7002,251],[-7714,-7151],[-10245,2885],[2017,-14971],[-14201,-1966]],[[253135,731682],[3006,-5060]],[[169785,702199],[-3481,125],[-14162,-2091]],[[362474,66076],[3679,-920],[-54630,-57168],[-15902,-7988],[-2334,669],[16258,7110],[-3521,11249],[-10522,8364],[-22074,7653],[-29154,-15766],[-15586,-2551],[-24883,-10246],[-12065,18610],[10602,4224],[-2888,5144],[14241,6482],[10087,-711],[10879,6691],[-19225,11291],[11155,9201],[752,7402],[-6290,5353],[-14043,-4140],[-19621,8322],[-6290,5144],[474,4893],[-3125,2551],[3877,4767],[-3402,126],[475,4851],[-10206,376],[237,2467],[-3362,126],[3837,4726],[-16298,7945]],[[153606,122323],[10443,2091],[237,2426],[61989,4935],[-4629,-12128],[-7555,-7026],[13093,-5604],[-751,-7360],[10483,1882],[4153,7193],[19621,-8699],[3917,4726],[30539,-1966],[1899,17356],[34495,2844],[-2334,10120],[41338,2509],[-277,-2467],[6805,-418]],[[320622,493225],[6883,-753],[3520,293]],[[325289,505436],[9613,-2927],[-198,-7444]],[[792594,487537],[-41853,-2635]],[[750741,484902],[-5973,7779],[-29867,11584],[4351,7235],[3482,-167],[870,7402],[7239,2091],[593,4935],[-3164,2676],[7239,2091],[23260,-8782],[-910,-7402],[-7832,-7026],[37897,-2133]],[[787926,505185],[-4984,-12128]],[[782942,493057],[6843,-418],[2809,-5102]],[[627239,469345],[-6645,2844]],[[620594,472189],[7199,2091],[8031,9493]],[[609280,495148],[2888,-5102],[-3442,168],[-3204,2676]],[[617904,509618],[43909,17481],[277,2467]],[[621859,544203],[5183,14637]],[[690493,562855],[-9256,10455],[316,2467]],[[690256,590247],[19977,-8573]],[[710233,581674],[10760,1882]],[[720993,583556],[-4984,-12170]],[[735471,587738],[17050,-3429],[4075,4725],[-317,-2467],[24250,-1380],[4074,4767],[12896,-8196],[4747,-17690],[6606,-2886],[-1265,-9869],[-3759,-2259],[3442,-209],[-277,-2467],[13529,-3262],[13054,-8197],[7279,2091],[10206,-3053]],[[851061,533957],[-4153,-4767],[-910,-7360],[-7635,-4559],[-2176,-17271],[21243,1296]],[[857430,501296],[2532,-7569],[-15191,-9075]],[[844771,484652],[-3481,167],[-2848,5144],[-14280,-1673],[632,4893],[3798,2300],[1543,12337],[-6962,376],[-4115,-4725],[-3204,2634],[1859,14804],[-6645,2886],[-7200,-2091],[633,-22415],[-3758,-2259],[316,2468],[-6566,2843],[-6884,377]],[[787609,502718],[317,2467]],[[750741,484902],[17208,-961],[7476,4558],[20610,-1171]],[[796035,487328],[-949,-7402],[9811,-5478],[21519,3763],[6013,-7778],[6963,-377],[7634,4517]],[[847026,474573],[9811,-5478],[-317,-2468],[11037,4308],[13925,-795],[3125,-2635],[-4431,-7193],[3165,-2676],[11353,6775],[-5657,10246],[16694,-5939],[1306,9870],[6606,-2886],[633,4935]],[[914276,480637],[72550,-3931],[2730,-5060],[-2334,-14721],[12777,-5478],[-8426,-26849],[3323,-8448],[-63887,1673],[-7358,3848],[-3718,-6942],[-6725,-1548],[-7437,2802],[910,-5395]],[[717907,529023],[-2294,10078],[-6923,377],[277,2467],[-7239,-2091],[2017,-12546],[3165,-2677],[10681,1882],[316,2510]],[[420467,850911],[-277,-2468],[10800,1924],[13529,-5646],[-554,-4934],[-7279,-2133],[2967,-5144],[18355,6524],[7042,-335],[2966,-5143],[-18355,-6524],[-791,-7403],[-17564,879],[-11590,-9326],[-5974,10246],[-21084,1045],[-3244,2677],[514,4934],[7556,4601],[791,7402],[14597,4224],[-6765,2843],[277,2468],[10800,1965],[3283,-2676]],[[514695,808714],[-7555,-4600]],[[496855,774798],[-8070,-9493],[-11037,-4391]],[[458087,774380],[-6210,7779],[11313,6858]],[[463981,796461],[-3243,2635],[-11037,-4391]],[[304007,784375],[-237,-2467],[3243,-2635],[-474,-4935]],[[350053,752508],[-12026,-14344],[-11511,-9409]],[[304561,719722],[-9969,5394],[-3758,-2342]],[[273626,725953],[-14241,-1966]],[[259385,723987],[-6488,5228],[238,2467]],[[254124,813691],[2215,22290],[7516,4684],[514,4977],[8031,9618],[10522,-418],[515,4935],[7278,2174],[17604,-711],[4272,7277],[-3244,2593],[-277,-2468],[-7041,293],[514,4977],[3758,2300],[-6764,2802],[514,4935],[10800,2007],[-3244,2635],[7279,2174],[4311,7277],[3007,-5102],[7318,2133],[5618,19613],[18434,6608],[10325,-2969],[18196,4098],[1029,9869],[-6765,2802],[238,2468]],[[844771,484652],[15507,11500],[-2848,5144]],[[851061,533957],[44108,-12462],[-4154,-4726],[-633,-4934],[3482,-210],[-317,-2467],[-7595,-4516],[6646,-2886],[7278,2091],[-3797,-2258],[2809,-5144],[-3442,209],[-673,-4935],[2849,-5144],[3441,-167],[-633,-4935],[13846,-836]],[[847026,474573],[-2255,10079]],[[719094,309384],[-2334,-1589],[277,-10204],[-18592,-7235],[-7991,-17355],[2967,-12086]],[[693421,260915],[-6567,-4140],[-20926,-42],[751,7193],[-2888,4976],[3917,4684]],[[667708,273586],[-3125,2593],[-20610,-1338]],[[643973,274841],[-3679,-2300],[3125,-2593],[-3679,-2258],[-16733,3303],[-3956,-4683],[-6804,334],[-554,-4893],[-16812,3346],[3125,-2635],[-6844,335],[277,2467],[-3679,-2300],[-19819,8448],[3956,4725],[-6883,377],[554,4893],[11076,6858],[-13766,711],[3995,4767],[-9810,5437],[514,4935],[-34851,-3053],[-7121,-2091],[-791,-7402],[-10285,543],[554,4935],[3402,-167],[-3165,2635],[-3679,-2259]],[[501641,297256],[-2096,12546]],[[499545,309802],[3679,2259],[514,4934],[-35405,24340],[3956,4767],[-2928,5144],[11037,6817],[-6843,376]],[[473555,358439],[-6092,7820],[3402,-209],[8623,16937]],[[479488,382987],[25793,15975],[276,2468],[-7120,-2091],[1266,12337]],[[499703,411676],[-2690,7611]],[[681039,394279],[-277,-2468],[-7674,-6984]],[[665136,375334],[-3679,-2300],[-7120,-2049]],[[693421,260915],[5261,-16686],[-5143,-31574],[-18117,-3221],[-13609,-26304],[-17010,460]],[[644289,178822],[-14439,-4642],[-28165,-2091],[277,2384],[-6844,125]],[[483761,164352],[5854,-10078],[-7160,-2175],[-3204,2593]],[[479765,159585],[-11116,-6900],[-18394,20742]],[[450255,173427],[237,2468],[6844,-335],[1384,12337],[-23379,6231],[554,4935],[-3165,2677],[-16812,3429],[-2848,5144]],[[413070,210313],[10483,1882]],[[423553,212195],[6566,-2844],[1345,12337],[3165,-2635]],[[434629,219053],[-2888,5102]],[[431741,224155],[1068,9911],[-7081,-2091],[1860,17272],[-3165,2676],[3679,2259],[791,7402],[10285,-586],[-791,-7402],[10246,-585],[10562,1924],[1068,9869],[7121,2091],[237,2467],[-3402,168],[3679,2300],[-3165,2634],[-10522,-1881],[-3165,2676],[514,4935],[-3441,209],[791,7402],[10285,-585],[514,4934],[-3402,168],[1306,12378],[20293,-3638],[-277,-2467],[24289,1129]],[[501918,299724],[-277,-2468]],[[643973,274841],[10443,1882],[13292,-3137]],[[782942,493057],[276,2468],[4391,7193]],[[796035,487328],[-3441,209]],[[246054,476413],[-6686,2718]],[[216227,418074],[-238,-2467],[-7160,-2258]],[[200047,356850],[6883,-251],[-237,-2468],[10325,-334]],[[223426,348653],[3442,-125],[-7358,-4684]],[[219510,343844],[3006,-5019],[-1186,-12295],[2729,-7527]],[[224059,319003],[-17445,-1840],[-3916,-4810],[1780,-17313]],[[204478,295040],[30935,-1087],[-2137,-22081],[-22034,-14010]],[[211242,257862],[-25317,23001],[-3679,-2342],[-9850,5227],[-3639,-2341],[-9613,7694],[-10523,-2174],[-10957,-7068],[-24645,30236],[-24804,-9200],[-9771,5144],[198,2467],[6844,-167],[435,4893],[-13648,334],[910,9828],[21164,6900],[3877,4809],[-30975,-1714],[-5498,14929],[672,7361],[-6606,2634],[-5736,12463],[910,9828],[-34574,-4182],[672,7360],[11710,17062],[-10009,2677],[-3006,5018],[870,9870],[-13885,-2217],[-2769,7486],[10879,7193],[27809,4391],[-5340,17397],[-13925,-2174],[-8782,17480],[198,2510],[10483,2258],[-10048,2676],[7279,4810],[-6250,7527],[4509,12295],[-3441,84],[198,2467],[7318,4810],[3402,-84],[-198,-2467],[17366,2091],[-6646,2634],[7081,2342],[16536,-7820],[13964,2133],[-435,-4935],[9850,-5186],[-3639,-2383],[10522,2216],[-198,-2467],[13727,-335],[-198,-2467],[6646,-2677],[13767,-334],[435,4934],[6883,-209],[672,7402],[90985,9661]],[[493848,421963],[5855,-10287]],[[479488,382987],[-12302,-19195],[6369,-5353]],[[499545,309802],[2373,-10078]],[[431741,224155],[3165,-2635],[-277,-2467]],[[423553,212195],[-83548,-10037]],[[340005,202158],[7912,9493],[-10008,3053],[4193,7193],[-3165,2676],[-17129,1004],[-7872,-9451],[-3441,209],[237,2467],[-6844,376],[-5854,10288],[-7121,-2091],[752,7360],[-6646,2802],[752,7403]],[[285771,244940],[-10048,2969],[-24289,-1422],[-3165,2593],[-3679,-2300],[-475,-4893],[-32873,15975]],[[204478,295040],[-1543,19781],[21124,4182]],[[219510,343844],[17960,6775]],[[153606,122323],[-23103,8072],[-2966,4976],[6804,-209],[7278,4684],[20215,-3137],[3639,2342],[-11076,27309],[-1543,19697],[3639,2342],[6369,-5144],[3877,4809],[2967,-5018],[17327,1882],[6566,-2677],[-237,-2467],[10483,2091],[3916,4768],[6844,-251],[10957,6942],[-1977,14846],[3679,2342],[10245,-418],[5657,-12546],[10483,1965],[3679,2300],[752,7402],[-2928,5061],[23735,30988],[6884,-334]],[[340005,202158],[73065,8155]],[[450255,173427],[15230,-18108]],[[705367,599364],[10721,1882]],[[747537,629390],[16773,-5938],[-11631,-9284],[-14518,-4182],[2888,-5144],[-3481,209],[-4668,-9702],[3165,-2676],[-594,-4935]],[[732307,590414],[-3798,-2300],[-4668,-9660]],[[716918,578830],[4075,4726]],[[710233,581674],[-3165,2676]]],"bbox":[36.5451,46.8674,39.073,49.2586],"transform":{"scale":[0.00000252790252790253,0.000002391202391202389],"translate":[36.5451,46.8674]}}