{"type":"Topology","objects":{"muni":{"type":"GeometryCollection","geometries":[{"type":"MultiPolygon","arcs":[[[0,1,2,3,4]]],"properties":{"GID_2":"RUS.16.1_1","GID_0":"RUS","COUNTRY":"Russia","GID_1":"RUS.16_1","NAME_1":"Gorno-Altay","NL_NAME_1":"РеспубликаАлтай","NAME_2":"Chemal'skiyrayon","VARNAME_2":"NA","NL_NAME_2":"Чемальскийрайон","TYPE_2":"Raion","ENGTYPE_2":"District","CC_2":"R53010","HASC_2":"RU.GA.CM"}},{"type":"MultiPolygon","arcs":[[[5,6,7,8,9,-1,10]]],"properties":{"GID_2":"RUS.16.2_1","GID_0":"RUS","COUNTRY":"Russia","GID_1":"RUS.16_1","NAME_1":"Gorno-Altay","NL_NAME_1":"РеспубликаАлтай","NAME_2":"Choyskiyrayon","VARNAME_2":"NA","NL_NAME_2":"Чойскийрайон","TYPE_2":"Raion","ENGTYPE_2":"District","CC_2":"R53010","HASC_2":"RU.GA.CO"}},{"type":"MultiPolygon","arcs":[[[11]]],"properties":{"GID_2":"RUS.16.3_1","GID_0":"RUS","COUNTRY":"Russia","GID_1":"RUS.16_1","NAME_1":"Gorno-Altay","NL_NAME_1":"РеспубликаАлтай","NAME_2":"Gorno-Altaysk","VARNAME_2":"NA","NL_NAME_2":"Горно-Алтайск","TYPE_2":"Gorod","ENGTYPE_2":"City","CC_2":"NA","HASC_2":"RU.GA.GA"}},{"type":"MultiPolygon","arcs":[[[12,13,14,15,16]]],"properties":{"GID_2":"RUS.16.4_1","GID_0":"RUS","COUNTRY":"Russia","GID_1":"RUS.16_1","NAME_1":"Gorno-Altay","NL_NAME_1":"РеспубликаАлтай","NAME_2":"Kosh-Agachskiyrayon","VARNAME_2":"NA","NL_NAME_2":"Кош-Агачскийрайон","TYPE_2":"Raion","ENGTYPE_2":"District","CC_2":"R53010","HASC_2":"RU.GA.KA"}},{"type":"MultiPolygon","arcs":[[[17,-11,-5,18,19],[-12]]],"properties":{"GID_2":"RUS.16.5_1","GID_0":"RUS","COUNTRY":"Russia","GID_1":"RUS.16_1","NAME_1":"Gorno-Altay","NL_NAME_1":"РеспубликаАлтай","NAME_2":"Mayminskiyrayon","VARNAME_2":"NA","NL_NAME_2":"Майминскийрайон","TYPE_2":"Raion","ENGTYPE_2":"District","CC_2":"R53010","HASC_2":"RU.GA.MA"}},{"type":"MultiPolygon","arcs":[[[-2,-10,20,-15,21,22,23,24]]],"properties":{"GID_2":"RUS.16.6_1","GID_0":"RUS","COUNTRY":"Russia","GID_1":"RUS.16_1","NAME_1":"Gorno-Altay","NL_NAME_1":"РеспубликаАлтай","NAME_2":"Ongudayskiyrayon","VARNAME_2":"NA","NL_NAME_2":"Онгудайскийрайон","TYPE_2":"Raion","ENGTYPE_2":"District","CC_2":"R53010","HASC_2":"RU.GA.ON"}},{"type":"MultiPolygon","arcs":[[[25,-20,26,-3,-25,27]]],"properties":{"GID_2":"RUS.16.7_1","GID_0":"RUS","COUNTRY":"Russia","GID_1":"RUS.16_1","NAME_1":"Gorno-Altay","NL_NAME_1":"РеспубликаАлтай","NAME_2":"Shebalinskiyrayon","VARNAME_2":"NA","NL_NAME_2":"Шебалинскийрайон","TYPE_2":"Raion","ENGTYPE_2":"District","CC_2":"R53010","HASC_2":"RU.GA.SH"}},{"type":"MultiPolygon","arcs":[[[28,29,30,-7]]],"properties":{"GID_2":"RUS.16.8_1","GID_0":"RUS","COUNTRY":"Russia","GID_1":"RUS.16_1","NAME_1":"Gorno-Altay","NL_NAME_1":"РеспубликаАлтай","NAME_2":"Turochakskiyrayon","VARNAME_2":"NA","NL_NAME_2":"Турочакскийрайон","TYPE_2":"Raion","ENGTYPE_2":"District","CC_2":"R53010","HASC_2":"RU.GA.TU"}},{"type":"MultiPolygon","arcs":[[[-9,-30,31,-16,-21]]],"properties":{"GID_2":"RUS.16.9_1","GID_0":"RUS","COUNTRY":"Russia","GID_1":"RUS.16_1","NAME_1":"Gorno-Altay","NL_NAME_1":"РеспубликаАлтай","NAME_2":"Ulaganskiyrayon","VARNAME_2":"NA","NL_NAME_2":"Улаганскийрайон","TYPE_2":"Raion","ENGTYPE_2":"District","CC_2":"R53010","HASC_2":"RU.GA.UL"}},{"type":"MultiPolygon","arcs":[[[-28,-24,32,33,34]]],"properties":{"GID_2":"RUS.16.10_1","GID_0":"RUS","COUNTRY":"Russia","GID_1":"RUS.16_1","NAME_1":"Gorno-Altay","NL_NAME_1":"РеспубликаАлтай","NAME_2":"Ust'-Kanskiyrayon","VARNAME_2":"NA","NL_NAME_2":"Усть-Канскийрайон","TYPE_2":"Raion","ENGTYPE_2":"District","CC_2":"R53010","HASC_2":"RU.GA.US"}},{"type":"MultiPolygon","arcs":[[[35,36,-33,-23,37,-13]]],"properties":{"GID_2":"RUS.16.11_1","GID_0":"RUS","COUNTRY":"Russia","GID_1":"RUS.16_1","NAME_1":"Gorno-Altay","NL_NAME_1":"РеспубликаАлтай","NAME_2":"Ust'-Koksinskiyrayon","VARNAME_2":"NA","NL_NAME_2":"Усть-Коксинскийрайон","TYPE_2":"Raion","ENGTYPE_2":"District","CC_2":"R53010","HASC_2":"RU.GA.UK"}}]}},"arcs":[[[386334,725120],[7520,-6262],[18657,-36841],[26925,-34652],[7147,-17101]],[[446583,630264],[-2597,-9435],[-1868,-17662],[-2852,-5813],[-13717,-14152],[-1171,-5223],[1307,-12299],[2173,-6880],[-560,-4577],[-10984,-8846],[3514,-22857],[-2563,-9463],[-4974,-6290],[-7317,-3398],[-10152,1516]],[[394822,504885],[-3514,39706],[-16145,46838],[-22528,36786],[-38180,102605]],[[314455,730820],[13072,1573]],[[327527,732393],[6638,8227],[13768,1685],[4821,-10221],[19998,84],[13582,-7048]],[[364162,837442],[28657,-11457],[10814,1488],[9116,8143],[1086,10643],[3515,7778],[8131,3229],[14328,843],[8879,-5223],[9320,-1236],[7826,3398],[1664,14405]],[[467498,869453],[6519,-20049],[18980,-2977],[4397,-28810],[-8387,-9239],[-6213,-11148],[3803,-13310],[14786,-34342],[5704,-34090]],[[507087,715488],[22070,-95108],[1324,-9126]],[[530481,611254],[-1443,-10502]],[[529038,600752],[-8539,-16624],[-3345,-2218],[-19268,6824],[-14023,-5476],[-10780,13226],[-11034,30186],[-5416,4100],[-10050,-506]],[[386334,725120],[-2394,12299],[-10695,13675],[-8523,15445],[-6128,25609],[7775,19909],[747,9575],[-2954,15810]],[[339241,801190],[-4567,-1404],[-1086,4324],[4176,1292],[1816,-1882],[-339,-2330]],[[447602,201280],[-561,9379],[6791,21173],[-373,26788],[2410,14434]],[[455869,273054],[7181,12552],[5993,14938],[13140,17466]],[[482183,318010],[19030,-1825],[85,7357],[6536,5813],[9184,-9688],[11460,506],[8539,4324],[13462,-5167],[3531,-4521],[13785,5083],[1222,14967],[8285,20555]],[[577302,355414],[15601,-1910],[9473,-10249],[5772,-13058],[-798,-10670],[-3276,-10615],[7911,-7385],[28724,2106],[5415,5504],[8353,31001],[9201,4914],[9133,1179],[3379,5897],[9642,-3201],[6655,-7413],[2699,-8705],[6774,-3988],[16671,2808],[19591,-1684],[7707,-11233],[10101,-21846],[21713,-6374],[6587,3004],[27706,-20414],[5398,1207],[9388,6880],[6264,11625],[9405,5279],[30405,-5110],[17,11316],[2360,3791],[6332,3173],[8505,-4886],[19218,6599]],[[909328,312956],[26856,-5897],[4228,-12748],[5279,-6515],[6366,-3987],[4126,-10390],[-5365,-19039],[5008,-6571],[289,-11260],[5059,-4633],[-730,-8789],[2241,-5869],[-1732,-9126],[2954,-2920],[11018,-2163],[3446,-3734],[-2767,-5279],[-1070,-9042],[-5789,-9492],[-23920,-7188],[-8386,-5813],[-7911,-1263],[-11476,-18028],[-7945,8705],[-7843,5363],[-5857,2584],[-4465,-2163],[-3701,-5812],[-2003,-7610],[5721,-9014],[306,-4493],[-4703,-898],[-4176,-5757],[-7741,-5503],[-16909,-4100],[-8420,-4690],[-8726,15304],[560,7301],[-6638,-140],[-7571,-11120],[2835,-8621],[-1036,-3145],[1919,-4858],[-866,-1909],[-10169,5195],[-12902,-955],[-8200,2752],[-4210,6795],[-730,5841],[-3005,2134],[-9642,-4324],[-4075,-8368],[-7215,2808],[-9218,-3819],[-7368,6178],[-12138,2021],[-19778,-5110],[-5025,-3595],[-2818,-5138],[1885,-8115],[-8438,-5111],[-7062,-10446],[8438,-8340],[4974,-9519],[3480,-3061],[-730,-4745],[-4278,-1405],[-3056,-6739],[-3446,-2639],[-4906,5953],[-7538,140],[-3175,-6262],[-4736,-2302],[-2445,-13928],[-1595,-2022],[-6180,1516],[-8250,-4942],[-11477,2275],[-22069,-1489],[-22579,-11990],[-9727,4100],[-1053,-10053],[-11493,-5925],[-12902,421],[-8403,3791],[-5144,28333],[-2360,4465],[-16382,9884],[-22850,1432],[-6197,11485],[-5874,-477],[-4091,2078],[-1834,6851],[-4974,6459],[2394,6178],[-1239,11625],[-16247,9968],[-933,6290],[2716,9492],[-6570,5840],[3293,3567],[-407,1347],[-15669,7863],[-8896,-1573],[-3905,4241],[-2444,8957],[305,7778],[8013,11036],[5127,-1713],[14328,10250],[-2461,4352],[-204,4661],[6502,14349],[-475,2528],[-32459,-478]],[[283643,744495],[5585,1489],[12376,14770],[119,17803],[7775,5616],[8896,2977],[-3616,11513],[34,14910],[-7708,15838],[19235,6767],[24700,3201],[13123,-1937]],[[327527,732393],[-16026,-1910],[-10984,-3734]],[[300517,726749],[-6909,2134],[-2309,6823],[-7656,8789]],[[529038,600752],[18606,-41812],[13598,-19544],[7538,-7946],[16552,-71100],[10559,-35437],[-2258,-14574],[-12647,-15866],[136,-16764],[-3820,-22295]],[[482183,318010],[-9932,-12327]],[[472251,305683],[-4532,19825],[-34547,7975],[-9762,-1825],[-11968,-8088],[-4176,9885],[-16502,14573],[-9795,5757],[-13768,646],[-4482,13478],[-7894,4577],[-4855,18646],[-8913,2218],[-26110,-20021],[-10746,-20836],[-3004,15360],[-9100,20555],[1902,8593],[-221,9154],[-7945,7918],[-10305,281],[-6689,-7076],[-34275,-12131],[-7351,1713],[-1205,9969],[7741,6823],[4584,9744],[543,12215],[10729,14855],[-1154,5251],[-14074,5700]],[[234377,461417],[628,6178],[6248,9070],[-3056,5868],[-18097,11064],[-3837,14630],[-5161,8256],[1308,9772],[5432,4942]],[[217842,531197],[27570,-1264],[-4550,17887],[8981,20724],[6909,9687],[11578,-1825],[-68,-5279],[-3107,-6458],[3192,-2949],[19676,6009],[5755,7049],[7351,1123],[9286,5195],[9897,-1461],[6943,-5026],[7996,-10025],[3243,-11372],[594,-10867],[16382,-3510],[4126,-7498],[13326,-1039],[21900,-25413]],[[166488,671627],[24141,8536],[9507,-1207],[13173,1713],[27146,15641],[15788,2779],[-3956,17186],[22307,23868],[9049,4352]],[[300517,726749],[13938,4071]],[[217842,531197],[1715,8031],[-22290,47119],[2274,4464],[-7096,15164],[-6705,281],[-4703,-2696],[-8217,15416],[4669,5055],[-8879,16034],[-11663,-394],[1715,16455],[12563,8481],[-4737,7020]],[[467498,869453],[-3141,27463],[-9014,7048],[1069,19741],[4822,16820],[-8098,22548],[3361,6403],[8149,-197],[18012,19151],[15483,8789],[15686,2780],[12087,-4128],[15262,-17297],[8607,6570],[13887,-1488],[7011,-11653],[-2835,-10643],[31440,-10165],[21849,-11990],[11442,1320],[12020,17269],[13835,13423],[10763,898],[16281,-17269],[25940,-20780],[8539,1517],[11391,5644],[19676,-5644],[2801,-12468],[5076,-9491],[-5076,-13310],[1104,-30159],[-4550,-11709],[-14600,-8789],[-5874,-11429],[-20202,-478],[-17316,-9098],[-1035,-14994],[-5552,-10109],[-6145,-19095],[-10661,-19376],[6875,-12018],[9015,-4577],[15075,5335],[2478,-13338],[-15737,-22127],[-2682,-10137],[-16773,-5392],[-305,-6374]],[[666938,696450],[-19948,-7357],[-6587,6599],[-9371,-1488],[-2088,-6403],[1494,-9098],[8149,-25356],[968,-11822],[-3837,-6459],[-4210,1039],[-3226,4858],[-8081,1348],[-9337,-5448],[-4736,-6907],[-679,-9520],[-3701,-6992],[-37637,-7581],[-17503,-9716],[-4804,10277],[-6926,449],[-4397,4381]],[[530481,611254],[-5212,29793],[-18182,74441]],[[666938,696450],[-272,-8115],[5653,-12524],[22477,-6543],[17520,-21088],[27451,-10952],[-442,-7385],[12851,-9968],[18522,3285],[13734,9182],[12732,19432],[3328,28698],[8641,11401],[11611,-2977],[6401,-7750],[3004,-11737],[17826,-14434],[3989,-7160],[-9863,-29569],[10372,-27463],[8183,-13225],[-1681,-10980],[306,-12496],[8200,-9070],[17451,-12495],[2140,-17944],[15380,-15781],[12716,1039],[3361,-4156],[985,-9519],[5992,-8452],[19455,-17551],[-68,-11007],[3056,-10502],[14345,-10306],[1970,-6767],[8590,-8340],[23223,-15248],[3922,-11990],[-2563,-11148],[-9185,-12720],[-14650,-6768],[-12936,1629],[-7283,4886],[-8557,21734],[-9404,2415],[-136,-12355],[7249,-16175],[-2700,-4914],[-18538,-8227],[-2343,-9070],[-10423,-11962],[798,-10362]],[[234377,461417],[-19896,-12018],[-9813,-12047],[-12274,-3426],[-13615,1517],[-7537,6627],[-5025,9828],[-14278,3173],[-2835,-5167],[-2954,-23110],[-12511,-3314],[-2869,-4914],[16688,-10446],[2003,-6598],[-17112,-1798],[-10305,-5166],[-34021,6346],[-8539,-9519],[-4805,-10418],[-2869,-18674],[-4040,-7357]],[[67770,354936],[221,-7329],[7996,-26676]],[[75987,320931],[-798,-843],[-7385,-1628],[-8607,1600],[-10441,12693],[-4702,10811],[3769,14068],[-8064,26592],[288,5167],[4686,8424],[-968,3931],[-19081,25750],[-11918,11429],[46431,11513],[10746,8761],[8488,-3960],[12308,8593],[-1884,13254],[14056,9800],[3820,5139],[-2003,5307],[-20219,8480],[4753,9604],[-356,13085],[-23190,2696],[-11968,5475],[-9524,-533],[-6638,2274],[-5450,11822],[-10338,4802],[-10797,-5644],[-8217,3454],[-2784,17241],[19659,8958],[8216,-9576],[5976,35550],[3243,8452],[14226,365],[28707,5757],[8794,8986],[29997,18589],[10492,11709],[27128,2247],[10050,10502]],[[447602,201280],[-645,-3201],[2614,-4745],[-2581,-4943],[-7741,-4886],[-3497,-5953],[-9473,-6907],[-10169,-15080],[-11323,-7694],[-20559,-7946],[-1052,-1685],[492,-7919],[-7045,-9828],[1766,-9098],[-5942,-5672],[-10814,15612],[-12172,-1095],[-10458,-7441],[-7232,4072],[2360,8789],[-51,2892],[-2037,2780],[-17741,-1207],[-12409,6318],[-13412,-3875],[-3972,1235],[-6299,7947],[-6620,3117],[-14227,393],[-6519,-3005],[-5466,-7750],[-3837,2864],[-5721,-1965],[-1850,3875],[-4703,3397],[-8081,-870],[-5211,8396],[-5993,2022],[-3073,7918],[2377,10783],[-492,6880],[-1494,5532],[-13327,26002],[-730,9463],[-3701,4381],[-12919,3510],[-3429,2611],[-2479,5476],[-645,10755],[2377,6093],[-526,4156],[1850,2219],[3956,-2780],[2003,2611],[-3429,11429],[-13887,13198],[-16620,1713],[-832,6823],[-2512,3819],[-10034,1011],[-15041,12411],[-18249,5617],[-13870,13422],[-3039,-253],[-6230,-6093]],[[75987,320931],[-5840,17438],[-2377,16567]],[[472251,305683],[-16382,-32629]]],"bbox":[83.9754,49.0847,89.8659,52.6459],"transform":{"scale":[0.0000058905058905058936,0.0000035612035612035606],"translate":[83.9754,49.0847]}}