{"type":"Topology","objects":{"muni":{"type":"GeometryCollection","geometries":[{"type":"MultiPolygon","arcs":[[[0,1,2,3]]],"properties":{"GID_2":"RUS.17.1_1","GID_0":"RUS","COUNTRY":"Russia","GID_1":"RUS.17_1","NAME_1":"Ingush","NL_NAME_1":"Респу́бликаИнгуше́тия","NAME_2":"Malgobekskiyrayon","VARNAME_2":"NA","NL_NAME_2":"Малгобекскийрайон","TYPE_2":"Raion","ENGTYPE_2":"District","CC_2":"R42010","HASC_2":"RU.IN.MR"}},{"type":"MultiPolygon","arcs":[[[4,-2,5,6,7,8,9]]],"properties":{"GID_2":"RUS.17.2_1","GID_0":"RUS","COUNTRY":"Russia","GID_1":"RUS.17_1","NAME_1":"Ingush","NL_NAME_1":"Респу́бликаИнгуше́тия","NAME_2":"Nazranovskiyrayon","VARNAME_2":"NA","NL_NAME_2":"Назрановскийрайон","TYPE_2":"Raion","ENGTYPE_2":"District","CC_2":"R42010","HASC_2":"RU.IN.NR"}},{"type":"MultiPolygon","arcs":[[[10,-8,11,-6,-1,12]]],"properties":{"GID_2":"RUS.17.3_1","GID_0":"RUS","COUNTRY":"Russia","GID_1":"RUS.17_1","NAME_1":"Ingush","NL_NAME_1":"Респу́бликаИнгуше́тия","NAME_2":"Sunzhenskiyrayon","VARNAME_2":"NA","NL_NAME_2":"Сунженскийрайон","TYPE_2":"Raion","ENGTYPE_2":"District","CC_2":"R42010","HASC_2":"RU.IN.SU"}}]}},"arcs":[[[583573,932160],[-50901,-36448],[-28339,-74160],[-50488,-40978]],[[453845,780574],[-124364,-20646],[-102215,-61098]],[[227266,698830],[-62319,18435],[-39620,37290]],[[125327,754555],[-86532,21279],[-38795,38239],[25175,60360],[-5915,75213],[19810,8217],[45123,6847],[89558,-3160],[23525,-13905],[-5228,-24755],[15821,-19172],[31916,-8006],[44711,737],[37831,10640],[11831,46560],[-14032,28653],[17334,17697],[65208,-2212],[22287,-30865],[22561,-10850],[26139,2844],[44160,-25387],[65758,-1369]],[[125327,754555],[61356,-48772],[40583,-6953]],[[453845,780574],[-27652,-46771],[-550,-77952],[45673,-18540],[57092,5372]],[[528408,642683],[24762,-6847],[50764,-28442]],[[603934,607394],[-5090,-22964]],[[598844,584430],[-88733,-84167],[-64658,-44033]],[[445453,456230],[-98363,49300],[-61081,15274],[-23112,14432],[-33842,47509],[-64521,3897],[-36181,-10007],[-45536,9586],[25038,23385],[-7979,121458],[6741,27916],[18710,-4425]],[[445453,456230],[122162,96071],[31229,32129]],[[603934,607394],[-75526,35289]],[[583573,932160],[73876,-16539],[140734,-56779],[74563,-3265],[-28889,-29917],[687,-65100],[24901,-22859],[84468,-1475],[46086,-16749],[-12519,-127357],[-136882,-114927],[-27790,-33077],[-19810,-46139],[-13069,-46139],[16784,-21806],[58192,-30548],[-6328,-20647],[-83506,-67418],[16234,-68156],[-96575,-69209],[-74013,5584],[-88045,45717],[-59980,8533],[-49250,-2950],[-31091,-8743],[-50901,-42031],[-46637,-73738],[-41684,-6426],[-29440,19383],[-26276,80691],[-28339,18434],[-40858,10324],[-3577,44875],[19397,45718],[35631,23491],[32879,-7164],[-18984,-16538],[36318,-29390],[59293,-17171],[79103,-737],[39070,6952],[46774,23175],[8392,20542],[82955,51090],[-22700,53302],[-30403,21385],[6191,40029],[-23112,52986],[-29990,14853]]],"bbox":[44.5839,42.6256,45.3108,43.5749],"transform":{"scale":[7.269007269007274e-7,9.493009493009503e-7],"translate":[44.5839,42.6256]}}