{"type":"Topology","objects":{"muni":{"type":"GeometryCollection","geometries":[{"type":"MultiPolygon","arcs":[[[0,1,2,3]]],"properties":{"GID_2":"RUS.18.1_1","GID_0":"RUS","COUNTRY":"Russia","GID_1":"RUS.18_1","NAME_1":"Irkutsk","NL_NAME_1":"Иркутскаяобласть","NAME_2":"Alarskiyrayon","VARNAME_2":"NA","NL_NAME_2":"Аларскийрайон","TYPE_2":"Raion","ENGTYPE_2":"District","CC_2":"R63010","HASC_2":"RU.UB.AL"}},{"type":"MultiPolygon","arcs":[[[4]]],"properties":{"GID_2":"RUS.18.2_1","GID_0":"RUS","COUNTRY":"Russia","GID_1":"RUS.18_1","NAME_1":"Irkutsk","NL_NAME_1":"Иркутскаяобласть","NAME_2":"Angarsk","VARNAME_2":"NA","NL_NAME_2":"Анга́рск","TYPE_2":"Gorsovet","ENGTYPE_2":"District","CC_2":"NA","HASC_2":"RU.IR.AG"}},{"type":"MultiPolygon","arcs":[[[5,6,7,8],[-5]]],"properties":{"GID_2":"RUS.18.3_1","GID_0":"RUS","COUNTRY":"Russia","GID_1":"RUS.18_1","NAME_1":"Irkutsk","NL_NAME_1":"Иркутскаяобласть","NAME_2":"Angarskiyrayon","VARNAME_2":"NA","NL_NAME_2":"Ангарскийрайон","TYPE_2":"Raion","ENGTYPE_2":"District","CC_2":"R63092","HASC_2":"RU.IR.AR"}},{"type":"MultiPolygon","arcs":[[[9,10,11,12,13,14]]],"properties":{"GID_2":"RUS.18.4_1","GID_0":"RUS","COUNTRY":"Russia","GID_1":"RUS.18_1","NAME_1":"Irkutsk","NL_NAME_1":"Иркутскаяобласть","NAME_2":"Balaganskiyrayon","VARNAME_2":"NA","NL_NAME_2":"Балаганскийрайон","TYPE_2":"Raion","ENGTYPE_2":"District","CC_2":"R63092","HASC_2":"RU.IR.BA"}},{"type":"MultiPolygon","arcs":[[[15,16,17,18]]],"properties":{"GID_2":"RUS.18.5_1","GID_0":"RUS","COUNTRY":"Russia","GID_1":"RUS.18_1","NAME_1":"Irkutsk","NL_NAME_1":"Иркутскаяобласть","NAME_2":"Bayandayevskiyrayon","VARNAME_2":"NA","NL_NAME_2":"Баяндаевскийрайон","TYPE_2":"Raion","ENGTYPE_2":"District","CC_2":"R63010","HASC_2":"RU.UB.BA"}},{"type":"MultiPolygon","arcs":[[[19,20],[21]]],"properties":{"GID_2":"RUS.18.6_1","GID_0":"RUS","COUNTRY":"Russia","GID_1":"RUS.18_1","NAME_1":"Irkutsk","NL_NAME_1":"Иркутскаяобласть","NAME_2":"Bodaybinskiyrayon","VARNAME_2":"NA","NL_NAME_2":"Бодайбинскийрайон","TYPE_2":"Raion","ENGTYPE_2":"District","CC_2":"R63090","HASC_2":"RU.IR.BR"}},{"type":"MultiPolygon","arcs":[[[-22]]],"properties":{"GID_2":"RUS.18.7_1","GID_0":"RUS","COUNTRY":"Russia","GID_1":"RUS.18_1","NAME_1":"Irkutsk","NL_NAME_1":"Иркутскаяобласть","NAME_2":"Bodaybo","VARNAME_2":"NA","NL_NAME_2":"Бодайбо","TYPE_2":"Gorod","ENGTYPE_2":"City","CC_2":"NA","HASC_2":"RU.IR.BG"}},{"type":"MultiPolygon","arcs":[[[-1,22,23,24,-9,25,26]]],"properties":{"GID_2":"RUS.18.8_1","GID_0":"RUS","COUNTRY":"Russia","GID_1":"RUS.18_1","NAME_1":"Irkutsk","NL_NAME_1":"Иркутскаяобласть","NAME_2":"Bokhanskiyrayon","VARNAME_2":"NA","NL_NAME_2":"Боханскийрайон","TYPE_2":"Raion","ENGTYPE_2":"District","CC_2":"R63010","HASC_2":"RU.UB.BO"}},{"type":"MultiPolygon","arcs":[[[27]]],"properties":{"GID_2":"RUS.18.9_1","GID_0":"RUS","COUNTRY":"Russia","GID_1":"RUS.18_1","NAME_1":"Irkutsk","NL_NAME_1":"Иркутскаяобласть","NAME_2":"Bratsk","VARNAME_2":"NA","NL_NAME_2":"Братск","TYPE_2":"Gorsovet","ENGTYPE_2":"District","CC_2":"NA","HASC_2":"RU.IR.BT"}},{"type":"MultiPolygon","arcs":[[[-10,28,29,30,31,32,33,34,35,36,37,38,39,40],[-28]]],"properties":{"GID_2":"RUS.18.10_1","GID_0":"RUS","COUNTRY":"Russia","GID_1":"RUS.18_1","NAME_1":"Irkutsk","NL_NAME_1":"Иркутскаяобласть","NAME_2":"Bratskiyrayon","VARNAME_2":"NA","NL_NAME_2":"Братскийрайон","TYPE_2":"Raion","ENGTYPE_2":"District","CC_2":"R63090","HASC_2":"RU.IR.BK"}},{"type":"MultiPolygon","arcs":[[[41]]],"properties":{"GID_2":"RUS.18.11_1","GID_0":"RUS","COUNTRY":"Russia","GID_1":"RUS.18_1","NAME_1":"Irkutsk","NL_NAME_1":"Иркутскаяобласть","NAME_2":"Cheremkhovo","VARNAME_2":"NA","NL_NAME_2":"Черемхово","TYPE_2":"Gorsovet","ENGTYPE_2":"District","CC_2":"NA","HASC_2":"RU.IR.CG"}},{"type":"MultiPolygon","arcs":[[[42,43,-2,-27,44,45],[-42]]],"properties":{"GID_2":"RUS.18.12_1","GID_0":"RUS","COUNTRY":"Russia","GID_1":"RUS.18_1","NAME_1":"Irkutsk","NL_NAME_1":"Иркутскаяобласть","NAME_2":"Cheremkhovskiyrayon","VARNAME_2":"NA","NL_NAME_2":"Черемховскийрайон","TYPE_2":"Raion","ENGTYPE_2":"District","CC_2":"R63092","HASC_2":"RU.IR.CR"}},{"type":"MultiPolygon","arcs":[[[-38,46,-36,47,48,49,50,51,52,53,54]]],"properties":{"GID_2":"RUS.18.13_1","GID_0":"RUS","COUNTRY":"Russia","GID_1":"RUS.18_1","NAME_1":"Irkutsk","NL_NAME_1":"Иркутскаяобласть","NAME_2":"Chunskiyrayon","VARNAME_2":"NA","NL_NAME_2":"Чунскийрайон","TYPE_2":"Raion","ENGTYPE_2":"District","CC_2":"R63092","HASC_2":"RU.IR.CH"}},{"type":"MultiPolygon","arcs":[[[-6,-25,55,-18,56,57,58,59]]],"properties":{"GID_2":"RUS.18.14_1","GID_0":"RUS","COUNTRY":"Russia","GID_1":"RUS.18_1","NAME_1":"Irkutsk","NL_NAME_1":"Иркутскаяобласть","NAME_2":"Ekhirit-Bulagatskiyrayon","VARNAME_2":"NA","NL_NAME_2":"Эхирит-Булагатскийрайон","TYPE_2":"Raion","ENGTYPE_2":"District","CC_2":"R63010","HASC_2":"RU.UB.EK"}},{"type":"MultiPolygon","arcs":[[[60]]],"properties":{"GID_2":"RUS.18.15_1","GID_0":"RUS","COUNTRY":"Russia","GID_1":"RUS.18_1","NAME_1":"Irkutsk","NL_NAME_1":"Иркутскаяобласть","NAME_2":"Irkutsk","VARNAME_2":"NA","NL_NAME_2":"Иркутск","TYPE_2":"Gorod","ENGTYPE_2":"City","CC_2":"NA","HASC_2":"RU.IR.IG"}},{"type":"MultiPolygon","arcs":[[[-7,-60,61,-58,62,63,64,65,66],[-61],[67,68,69,70]]],"properties":{"GID_2":"RUS.18.16_1","GID_0":"RUS","COUNTRY":"Russia","GID_1":"RUS.18_1","NAME_1":"Irkutsk","NL_NAME_1":"Иркутскаяобласть","NAME_2":"Irkutskiyrayon","VARNAME_2":"NA","NL_NAME_2":"Иркутскийрайон","TYPE_2":"Raion","ENGTYPE_2":"District","CC_2":"R63090","HASC_2":"RU.IR.IR"}},{"type":"MultiPolygon","arcs":[[[71,72,73,74,75,76,77,-19,-56,-24,78,79,80,81,82]]],"properties":{"GID_2":"RUS.18.17_1","GID_0":"RUS","COUNTRY":"Russia","GID_1":"RUS.18_1","NAME_1":"Irkutsk","NL_NAME_1":"Иркутскаяобласть","NAME_2":"Kachugskiyrayon","VARNAME_2":"NA","NL_NAME_2":"Качугскийрайон","TYPE_2":"Raion","ENGTYPE_2":"District","CC_2":"R63091","HASC_2":"RU.IR.KC"}},{"type":"MultiPolygon","arcs":[[[83,84,85,86]]],"properties":{"GID_2":"RUS.18.18_1","GID_0":"RUS","COUNTRY":"Russia","GID_1":"RUS.18_1","NAME_1":"Irkutsk","NL_NAME_1":"Иркутскаяобласть","NAME_2":"Katangskiyrayon","VARNAME_2":"NA","NL_NAME_2":"Катангскийрайон","TYPE_2":"Raion","ENGTYPE_2":"District","CC_2":"R63090","HASC_2":"RU.IR.KT"}},{"type":"MultiPolygon","arcs":[[[87,-83,88,89,90,91,92,93]]],"properties":{"GID_2":"RUS.18.19_1","GID_0":"RUS","COUNTRY":"Russia","GID_1":"RUS.18_1","NAME_1":"Irkutsk","NL_NAME_1":"Иркутскаяобласть","NAME_2":"Kazachinsko-Lenskiyrayon","VARNAME_2":"NA","NL_NAME_2":"Казачинско-Ленскийрайон","TYPE_2":"Raion","ENGTYPE_2":"District","CC_2":"R63090","HASC_2":"RU.IR.KL"}},{"type":"MultiPolygon","arcs":[[[94,-94,95,-92,96,97,-84,98,99,100,101]]],"properties":{"GID_2":"RUS.18.20_1","GID_0":"RUS","COUNTRY":"Russia","GID_1":"RUS.18_1","NAME_1":"Irkutsk","NL_NAME_1":"Иркутскаяобласть","NAME_2":"Kirenskiyrayon","VARNAME_2":"NA","NL_NAME_2":"Киренскийрайон","TYPE_2":"Raion","ENGTYPE_2":"District","CC_2":"R63091","HASC_2":"RU.IR.KI"}},{"type":"MultiPolygon","arcs":[[[-15,102,103,104,-29]]],"properties":{"GID_2":"RUS.18.21_1","GID_0":"RUS","COUNTRY":"Russia","GID_1":"RUS.18_1","NAME_1":"Irkutsk","NL_NAME_1":"Иркутскаяобласть","NAME_2":"Kuytunskiyrayon","VARNAME_2":"NA","NL_NAME_2":"Куйтунскийрайон","TYPE_2":"Raion","ENGTYPE_2":"District","CC_2":"R63091","HASC_2":"RU.IR.KU"}},{"type":"MultiPolygon","arcs":[[[105,-102,106,-100,107,-20]]],"properties":{"GID_2":"RUS.18.22_1","GID_0":"RUS","COUNTRY":"Russia","GID_1":"RUS.18_1","NAME_1":"Irkutsk","NL_NAME_1":"Иркутскаяобласть","NAME_2":"Mamsko-Chuyskiyrayon","VARNAME_2":"NA","NL_NAME_2":"Мамско-Чуйскийрайон","TYPE_2":"Raion","ENGTYPE_2":"District","CC_2":"R63091","HASC_2":"RU.IR.MA"}},{"type":"MultiPolygon","arcs":[[[-40,108,109,110,111]]],"properties":{"GID_2":"RUS.18.23_1","GID_0":"RUS","COUNTRY":"Russia","GID_1":"RUS.18_1","NAME_1":"Irkutsk","NL_NAME_1":"Иркутскаяобласть","NAME_2":"Nizhneilimskiyrayon","VARNAME_2":"NA","NL_NAME_2":"Нижнеилимскийрайон","TYPE_2":"Raion","ENGTYPE_2":"District","CC_2":"R63091","HASC_2":"RU.IR.NI"}},{"type":"MultiPolygon","arcs":[[[112]]],"properties":{"GID_2":"RUS.18.24_1","GID_0":"RUS","COUNTRY":"Russia","GID_1":"RUS.18_1","NAME_1":"Irkutsk","NL_NAME_1":"Иркутскаяобласть","NAME_2":"Nizhneudinsk","VARNAME_2":"NA","NL_NAME_2":"Нижнеудинск","TYPE_2":"Gorsovet","ENGTYPE_2":"District","CC_2":"NA","HASC_2":"RU.IR.NG"}},{"type":"MultiPolygon","arcs":[[[113,114,115,-51,116,-49,117,-34,118,119],[-113]]],"properties":{"GID_2":"RUS.18.25_1","GID_0":"RUS","COUNTRY":"Russia","GID_1":"RUS.18_1","NAME_1":"Irkutsk","NL_NAME_1":"Иркутскаяобласть","NAME_2":"Nizhneudinskiyrayon","VARNAME_2":"NA","NL_NAME_2":"Нижнеудинскийрайон","TYPE_2":"Raion","ENGTYPE_2":"District","CC_2":"R63091","HASC_2":"RU.IR.NR"}},{"type":"MultiPolygon","arcs":[[[-4,120,121,-13,122,123,124]]],"properties":{"GID_2":"RUS.18.26_1","GID_0":"RUS","COUNTRY":"Russia","GID_1":"RUS.18_1","NAME_1":"Irkutsk","NL_NAME_1":"Иркутскаяобласть","NAME_2":"Nukutskiyrayon","VARNAME_2":"NA","NL_NAME_2":"Нукутскийрайон","TYPE_2":"Raion","ENGTYPE_2":"District","CC_2":"R63010","HASC_2":"RU.UB.NU"}},{"type":"MultiPolygon","arcs":[[[125,126]],[[-16,-78,127,-76,128,-74,129,130,131,-63,-57,132]]],"properties":{"GID_2":"RUS.18.27_1","GID_0":"RUS","COUNTRY":"Russia","GID_1":"RUS.18_1","NAME_1":"Irkutsk","NL_NAME_1":"Иркутскаяобласть","NAME_2":"Ol'khonskiyrayon","VARNAME_2":"NA","NL_NAME_2":"Ольхонскийрайон","TYPE_2":"Raion","ENGTYPE_2":"District","CC_2":"R63091","HASC_2":"RU.IR.OL"}},{"type":"MultiPolygon","arcs":[[[-23,-125,133,134,-81,135,-79]]],"properties":{"GID_2":"RUS.18.28_1","GID_0":"RUS","COUNTRY":"Russia","GID_1":"RUS.18_1","NAME_1":"Irkutsk","NL_NAME_1":"Иркутскаяобласть","NAME_2":"Osinskiyrayon","VARNAME_2":"NA","NL_NAME_2":"Осинскийрайон","TYPE_2":"Raion","ENGTYPE_2":"District","CC_2":"R63010","HASC_2":"RU.UB.OS"}},{"type":"MultiPolygon","arcs":[[[136]]],"properties":{"GID_2":"RUS.18.29_1","GID_0":"RUS","COUNTRY":"Russia","GID_1":"RUS.18_1","NAME_1":"Irkutsk","NL_NAME_1":"Иркутскаяобласть","NAME_2":"Sayansk","VARNAME_2":"NA","NL_NAME_2":"Саянск","TYPE_2":"Gorod","ENGTYPE_2":"City","CC_2":"NA","HASC_2":"RU.IR.SA"}},{"type":"MultiPolygon","arcs":[[[137,138,-70,139]]],"properties":{"GID_2":"RUS.18.30_1","GID_0":"RUS","COUNTRY":"Russia","GID_1":"RUS.18_1","NAME_1":"Irkutsk","NL_NAME_1":"Иркутскаяобласть","NAME_2":"Shelekhov","VARNAME_2":"NA","NL_NAME_2":"Шелехов","TYPE_2":"Gorod","ENGTYPE_2":"City","CC_2":"NA","HASC_2":"RU.IR.SG"}},{"type":"MultiPolygon","arcs":[[[140]],[[141]],[[142]]],"properties":{"GID_2":"RUS.18.31_1","GID_0":"RUS","COUNTRY":"Russia","GID_1":"RUS.18_1","NAME_1":"Irkutsk","NL_NAME_1":"Иркутскаяобласть","NAME_2":"Shelekhovskiyrayon","VARNAME_2":"NA","NL_NAME_2":"Шелеховскийрайон","TYPE_2":"Raion","ENGTYPE_2":"District","CC_2":"R63090","HASC_2":"RU.IR.SG"}},{"type":"MultiPolygon","arcs":[[[143,-66,144,145]]],"properties":{"GID_2":"RUS.18.32_1","GID_0":"RUS","COUNTRY":"Russia","GID_1":"RUS.18_1","NAME_1":"Irkutsk","NL_NAME_1":"Иркутскаяобласть","NAME_2":"Slyudyanskiyrayon","VARNAME_2":"NA","NL_NAME_2":"Слюдянскийрайон","TYPE_2":"Raion","ENGTYPE_2":"District","CC_2":"R63091","HASC_2":"RU.IR.SL"}},{"type":"MultiPolygon","arcs":[[[146]]],"properties":{"GID_2":"RUS.18.33_1","GID_0":"RUS","COUNTRY":"Russia","GID_1":"RUS.18_1","NAME_1":"Irkutsk","NL_NAME_1":"Иркутскаяобласть","NAME_2":"Tayshet","VARNAME_2":"NA","NL_NAME_2":"Тайшет","TYPE_2":"Gorsovet","ENGTYPE_2":"District","CC_2":"NA","HASC_2":"RU.IR.TG"}},{"type":"MultiPolygon","arcs":[[[-53,147,-115,148],[-147]]],"properties":{"GID_2":"RUS.18.34_1","GID_0":"RUS","COUNTRY":"Russia","GID_1":"RUS.18_1","NAME_1":"Irkutsk","NL_NAME_1":"Иркутскаяобласть","NAME_2":"Tayshetskiyrayon","VARNAME_2":"NA","NL_NAME_2":"Тайшетскийрайон","TYPE_2":"Raion","ENGTYPE_2":"District","CC_2":"R63091","HASC_2":"RU.IR.TR"}},{"type":"MultiPolygon","arcs":[[[149]]],"properties":{"GID_2":"RUS.18.35_1","GID_0":"RUS","COUNTRY":"Russia","GID_1":"RUS.18_1","NAME_1":"Irkutsk","NL_NAME_1":"Иркутскаяобласть","NAME_2":"Tulun","VARNAME_2":"NA","NL_NAME_2":"Тулун","TYPE_2":"Gorod","ENGTYPE_2":"City","CC_2":"NA","HASC_2":"RU.IR.TL"}},{"type":"MultiPolygon","arcs":[[[150,-120,151,152,-31,153,-104,154,155],[-150]]],"properties":{"GID_2":"RUS.18.36_1","GID_0":"RUS","COUNTRY":"Russia","GID_1":"RUS.18_1","NAME_1":"Irkutsk","NL_NAME_1":"Иркутскаяобласть","NAME_2":"Tulunskiyrayon","VARNAME_2":"NA","NL_NAME_2":"Тулунскийрайон","TYPE_2":"Raion","ENGTYPE_2":"District","CC_2":"R63091","HASC_2":"RU.IR.TN"}},{"type":"MultiPolygon","arcs":[[[156]]],"properties":{"GID_2":"RUS.18.37_1","GID_0":"RUS","COUNTRY":"Russia","GID_1":"RUS.18_1","NAME_1":"Irkutsk","NL_NAME_1":"Иркутскаяобласть","NAME_2":"Usol'e-Sibirskoye","VARNAME_2":"NA","NL_NAME_2":"Усолье-Сибирское","TYPE_2":"Gorod","ENGTYPE_2":"City","CC_2":"NA","HASC_2":"RU.IR.US"}},{"type":"MultiPolygon","arcs":[[[157,158,-45,-26,-8,-67,-144],[-157]]],"properties":{"GID_2":"RUS.18.38_1","GID_0":"RUS","COUNTRY":"Russia","GID_1":"RUS.18_1","NAME_1":"Irkutsk","NL_NAME_1":"Иркутскаяобласть","NAME_2":"Usol'skiyrayon","VARNAME_2":"NA","NL_NAME_2":"Усольскийрайон","TYPE_2":"Raion","ENGTYPE_2":"District","CC_2":"R63092","HASC_2":"RU.IR.UO"}},{"type":"MultiPolygon","arcs":[[[159]]],"properties":{"GID_2":"RUS.18.39_1","GID_0":"RUS","COUNTRY":"Russia","GID_1":"RUS.18_1","NAME_1":"Irkutsk","NL_NAME_1":"Иркутскаяобласть","NAME_2":"Ust'-Ilimsk","VARNAME_2":"NA","NL_NAME_2":"Усть-Илимск","TYPE_2":"Gorod","ENGTYPE_2":"City","CC_2":"NA","HASC_2":"RU.IR.UI"}},{"type":"MultiPolygon","arcs":[[[-39,-55,160,-86,161,-109],[-160]]],"properties":{"GID_2":"RUS.18.40_1","GID_0":"RUS","COUNTRY":"Russia","GID_1":"RUS.18_1","NAME_1":"Irkutsk","NL_NAME_1":"Иркутскаяобласть","NAME_2":"Ust'-Ilimskiyrayon","VARNAME_2":"NA","NL_NAME_2":"Усt.-Илимскийрайон","TYPE_2":"Raion","ENGTYPE_2":"District","CC_2":"R63092","HASC_2":"RU.IR.UT"}},{"type":"MultiPolygon","arcs":[[[162]]],"properties":{"GID_2":"RUS.18.41_1","GID_0":"RUS","COUNTRY":"Russia","GID_1":"RUS.18_1","NAME_1":"Irkutsk","NL_NAME_1":"Иркутскаяобласть","NAME_2":"Ust'-Kut","VARNAME_2":"NA","NL_NAME_2":"Усть-Кут","TYPE_2":"Gorsovet","ENGTYPE_2":"District","CC_2":"NA","HASC_2":"RU.IR.UG"}},{"type":"MultiPolygon","arcs":[[[-85,-98,163,-90,164,165,166,-110,-162],[-163]]],"properties":{"GID_2":"RUS.18.42_1","GID_0":"RUS","COUNTRY":"Russia","GID_1":"RUS.18_1","NAME_1":"Irkutsk","NL_NAME_1":"Иркутскаяобласть","NAME_2":"Ust'-Kutskiyrayon","VARNAME_2":"NA","NL_NAME_2":"Усt.-Кутскийрайон","TYPE_2":"Raion","ENGTYPE_2":"District","CC_2":"R63092","HASC_2":"RU.IR.UR"}},{"type":"MultiPolygon","arcs":[[[-11,-41,-112,167,-166,168,-134,-124,169]]],"properties":{"GID_2":"RUS.18.43_1","GID_0":"RUS","COUNTRY":"Russia","GID_1":"RUS.18_1","NAME_1":"Irkutsk","NL_NAME_1":"Иркутскаяобласть","NAME_2":"Ust'-Udinskiyrayon","VARNAME_2":"NA","NL_NAME_2":"Усt.-Удинскийрайон","TYPE_2":"Raion","ENGTYPE_2":"District","CC_2":"R63092","HASC_2":"RU.IR.UU"}},{"type":"MultiPolygon","arcs":[[[-145,-65,170,171,-130,-73,172],[-126,173]]],"properties":{"GID_2":"RUS.18.44_1","GID_0":"RUS","COUNTRY":"Russia","GID_1":"RUS.18_1","NAME_1":"Irkutsk","NL_NAME_1":"Иркутскаяобласть","NAME_2":"Waterbody","VARNAME_2":"NA","NL_NAME_2":"NA","TYPE_2":"Waterbody","ENGTYPE_2":"Waterbody","CC_2":"NA","HASC_2":"NA"}},{"type":"MultiPolygon","arcs":[[[174,-156,175,176,-121,-3,-44]]],"properties":{"GID_2":"RUS.18.45_1","GID_0":"RUS","COUNTRY":"Russia","GID_1":"RUS.18_1","NAME_1":"Irkutsk","NL_NAME_1":"Иркутскаяобласть","NAME_2":"Zalarinskiyrayon","VARNAME_2":"NA","NL_NAME_2":"Заларинскийрайон","TYPE_2":"Raion","ENGTYPE_2":"District","CC_2":"R63090","HASC_2":"RU.IR.ZA"}},{"type":"MultiPolygon","arcs":[[[-82,-135,-169,-165,-89]]],"properties":{"GID_2":"RUS.18.46_1","GID_0":"RUS","COUNTRY":"Russia","GID_1":"RUS.18_1","NAME_1":"Irkutsk","NL_NAME_1":"Иркутскаяобласть","NAME_2":"Zhigalovskiyrayon","VARNAME_2":"NA","NL_NAME_2":"Жигаловскийрайон","TYPE_2":"Raion","ENGTYPE_2":"District","CC_2":"R63090","HASC_2":"RU.IR.ZH"}},{"type":"MultiPolygon","arcs":[[[177]]],"properties":{"GID_2":"RUS.18.47_1","GID_0":"RUS","COUNTRY":"Russia","GID_1":"RUS.18_1","NAME_1":"Irkutsk","NL_NAME_1":"Иркутскаяобласть","NAME_2":"Zima","VARNAME_2":"NA","NL_NAME_2":"Зима","TYPE_2":"Gorod","ENGTYPE_2":"City","CC_2":"NA","HASC_2":"RU.IR.ZG"}},{"type":"MultiPolygon","arcs":[[[-14,-122,-177,178,-155,-103],[-137],[-178]]],"properties":{"GID_2":"RUS.18.48_1","GID_0":"RUS","COUNTRY":"Russia","GID_1":"RUS.18_1","NAME_1":"Irkutsk","NL_NAME_1":"Иркутскаяобласть","NAME_2":"Ziminskiyrayon","VARNAME_2":"NA","NL_NAME_2":"Зиминскийрайон","TYPE_2":"Raion","ENGTYPE_2":"District","CC_2":"R63090","HASC_2":"RU.IR.ZR"}}]}},"arcs":[[[327472,180735],[64,-2363],[1334,-2765],[-960,-2734],[-13,-4300],[-794,-5735],[-1445,-2157],[-450,-1649]],[[325208,159032],[-1432,2150],[-1699,1193],[221,4436],[-1283,820],[-1907,-129],[-2736,-3980],[-5403,-335],[-2018,1824],[85,3327],[-1525,1306],[-2681,-2529],[247,-7657],[-2838,-2256],[280,-5644],[-3887,-2712],[514,-2393],[-1635,-911],[-11194,4770],[-510,3980],[-713,2112],[-7247,2028],[-3186,1755]],[[274661,160187],[369,6312],[8161,2264],[2119,4580],[5153,-721],[2375,1170],[-1270,4345],[4035,2354],[-743,2036],[981,1907],[468,3790]],[[296309,188224],[4371,1717],[3700,691],[548,-1610],[-540,-3168],[-110,-6023],[2842,-1565],[3394,-274],[1359,-2552],[3390,-342],[875,1489],[-1185,3654],[-1771,-486],[-1202,1162],[-557,3418],[2175,3168],[-412,3061],[922,2727],[2481,1215],[1125,-1914],[642,-2385],[2523,-1147],[-140,-2347],[-1716,-3874],[1831,-2158],[2795,-539],[3823,593]],[[349762,107622],[-1054,68],[-85,1314],[1372,190],[225,-509],[-458,-1063]],[[372667,145253],[1525,-661],[-1079,-3274],[-6045,-1792],[-1410,-1034],[-378,-3752],[739,-2841],[4409,-760],[2235,-2803],[1746,-5081]],[[374409,123255],[-5693,-10255],[-12077,-8493],[-12162,16]],[[344477,104523],[1682,3570],[2405,8994],[-22,4269]],[[348542,121356],[701,4026],[-1193,2096],[378,4178],[-1865,1352],[80,3358],[1538,4519],[1874,2902],[3139,2059],[2804,326],[5718,-1162],[2034,782],[765,935],[1805,-175],[1606,-1565],[4741,266]],[[289044,298049],[2252,3912],[2791,10490],[395,5477],[-540,5933],[-849,4489],[1053,3547],[2065,0],[2727,-6137],[3416,-2044],[4621,-1466],[5672,684],[6176,5082]],[[318823,328016],[6988,-18740],[-13317,-25850],[7285,-28493],[-8084,206],[-2617,-23002],[9698,-25120]],[[318776,207017],[-3576,-15]],[[315200,207002],[-3790,1261],[-5509,3942],[-255,3525],[820,2940],[0,2901],[-3140,1421],[-4129,-608],[-2175,-1929],[-951,-4171],[-3097,312],[-671,3266],[-2863,-395]],[[289440,219467],[-2303,4368],[-2748,6836],[1312,2165],[4384,1998],[2519,1922],[-616,5659],[1156,4026],[-1364,2378],[-1363,-1672],[-1377,1831],[-607,3456],[-2358,2006]],[[286075,254440],[-38,1785],[-1568,6646],[-4745,1580],[-1087,3950],[8636,9640],[1682,3456],[429,4315],[-391,3722],[51,8515]],[[445147,161638],[-2549,-3472],[-4112,-1800],[-2923,-3160],[-2332,-4269],[-1147,-4231],[-4159,-3836],[-1588,-8546],[-1339,-4998],[-2926,-3053]],[[422072,124273],[-2235,-661],[-3330,-16]],[[416507,123596],[-4720,1710],[-6138,-167],[-3144,-1725],[-2872,350],[5,3160],[-1538,1017],[-111,2598],[5875,2925],[2226,3471],[1135,3555],[-2197,2325],[183,2711],[-5280,-2400],[-744,1519],[731,3365],[-1325,2887],[365,3669],[2583,-190],[1410,-3517],[2902,828],[-459,4983],[3007,2279],[2146,-1413],[9791,4178],[2345,1762],[-191,3699],[-6784,-569],[-6529,-1937],[-1487,1299],[471,3160],[-2748,3334],[-2880,980],[-1385,4193]],[[401150,177635],[5229,-448],[2175,1155],[4023,456],[3569,-1596],[1843,69],[2604,1602],[663,2720],[-365,3570],[327,1709],[2922,4353],[1564,357],[671,-2553],[-608,-4671],[2451,-2697],[-382,-3372],[-2213,-2606],[1423,-3167],[3398,-1953],[2774,1087],[2473,5218],[2196,-471],[2693,-1694],[-764,-4102],[1367,-2628],[3441,-2248],[523,-4087]],[[760376,422048],[905,3722],[221,5712],[-1258,1786],[-250,3129],[416,5963],[-2426,8250],[-471,5347],[1198,8622],[110,4474],[1096,3578],[663,4580],[-6155,2340],[-3900,-1246],[-3165,-258],[-2723,1337],[-1172,3790],[-1118,6647],[-250,3836],[3696,6061],[3878,7574],[-2060,10817],[2744,2590],[969,3608],[1559,2735],[5641,4155],[2957,-53],[2090,942],[2935,2613],[1733,4519],[1066,6252],[1882,3084],[2048,949],[3398,206],[472,1033],[-1334,2567],[-2251,2666],[420,1611],[-1185,3934],[-3148,3183],[-293,3912],[1929,2378],[3292,2750],[3509,4884],[293,4011],[-1912,5340],[-1716,7467],[-263,4679],[875,2499],[4341,6054],[463,3350],[-454,2469],[-3344,3919],[-947,2348],[-110,3304],[2710,10012],[-2710,4071],[-395,5994]],[[774875,644144],[144,3053],[2082,2773],[4027,311],[-438,3229],[2252,1686],[3016,-1329],[3046,1048],[-64,4489],[3555,4451],[8501,6252],[4596,813],[884,3828],[-1725,1231],[-293,2932],[7455,9518],[8326,-266],[3331,1671],[3262,5120],[621,5135],[913,2909],[3921,4072],[2111,3654],[3046,-2279],[4575,15],[11512,5986],[3275,45],[842,-1435],[4396,-1877],[-306,-2886],[3938,-593],[3152,547],[4499,-2051],[208,-2507],[4783,-83],[1746,-2757],[3819,752],[4533,-46],[3284,-2530],[1074,-2552],[5107,-957],[531,-3988],[1920,-1048],[4303,-790],[3301,-3266],[2094,-3069],[251,-5773],[2107,-2013],[4273,1382],[4885,600],[-199,-1998],[-2141,-3479],[-1003,-3099],[-1886,-1762],[-1997,372],[-2812,-3335],[3845,-3327],[-429,-4778],[981,-4952],[25,-4528],[-1355,-3942],[1568,-3669],[5182,-3578],[4079,-509],[4129,1390],[4231,-1610],[2880,3228],[3347,1269],[1551,-3828],[658,-3419],[2269,-1808],[4566,1968],[1351,7125],[2825,1390],[412,3449],[1678,1868],[884,-2628],[3564,144],[2421,1261],[4040,-4307],[136,-3160],[1534,-2218],[4069,-357],[3318,-2377],[8458,-2309],[2060,-6419],[1661,-2553],[-1478,-2901],[-4354,-4459],[242,-5902],[2030,-8698],[2846,-1717],[-407,-2818],[-2248,-2423],[595,-4428],[2345,-4087],[59,-7649],[-1979,-4619],[-297,-3494],[4001,-2666],[1725,-23],[3067,-2370],[-17,-1352],[4435,-1725],[561,-3934],[-2328,-3244],[510,-2636],[2599,-3904],[646,-2385],[-1423,-3905],[-11402,-1147],[-7812,-2400],[-8139,3722],[-3981,4003],[-2302,4429],[-4643,3152],[-4401,1094],[-3437,-1497],[-9248,3829],[-3610,-190],[-3344,-4307],[-3526,-790],[-3211,-1853],[-1538,-3183],[4388,-3039],[1853,-7900],[-2651,-995],[-3161,3244],[-2226,-3297],[965,-4489],[-1496,-1770],[378,-2796],[-1215,-1975],[-335,-3615],[1448,-555],[-221,-2431],[-2111,-562],[-1283,-3236],[-7345,327],[-2060,-2279],[2579,-1671],[1533,-4975],[-2353,-4269],[2281,-3517],[5025,-433],[-1079,-4847],[-2400,-2476],[1474,-3479],[3560,-2355],[-518,-5203],[497,-2887],[3462,289],[748,-2811],[-2362,-3471],[2685,-2226],[4881,3343],[654,3251],[2702,326],[4150,-1534],[3105,-2059],[-2854,-1420],[-1763,-5530],[-4550,-1922],[3674,-6540],[-1214,-5530],[-1122,-3350],[-2247,-1139],[1049,-3821],[-1869,-3654],[-2761,1823],[-2914,-1474],[-3348,3031],[-229,3327],[-2409,2089],[-2341,-3623],[-2497,-1018],[-2218,-5644],[-1742,-1063],[-2374,1640],[-1631,-311],[679,-3001],[-4490,585],[-2506,-2590],[-1988,-585],[-2090,1846],[-7400,-91],[-3263,699],[-1126,2248],[-4154,1109],[-1440,2530],[-2460,433],[-4711,-3236],[-2706,972],[-2098,3449],[-2668,182],[-6763,4922],[-1903,-554],[284,729],[3216,1458],[1071,1953],[2226,1982],[2676,1011],[5994,5727],[2056,0],[3033,1899],[-3692,5348],[-2149,1648],[-2723,-987],[-973,584],[-4609,312],[-4231,-562],[-4014,-4679],[-3726,-3358],[-6304,433],[-3462,-1299],[-3314,-23],[-6367,1588],[-3972,-1101],[357,-1975],[-1071,-3928],[675,-2058],[-1163,-2636],[-2617,-1740],[-4648,-8029],[-2370,-8067],[-2349,-2005],[-3182,433],[-6223,-555],[-1840,-2704],[-1911,-289],[-8942,1786],[-3747,167],[-3934,-4877],[-2009,-1193],[-1585,-4876],[-2362,-562],[-5025,979],[-1627,4345],[-8479,4543],[-3679,-380]],[[790983,517516],[-331,1405],[-854,175],[-990,-1473],[1517,-639],[658,532]],[[327472,180735],[6712,2316],[2621,-6510],[306,-5423],[2145,-2264],[2761,699],[4265,-2446],[2231,-2415],[3640,-198],[5370,-3707],[4150,-1701],[4830,478],[4376,2514],[1758,9002],[1529,1504],[6067,-1360],[3084,2439],[3547,1428]],[[386864,175091],[2901,-752]],[[389765,174339],[-1597,-3783],[-1776,-2454],[727,-3388],[-1827,-3418],[-2595,-805],[208,-4748],[-417,-2689],[-3164,-1998],[-3505,-4777],[-3152,-1026]],[[348542,121356],[-4439,2620],[-828,1725],[-336,2681],[-3713,395],[9,6510],[-867,2210],[-1835,2879],[-4150,2583],[-4125,122]],[[328258,143081],[-1644,1055],[-1805,4057],[-943,4641],[1342,6198]],[[261058,384766],[-2740,-797],[-3593,524],[-846,1815],[1844,2629],[3687,782],[2230,-1853],[-582,-3100]],[[289044,298049],[-2544,-752],[-2919,425],[-2175,1163],[-2230,5005],[-5913,502],[-1206,1405],[-1203,6214],[-4643,1481],[-1797,-919],[-1754,-3532],[-2472,-1322],[-1649,-448],[-3559,1716],[-4164,-1428],[-5004,84],[-1839,-1276],[-1253,-1626],[463,-5226],[-688,-2119],[-1763,1261],[-1636,228],[-1380,-2180],[331,-2469],[1427,-2218],[467,-1793],[-887,-1086],[-1819,-114],[-883,3509],[-3879,5819]],[[232473,298353],[-19048,433],[-3696,357]],[[209729,299143],[-3406,1382]],[[206323,300525],[-3535,76],[-11032,-486]],[[191756,300115],[-4002,-1868]],[[187754,298247],[-3993,3349],[3768,3517],[2481,4961],[2298,1169],[-1690,3366],[-1411,4390],[-607,5226],[667,8394],[2880,6540]],[[192147,339159],[-2523,5431]],[[189624,344590],[390,2955],[3849,3176],[4359,-411],[2064,1170],[3734,266],[1555,-1588],[4490,-83],[412,1656],[3535,4459],[1189,3783],[59,6069],[-458,5044],[-2434,2149],[-1729,4778],[63,5462],[718,3730],[-395,5750],[-2358,6305],[-3003,2225],[-6788,1527],[-2048,2013],[-1877,2834],[-3887,1169],[-2779,3176],[-1138,4018]],[[187147,416222],[624,4717],[706,2917]],[[188477,423856],[2077,1945],[6117,2377],[4728,2849],[5811,5264]],[[207210,436291],[5765,-2097],[4537,2682],[7383,2111],[5866,-1169],[2991,-1276],[1398,-1892],[3674,-1709],[3165,1755],[2133,2051],[2514,303],[5098,-2309],[3615,-759],[12434,-547],[2532,-957],[5832,-4042],[4508,-1367],[13011,175]],[[293666,427244],[4537,-2575],[3123,-2598],[1159,-4208],[-3067,-7255],[-1372,-9882],[569,-3692],[-565,-3585],[-267,-7262],[2366,-4717],[1826,-2203],[3624,-821],[8326,7528]],[[313925,385974],[1674,-5256],[2523,-1892],[3428,-896],[2167,-1747],[879,-2454],[688,-5484],[-157,-5310],[1270,-16878],[3276,-8539],[624,-3881],[-1980,-4938],[-3228,965],[-3398,-486],[-2868,-1162]],[[320603,149682],[-862,-996],[-1173,168],[-943,698],[-408,1277],[306,1185],[1457,478],[1262,-501],[476,-843],[-115,-1466]],[[288581,86702],[-2761,-1139],[-4095,888],[-1839,1277],[-1848,83],[-1330,-1990],[-3322,-1124],[-2982,1808],[-1742,3524],[-2332,1922],[-6593,3206],[-2081,2392],[-1428,6867],[-9787,10840],[-2787,1063],[-3717,3122],[-4120,1998],[-1559,3115],[-3471,2089]],[[230787,126643],[3751,5697],[3105,3729],[2613,2127],[3207,502],[3806,5370],[3751,836],[2893,-684],[3152,-1816],[2982,1748],[4699,-669],[1295,3798],[-679,9837],[2153,1679],[5837,-1193],[1309,2583]],[[328258,143081],[-3466,-3176],[-3709,-7657],[-1448,-638],[-2052,92],[-1738,1823],[-2476,-1011],[-790,-881],[-26,-2028],[2001,-76],[1644,-911],[586,-1991],[-573,-1792],[-5782,592],[204,-3509],[-3148,-2461],[-586,-2294],[-1648,-1687],[-3870,-972],[-1079,-1428],[3763,-4292],[-131,-2446],[-417,-1109],[-2162,84],[-1754,-1413],[-608,-6943],[-1032,-2423],[-2132,-1618],[-4333,15],[-1169,-1367]],[[290327,91564],[-1746,-4862]],[[188477,423856],[-1330,-7634]],[[189624,344590],[985,-1861]],[[190609,342729],[-7379,-782],[-7952,365],[-1958,2666],[-2898,-638],[-4915,4011],[-7514,-1056]],[[157993,347295],[-3322,501],[-3556,1329]],[[151115,349125],[-4843,2879],[-3530,3662]],[[142742,355666],[-15463,19332]],[[127279,374998],[-760,3091],[2664,7110],[-56,4900],[-1835,2864],[-1839,5560],[476,3327],[8,3327],[-896,3988],[161,5059],[1644,7733],[-586,3935],[-2362,3198],[-174,4010],[947,7931],[302,8264],[973,4604],[2387,2073],[3844,1611],[2341,1998],[1568,4550],[3938,5978],[-1441,6358],[-3326,7847],[1725,8029],[-1147,6646],[2477,3221]],[[138312,502210],[2570,-190],[3989,912],[3041,3532],[3904,-767],[2239,942],[6521,995],[242,5704],[2565,1702],[-55,4444],[4253,2628],[1508,6198],[5768,1238],[1865,-1785],[2592,-395],[5450,2188],[2527,-1861],[2290,-2704],[-2307,-3274],[-934,-2925],[2047,-3745],[-501,-2711],[2247,-1937],[4049,-259],[4418,-1451],[-455,-2992],[3267,-2705],[-1563,-4314],[3368,-3403],[-1920,-2568],[990,-1603],[8,-2567],[5064,-3753],[3687,-1055],[2001,-4520],[2774,-152],[812,2841],[2349,2005],[2340,-562]],[[221322,483341],[-1002,-3631],[-2749,-4086],[196,-4102],[-727,-4581],[-1678,-2074],[-1028,-2635],[2655,-12716],[-828,-4300],[-2392,-4086],[-6559,-4839]],[[389765,174339],[5650,577],[3836,1398],[1899,1321]],[[416507,123596],[-2222,-5081],[-2332,-3890]],[[411953,114625],[-7456,-4208],[-1210,-2932]],[[403287,107485],[-6024,-7436]],[[397263,100049],[-4324,-3783],[-2847,417],[-1465,3062],[-2698,4064],[-140,3030],[1393,897],[-666,1868],[-1704,1527],[-3874,1595],[-2982,3077],[-2498,3251],[-1049,4201]],[[367977,90363],[-2358,-7],[-556,2613],[675,1208],[2252,-152],[1028,-1276],[-128,-1360],[-913,-1026]],[[397263,100049],[3721,4375],[2303,3061]],[[411953,114625],[1321,-2491],[1134,-441],[2379,304],[3284,1914],[3113,304],[2486,-2028],[446,-3487],[5369,-311],[5850,2514],[3071,-1823],[794,-2438]],[[441200,106642],[-3606,-2028]],[[437594,104614],[-1980,-2340],[-1414,-2605],[-1028,-3783],[-3263,-6313],[-2069,-1420],[463,-2173],[-85,-1762],[-7557,-10467],[-408,-1102],[217,-2149],[-5302,-707],[-1733,-1185],[-1971,-1739],[-3173,-6108],[-2005,-1602],[-3764,273],[-7574,-4672],[-1657,5773],[-4188,6829],[-226,1512],[-4519,1869],[-3068,4504],[268,3168],[-1699,-775],[-1313,1018],[-599,1747],[26,3327],[-459,1519],[-1457,-873],[-1721,1830],[-1151,23],[-484,-2719],[-1215,-2385],[2850,-927],[2082,-3282],[429,-2020],[-98,-1618],[-1673,-3350],[2960,1899],[1759,-144],[2303,-1535],[2710,-2924],[6172,-8204]],[[390980,59022],[-3785,-1633],[-3020,942],[-4227,4352],[-2332,1010],[-5875,1246],[-1950,-1078],[-6160,1519],[-1724,-532],[-680,-1945],[875,-6175],[-985,-2142],[-11045,-692],[-12281,1679],[-5706,3707]],[[332085,59280],[1602,1838],[157,5037],[1865,5362],[1878,3867],[1890,6768],[-680,3145],[-802,463],[-884,2028],[-646,5606],[-3258,2910],[569,2651],[5081,2765],[3020,547],[2600,2256]],[[360653,81020],[417,-1185]],[[361070,79835],[1852,46],[178,1405]],[[363100,81286],[-1605,767]],[[361495,82053],[-842,-1033]],[[553009,267163],[-1266,-4444],[-1848,-2810],[3029,144],[-3076,-4307],[-1878,-1557]],[[547970,254189],[625,-1960],[-98,-1937],[-773,-1770],[140,-2871],[-2451,-3282],[-399,-1124],[102,-2309],[-1576,-2507],[-892,-3980],[-3203,-1443],[-565,-5356],[-1122,-1443],[-1334,-3304],[-1542,-6822],[-1193,-2134]],[[533689,211947],[-3029,319],[-1942,1307],[-1219,3547],[-1177,836],[-1903,-198],[-1159,-1458],[-922,-6708],[-2592,-1299],[-7200,-1337],[-3458,-5871],[-6142,-4892],[-812,-5401],[-3810,-3836],[-731,-1588],[-484,-5659],[-2388,-2248],[-3543,-4573]],[[491178,172888],[-2926,-1292],[-2214,-326]],[[486038,171270],[-2616,896]],[[483422,172166],[-4015,2917]],[[479407,175083],[-977,2332],[-1262,-160],[-5093,-4846],[-3016,-2142],[-3675,-1663],[-2272,-2917],[-4316,341],[-7524,-3965],[-3479,-1223],[-2646,798]],[[386864,175091],[-1912,1306]],[[384952,176397],[-1635,4763],[-905,4907]],[[382412,186067],[-5726,1063],[-4478,2082],[535,4124],[-3751,1337],[-1444,3130],[820,4170],[-204,4026]],[[368164,205999],[1708,1709],[1062,281],[2744,-3349],[1750,-866],[1045,903],[939,1877],[2298,410],[3798,1899],[7506,2545],[1444,-373],[1143,-1807],[2128,129],[1381,1906],[-1304,4725],[1415,1633],[450,2940],[-816,2059],[-3577,2597],[-424,2933],[-871,2544],[-1619,729],[434,5356],[1618,2241],[2477,2385],[2119,402],[2073,-1101],[2418,106],[2124,1641],[624,2651],[3662,1603],[3572,-950],[2031,957],[-871,2340],[-2196,3266],[2149,3016],[2222,114],[5106,-1626],[2791,274],[4002,3281],[4278,-615],[1181,-1618],[3279,-395],[2884,1421],[17,2901],[-1644,2553],[638,2362],[3220,6442],[-289,5066],[1295,3699],[6241,1277],[4974,3934],[2570,-228],[3084,699],[3395,2955],[650,2986]],[[462492,290818],[4838,-639],[1483,-1868],[2081,288],[2889,-1230],[539,-1785],[2609,-1284],[5267,1367],[13377,-706],[5663,1086],[4350,3768],[3870,152],[1478,1641],[2269,-1907],[2841,175],[3454,-2393],[2740,-236],[3738,897],[2426,6525],[3768,1025],[2069,-3015],[488,-8675],[1368,-2454],[2048,-6563],[1954,-2248],[12910,-5576]],[[592307,603026],[-3866,-2750],[-1554,-4527],[-2375,-1444],[-3033,1413],[-2196,-288],[-1602,-1542],[-319,-2530],[-3517,-410],[-10832,2742],[-4223,-68],[-2731,-3016],[-1254,-7763],[-2128,-2674],[-1627,-4740],[-616,-5492],[684,-2849],[89,-2582],[-1359,-5052],[450,-3874],[667,-2301],[-3581,-5219],[-866,-3304],[-1933,-4163],[-2532,-2704],[-4367,2848],[-1835,4991],[-4197,5598],[-4439,4156],[-3947,5484],[-2098,3684],[-1330,8325],[-871,1413],[-2447,593],[-1703,-1626],[-2422,798],[-2094,2226],[-2396,1488],[-2489,1011],[-2158,-205],[-718,-4163],[905,-7095],[-5501,-4953],[-718,-3539],[1588,-3138],[782,-2924],[-2115,-3266],[-5701,-3274],[-3110,-752],[-1185,-1277],[-3675,-6745]],[[483812,537547],[-2969,-1679],[-4864,-736],[-4316,1071],[-4932,-547],[-5374,-1421],[-11316,-5742],[-6079,-1672],[-6147,-638],[-7341,1314],[-1491,737],[-2404,38],[-2056,-2218],[726,-7140],[-1606,-6981],[-144,-2560],[1338,-5796],[-1028,-3334],[-2298,-2895],[-4189,-2354],[-6253,-2492],[-3670,-175],[-4337,1185],[-2464,2112],[-994,5211],[-1734,2264],[-2378,1884],[-4206,-152],[-2090,820],[-994,2560],[21,2856],[-595,2119],[-4345,2279]],[[383283,515465],[3441,7513],[-310,6905],[-667,3866],[-1576,3980],[1992,654],[3594,5970],[968,5849],[-1113,6115],[-6202,7596],[43,2431],[7786,6966],[527,3942]],[[391766,577252],[1432,1443],[-3174,2211],[-2336,4861],[1075,3335],[14354,12420],[6975,2165],[2774,2658],[-276,5006],[-722,4831],[-5455,3905],[-1605,2871],[2073,3532],[-638,5925],[-6049,-91],[-7064,7231],[-829,5166],[-3419,5051],[4282,3874],[5497,3107],[3874,7057],[9881,-729],[8632,91],[-259,3183],[-3433,3000],[259,1778],[2116,4329],[-2031,4201],[829,15078],[-4044,-752],[-3178,3168],[-4486,-1140],[-2918,259],[-6670,2423],[-5263,3692],[-10595,10915],[-3525,7118],[671,2499],[3343,5773],[-1508,2886],[-3420,813],[-301,3441],[4944,2180],[485,2849],[-1071,2864],[217,5803],[1767,4003],[4537,1793],[280,3335],[5608,1785],[7238,4481],[-1338,5143],[-3245,3000],[-455,2181],[1028,1405],[2800,2020],[11155,3403],[769,2955],[4286,3411],[8674,5165],[2006,3419],[3538,440],[4499,-319],[2710,1238],[3254,2636],[64,2735],[-2044,2613],[-607,4421],[16236,14334],[3819,1891],[3296,12822],[-2659,1991],[-276,2483],[3683,3829],[952,3760],[2744,1702],[8742,8477],[-548,3957],[2885,2370],[259,2036],[-5548,859],[-5280,1731],[-2995,3388],[1941,4034],[-1648,2598],[-1661,1094],[-2562,4656],[-4910,2978],[-2991,3175],[251,4785],[-1487,4505],[6414,554],[3012,1763],[1079,2461],[998,5970],[-3772,3449],[1648,4831],[3514,1451],[4558,-2697],[4375,1930],[2324,3114],[-1491,2666],[-2859,3122],[-3076,2234],[-1835,4208],[5348,5857],[-501,4314],[1228,5287],[2171,3069],[1712,4907],[-723,4755],[-2128,5629],[1797,1382],[4571,-1405],[11521,-5439],[4694,4520],[2497,-1253],[3756,-3852],[6661,-866],[3118,1656],[1665,5189],[7442,1671],[6712,-623],[10077,1253],[3381,-2970],[3246,4884],[2243,4300],[-1207,1990],[-4397,3145],[-807,3205],[-1869,3730],[-6576,2362],[4669,2067],[5964,-1968],[4974,3897],[2277,-501],[1011,-2120],[-675,-3061],[3097,-1982],[-421,-3229],[-1831,-1215],[1933,-6662],[1784,-2955],[7027,-934],[2854,-3221],[-1937,-6745],[2354,-1292],[174,-2734],[-3721,-2940],[-8781,-1101],[-5387,759],[-3041,-592],[-30,-5059],[-2685,-3958],[-2340,-2461],[-1844,-3555],[1720,-3282],[4839,897],[5267,1815],[6759,198],[11045,-4429],[3827,0],[4869,988],[2765,-3358],[994,-4322],[3819,-2985],[1160,-3297],[5361,1337],[425,-6799],[917,-7117],[2027,-8546],[-748,-4049],[416,-4033],[1814,-3844],[4376,-3243],[1860,-2553],[-420,-2354],[-2447,-2066],[-2698,-1003],[-2119,-2583],[-1249,-3638],[-315,-2165],[-3164,-1846],[-170,-2932],[-3174,-2332],[17,-6389],[2201,-3479],[3058,-2127],[1147,-2119],[1865,1846],[3093,957],[4473,-790],[8114,988],[1741,-1170],[-1227,-2127],[2073,-2651],[1601,-3350],[-1266,-334],[-565,-2203],[2447,-6419],[-3551,-5970],[510,-4193],[-8237,-3495],[-3747,-3965],[-2184,-3806],[-1006,-4284],[2217,-8371],[9720,-12989],[-672,-5150],[141,-4216],[-1245,-7497],[1975,-3403],[2812,-828],[3836,1458],[2804,-1793],[1453,-1489],[1338,-4512],[5047,-3114],[7238,934],[3216,-828],[1487,-2127],[-692,-4603],[-1326,-2795],[196,-3684],[-4584,-4444],[-5357,-7596],[2179,-3593],[-2574,-5264],[-7914,-1200],[-535,-2143],[3313,-2218],[-233,-2248],[-3968,-1572],[-608,-3305],[-4532,-3433],[-225,-1702],[811,-3767],[-4014,-2401],[-1525,-2301],[0,-3730],[-2048,-1679],[-1427,-2317],[-2596,-9981],[3080,-5841],[-2447,-2879],[-2570,-4041],[-64,-5181],[-4634,-6145],[-2413,-2477],[-1224,-2620],[608,-2218],[1257,-2439],[-1588,-5135],[-7345,-7907],[-1113,-3821],[2468,-1747],[-2855,-2773],[-756,-3927],[3496,-2575],[2957,471],[1640,-1443],[1223,-4725],[3059,-2112],[2094,-3593],[136,-3973],[-646,-1792]],[[610633,443135],[-858,-2590],[-1814,-1337],[-858,-2249],[-658,-3182],[-30,-3411],[-2838,-2864],[-4613,-3502],[-5191,1459],[-3365,273],[-7170,-3365],[-4661,-1230],[-5097,296],[-3241,-3456],[-1734,38],[-1635,-2986],[-3407,-159],[-2689,-1170],[-3959,-23],[-1219,-1929],[2255,-1421],[-399,-3843],[-590,-1664],[-2095,-623],[-3122,-5021],[-625,-2628],[3174,-4467],[2476,-2218],[2706,-638],[3327,-1709],[2642,-5104],[-332,-3297],[281,-1717],[3186,-2598],[-183,-2203],[1360,-539],[1733,805],[3436,-2788],[3237,-319],[782,-1435],[-2281,-3578],[-7370,965],[-2401,-365],[-1983,-1048],[-1619,-2492],[-1300,-3935],[-964,-3980],[-408,-4406],[-918,-4747],[-1151,-3327],[-1308,-448],[-1580,-1740],[-115,-2005],[1121,-3145],[-1342,-1626],[-1160,-2423],[39,-2507],[892,-2765],[221,-3517],[-672,-3593],[616,-2734],[3564,-2431],[-174,-3942],[-1253,-5811],[-1206,-2902],[-128,-7353],[1364,-1717],[-276,-2681],[-1338,-2454],[-111,-8751],[527,-6471],[-2893,-2454],[-229,-775]],[[462492,290818],[1079,6897],[1576,3593],[5603,4132],[1393,3198],[-1759,2795],[-2744,2462],[-828,4018],[361,4193],[1950,2947],[3194,2142],[676,2158],[-2086,2332],[879,8036],[-182,4110],[-2630,1063],[-918,3684],[2452,3601],[1346,4672]],[[471854,356851],[1385,3342],[1699,2286],[412,2180],[-4439,2963],[-217,2309],[1640,2150],[5064,3441],[2910,2734],[1979,2879],[310,12063],[8076,5735],[3080,4163],[2825,11402],[-1470,2354],[-391,2332],[1249,3555],[-2239,1322],[276,2750],[1118,1557],[-884,3069]],[[494237,431437],[2111,775]],[[496348,432212],[3777,3593],[6380,7634]],[[506505,443439],[12719,4876],[2536,1261]],[[521760,449576],[2188,2332],[1610,3715],[3564,5659],[2969,6343],[7600,13050],[3602,2165],[7872,7231],[4719,3138],[3768,387],[2961,-1193],[1372,-1899],[-46,-2848],[408,-3115],[2192,-5970],[-2864,-8698],[-390,-5522],[543,-3608],[2158,-3396],[4274,-2066],[5841,456],[6954,2172],[4549,-2119],[1521,-3616],[3025,-812],[2884,167],[4805,-5105],[10794,-3289]],[[641809,436534],[-5709,-1664],[-8054,6510],[-7558,1026],[-5369,2355],[-3195,-358],[-1291,-1268]],[[521760,449576],[-15255,-6137]],[[496348,432212],[-5420,-1299]],[[490928,430913],[-4924,585],[-3989,2651],[-692,4436],[1814,20046],[1678,4778],[1478,1390],[5374,1588],[1491,2218],[-348,2256],[-1895,3441],[-3870,1610],[-1194,2537],[-573,3943],[-64,6950],[468,13787],[1499,836],[5021,-2066],[2838,-479],[1470,1808],[408,3016],[-10816,15602],[-1631,5363],[-850,4732],[191,5606]],[[592307,603026],[1895,-1702],[4626,1914],[2145,-3532],[-246,-3441],[1665,-220],[3645,2036],[12175,-1611],[3827,881],[2901,1649]],[[624940,599000],[769,-5872],[-1894,-1694],[565,-3137],[3207,-2385],[4630,-783]],[[632217,585129],[5646,46],[4690,448]],[[642553,585623],[17408,8128],[6831,4003],[3131,577],[4180,-1329],[11334,-9981],[1359,-4193],[-289,-6449],[-1185,-4627],[-2018,-5408],[-3054,-4064],[-3207,-2499],[-4151,-129],[-1903,2598],[-161,3236],[-2005,1557],[-3870,-524],[-5982,-2249],[-1036,-1937],[2740,-7383],[76,-3920],[-2366,-6905],[-2396,-1519],[-4617,403],[-2426,-1740],[-3071,-3243],[-2579,-600],[-3789,3129],[-3653,798],[-1517,-828],[-119,-5348],[-1652,-1861],[-2570,-1314],[645,-5249],[1793,-2416],[586,-1473],[-144,-2636],[879,-2005],[3993,-2667],[1606,-4702],[2583,-2886],[3419,-5948],[1887,-4330],[607,-3160],[-1155,-4223],[-863,-577],[-72,-4596],[-4108,-927],[-1542,-1382],[3314,-5515],[467,-5583],[2358,-3145],[1724,-10179],[-123,-2985],[-816,-1413],[-3147,1101],[-2524,-182],[-4061,-2894],[-170,-2978],[3513,-4504],[999,-2872],[777,-3676],[-612,-1466]],[[286075,254440],[-1470,-2917],[-3640,-995],[-863,-3138],[-1975,-1048],[-3190,91],[-1899,-1534],[-884,-4998],[-696,-2051],[-6147,-1299],[-1687,-1816],[-573,-3015],[276,-4209],[-302,-2681],[-3334,-2681],[-5081,-2446],[-3772,-1033],[-4049,2134],[-2111,-2302],[-2880,-987],[-6755,-122],[-4885,-972],[-1733,-2742],[-1002,-4269],[-251,-3927],[-1903,-2537],[-3305,-2879]],[[221964,200067],[-7438,-578],[-3807,-1777],[-1478,1177],[-85,4702],[-680,2621],[77,1246],[1295,683],[2260,-212],[442,1443],[-1198,1937],[72,2134],[1173,1451],[1665,198],[1772,-631],[471,1580],[-212,2765],[395,2340],[2111,1154],[1334,1786],[-1274,3243],[-7022,4725],[-816,2476],[811,691],[5064,593],[2651,3426],[5675,23],[1134,2256],[-1070,2286],[-285,3510],[1198,3630],[1275,2120],[2408,1762],[480,1717],[-480,4884],[879,2051],[-747,4406],[-10658,6753],[-1780,3859],[879,4329],[2001,2317],[3275,-1261],[1202,950],[-467,5158],[1691,2248],[-3416,2985],[1640,2940]],[[224381,298163],[8092,190]],[[760376,422048],[-6168,-2415],[-4053,174],[-3296,654],[-2995,1709],[-9027,2879],[-3373,2051],[-3186,3061],[-1457,2590],[-629,3768],[315,2681],[968,1565],[-242,1732],[-901,873],[-3521,380],[-2014,-1587],[-5310,-6442],[-2931,1451],[-6100,137],[-5497,5271],[-7447,1049],[-2345,-2879],[-2243,539],[-8360,11820],[-68,2043],[-2867,1193],[-6296,-5432],[-654,-3251],[-3178,-3805],[391,-3563],[-964,-1238],[-2995,-1664],[-3908,-4314],[-1797,91],[-3968,3107],[-7158,-790],[-3840,1663],[-1453,-615]],[[642553,585623],[-10336,-494]],[[624940,599000],[2226,1268],[4231,319],[3569,3540],[2973,9184],[2749,3228],[4108,327],[4248,-600],[2854,-1383],[5268,1466],[2536,-3084],[3534,-311],[2014,3251],[5327,1853],[2740,8],[2727,-1185],[705,-2127],[3017,-942],[2327,1238],[1870,2849],[11937,2742],[4044,5279],[1206,2948],[6134,6267],[871,-2720],[2681,-2666],[-782,-4125],[-1729,-4254],[641,-1846],[5727,2348],[3339,-904],[5289,934],[-85,-6479],[-5319,-2325],[-4341,-4383],[1121,-7444],[-1640,-2803],[-208,-3737],[1670,-4748],[-73,-3061],[3004,-84],[2914,1892],[374,5249],[-688,5287],[318,3782],[2991,2158],[81,-4208],[1992,-2363],[2595,-646],[2052,1330],[718,3859],[2298,1564],[519,1725],[2183,1170],[2625,-525],[3131,1975],[4354,1618],[4733,-486],[3946,2659],[4579,4504],[884,3966],[-2183,3965],[-90,3790],[5990,4246],[1687,6062],[4791,4315],[1874,-555],[2757,973]],[[293666,427244],[-1567,2271],[-455,4603],[761,3312],[5658,4619],[-81,3198],[-6181,2696],[-960,2811],[1058,2886],[-64,7855],[1016,1709],[293,5484],[1860,1337],[-1542,3456],[-3738,2264],[374,2773],[-1351,4071],[85,6191],[2519,2985],[3288,1292],[1134,-4277],[1806,-4026],[2914,-4823],[3207,-3859],[3619,152],[5922,4724],[8220,4285],[5561,-1550],[1771,4383],[1912,3190],[5616,7551],[6113,6122],[5879,3905],[3526,-380],[4210,1185],[1147,-684],[1215,-2704],[165,-4398],[2685,-2780],[1665,-4049],[2842,-1193]],[[365768,493831],[-1266,-3623],[-756,-4687],[17,-4314],[3076,-3016],[5352,-2096],[4159,-4133],[2082,-5674],[373,-6981],[-2451,-9320],[-2442,-3062],[569,-4405],[1661,-4193],[-183,-3745],[1444,-2028],[2774,-2378],[1678,-4960],[3717,-7163],[4427,-20525],[1470,-8272],[518,-5925],[1725,-2735],[1533,-5355],[922,-4976],[1869,-3714],[918,-4968]],[[398954,361583],[-3025,-3198]],[[395929,358385],[-3619,501],[-2460,-2408],[-696,-2992],[-1211,-1588],[-2783,1276],[-1100,3927],[-3437,7801],[557,5508],[-1024,2544],[-760,10217],[-1806,3016],[-3364,1435],[-3556,-151],[-2829,-4490],[-11032,-2818],[-3407,722],[-19460,9130],[-5034,3958],[-7077,7497],[-3135,1162],[-2473,-873],[-968,-2666],[459,-4528],[-119,-6023],[-1670,-2568]],[[146315,287240],[-2719,-532],[-769,1238],[183,2021],[1274,782],[1717,-243],[768,-1519],[-454,-1747]],[[187640,168497],[-2541,570],[-3177,-471],[-1015,-3244],[713,-2438],[-55,-2013],[-1546,-1443],[-1733,-274],[-2872,-1656],[-4116,-3532],[-2439,-759],[-5467,759],[-2579,-1603],[68,-4094],[-2960,-2795],[-2163,-1261],[-713,-4315],[-960,-1815],[-9580,5727],[-4554,3525],[3144,4033],[-3658,2841],[-2922,691],[-756,-1405],[-2885,-972],[-2209,2651],[-1890,91],[-1045,-1907],[-2566,-1253],[-5650,608],[-5233,-2249],[-2740,403],[-680,8454],[-5794,2029],[-2588,-578],[-2960,4125],[-68,5340],[-2073,1238],[-4282,-645],[-3225,2362],[-4243,175],[-3607,-1474],[-1398,5006],[-3079,486],[-3178,3251],[-1398,4641],[-3878,4042],[-6810,-54],[-2017,3145],[-3327,942],[-4571,6745],[-6087,-478],[-595,-5636],[-5960,698],[-3827,1778],[-4282,7140],[-3896,2598],[-6180,11561],[-2876,502],[-1691,2377],[-234,4406],[-8751,6586],[-3198,5029],[-4788,896],[726,7999],[1347,3752],[2668,1778],[8224,1534],[1580,2454],[1037,4276],[2549,3069],[5955,-1755],[3386,1246],[2842,-311],[2982,-1687],[3551,213],[-301,3844],[2961,9616],[2952,4573],[1457,6214],[-518,5416],[-2171,2522]],[[41227,292337],[4257,2605],[2425,-835],[1755,-1421],[2400,-4907],[1593,-957],[841,-1269],[353,-1701],[3347,-380],[5493,744],[1962,1193],[561,1132],[2099,30],[3016,-3517],[3776,-38],[1920,1049],[2961,395],[1466,-1246],[684,-1626],[-990,-1625],[-671,-2849],[879,-4299],[-149,-1451],[1088,-4163],[1916,-2188],[1079,1421],[1448,3844],[2855,1967],[-557,1983],[2192,835],[2150,15],[2460,-1838],[2778,-661],[2264,-4459],[1941,-972],[2978,1063],[1296,2940],[565,6411],[-1075,11318],[-1053,1208],[-5128,995],[-1567,1945],[-4486,182],[-603,1633],[1631,2743],[-2974,4094],[348,3380],[5510,1504],[2507,-1086],[1350,-1808],[2231,-7497],[2090,-1656],[2761,-1147],[2111,1443],[3093,843],[2922,2082],[1572,3486],[-1767,11782],[-178,6396],[-1351,1884],[-5408,3076],[-1780,2431],[-2392,6813],[-4456,2887],[-34,2408],[3182,1960],[5110,1124],[2897,152],[6198,-1550],[2660,828],[-689,2188],[-259,3433],[667,5052],[-849,5006],[1520,2248],[4040,-175],[2366,-835],[1169,1192],[399,2773],[-140,2340],[1733,5423]],[[131536,370060],[11206,-14394]],[[151115,349125],[6878,-1830]],[[190609,342729],[1538,-3570]],[[187754,298247],[-3517,-1049]],[[184237,297198],[-3279,-3243],[-2260,-2970],[-289,-2545],[2366,-3692],[2825,-121],[493,-1163],[-880,-4679],[1020,-3015],[-208,-5158],[1461,-2879],[489,-6115],[-1776,-2074],[-3335,-1466],[-6419,-1557],[-696,-3038],[1482,-4118],[459,-2673],[-4516,-5621],[-114,-4611],[-1020,-1801],[-1652,-1261],[-612,-2696],[1296,-4117],[1945,-1079],[1041,-3228],[-2349,-1406],[-6461,-1876],[-1899,-1542],[-3535,-7300],[-2018,-6935],[-5573,1215],[888,-3995],[5123,-5090],[5675,-3995],[510,-2416],[-1725,-6320],[-386,-2848],[1470,-1641],[2493,-30],[1542,1542],[2324,1207],[3679,183],[3615,-1003],[3560,-2924],[2502,-3745],[6631,-4117],[-484,-745]],[[296309,188224],[-243,3259],[-4519,3540],[-1513,2613],[-59,3798],[-1657,2340],[-5476,2719]],[[282842,206493],[-306,4907],[2324,1246],[3985,843],[-400,2773],[995,3205]],[[315200,207002],[7468,380]],[[322668,207382],[1469,-1861],[769,-2454],[77,-5469],[1788,-4854]],[[326771,192744],[128,-2150],[-429,-3031],[960,-2605],[42,-4223]],[[502049,151922],[-2702,-714],[-2438,-2711],[-1997,660],[-8636,-1633],[-3283,-2901],[-595,1329],[1240,1952],[-1210,-273],[-982,1093],[149,1026],[1164,1124],[191,2006],[4133,76],[1538,2332],[1088,569],[1287,-288],[548,-1535],[471,15],[1381,2773],[884,866],[8355,2339],[3017,1862],[1138,2020],[102,1185],[701,-448],[5624,4664],[3484,6115],[1202,61],[-1491,-4482],[-986,-5393],[-1147,-3198],[-1007,-995],[-3615,-1079]],[[509657,160339],[-5815,-6259],[-1793,-2158]],[[479407,175083],[1470,-1261],[2545,-1656]],[[486038,171270],[5140,1618]],[[533689,211947],[-2112,-2575],[-2544,-1755],[-2528,46],[-10832,-11136],[-3870,-2644],[-710,-1025],[-374,-2811],[-1308,-4778],[-1746,-3266],[111,-3988],[433,-334],[-3615,-1709],[-3756,-3168],[-7340,-3578],[-2766,-2810],[-2774,-4064],[-2238,-1489],[-841,-3114],[-1674,-494],[-773,-1664],[-2460,-1177],[-429,-1003],[-93,-2924],[-1160,554],[-510,897],[-1155,-494],[403,-1793],[-1389,-258],[-505,-3297],[1733,426],[854,881],[828,-236],[111,-1056],[994,-326],[977,-2773],[-2133,-524],[-2923,-3304],[-841,-1930],[-8,-2028],[-387,-1428],[-2090,-744],[-3453,-2553],[-1237,-2666],[-3317,304],[-497,-441],[1474,-2051],[-3373,-4466]],[[461846,121181],[-8271,-6829],[-6708,-4710]],[[446867,109642],[-5667,-3000]],[[416507,123596],[1635,8],[3930,669]],[[326771,192744],[4040,-1504],[2753,1952],[284,1922],[-2340,4474],[-455,4231],[6054,-1048],[2897,1937],[1487,2476],[3538,2104],[1194,5052],[4133,539],[5221,-281],[2961,1079],[1330,4140],[6563,2590]],[[366431,222407],[892,-3570],[272,-4300],[-837,-3410],[1406,-5128]],[[382412,186067],[1750,-7740],[790,-1930]],[[283356,226759],[-1622,-45],[-468,1603],[446,850],[1164,342],[761,-630],[259,-1649],[-540,-471]],[[362926,79926],[-1856,-91]],[[361070,79835],[-433,1231],[858,987]],[[363100,81286],[-174,-1360]],[[362926,79926],[111,844],[-90,-844],[-21,0]],[[360653,81020],[408,-1162],[-267,744],[-141,418]],[[363096,81347],[-8,-53],[-1033,486],[1041,-433]],[[309834,61605],[1683,562],[2667,-973],[4962,-83],[2260,1246],[2188,-456],[2876,-3548],[2867,-144],[2748,1071]],[[390980,59022],[251,-2659],[-2634,-767],[-3700,-4679],[-3050,395],[-12961,-456],[-6325,-1010],[-3467,-1307],[-2931,221],[-4010,-1489],[-578,-1033],[-4218,-342],[-310,-5545],[790,-1839],[4363,-3243],[8802,-3806],[4617,-1079],[8632,-4124],[4079,-1200],[3415,721]],[[381745,25781],[1899,-311],[98,-9495],[-2838,-3350],[-2553,1868],[-3772,-2780],[-8310,-1048],[-2710,-3669],[-2162,-1056],[-4176,-471],[-3398,-3988],[-3348,-1481],[-1041,152],[-611,3069],[335,7960],[591,4558],[-285,3821],[-2290,3038],[-3865,2067],[-4180,866],[-7154,-1315],[-2702,464],[-1334,3023],[-2434,942],[-85,4580],[-1644,2386],[-55,2575],[1058,2218],[-136,3578],[-1453,2294],[149,1701],[-812,4110],[-2009,4026],[-3437,1268],[-1682,1952],[-5565,2272]],[[105742,368860],[-1644,-213],[-1249,1277],[875,1990],[2094,7],[578,-1025],[-654,-2036]],[[127279,374998],[4257,-4938]],[[41227,292337],[-883,1033],[-98,2613],[2863,4163],[-573,4998],[1499,3319],[-2179,6844],[3131,236],[1435,2218],[5192,1025],[943,1497],[-3972,7239],[862,5629],[-1423,3312],[1674,3114],[-302,1648],[-3517,2370],[-548,1140],[1792,2514],[-1486,4337],[836,3153],[7774,7224],[1661,10437],[5472,676],[1640,5879],[1801,-888],[3479,151],[2379,-2863],[2102,1397],[2757,3502],[-118,5386],[696,1891],[4499,-372],[-909,4808],[195,8098],[14987,1937],[-1049,5500],[1788,5317],[-781,1709],[-2307,-775],[-3454,1611],[999,5507],[858,10558],[-4376,950],[-3504,-1451],[-4469,1276],[-1678,2644],[565,3410],[4894,2628],[1202,3859],[-11801,6176],[2748,7885],[14286,31311],[7579,17980],[36053,-1322],[2583,-4322],[3288,-243]],[[205341,251128],[-1278,-752],[-2647,296],[-518,2241],[756,1739],[2974,-22],[943,-1482],[-230,-2020]],[[202691,159268],[267,4922],[-1368,3624],[-1958,2658],[-60,2006],[-467,1595],[-1750,296],[-1818,-744],[-1636,-1223],[-1499,-2484],[-395,-2424],[-2536,-121],[-1831,1124]],[[184237,297198],[7519,2917]],[[191756,300115],[14567,410]],[[209729,299143],[14652,-980]],[[221964,200067],[1448,-1527],[612,-2834],[-1198,-2278],[-3543,98],[-2043,-1367],[-3127,-6700],[-2090,-2620],[-2294,-1512],[-1023,-1732],[-434,-5750],[-2204,-1383],[-2872,-759],[-841,-2082],[1776,-2628],[4384,-3760]],[[208515,163233],[-2915,-1101],[-2909,-2864]],[[342935,121948],[-981,-326],[-1797,592],[-13,1808],[1878,987],[1291,-623],[204,-941],[-582,-1497]],[[309834,61605],[-1096,584],[-645,2522],[-1113,1474],[-2205,1534],[-2511,4953],[-1856,2499],[-2795,1276],[-969,2310],[-284,2772],[242,2735],[-1113,1185],[-2906,-281],[-2014,1937],[-1988,-403]],[[288581,86702],[493,676],[310,1960],[943,2226]],[[301907,525279],[-1253,-660],[-1206,372],[-416,1162],[488,1891],[1228,122],[1193,-707],[-34,-2180]],[[221322,483341],[1513,-364],[1924,1861],[-1024,5499],[-3470,2036],[-2124,6130],[565,2985],[1864,4710],[-2230,3699],[-314,4171],[2676,470],[3365,-1686],[5000,653],[-625,2370],[765,2150],[2927,2332],[4311,5864],[-3513,2051],[506,3267],[4193,1967],[3050,4277],[3989,2582],[5450,1102],[3339,5089],[1304,4497],[1674,3790],[3513,3001],[10229,1382],[5794,2439],[3454,2977],[4235,6769],[7320,3760],[2731,4641],[-204,5629],[-871,4747],[-4668,6381],[-1700,5462],[1347,5659],[2052,3684],[4435,1398],[4617,2696],[5842,-1086],[1062,3221],[4813,4337],[5654,-2628],[4057,1717],[7642,-927],[170,-2363],[-5302,-68],[-166,-4641],[4690,-5249],[166,-3958],[3734,-3069],[3938,-5651],[10543,-3190],[3819,167],[3076,-1535],[964,-3107],[77,-8332],[6312,2871],[5990,-722],[659,-3790],[3598,-608],[-451,-6647],[6457,-1192],[2715,1998],[5127,45],[1916,2044],[4252,2453],[1691,1694]],[[383283,515465],[-4282,-4140],[-1449,-2628],[68,-6122],[693,-3593],[-527,-2401],[-4155,-1716],[-4927,-76],[-2936,-958]],[[431022,430943],[-862,-197],[-1593,1169],[-315,1558],[421,949],[1440,319],[1712,-471],[72,-2355],[-875,-972]],[[490928,430913],[3309,524]],[[471854,356851],[-696,-563],[-2566,988],[-3900,403],[-4133,-2013],[-2897,-449],[-5009,2211],[-3556,-403],[-8287,-2537],[-2668,-144],[-6512,-3107],[-4542,-83],[-5382,1086],[-3874,-76],[-3547,-2659],[-2919,-630],[-1975,478],[-1576,-1557],[-2583,-1003],[-3564,4110],[-3836,1557]],[[397832,352460],[795,3403],[-812,4520]],[[397815,360383],[1139,1200]],[[395929,358385],[1886,1998]],[[397832,352460],[-2217,-2902],[807,-2674],[2234,-2354],[-1079,-4421],[1933,-4611],[115,-2697],[-1780,-6031],[-1274,-2256],[-12264,-2689],[-1840,182],[-3721,2978],[-2434,-1443],[-1101,-1588],[-1236,-7163],[-790,-2021],[-1984,-919],[-1465,-1982],[-378,-4323],[701,-5476],[-90,-4125],[-4086,-1215],[-8505,2392],[-2617,-1587],[-938,-2705],[-370,-8165],[-943,-1740],[-25,-3373],[2646,-6122],[616,-3335],[-374,-2187],[-6368,129],[-641,-1140],[-68,-3296],[595,-3198],[1550,-3252],[1844,-5461],[3437,-3008],[2663,-767],[854,-3077],[-523,-2590],[196,-1876],[3730,-3039],[599,-1754],[1049,-8820],[2141,-4352]],[[322668,207382],[-3892,-365]],[[437594,104614],[9273,5028]],[[446867,109642],[11699,8668],[3280,2871]],[[547970,254189],[2324,2135],[-1576,-35695],[-17345,-55391],[-22922,-24368],[-44604,-28804],[-18585,-24369],[-29737,-37661],[-28495,-17722],[-2651,-7110],[-2634,577]],[[502049,151922],[2477,2978],[5131,5439]],[[230787,126643],[-5365,2734],[-2621,2363],[-2762,6054],[-4434,2096],[-2307,3175],[-3811,1869],[-2825,2681],[-3474,6161],[-701,3760],[204,1732]],[[208515,163233],[10828,-182]],[[219343,163051],[7825,3137],[4099,-182],[3407,6198],[3386,2173],[93,1868],[1173,1785],[11388,2720],[3577,3524],[8866,7004],[2668,2917],[1121,4808],[5710,198],[3347,6266],[6839,1026]],[[274193,215358],[-662,-1239],[-2604,84],[-353,2355],[1028,1223],[1041,-31],[1385,-919],[165,-1473]],[[219343,163051],[-6402,243],[-1941,-479],[-2485,418]]],"bbox":[95.582,51.1188,119.1223,64.2834],"transform":{"scale":[0.000023540323540323542,0.000013164613164613165],"translate":[95.582,51.1188]}}