{"type":"Topology","objects":{"muni":{"type":"GeometryCollection","geometries":[{"type":"MultiPolygon","arcs":[[[0]]],"properties":{"GID_2":"RUS.19.1_1","GID_0":"RUS","COUNTRY":"Russia","GID_1":"RUS.19_1","NAME_1":"Ivanovo","NL_NAME_1":"Ивановскаяобласть","NAME_2":"Furmanov","VARNAME_2":"NA","NL_NAME_2":"Фурманов","TYPE_2":"Gorsovet","ENGTYPE_2":"District","CC_2":"NA","HASC_2":"RU.IV.FG"}},{"type":"MultiPolygon","arcs":[[[1,2,3,4,5,6,7],[-1]]],"properties":{"GID_2":"RUS.19.2_1","GID_0":"RUS","COUNTRY":"Russia","GID_1":"RUS.19_1","NAME_1":"Ivanovo","NL_NAME_1":"Ивановскаяобласть","NAME_2":"Furmanovskiyrayon","VARNAME_2":"NA","NL_NAME_2":"Фурмановскийрайон","TYPE_2":"Raion","ENGTYPE_2":"District","CC_2":"R11001","HASC_2":"RU.IV.FR"}},{"type":"MultiPolygon","arcs":[[[8,9,10]]],"properties":{"GID_2":"RUS.19.3_1","GID_0":"RUS","COUNTRY":"Russia","GID_1":"RUS.19_1","NAME_1":"Ivanovo","NL_NAME_1":"Ивановскаяобласть","NAME_2":"Gavrilovo-Posadskiyrayon","VARNAME_2":"NA","NL_NAME_2":"Гаврилово-Посадскийрайон","TYPE_2":"Raion","ENGTYPE_2":"District","CC_2":"R11000","HASC_2":"RU.IV.GA"}},{"type":"MultiPolygon","arcs":[[[-9,11,12,13]]],"properties":{"GID_2":"RUS.19.4_1","GID_0":"RUS","COUNTRY":"Russia","GID_1":"RUS.19_1","NAME_1":"Ivanovo","NL_NAME_1":"Ивановскаяобласть","NAME_2":"Il’inskiyrayon","VARNAME_2":"IlÆinskiy","NL_NAME_2":"Ильинскийрайон","TYPE_2":"Raion","ENGTYPE_2":"District","CC_2":"R11000","HASC_2":"RU.IV.IL"}},{"type":"MultiPolygon","arcs":[[[14]]],"properties":{"GID_2":"RUS.19.5_1","GID_0":"RUS","COUNTRY":"Russia","GID_1":"RUS.19_1","NAME_1":"Ivanovo","NL_NAME_1":"Ивановскаяобласть","NAME_2":"Ivanovo","VARNAME_2":"NA","NL_NAME_2":"Иваново","TYPE_2":"Gorod","ENGTYPE_2":"City","CC_2":"NA","HASC_2":"RU.IV.IG"}},{"type":"MultiPolygon","arcs":[[[-4,15,-2,16,17,18,19,20],[-15]]],"properties":{"GID_2":"RUS.19.6_1","GID_0":"RUS","COUNTRY":"Russia","GID_1":"RUS.19_1","NAME_1":"Ivanovo","NL_NAME_1":"Ивановскаяобласть","NAME_2":"Ivanovskiyrayon","VARNAME_2":"Ivanovo","NL_NAME_2":"Ивановскийрайон","TYPE_2":"Raion","ENGTYPE_2":"District","CC_2":"R11000","HASC_2":"RU.IV.IG"}},{"type":"MultiPolygon","arcs":[[[21]]],"properties":{"GID_2":"RUS.19.7_1","GID_0":"RUS","COUNTRY":"Russia","GID_1":"RUS.19_1","NAME_1":"Ivanovo","NL_NAME_1":"Ивановскаяобласть","NAME_2":"Kineshema","VARNAME_2":"NA","NL_NAME_2":"Кинешма","TYPE_2":"Gorod","ENGTYPE_2":"City","CC_2":"NA","HASC_2":"RU.IV.KG"}},{"type":"MultiPolygon","arcs":[[[22,23,24,25,26,27],[-22]]],"properties":{"GID_2":"RUS.19.8_1","GID_0":"RUS","COUNTRY":"Russia","GID_1":"RUS.19_1","NAME_1":"Ivanovo","NL_NAME_1":"Ивановскаяобласть","NAME_2":"Kineshemskiyrayon","VARNAME_2":"NA","NL_NAME_2":"Кинешемскийрайон","TYPE_2":"Raion","ENGTYPE_2":"District","CC_2":"R11000","HASC_2":"RU.IV.KR"}},{"type":"MultiPolygon","arcs":[[[-5,-21,28,-13,29]]],"properties":{"GID_2":"RUS.19.9_1","GID_0":"RUS","COUNTRY":"Russia","GID_1":"RUS.19_1","NAME_1":"Ivanovo","NL_NAME_1":"Ивановскаяобласть","NAME_2":"Komsomol’skiyrayon","VARNAME_2":"KomsomolÆskiy","NL_NAME_2":"Комсомольскийрайон","TYPE_2":"Raion","ENGTYPE_2":"District","CC_2":"R11000","HASC_2":"RU.IV.KO"}},{"type":"MultiPolygon","arcs":[[[-19,30,31,32,33]]],"properties":{"GID_2":"RUS.19.10_1","GID_0":"RUS","COUNTRY":"Russia","GID_1":"RUS.19_1","NAME_1":"Ivanovo","NL_NAME_1":"Ивановскаяобласть","NAME_2":"Lezhnevskiyrayon","VARNAME_2":"NA","NL_NAME_2":"Лежневскийрайон","TYPE_2":"Raion","ENGTYPE_2":"District","CC_2":"R11000","HASC_2":"RU.IV.LE"}},{"type":"MultiPolygon","arcs":[[[34,-23,35,36,37,38,39,40,41,42]]],"properties":{"GID_2":"RUS.19.11_1","GID_0":"RUS","COUNTRY":"Russia","GID_1":"RUS.19_1","NAME_1":"Ivanovo","NL_NAME_1":"Ивановскаяобласть","NAME_2":"Lukhskiyrayon","VARNAME_2":"NA","NL_NAME_2":"Лухскийрайон","TYPE_2":"Raion","ENGTYPE_2":"District","CC_2":"R11001","HASC_2":"RU.IV.LU"}},{"type":"MultiPolygon","arcs":[[[-40,43,44,45,46,47,48]]],"properties":{"GID_2":"RUS.19.12_1","GID_0":"RUS","COUNTRY":"Russia","GID_1":"RUS.19_1","NAME_1":"Ivanovo","NL_NAME_1":"Ивановскаяобласть","NAME_2":"Palekhskiyrayon","VARNAME_2":"NA","NL_NAME_2":"Палехскийрайон","TYPE_2":"Raion","ENGTYPE_2":"District","CC_2":"R11001","HASC_2":"RU.IV.PA"}},{"type":"MultiPolygon","arcs":[[[49,50,51,52,53,54]]],"properties":{"GID_2":"RUS.19.13_1","GID_0":"RUS","COUNTRY":"Russia","GID_1":"RUS.19_1","NAME_1":"Ivanovo","NL_NAME_1":"Ивановскаяобласть","NAME_2":"Pestyakovskiyrayon","VARNAME_2":"NA","NL_NAME_2":"Пестяковскийрайон","TYPE_2":"Raion","ENGTYPE_2":"District","CC_2":"R11001","HASC_2":"RU.IV.PE"}},{"type":"MultiPolygon","arcs":[[[-7,55,56,57,58]]],"properties":{"GID_2":"RUS.19.14_1","GID_0":"RUS","COUNTRY":"Russia","GID_1":"RUS.19_1","NAME_1":"Ivanovo","NL_NAME_1":"Ивановскаяобласть","NAME_2":"Privolzhskiyrayon","VARNAME_2":"NA","NL_NAME_2":"Приволжскийрайон","TYPE_2":"Raion","ENGTYPE_2":"District","CC_2":"R11001","HASC_2":"RU.IV.PR"}},{"type":"MultiPolygon","arcs":[[[-38,59,60,61,62,63]]],"properties":{"GID_2":"RUS.19.15_1","GID_0":"RUS","COUNTRY":"Russia","GID_1":"RUS.19_1","NAME_1":"Ivanovo","NL_NAME_1":"Ивановскаяобласть","NAME_2":"Puchezhskiyrayon","VARNAME_2":"NA","NL_NAME_2":"Пучежскийрайон","TYPE_2":"Raion","ENGTYPE_2":"District","CC_2":"R11001","HASC_2":"RU.IV.PU"}},{"type":"MultiPolygon","arcs":[[[-8,-59,64,-42,65,-48,66,-17]]],"properties":{"GID_2":"RUS.19.16_1","GID_0":"RUS","COUNTRY":"Russia","GID_1":"RUS.19_1","NAME_1":"Ivanovo","NL_NAME_1":"Ивановскаяобласть","NAME_2":"Rodnikovskiyrayon","VARNAME_2":"NA","NL_NAME_2":"Родниковскийрайон","TYPE_2":"Raion","ENGTYPE_2":"District","CC_2":"R11001","HASC_2":"RU.IV.RO"}},{"type":"MultiPolygon","arcs":[[[-32,67,68,69,70]]],"properties":{"GID_2":"RUS.19.17_1","GID_0":"RUS","COUNTRY":"Russia","GID_1":"RUS.19_1","NAME_1":"Ivanovo","NL_NAME_1":"Ивановскаяобласть","NAME_2":"Savinskiyrayon","VARNAME_2":"NA","NL_NAME_2":"Савинскийрайон","TYPE_2":"Raion","ENGTYPE_2":"District","CC_2":"R11001","HASC_2":"RU.IV.SA"}},{"type":"MultiPolygon","arcs":[[[71]]],"properties":{"GID_2":"RUS.19.18_1","GID_0":"RUS","COUNTRY":"Russia","GID_1":"RUS.19_1","NAME_1":"Ivanovo","NL_NAME_1":"Ивановскаяобласть","NAME_2":"Shuya","VARNAME_2":"NA","NL_NAME_2":"Шуя","TYPE_2":"Gorod","ENGTYPE_2":"City","CC_2":"NA","HASC_2":"RU.IV.SG"}},{"type":"MultiPolygon","arcs":[[[-18,-67,-47,72,-68,-31],[-72]]],"properties":{"GID_2":"RUS.19.19_1","GID_0":"RUS","COUNTRY":"Russia","GID_1":"RUS.19_1","NAME_1":"Ivanovo","NL_NAME_1":"Ивановскаяобласть","NAME_2":"Shuyskiyrayon","VARNAME_2":"NA","NL_NAME_2":"Шуйскийрайон","TYPE_2":"Raion","ENGTYPE_2":"District","CC_2":"R11002","HASC_2":"RU.IV.SG"}},{"type":"MultiPolygon","arcs":[[[-62,73,74]]],"properties":{"GID_2":"RUS.19.20_1","GID_0":"RUS","COUNTRY":"Russia","GID_1":"RUS.19_1","NAME_1":"Ivanovo","NL_NAME_1":"Ивановскаяобласть","NAME_2":"Sokol’skiyrayon","VARNAME_2":"NA","NL_NAME_2":"Сокольскийрайон","TYPE_2":"Raion","ENGTYPE_2":"District","CC_2":"R11001","HASC_2":"RU.IV.SO"}},{"type":"MultiPolygon","arcs":[[[75]]],"properties":{"GID_2":"RUS.19.21_1","GID_0":"RUS","COUNTRY":"Russia","GID_1":"RUS.19_1","NAME_1":"Ivanovo","NL_NAME_1":"Ивановскаяобласть","NAME_2":"Teykovo","VARNAME_2":"NA","NL_NAME_2":"Тейково","TYPE_2":"Gorod","ENGTYPE_2":"City","CC_2":"NA","HASC_2":"RU.IV.TG"}},{"type":"MultiPolygon","arcs":[[[-10,-14,-29,-20,-34,76],[-76]]],"properties":{"GID_2":"RUS.19.22_1","GID_0":"RUS","COUNTRY":"Russia","GID_1":"RUS.19_1","NAME_1":"Ivanovo","NL_NAME_1":"Ивановскаяобласть","NAME_2":"Teykovskiyrayon","VARNAME_2":"NA","NL_NAME_2":"Тейковскийрайон","TYPE_2":"Raion","ENGTYPE_2":"District","CC_2":"R11001","HASC_2":"RU.IV.TR"}},{"type":"MultiPolygon","arcs":[[[-39,-64,77,-54,78,-52,79,-44]]],"properties":{"GID_2":"RUS.19.23_1","GID_0":"RUS","COUNTRY":"Russia","GID_1":"RUS.19_1","NAME_1":"Ivanovo","NL_NAME_1":"Ивановскаяобласть","NAME_2":"Vernelandekhovskiyrayon","VARNAME_2":"NA","NL_NAME_2":"Верхнеландеховскийрайон","TYPE_2":"Raion","ENGTYPE_2":"District","CC_2":"R11000","HASC_2":"RU.IV.VE"}},{"type":"MultiPolygon","arcs":[[[80]]],"properties":{"GID_2":"RUS.19.24_1","GID_0":"RUS","COUNTRY":"Russia","GID_1":"RUS.19_1","NAME_1":"Ivanovo","NL_NAME_1":"Ивановскаяобласть","NAME_2":"Vichuga","VARNAME_2":"NA","NL_NAME_2":"Вичуга","TYPE_2":"Gorod","ENGTYPE_2":"City","CC_2":"NA","HASC_2":"RU.IV.VG"}},{"type":"MultiPolygon","arcs":[[[-25,81,-43,-65,-58,82],[-81]]],"properties":{"GID_2":"RUS.19.25_1","GID_0":"RUS","COUNTRY":"Russia","GID_1":"RUS.19_1","NAME_1":"Ivanovo","NL_NAME_1":"Ивановскаяобласть","NAME_2":"Vichugskiyrayon","VARNAME_2":"NA","NL_NAME_2":"Вичугскийрайон","TYPE_2":"Raion","ENGTYPE_2":"District","CC_2":"R11000","HASC_2":"RU.IV.VR"}},{"type":"MultiPolygon","arcs":[[[-28,83,-74,84,85,-36]]],"properties":{"GID_2":"RUS.19.26_1","GID_0":"RUS","COUNTRY":"Russia","GID_1":"RUS.19_1","NAME_1":"Ivanovo","NL_NAME_1":"Ивановскаяобласть","NAME_2":"Yur’evskiyrayon","VARNAME_2":"NA","NL_NAME_2":"Юрьевскийрайон","TYPE_2":"Raion","ENGTYPE_2":"District","CC_2":"R11002","HASC_2":"RU.IV.YR"}},{"type":"MultiPolygon","arcs":[[[-45,86,-50,87,88,-69,89]]],"properties":{"GID_2":"RUS.19.27_1","GID_0":"RUS","COUNTRY":"Russia","GID_1":"RUS.19_1","NAME_1":"Ivanovo","NL_NAME_1":"Ивановскаяобласть","NAME_2":"Yuzhskiyrayon","VARNAME_2":"NA","NL_NAME_2":"Южскийрайон","TYPE_2":"Raion","ENGTYPE_2":"District","CC_2":"R11002","HASC_2":"RU.IV.YZ"}},{"type":"MultiPolygon","arcs":[[[-26,-83,-57,90]]],"properties":{"GID_2":"RUS.19.28_1","GID_0":"RUS","COUNTRY":"Russia","GID_1":"RUS.19_1","NAME_1":"Ivanovo","NL_NAME_1":"Ивановскаяобласть","NAME_2":"Zavolzhskiyrayon","VARNAME_2":"NA","NL_NAME_2":"Заволжскийрайон","TYPE_2":"Raion","ENGTYPE_2":"District","CC_2":"R11000","HASC_2":"RU.IV.ZA"}}]}},"arcs":[[[378394,664553],[-2310,-729],[-470,4736],[2982,510],[-202,-4517]],[[435581,535446],[-16573,6921],[-14846,14499]],[[404162,556866],[-15609,4955],[-38415,510]],[[350138,562331],[-33482,29654],[-20991,-17632],[-12222,9253],[-9016,-4517]],[[274427,579089],[1817,40655],[14980,-2404],[6795,24772],[-17985,22222],[-5113,19818],[-561,22733]],[[274360,706885],[13478,-5829],[7446,21202],[12513,-4226],[30141,14135],[25678,-26813],[89,22806],[12940,-875]],[[376645,727285],[13747,-2477],[12649,-31548],[23995,5683],[-1098,-42332],[9800,-20182],[14218,-16466]],[[449956,619963],[-7423,-57705],[-6952,-26812]],[[91431,320874],[20071,34025],[12088,-6265],[12536,-20547],[12334,-4080],[8208,11658]],[[156668,335665],[11124,-32350],[4821,-30893],[12200,-13260],[23906,-55884],[-3857,-27905],[740,-20328],[11796,-16102]],[[217398,138943],[-4328,-20910],[-11124,5828],[-14330,-44735],[-5831,-29144],[-20497,29581],[-28302,10710],[-8252,18798],[3184,32058],[-16259,53479],[-20026,3060],[16102,63680],[-1951,48378],[-14353,11148]],[[91431,320874],[-25655,19745],[-16080,364],[-20004,-13114],[-11684,-24700],[-12491,3352],[-5517,55883],[11774,-364],[7445,22513],[-7400,15301],[5314,11585],[9375,-3061],[5561,23170],[11819,-802],[1973,11877],[-17828,32349],[13343,24918],[12357,-510],[-1279,21858],[32653,34536],[5696,-9982],[14577,23606],[6750,26958],[12626,1458],[6661,18142],[19936,20692],[7154,-11075]],[[158507,625573],[9128,-56029],[-16147,-39708],[5225,-43716],[14487,-59162]],[[171200,426958],[-17021,-36722],[-897,-35992],[3386,-18579]],[[377295,488961],[-32495,-18579],[-20026,22368],[18725,59162],[10832,-4226],[18434,-36430],[4530,-22295]],[[350138,562331],[54024,-5465]],[[435581,535446],[9890,-26230]],[[445471,509216],[-59900,-144408],[-13882,-19963],[-10338,874],[-11550,11949]],[[349801,357668],[-14936,30820],[4643,17923],[-2198,8452],[-16595,9617],[-1324,25938],[-6839,-145],[-10832,-25064]],[[301720,425209],[-39492,72204]],[[262228,497413],[5135,13188],[7064,68488]],[[615841,802404],[-11101,-10347],[-8185,10857],[6010,19307],[13276,-19817]],[[729137,618214],[-27449,-67978],[-13927,-17632],[-14577,-2623]],[[673184,529981],[-32226,72058],[-40254,69144]],[[600704,671183],[-6078,23680],[-41869,102149]],[[552757,797012],[8454,20546],[17582,27906],[90893,-48379],[24355,18798],[16685,22732],[5225,32495],[336,36503],[-3364,31111]],[[712923,938724],[20341,5027],[9329,38325],[26194,-16102],[-2422,-31840],[-5405,-35119],[785,-22805],[9912,-16830],[1032,-16976],[-19130,-33152]],[[753559,809252],[-42519,-23898],[20295,-90856],[3566,-35701],[-5764,-40583]],[[262228,497413],[-5854,801],[-5830,-30382],[-14959,-45974],[-16415,145],[-5405,-18215],[-6818,1457],[-21663,34245],[-14084,-12532]],[[158507,625573],[8589,-15738],[11191,3352],[2063,8452],[-2332,14207],[4014,7796],[6145,-6047],[5360,16321],[-22763,24116],[13972,5246],[17514,-15665],[12066,11803],[10966,-10418],[18210,18360],[10697,1603],[11437,21712],[8724,-3788]],[[349801,357668],[-5472,-15155],[2467,-33005],[10069,-60838],[6212,-24627]],[[363077,224043],[-1749,-20619],[-10899,-22805],[-22942,-21712],[-7535,-14426]],[[319952,144481],[-5741,29872],[-11146,6339]],[[303065,180692],[14061,89326],[-15496,70965],[90,84226]],[[654952,569107],[18232,-39126]],[[729137,618214],[4598,-32787],[7154,-25282]],[[740889,560145],[8230,-12022]],[[749119,548123],[-5920,-8451],[9755,-45902],[-314,-58871]],[[752640,434899],[-21350,4518],[-24601,-12022],[-26485,-31767],[-23749,-874],[-14465,-20255]],[[641990,374499],[-57500,83788]],[[584490,458287],[16909,16175]],[[601399,474462],[-16954,27468]],[[584445,501930],[33818,18579],[12021,28489],[24668,20109]],[[641990,374499],[-6818,-20328],[7199,-22732],[-247,-23534],[-4485,-22441]],[[637639,285464],[-18658,-13843],[-5764,-11949],[-16797,-10856],[-51468,12094],[-53239,31549]],[[491713,292459],[13680,31038]],[[505393,323497],[673,31767],[13994,35847],[5875,64991]],[[525935,456102],[4508,-33297],[7086,-13917],[8679,3061],[13321,20182]],[[559529,432131],[24961,26156]],[[675517,72131],[-2624,64117],[13882,6484],[-2602,42404],[-20093,13917]],[[664080,199053],[-19287,66083]],[[644793,265136],[17089,10419],[17828,22587],[7648,17122],[7939,-5975],[9127,-15737],[11101,-5829],[13388,9690]],[[728913,297413],[14375,-1748],[8948,-6776]],[[752236,288889],[7266,-30310]],[[759502,258579],[23,-24044],[11168,-15810],[12514,17049],[4193,-30674],[-6369,-55883],[4710,-21421],[-987,-31038],[-6728,-9836],[-14039,364],[-15967,10492],[-15833,-4882],[-8095,-19745],[-4934,-25719],[-16483,-10419],[-6773,8014],[-15003,-2404],[-5382,29508]],[[376645,727285],[14330,33006],[0,30018],[16327,-14426],[25229,21566],[42968,20182]],[[475499,817631],[2377,-13042],[22830,-20765]],[[500706,783824],[-4014,-52604],[-10832,-15447],[-4642,-24189],[2982,-16758]],[[484200,674826],[-34244,-54863]],[[749119,548123],[8634,-7213]],[[757753,540910],[11706,583],[61739,15009]],[[831198,556502],[13860,-47796],[26148,-129326]],[[871206,379380],[-39380,-2841],[-785,-19089],[-15115,-12532],[-10226,4517],[-7446,12823],[-9374,-17996],[-6974,4882]],[[781906,349144],[-21238,55373],[-8028,30382]],[[484200,674826],[30657,-55810],[62008,-79854],[7580,-37232]],[[601399,474462],[-41870,-42331]],[[525935,456102],[-9396,19235],[-16237,-5829],[-35410,16102],[-19421,23606]],[[363077,224043],[9105,4882],[26396,41166],[8858,-4955],[15721,-35264],[21417,8743],[21641,16904],[12087,-1239]],[[478302,254280],[33751,-58215],[4351,-15737],[5158,-37232]],[[521562,143096],[24758,-38470]],[[546320,104626],[-18411,-16757],[-35703,-7651],[-17066,-24845],[-14038,35410],[-26329,-3497],[-20699,8160],[-7400,19745],[-22853,-16685],[-5853,-23169],[-11213,6266],[-3655,18943],[-22920,15592],[-2511,-14863],[-15609,18142],[-2108,25064]],[[448857,357741],[-14779,-4080],[-1682,12677],[2669,14572],[9666,-3424],[4126,-19745]],[[505393,323497],[-27091,-69217]],[[831198,556502],[5248,81749],[516,149143]],[[836962,787394],[6481,25939],[-9060,74316],[7692,35993],[8813,16029],[2400,-12167],[4059,-130565],[8432,28998],[20699,35410],[23368,17268],[16304,-8306],[11639,6339],[25880,-34390],[3902,-34681],[-5539,-8379],[2332,-16977],[7961,-13989],[20363,-6557],[7311,-16903],[-3386,-16467],[-10765,12386],[-6391,-31402],[-13770,17851],[-15496,-19818],[6032,-24263],[-27090,-21857],[762,-9691],[-11572,-20473],[-762,-21640],[-5494,-32277],[3969,-13187],[28212,-11876],[-1480,-14718],[15451,-11803],[-2736,-20838],[-10405,-8889],[560,-20546],[-25834,-79782],[-14847,4008],[-13971,-13188],[-19780,-6922]],[[261398,344626],[-4239,4153],[4441,3716],[1121,-5027],[-1323,-2842]],[[303065,180692],[-9419,5319],[-21820,-17414],[-9105,6776],[-18210,-13115],[-5091,-20837],[-22022,-2478]],[[781906,349144],[-8634,-4372],[-13456,-32131],[11774,-28051],[-12088,-26011]],[[752236,288889],[-23323,8524]],[[644793,265136],[-7154,20328]],[[567962,626593],[-11348,-7796],[-5382,10711],[269,12677],[14868,6120],[1593,-21712]],[[600704,671183],[21349,-32568],[32899,-69508]],[[500706,783824],[41398,18507],[10653,-5319]],[[753559,809252],[8567,-25282],[15564,-17632],[35119,-6484],[13074,5901],[11079,21639]],[[831198,556502],[-73445,-15592]],[[757753,540910],[-16864,19235]],[[637639,285464],[26441,-86411]],[[675517,72131],[-32383,12678],[-10787,-12678],[-10114,1894],[-1458,-31111],[-13344,-15009],[-14083,-27905],[-28190,20984],[-605,55810],[-6885,37814],[-11348,-9982]],[[546320,104626],[-15675,21567],[-9083,16903]],[[478302,254280],[9105,20037],[4306,18142]],[[475499,817631],[16797,4809],[8701,40583],[853,51949],[-12335,74608],[4867,10419],[17828,-14499],[25521,219],[32114,-25429],[4104,-26302],[11774,-7213],[7087,-15811],[17268,-14863],[11661,16394],[12178,-13334],[26328,8233],[6548,27177],[19600,14863],[9061,-15082],[17469,4372]]],"bbox":[39.4137,56.3399,43.8728,57.7124],"transform":{"scale":[0.000004459104459104458,0.0000013725013725013748],"translate":[39.4137,56.3399]}}