{"type":"Topology","objects":{"muni":{"type":"GeometryCollection","geometries":[{"type":"MultiPolygon","arcs":[[[0,1,2,3,4,5,6,7,8]]],"properties":{"GID_2":"RUS.20.1_1","GID_0":"RUS","COUNTRY":"Russia","GID_1":"RUS.20_1","NAME_1":"Kabardin-Balkar","NL_NAME_1":"Кабардино-БалкарскаяРеспублика","NAME_2":"Baksanskiyrayon","VARNAME_2":"NA","NL_NAME_2":"Баксанскийрайон","TYPE_2":"Raion","ENGTYPE_2":"District","CC_2":"R40000","HASC_2":"RU.KB.BA"}},{"type":"MultiPolygon","arcs":[[[9,10,-4,11,12,13]]],"properties":{"GID_2":"RUS.20.2_1","GID_0":"RUS","COUNTRY":"Russia","GID_1":"RUS.20_1","NAME_1":"Kabardin-Balkar","NL_NAME_1":"Кабардино-БалкарскаяРеспублика","NAME_2":"Chegemskiyrayon","VARNAME_2":"NA","NL_NAME_2":"Чегемскийрайон","TYPE_2":"Raion","ENGTYPE_2":"District","CC_2":"R40000","HASC_2":"RU.KB.CG"}},{"type":"MultiPolygon","arcs":[[[-14,14,15]]],"properties":{"GID_2":"RUS.20.3_1","GID_0":"RUS","COUNTRY":"Russia","GID_1":"RUS.20_1","NAME_1":"Kabardin-Balkar","NL_NAME_1":"Кабардино-БалкарскаяРеспублика","NAME_2":"Cherekskiyrayon","VARNAME_2":"Sovetskiy","NL_NAME_2":"Черекскийрайон","TYPE_2":"Raion","ENGTYPE_2":"District","CC_2":"R40000","HASC_2":"RU.KB.CR"}},{"type":"MultiPolygon","arcs":[[[16,17,18,-6,19]]],"properties":{"GID_2":"RUS.20.4_1","GID_0":"RUS","COUNTRY":"Russia","GID_1":"RUS.20_1","NAME_1":"Kabardin-Balkar","NL_NAME_1":"Кабардино-БалкарскаяРеспублика","NAME_2":"El'brusskiyrayon","VARNAME_2":"Tyrnyauz","NL_NAME_2":"Эльбрусскийрайон","TYPE_2":"Raion","ENGTYPE_2":"District","CC_2":"R40000","HASC_2":"RU.KB.TY"}},{"type":"MultiPolygon","arcs":[[[20]]],"properties":{"GID_2":"RUS.20.5_1","GID_0":"RUS","COUNTRY":"Russia","GID_1":"RUS.20_1","NAME_1":"Kabardin-Balkar","NL_NAME_1":"Кабардино-БалкарскаяРеспублика","NAME_2":"Malgobek","VARNAME_2":"NA","NL_NAME_2":"Малгобек","TYPE_2":"Gorod","ENGTYPE_2":"City","CC_2":"NA","HASC_2":"RU.IN.MG"}},{"type":"MultiPolygon","arcs":[[[21]]],"properties":{"GID_2":"RUS.20.6_1","GID_0":"RUS","COUNTRY":"Russia","GID_1":"RUS.20_1","NAME_1":"Kabardin-Balkar","NL_NAME_1":"Кабардино-БалкарскаяРеспублика","NAME_2":"Mayskiy","VARNAME_2":"NA","NL_NAME_2":"Майский","TYPE_2":"Raion","ENGTYPE_2":"District","CC_2":"NA","HASC_2":"RU.KB.MA"}},{"type":"MultiPolygon","arcs":[[[22,23,24,25,26,27,28,29,30,31]]],"properties":{"GID_2":"RUS.20.7_1","GID_0":"RUS","COUNTRY":"Russia","GID_1":"RUS.20_1","NAME_1":"Kabardin-Balkar","NL_NAME_1":"Кабардино-БалкарскаяРеспублика","NAME_2":"Mayskiyrayon","VARNAME_2":"NA","NL_NAME_2":"Майскийрайон","TYPE_2":"Raion","ENGTYPE_2":"District","CC_2":"R40000","HASC_2":"RU.KB.MA"}},{"type":"MultiPolygon","arcs":[[[-1,32,-24,33],[-22],[34]]],"properties":{"GID_2":"RUS.20.8_1","GID_0":"RUS","COUNTRY":"Russia","GID_1":"RUS.20_1","NAME_1":"Kabardin-Balkar","NL_NAME_1":"Кабардино-БалкарскаяРеспублика","NAME_2":"Prokhladnenskiyrayon","VARNAME_2":"NA","NL_NAME_2":"Прохладненскийрайон","TYPE_2":"Raion","ENGTYPE_2":"District","CC_2":"R40000","HASC_2":"RU.KB.PR"}},{"type":"MultiPolygon","arcs":[[[-35]]],"properties":{"GID_2":"RUS.20.9_1","GID_0":"RUS","COUNTRY":"Russia","GID_1":"RUS.20_1","NAME_1":"Kabardin-Balkar","NL_NAME_1":"Кабардино-БалкарскаяРеспублика","NAME_2":"Prokhladniy","VARNAME_2":"Prokhladnyy","NL_NAME_2":"Прохладный","TYPE_2":"Gorod","ENGTYPE_2":"City","CC_2":"NA","HASC_2":"RU.KB.PG"}},{"type":"MultiPolygon","arcs":[[[35,-26,36],[-21]]],"properties":{"GID_2":"RUS.20.10_1","GID_0":"RUS","COUNTRY":"Russia","GID_1":"RUS.20_1","NAME_1":"Kabardin-Balkar","NL_NAME_1":"Кабардино-БалкарскаяРеспублика","NAME_2":"Terskiyrayon","VARNAME_2":"NA","NL_NAME_2":"Терскийрайон","TYPE_2":"Raion","ENGTYPE_2":"District","CC_2":"R40000","HASC_2":"RU.KB.TE"}},{"type":"MultiPolygon","arcs":[[[-3,37,-32,38,39,-29,40,-15,41,-12]]],"properties":{"GID_2":"RUS.20.11_1","GID_0":"RUS","COUNTRY":"Russia","GID_1":"RUS.20_1","NAME_1":"Kabardin-Balkar","NL_NAME_1":"Кабардино-БалкарскаяРеспублика","NAME_2":"Urvanskiyrayon","VARNAME_2":"NA","NL_NAME_2":"Урванскийрайон","TYPE_2":"Raion","ENGTYPE_2":"District","CC_2":"R40000","HASC_2":"RU.KB.UR"}},{"type":"MultiPolygon","arcs":[[[-8,42,-18,43]]],"properties":{"GID_2":"RUS.20.12_1","GID_0":"RUS","COUNTRY":"Russia","GID_1":"RUS.20_1","NAME_1":"Kabardin-Balkar","NL_NAME_1":"Кабардино-БалкарскаяРеспублика","NAME_2":"Zol'skiyrayon","VARNAME_2":"NA","NL_NAME_2":"Зольскийрайон","TYPE_2":"Raion","ENGTYPE_2":"District","CC_2":"R40000","HASC_2":"RU.KB.ZO"}}]}},"arcs":[[[650843,781090],[-23093,-34063],[4096,-7926],[17961,6888],[13964,-3586],[-2862,-18777],[-9375,-15946],[10362,-22363],[46383,-9152],[6020,-9153],[-789,-15946],[12385,-13682]],[[725895,637384],[-15839,-3397]],[[710056,633987],[-11744,-11040]],[[698312,622947],[-67749,19910],[-14211,-4247],[-29064,-28118],[-9967,-3303],[-11448,7549],[-19342,-6133],[-47469,-27930],[-50084,-48217],[-36267,-59822],[-44459,-53878],[-46186,-19438]],[[322066,399320],[-45100,-43687]],[[276966,355633],[13471,122853],[-102388,-6605]],[[188049,471881],[-8438,28496]],[[179611,500377],[-18701,11889],[3898,19343],[64196,71712],[28323,20004],[14754,36516],[17665,4246],[11004,-20287],[50232,-2642],[19540,10474],[12188,18494],[8289,2547],[4540,-9247],[13569,3209],[33998,43310],[9178,31798],[17517,20476],[42781,28118],[6464,43687]],[[519046,834024],[55907,10568],[34293,-7171],[69772,-35101],[-28175,-21230]],[[267393,128892],[-12434,29251],[6809,31515],[-26201,18211],[-29755,5190],[2813,21608],[-6513,5472]],[[202112,240139],[67453,108889],[52501,50292]],[[698312,622947],[-19491,-15286],[-15987,-27646],[18207,-13777]],[[681041,566238],[-6118,-73127]],[[674923,493111],[-13224,-14248],[-25659,3209],[-27336,-33969],[-14853,-2548],[-25412,-58218],[-10263,-6700],[-11843,27647],[-22797,18494],[-36465,-22174],[-54426,755],[-21958,-45952],[-20921,-65201],[-25659,-28024],[-10510,-38026],[-44064,-36516],[-42140,-62748]],[[674923,493111],[10165,-38969],[-395,-16607],[-41794,-69541],[8882,-38781],[-1037,-26892],[-7598,-28685],[-48209,-78316],[-6514,-19910],[4047,-18211],[21267,-16607]],[[613737,140592],[-38735,-71522],[-8290,-29346],[-16382,-18399],[-28619,-9436],[-24277,32931],[-14952,1132],[-33701,-40762],[-29903,-5190],[-46975,30477],[-34392,11795],[-38932,55010],[-31186,31610]],[[202112,240139],[-9080,7455],[-3256,17078],[-40857,3869],[-14704,10757],[-51515,-12078],[5773,-28307],[-2171,-5379],[-8339,3020],[-57189,42083],[-20330,47839],[-444,21136],[9721,21042]],[[9721,368654],[115760,26892],[24425,23967],[16037,0]],[[165943,419513],[22106,52368]],[[276966,355633],[-74854,-115494]],[[954257,683713],[-3700,-755],[-543,7172],[4243,-6417]],[[765320,675976],[-23191,-7171],[-64344,20287],[82157,74259],[23488,31326],[84624,-17267],[-65084,-86243],[-37650,-15191]],[[742573,642479],[53538,34912]],[[796111,677391],[55561,74165],[22254,10096],[72042,6700]],[[945968,768352],[-10708,-28874],[5477,-18682]],[[940737,720796],[-73966,-83790],[-19392,-47744],[-11645,-51803],[5477,-41894]],[[841211,495565],[8339,-17928],[-197,-20570],[-5773,-23589]],[[843580,433478],[-17172,-8021],[-19047,-31421]],[[807361,394036],[-21908,7738],[-3405,7737],[8240,15569],[-3404,14625],[-18109,15947],[49,13870],[14013,27835],[-5131,44160],[32172,55293]],[[809878,596810],[-444,16701],[-4491,13210]],[[804943,626721],[-12878,1133],[-56055,-20570]],[[736010,607284],[-3700,15380],[10263,19815]],[[650843,781090],[41301,31893],[16727,76807],[11744,33685],[51663,52652],[21563,-4246],[23833,-25005],[53785,-9719],[13076,-28213],[21415,-12549],[25264,-3775],[62124,107379],[2417,-50292],[-11201,-27553],[-37649,-61709],[-3898,-32176],[2961,-59917]],[[796111,677391],[-70216,-40007]],[[765765,833364],[-5971,15946],[-53390,-2076],[5033,-28495],[30840,-16702],[23488,31327]],[[843580,433478],[7401,35289],[-9770,26798]],[[940737,720796],[10905,-15192],[18603,-5756],[23833,-32553],[4293,-21325],[-4540,-30100],[6168,-38781],[-7007,-43121],[-13273,-32364],[14260,-48594],[-8487,-21420],[-14704,-18305],[-23932,29345],[-21366,-2453],[-18504,-8681],[-30988,-39536],[-18652,15852],[-13766,25666]],[[710056,633987],[32517,8492]],[[736010,607284],[68933,19437]],[[804943,626721],[4935,-29911]],[[807361,394036],[14754,-80015],[-3799,-20098],[-26153,-42366],[-25757,6793],[-10017,23118],[24968,5378],[-18454,31987],[-32913,-22928],[-9622,11228],[-17270,47179],[-7451,-8209],[-13767,-44631],[-3849,-36234],[-14951,-38026],[-49343,-86620]],[[674923,493111],[-642,16985],[6760,56142]],[[179611,500377],[9079,-30572],[-22747,-50292]],[[9721,368654],[5279,21325],[0,22457],[-7746,30855],[34145,48971],[4885,26326],[-10954,58407],[3010,35667],[33060,45480],[64542,35101],[20231,17645],[13915,21231],[3898,36327],[-5033,42083],[52649,9342],[23241,12172],[12978,19532],[17418,13116],[30840,-7549],[42041,26514],[41744,5096],[20725,36044],[16727,9813],[14507,-6982],[7649,-18400],[7302,-65578],[21021,-39536],[41251,29911]]],"bbox":[42.5081,42.8896,44.5347,43.9494],"transform":{"scale":[0.0000020266020266020284,0.0000010598010598010555],"translate":[42.5081,42.8896]}}