{"type":"Topology","objects":{"muni":{"type":"GeometryCollection","geometries":[{"type":"MultiPolygon","arcs":[[[0]],[[1,2,3,4]],[[5]]],"properties":{"GID_2":"RUS.21.1_1","GID_0":"RUS","COUNTRY":"Russia","GID_1":"RUS.21_1","NAME_1":"Kaliningrad","NL_NAME_1":"Калининградскаяобласть","NAME_2":"Bagrationovskiyrayon","VARNAME_2":"NA","NL_NAME_2":"Багратионовскийрайон","TYPE_2":"Raion","ENGTYPE_2":"District","CC_2":"R72000","HASC_2":"RU.KN.BG"}},{"type":"MultiPolygon","arcs":[[[6]]],"properties":{"GID_2":"RUS.21.2_1","GID_0":"RUS","COUNTRY":"Russia","GID_1":"RUS.21_1","NAME_1":"Kaliningrad","NL_NAME_1":"Калининградскаяобласть","NAME_2":"Chernyakhovsk","VARNAME_2":"NA","NL_NAME_2":"Черняховск","TYPE_2":"Gorod","ENGTYPE_2":"City","CC_2":"NA","HASC_2":"RU.KN.CG"}},{"type":"MultiPolygon","arcs":[[[7,8,9,10,11,12,13,14,15,16],[-7]]],"properties":{"GID_2":"RUS.21.3_1","GID_0":"RUS","COUNTRY":"Russia","GID_1":"RUS.21_1","NAME_1":"Kaliningrad","NL_NAME_1":"Калининградскаяобласть","NAME_2":"Chernyakhovskiyrayon","VARNAME_2":"NA","NL_NAME_2":"Черняховскийрайон","TYPE_2":"Raion","ENGTYPE_2":"District","CC_2":"R72001","HASC_2":"RU.KN.CR"}},{"type":"MultiPolygon","arcs":[[[17]],[[18]],[[19]],[[20,21]],[[22]],[[23]],[[-2,24,25,26,27,28,29]]],"properties":{"GID_2":"RUS.21.4_1","GID_0":"RUS","COUNTRY":"Russia","GID_1":"RUS.21_1","NAME_1":"Kaliningrad","NL_NAME_1":"Калининградскаяобласть","NAME_2":"Gur'evskiyrayon","VARNAME_2":"NA","NL_NAME_2":"Гурьевскийрайон","TYPE_2":"Raion","ENGTYPE_2":"District","CC_2":"R72000","HASC_2":"RU.KN.GU"}},{"type":"MultiPolygon","arcs":[[[30]]],"properties":{"GID_2":"RUS.21.5_1","GID_0":"RUS","COUNTRY":"Russia","GID_1":"RUS.21_1","NAME_1":"Kaliningrad","NL_NAME_1":"Калининградскаяобласть","NAME_2":"Gusev","VARNAME_2":"NA","NL_NAME_2":"Гусев","TYPE_2":"Gorod","ENGTYPE_2":"City","CC_2":"NA","HASC_2":"RU.KN.GG"}},{"type":"MultiPolygon","arcs":[[[-8,31,32,33,34],[-31]]],"properties":{"GID_2":"RUS.21.6_1","GID_0":"RUS","COUNTRY":"Russia","GID_1":"RUS.21_1","NAME_1":"Kaliningrad","NL_NAME_1":"Калининградскаяобласть","NAME_2":"Gusevskiyrayon","VARNAME_2":"NA","NL_NAME_2":"Гусевскийрайон","TYPE_2":"Raion","ENGTYPE_2":"District","CC_2":"R72000","HASC_2":"RU.KN.GR"}},{"type":"MultiPolygon","arcs":[[[35,-14,36,37,38,-29,39]]],"properties":{"GID_2":"RUS.21.7_1","GID_0":"RUS","COUNTRY":"Russia","GID_1":"RUS.21_1","NAME_1":"Kaliningrad","NL_NAME_1":"Калининградскаяобласть","NAME_2":"Gvardeyskiyrayon","VARNAME_2":"NA","NL_NAME_2":"Гвардейскийрайон","TYPE_2":"Raion","ENGTYPE_2":"District","CC_2":"R72000","HASC_2":"RU.KN.GV"}},{"type":"MultiPolygon","arcs":[[[40,41,-33,42]]],"properties":{"GID_2":"RUS.21.8_1","GID_0":"RUS","COUNTRY":"Russia","GID_1":"RUS.21_1","NAME_1":"Kaliningrad","NL_NAME_1":"Калининградскаяобласть","NAME_2":"Krasnoznamenskiyrayon","VARNAME_2":"NA","NL_NAME_2":"Краснознаменскийрайон","TYPE_2":"Raion","ENGTYPE_2":"District","CC_2":"R72000","HASC_2":"RU.KN.KR"}},{"type":"MultiPolygon","arcs":[[[43]]],"properties":{"GID_2":"RUS.21.9_1","GID_0":"RUS","COUNTRY":"Russia","GID_1":"RUS.21_1","NAME_1":"Kaliningrad","NL_NAME_1":"Калининградскаяобласть","NAME_2":"Neman","VARNAME_2":"NA","NL_NAME_2":"Неман","TYPE_2":"Gorod","ENGTYPE_2":"City","CC_2":"NA","HASC_2":"RU.KN.NG"}},{"type":"MultiPolygon","arcs":[[[-43,-32,-17,44,45,46,47,48],[-44]]],"properties":{"GID_2":"RUS.21.10_1","GID_0":"RUS","COUNTRY":"Russia","GID_1":"RUS.21_1","NAME_1":"Kaliningrad","NL_NAME_1":"Калининградскаяобласть","NAME_2":"Nemanskiyrayon","VARNAME_2":"NA","NL_NAME_2":"Неманскийрайон","TYPE_2":"Raion","ENGTYPE_2":"District","CC_2":"R72000","HASC_2":"RU.KN.NR"}},{"type":"MultiPolygon","arcs":[[[49,-34,-42,50]]],"properties":{"GID_2":"RUS.21.11_1","GID_0":"RUS","COUNTRY":"Russia","GID_1":"RUS.21_1","NAME_1":"Kaliningrad","NL_NAME_1":"Калининградскаяобласть","NAME_2":"Nesterovskiyrayon","VARNAME_2":"NA","NL_NAME_2":"Нестеровскийрайон","TYPE_2":"Raion","ENGTYPE_2":"District","CC_2":"R72000","HASC_2":"RU.KN.NE"}},{"type":"MultiPolygon","arcs":[[[51,52,53,54,-9,-35,-50,55,56]]],"properties":{"GID_2":"RUS.21.12_1","GID_0":"RUS","COUNTRY":"Russia","GID_1":"RUS.21_1","NAME_1":"Kaliningrad","NL_NAME_1":"Калининградскаяобласть","NAME_2":"Ozerskiyrayon","VARNAME_2":"NA","NL_NAME_2":"Озерскийрайон","TYPE_2":"Raion","ENGTYPE_2":"District","CC_2":"R72000","HASC_2":"RU.KN.OZ"}},{"type":"MultiPolygon","arcs":[[[57,-40,-28,58,59]]],"properties":{"GID_2":"RUS.21.13_1","GID_0":"RUS","COUNTRY":"Russia","GID_1":"RUS.21_1","NAME_1":"Kaliningrad","NL_NAME_1":"Калининградскаяобласть","NAME_2":"Polesskiyrayon","VARNAME_2":"NA","NL_NAME_2":"Полесскийрайон","TYPE_2":"Raion","ENGTYPE_2":"District","CC_2":"R72001","HASC_2":"RU.KN.PO"}},{"type":"MultiPolygon","arcs":[[[-4,-39,60,-37,-13,61,-52,62]]],"properties":{"GID_2":"RUS.21.14_1","GID_0":"RUS","COUNTRY":"Russia","GID_1":"RUS.21_1","NAME_1":"Kaliningrad","NL_NAME_1":"Калининградскаяобласть","NAME_2":"Pravdinskiyrayon","VARNAME_2":"NA","NL_NAME_2":"Правдинскийрайон","TYPE_2":"Raion","ENGTYPE_2":"District","CC_2":"R72001","HASC_2":"RU.KN.PR"}},{"type":"MultiPolygon","arcs":[[[63,-45,-16,-60,64]]],"properties":{"GID_2":"RUS.21.15_1","GID_0":"RUS","COUNTRY":"Russia","GID_1":"RUS.21_1","NAME_1":"Kaliningrad","NL_NAME_1":"Калининградскаяобласть","NAME_2":"Slavskiyrayon","VARNAME_2":"NA","NL_NAME_2":"Славскийрайон","TYPE_2":"Raion","ENGTYPE_2":"District","CC_2":"R72001","HASC_2":"RU.KN.SL"}},{"type":"MultiPolygon","arcs":[[[-47,65]]],"properties":{"GID_2":"RUS.21.16_1","GID_0":"RUS","COUNTRY":"Russia","GID_1":"RUS.21_1","NAME_1":"Kaliningrad","NL_NAME_1":"Калининградскаяобласть","NAME_2":"Sovetsk","VARNAME_2":"Sovietsk","NL_NAME_2":"Советск","TYPE_2":"Gorod","ENGTYPE_2":"City","CC_2":"NA","HASC_2":"RU.KN.SO"}},{"type":"MultiPolygon","arcs":[[[66]],[[67]],[[68]],[[69]],[[70]],[[-26,71]]],"properties":{"GID_2":"RUS.21.17_1","GID_0":"RUS","COUNTRY":"Russia","GID_1":"RUS.21_1","NAME_1":"Kaliningrad","NL_NAME_1":"Калининградскаяобласть","NAME_2":"Svetlogorsk","VARNAME_2":"NA","NL_NAME_2":"Светлогорск","TYPE_2":"Gorsovet","ENGTYPE_2":"District","CC_2":"NA","HASC_2":"RU.KN.SG"}}]}},"arcs":[[[831184,28895],[3692,411],[1323,-103],[-5015,-308]],[[200227,299331],[35197,-5552],[13907,19537],[29505,-926]],[[278836,312390],[66486,-54498]],[[345322,257892],[-831,-34242],[-10338,-30334]],[[334153,193316],[-2092,-141080],[-27905,-2776],[-14491,12031],[-77531,23753],[-5692,1131],[4369,-6684],[-164477,41954],[11445,34036],[33843,29717],[6646,29409],[1200,26530],[8399,24884],[10583,-4010],[10092,-25090],[21352,25090],[10276,26529],[29905,21183],[10152,-10592]],[[117435,419845],[-184,0],[492,-205],[-308,205]],[[682398,305912],[-2800,2262],[2677,2674],[123,-4936]],[[763252,482467],[-4738,-59742],[-37351,12030],[8615,-74961],[9784,-28380],[-677,-27250],[-18491,-63650]],[[720394,240514],[-33166,12648],[-646,-19229],[-5138,-19434]],[[681444,214499],[-60548,-27250]],[[620896,187249],[-29567,1645],[-12952,7096]],[[578377,195990],[-33474,59845]],[[544903,255835],[-7938,26324]],[[536965,282159],[6738,33625],[-9722,35681],[3415,20771]],[[537396,372236],[38304,97995]],[[575700,470231],[42704,-63342],[22336,20566],[-6307,33007],[24798,30643]],[[659231,491105],[31166,-2468],[15445,10694],[14583,23445],[42827,-40309]],[[224379,381593],[-9014,-5141],[4953,4627],[4061,514]],[[168538,378200],[15537,-1748],[-19137,823],[-8553,-11620],[12153,12545]],[[215026,375629],[-3261,-2879],[-2554,1131],[5815,1748]],[[203783,375030],[-48,-18],[-336,41]],[[203399,375053],[384,-23]],[[203783,375030],[3367,1216],[338,-1439],[-3705,223]],[[203399,375053],[-18124,1091],[3938,617],[14186,-1708]],[[200227,299331],[-10029,10592],[14737,23136],[-2400,3085],[8092,17789],[4399,2262],[-3415,-9152],[6646,-4627],[12491,15527],[-5815,8226],[-154,13471],[16214,1439],[6492,11414],[3261,-2571],[-2554,3085],[2031,3702],[5661,309],[-4615,3187],[-9076,-14087],[-19998,0],[-10584,-9049],[-17783,6273],[-6492,-5759],[-2215,8021],[-8214,-4833],[-4800,5964],[-15875,-16864],[1599,56144],[2462,17069]],[[160293,443084],[20182,-4730],[28059,8227],[5231,18920],[21721,9460],[14029,-3702],[3508,12751],[-985,12339],[-10645,16247],[26828,51619],[27813,-6786],[1723,21799],[-2769,21594]],[[294988,600822],[22275,35578],[14337,-6581],[22029,15939],[11814,-17584],[8030,-25501],[6830,-3702],[4277,6581],[15721,-8535],[-11045,-64267]],[[389256,532750],[16675,-25090]],[[405931,507660],[-615,-50180],[-14768,412],[-13599,-66633],[-18121,-12442],[-15506,-72699],[2000,-48226]],[[345322,257892],[-10123,8329],[-56363,46169]],[[817585,282262],[-1138,4216],[1938,-823],[-800,-3393]],[[763252,482467],[10245,15116],[18337,64062]],[[791834,561645],[15721,-21388],[-1169,-38972],[-14183,-55733],[14153,-28175],[10614,-9254],[20613,14087],[64641,-8534]],[[902224,413676],[-25875,-25502],[-6399,-42467],[-308,-35887],[-8153,-57172],[-26767,-96658]],[[834722,155990],[-94514,27352],[-12368,10797],[-7446,46375]],[[558594,429203],[-21198,-56967]],[[536965,282159],[-13660,-27763]],[[523305,254396],[-33812,-22725],[-26736,-4936]],[[462757,226735],[-30674,37224],[-18275,11311],[-25014,-6581],[-16583,9768],[-11352,-2262],[-15537,-18303]],[[405931,507660],[15507,-12545],[24243,11311],[9600,-3907],[-2277,-48741],[3507,-10694],[5231,-12133],[30335,-21183],[7907,-2468],[17752,59640],[9538,3908],[23444,-39075],[7876,-2570]],[[786419,762467],[18091,8123],[28889,-1953],[39197,-16555],[8829,4010],[10000,17789],[12121,3702],[4554,-14190],[4092,-37327],[9260,-19229],[2031,-18611],[4984,-14294],[3538,2366],[31,12339],[3600,3290],[3076,-14087],[6215,-514],[6923,-14396],[2953,-18406],[6277,-823],[953,-6786],[-3230,-6993],[1138,-9151],[5969,7506],[4092,-17686],[7599,1028],[11414,-11825],[1969,-18715],[-4399,-16041],[6307,-7198],[431,-21697],[3876,-1850],[277,-18509],[2523,-6273],[-3538,-8637],[2030,-17584],[-7199,617],[-5261,-22725],[-4830,-823],[-5046,-12236],[-12030,-3702],[-215,-9152],[-9937,-17789],[-1877,4319],[2430,9974]],[[954526,431773],[-18152,-12030],[-34150,-6067]],[[791834,561645],[22121,37018],[-1139,20874],[-18306,11619],[-2768,14293],[3322,21080],[-11814,53779],[3169,42159]],[[735378,740668],[-1785,1439],[2400,1234],[-615,-2673]],[[659231,491105],[10060,31054],[3323,28894],[-5661,44422],[-28797,43599],[-1846,24987],[2923,44936],[13568,36195],[3230,28895]],[[656031,774087],[6184,24781],[15383,-50900]],[[677598,747968],[15414,23239],[-9353,22314]],[[683659,793521],[-21075,6787]],[[662584,800308],[28921,-5759],[16675,-13573],[29044,7609],[2276,-9357],[-2861,-29614],[2369,-2777],[-123,-9254],[8307,-9460],[13229,411],[7630,25810],[18368,8123]],[[834968,29306],[2154,68277],[-2400,58407]],[[954526,431773],[-1353,-14190],[-4615,-31979],[4768,-412],[2185,-9460],[-2769,-18303],[4584,-9563],[-369,-18509],[-2585,-9049],[-4768,411],[-2831,-22930],[-4769,411],[-5138,-18200],[6769,-19023],[-277,-13779],[-5138,-18715],[-184,-23547],[3261,-59435],[9291,-9974],[11353,-74962],[7476,-9151],[-6461,-8946],[-127988,-13162]],[[600898,62108],[-12891,113830]],[[588007,175938],[-9630,20052]],[[578377,195990],[42519,-8741]],[[620896,187249],[23475,7609],[37073,19641]],[[834968,29306],[-3784,-411]],[[831184,28895],[16645,-515],[-79901,-9563],[-174076,-12647],[7046,55938]],[[575700,470231],[-17106,-41028]],[[389256,532750],[11199,63753],[15414,-8432],[7538,10078],[6645,-6890],[6092,8535],[8091,-9358],[4277,14499],[6646,-2262],[31812,25501],[4953,11620],[2216,22313],[-2400,16864],[-4431,5964],[1169,11105],[-5261,10900],[2554,14293],[-3938,48843]],[[481832,770076],[11045,-2468],[27198,-32493],[15260,-70951],[9660,-27352],[1969,-25296],[6954,-13367],[40796,-29615],[-800,-11311],[-20121,-69717],[1907,-17275]],[[462757,226735],[13045,823],[47503,26838]],[[544903,255835],[43104,-79897]],[[600898,62108],[-7815,-58201],[-38181,-3907],[-173430,34859],[1538,6478],[-49472,10694],[-1846,77326],[2461,63959]],[[662584,800308],[-6553,-26221]],[[481832,770076],[-8553,107044],[-677,26015],[2738,4319],[-2400,4319],[12153,4010],[1539,-3188],[-3077,-4010],[1877,-13367],[10583,10797],[10276,-12545],[-8891,11413],[6676,10592],[3046,21079],[-2369,12031],[-2031,5142],[21844,39280],[12676,6992],[9045,-17069],[11507,-55939],[9599,-9665],[4615,-18715],[7199,-4730],[7384,13573],[9723,-617],[2276,-9254],[19322,-5553],[30643,-61697],[21844,-5758],[9107,-22211],[11999,-6581],[-28921,4525]],[[677598,747968],[-15291,51311],[21352,-5758]],[[72455,330488],[2923,-7198],[0,-7403],[-3754,-5450],[2215,-11106],[-8707,-7403],[-14552,-47918],[-10584,-15218],[0,-12545],[-11106,-24268],[-862,-9151],[-24428,-40000],[-3600,2879],[52641,119897],[19814,64884]],[[94360,323907],[-11814,-2879],[5815,3188],[5999,-309]],[[110236,328226],[-14183,-3393],[15721,4216],[-1538,-823]],[[109897,331311],[677,-823],[-9722,-925],[9045,1748]],[[155555,362982],[-14553,-26530],[-4092,2879],[18645,23651]],[[160293,443084],[-4123,-72904],[-12245,-24885],[-7538,-3702],[339,7198],[-6984,12237],[-185,30334],[-5969,25399],[-14706,4010],[-7015,-3702],[-8553,-23239],[-1692,-46478],[7169,-16864],[-19998,-4627],[-9230,14087],[4092,1954],[10768,36298],[14029,83702],[523,38560],[-3784,19126],[-338,23959],[-5631,13676],[862,35784],[-2061,1131],[5476,33419],[9568,33419],[17783,-15424],[30090,-2365],[23228,16041],[6492,-4833],[12830,8535],[8214,-20257],[19291,-6273],[42057,31363],[24798,32596],[30920,58303],[84515,226735],[13784,-12236],[-14214,-12339],[-2215,-15939],[-9384,-12545],[-10768,-32596],[-708,-10591],[-8184,-17995],[3415,-14807],[-19321,-24062],[-28213,-72185],[-19290,-27146],[-7200,-17481],[185,-6787],[-12645,-24061],[-13168,-7404],[-677,-17995],[-10614,-8329],[6338,1543],[4768,-9255],[-2892,8329],[2585,1748],[3046,-10283],[11814,-11208],[3907,7198],[23598,-2262],[-22244,-35887]]],"bbox":[19.6425,54.3182,22.8928,55.2907],"transform":{"scale":[0.0000032503032503032532,9.725009725009763e-7],"translate":[19.6425,54.3182]}}