{"type":"Topology","objects":{"muni":{"type":"GeometryCollection","geometries":[{"type":"MultiPolygon","arcs":[[[0,1,2,3,4]]],"properties":{"GID_2":"RUS.22.1_1","GID_0":"RUS","COUNTRY":"Russia","GID_1":"RUS.22_1","NAME_1":"Kalmyk","NL_NAME_1":"РеспубликаКалмыкия","NAME_2":"Chernozermel'skiyrayon","VARNAME_2":"NA","NL_NAME_2":"Черноземельскийрайон","TYPE_2":"Raion","ENGTYPE_2":"District","CC_2":"R31001","HASC_2":"RU.KL.CH"}},{"type":"MultiPolygon","arcs":[[[5]]],"properties":{"GID_2":"RUS.22.2_1","GID_0":"RUS","COUNTRY":"Russia","GID_1":"RUS.22_1","NAME_1":"Kalmyk","NL_NAME_1":"РеспубликаКалмыкия","NAME_2":"Elista","VARNAME_2":"NA","NL_NAME_2":"Элиста","TYPE_2":"Gorsovet","ENGTYPE_2":"District","CC_2":"NA","HASC_2":"RU.KL.EL"}},{"type":"MultiPolygon","arcs":[[[6,7]]],"properties":{"GID_2":"RUS.22.3_1","GID_0":"RUS","COUNTRY":"Russia","GID_1":"RUS.22_1","NAME_1":"Kalmyk","NL_NAME_1":"РеспубликаКалмыкия","NAME_2":"Gorodovikovskiyrayon","VARNAME_2":"NA","NL_NAME_2":"Городовиковскийрайон","TYPE_2":"Raion","ENGTYPE_2":"District","CC_2":"R31000","HASC_2":"RU.KL.GR"}},{"type":"MultiPolygon","arcs":[[[-3,8,9,10,11,12]]],"properties":{"GID_2":"RUS.22.4_1","GID_0":"RUS","COUNTRY":"Russia","GID_1":"RUS.22_1","NAME_1":"Kalmyk","NL_NAME_1":"РеспубликаКалмыкия","NAME_2":"Iki-Burul'skiyrayon","VARNAME_2":"NA","NL_NAME_2":"Ики-Бурульскийрайон","TYPE_2":"Raion","ENGTYPE_2":"District","CC_2":"R31000","HASC_2":"RU.KL.IK"}},{"type":"MultiPolygon","arcs":[[[13,14,15,16,17,18,19,20]]],"properties":{"GID_2":"RUS.22.5_1","GID_0":"RUS","COUNTRY":"Russia","GID_1":"RUS.22_1","NAME_1":"Kalmyk","NL_NAME_1":"РеспубликаКалмыкия","NAME_2":"Ketchenerovskiyrayon","VARNAME_2":"Priozeroskiy","NL_NAME_2":"Кетченеровскийрайон","TYPE_2":"Raion","ENGTYPE_2":"District","CC_2":"R31000","HASC_2":"RU.KL.KE"}},{"type":"MultiPolygon","arcs":[[[-1,21]]],"properties":{"GID_2":"RUS.22.6_1","GID_0":"RUS","COUNTRY":"Russia","GID_1":"RUS.22_1","NAME_1":"Kalmyk","NL_NAME_1":"РеспубликаКалмыкия","NAME_2":"Laganskiyrayon","VARNAME_2":"Kaspiyskiy","NL_NAME_2":"Лаганскийрайон","TYPE_2":"Raion","ENGTYPE_2":"District","CC_2":"R31000","HASC_2":"RU.KL.LA"}},{"type":"MultiPolygon","arcs":[[[22,-14,23,24]]],"properties":{"GID_2":"RUS.22.7_1","GID_0":"RUS","COUNTRY":"Russia","GID_1":"RUS.22_1","NAME_1":"Kalmyk","NL_NAME_1":"РеспубликаКалмыкия","NAME_2":"Maloderbetovskiyrayon","VARNAME_2":"NA","NL_NAME_2":"Малодербетовскийрайон","TYPE_2":"Raion","ENGTYPE_2":"District","CC_2":"R31000","HASC_2":"RU.KL.MA"}},{"type":"MultiPolygon","arcs":[[[25,26,-15,-23]]],"properties":{"GID_2":"RUS.22.8_1","GID_0":"RUS","COUNTRY":"Russia","GID_1":"RUS.22_1","NAME_1":"Kalmyk","NL_NAME_1":"РеспубликаКалмыкия","NAME_2":"Oktyabr'skiy","VARNAME_2":"NA","NL_NAME_2":"Октябрьскийрайон","TYPE_2":"Raion","ENGTYPE_2":"District","CC_2":"R31000","HASC_2":"RU.KL.OK"}},{"type":"MultiPolygon","arcs":[[[-10,27,28,29,30,31]]],"properties":{"GID_2":"RUS.22.9_1","GID_0":"RUS","COUNTRY":"Russia","GID_1":"RUS.22_1","NAME_1":"Kalmyk","NL_NAME_1":"РеспубликаКалмыкия","NAME_2":"Priyutnenskiyrayon","VARNAME_2":"NA","NL_NAME_2":"Приютненскийрайон","TYPE_2":"Raion","ENGTYPE_2":"District","CC_2":"R31000","HASC_2":"RU.KL.PR"}},{"type":"MultiPolygon","arcs":[[[-21,32,-24]]],"properties":{"GID_2":"RUS.22.10_1","GID_0":"RUS","COUNTRY":"Russia","GID_1":"RUS.22_1","NAME_1":"Kalmyk","NL_NAME_1":"РеспубликаКалмыкия","NAME_2":"Sarpinskiyrayon","VARNAME_2":"NA","NL_NAME_2":"Сарпинскийрайон","TYPE_2":"Raion","ENGTYPE_2":"District","CC_2":"R31000","HASC_2":"RU.KL.SA"}},{"type":"MultiPolygon","arcs":[[[-12,33,-31,34,-19,35,36],[-6]]],"properties":{"GID_2":"RUS.22.11_1","GID_0":"RUS","COUNTRY":"Russia","GID_1":"RUS.22_1","NAME_1":"Kalmyk","NL_NAME_1":"РеспубликаКалмыкия","NAME_2":"Tselinnyyrayon","VARNAME_2":"NA","NL_NAME_2":"Целинныйрайон","TYPE_2":"Raion","ENGTYPE_2":"District","CC_2":"R31000","HASC_2":"RU.KL.TS"}},{"type":"MultiPolygon","arcs":[[[-7,37,-29,38]]],"properties":{"GID_2":"RUS.22.12_1","GID_0":"RUS","COUNTRY":"Russia","GID_1":"RUS.22_1","NAME_1":"Kalmyk","NL_NAME_1":"РеспубликаКалмыкия","NAME_2":"Yashaltinskiyrayon","VARNAME_2":"NA","NL_NAME_2":"Яшалтинскийрайон","TYPE_2":"Raion","ENGTYPE_2":"District","CC_2":"R31001","HASC_2":"RU.KL.YA"}},{"type":"MultiPolygon","arcs":[[[39,-4,-13,-37,40,-17,41]]],"properties":{"GID_2":"RUS.22.13_1","GID_0":"RUS","COUNTRY":"Russia","GID_1":"RUS.22_1","NAME_1":"Kalmyk","NL_NAME_1":"РеспубликаКалмыкия","NAME_2":"Yashkul'skiyrayon","VARNAME_2":"NA","NL_NAME_2":"Яшкульскийрайон","TYPE_2":"Raion","ENGTYPE_2":"District","CC_2":"R31001","HASC_2":"RU.KL.YK"}},{"type":"MultiPolygon","arcs":[[[-42,-16,-27,42]]],"properties":{"GID_2":"RUS.22.14_1","GID_0":"RUS","COUNTRY":"Russia","GID_1":"RUS.22_1","NAME_1":"Kalmyk","NL_NAME_1":"РеспубликаКалмыкия","NAME_2":"Yustinskiyrayon","VARNAME_2":"NA","NL_NAME_2":"Юстинскийрайон","TYPE_2":"Raion","ENGTYPE_2":"District","CC_2":"R31001","HASC_2":"RU.KL.YU"}}]}},"arcs":[[[881925,228737],[-8346,-26236],[-3254,-30415],[-911,-48412],[-3203,-30327],[-7520,-27463],[-1905,-15398],[6777,-7421],[-1635,-17150],[-8633,-4061],[-9678,-13410]],[[843617,8444],[-8784,6486],[-10538,3330],[-17990,22439],[-10133,6837],[-93930,18873],[-20047,-7625],[-12595,18553],[-10049,22000],[-12932,12183]],[[646619,111520],[7941,20043],[-1012,4470],[-13893,7771],[-6575,8824],[9998,23870],[5800,18991],[320,10547],[-18799,11862],[12780,42598],[4586,22058],[-3456,13645],[-12696,5229]],[[631613,301428],[-2731,44906],[36587,-5843],[15225,-8297],[11735,9992],[6036,-10664],[28039,-15135],[31310,9876],[8447,-10665],[22593,-847],[6812,11365],[7840,-8414],[34092,7304],[-9981,32869],[-3558,16829],[658,11453],[13454,27434],[-17062,23257],[14449,5931]],[[835558,442779],[-2259,-6077],[23689,-16479],[19373,-1869],[7199,-12388],[1163,-9204],[-3102,-11365],[2951,-9992],[7165,-6223],[30231,11394],[16912,935],[5429,-11686],[-3676,-13615],[-9796,-14901],[-6137,-13498],[-11314,-39150],[-9442,-23198],[-9155,-20481],[-12864,-16245]],[[459855,467233],[-9156,-30064],[-20249,877],[-4755,29479],[24819,3535],[9341,-3827]],[[88653,449878],[-1990,-10255],[-4856,-4850],[-1500,-12095],[4991,-1490],[5816,-10343],[3052,-17033]],[[94166,393812],[-4114,-731],[-1922,-10664],[6677,-10255],[-10184,-11716],[3305,-22059],[-6626,-3272],[-8448,351],[-4501,2191],[-12157,13995],[-5496,1928],[-11651,2513],[-29051,847],[3035,11570],[-2141,8151],[-10892,22439],[6205,10547],[7739,6106],[6272,146],[8363,-9875],[8312,-2659],[17080,15339],[1500,7801],[-4552,7304],[1028,11658],[10049,8063],[6255,2455],[10336,-5026],[10066,-1081]],[[646619,111520],[-67628,42072],[-24920,11424],[-5513,5814],[-2428,8823],[-5210,2864],[-46923,11248],[-13758,4645],[-13522,8999],[-9341,8619],[-20570,27902],[-16321,30882],[-7182,27668],[-11348,15485],[-5564,2688]],[[396391,320653],[9257,23256],[11937,16186],[-5614,9408],[6794,8006],[7402,58],[-2293,15689],[2630,48208]],[[426504,441464],[11230,-13118]],[[437734,428346],[2815,-7743],[-7435,-14783],[3591,-8561],[14163,2396],[13151,-2250],[17080,-9992],[18985,4003],[16506,6983]],[[516590,398399],[21076,-6048],[7688,-25974],[2277,-28369],[11009,-12154],[30704,19429],[16337,-20452],[-7351,-24425],[7183,-6048],[26100,7070]],[[547900,829666],[19811,-7976]],[[567711,821690],[38308,-24951],[11465,-10372],[17029,-7976],[4502,-9730],[-3457,-19692],[-9138,-14491],[-6525,-20510],[2529,-3010]],[[622424,710958],[-9745,-53934],[-321,-18961],[-5850,-24367],[-5413,-11453]],[[601095,602243],[-22441,1344]],[[578654,603587],[-7975,-44117]],[[570679,559470],[-15175,10576],[-5429,-11423],[-37413,17501],[12493,35644],[-16337,-4529],[-25443,1607],[-21093,2396],[-19254,8853]],[[443028,620095],[1382,5025],[-2799,17150],[1619,12563],[8768,23490],[2680,18232],[3895,50428],[-2006,16040]],[[456567,763023],[8852,8502],[10773,5259],[14450,12738],[7739,-2951],[13117,-16390],[3170,759],[13590,21095],[1618,14228],[6761,12797],[6981,818],[4282,9788]],[[881925,228737],[32574,2104],[18294,-3594],[7537,1753],[5547,6223],[16911,6107],[24835,-7860],[8970,702],[2192,-5493],[-13117,-7304],[-1400,-14024],[7301,-11249],[8430,-5697],[-3490,-27055],[-5766,-17384],[1163,-24045],[-5648,-30064],[-6171,906],[-16574,31758],[-2276,-3184],[2411,-10489],[8835,-24221],[-9257,-5142],[3355,-13673],[-13083,-23286],[-6273,6837],[-3759,-2484],[-5379,-18669],[-18783,-30210],[-6457,5726],[-4940,11366],[-12511,-17004],[-2512,10313],[-10487,3097],[-10015,-8853],[-14838,-3535],[-13927,7334]],[[694975,918338],[-28747,-11102],[-11921,-1023],[-14736,30123],[-45641,7888],[6525,-17617],[84,-8911],[-13000,-26266],[8566,-24425],[-11061,-21124],[-17333,-24191]],[[547900,829666],[2883,15718],[-2225,20072],[-6019,18494],[-7031,643],[-9375,-11277],[-3894,2921],[1635,18524],[-52588,15251]],[[471286,910012],[9408,15601],[5581,14024],[-6474,7188],[-27028,12475],[4283,22643],[5024,11774],[7621,6048],[7689,234],[23739,-10255],[-4839,-29363],[5834,-7918],[8936,1695],[15849,11365],[8380,-10810],[13387,1052],[10757,6866],[-691,8064],[-5784,6457],[4401,9641],[15259,380],[13404,-6252],[10217,-8590],[10167,-2717],[5699,876],[6289,6048],[13995,-10021],[17838,-21767],[10133,-7187],[15680,7041],[15714,-6311],[3170,-11044],[51,-8911]],[[694975,918338],[-7453,-13556],[1973,-14112],[10639,-7947],[11954,-27347],[11803,-9378],[3760,-11920],[17551,-20131]],[[745202,813947],[-41780,-36287],[8902,-33044],[-13319,-18523],[5075,-13557],[-22712,-5814],[-44579,672],[-14365,3564]],[[396391,320653],[-12915,7567],[-35036,14755],[-25240,-380],[-14601,5259],[-21548,25593],[-18985,11862],[-21582,7597],[-13926,7392],[-5463,5989],[-6138,11395],[-6069,1373]],[[214888,419055],[-1922,6398],[-7284,9466],[-11027,6516],[-11870,12680]],[[182785,454115],[23824,13323],[8633,3096],[8447,-876],[17990,-16069],[41578,-47594],[13742,-7071],[14398,-3126],[11027,-175],[11651,4178],[6542,9583],[4957,12037],[2714,19722],[7571,16828],[2074,11629],[11971,-11804],[1551,-6691],[-776,-14608]],[[370679,436497],[-4215,-18845],[14112,-16215],[15107,20043],[3322,-2367],[24869,25448]],[[423874,444561],[2630,-3097]],[[456567,763023],[320,12680],[-3170,7654],[-4501,3915],[-11348,2016],[4553,11249],[-5901,5288],[-7925,-2279],[-5429,-4528],[-540,-25361],[-22643,-7450],[-6475,-6311],[-4383,-8881],[-1805,-7831],[827,-9699],[-1248,-5493],[-8548,409],[-13944,8122],[-1720,3331],[304,10635],[-3153,13556],[-11179,19371],[860,8473],[-3456,17091],[640,22702],[5666,13995],[17585,16916],[19727,8327],[13994,10313],[-2664,8648],[2394,14521],[8228,8152],[8953,1665],[13607,-10693],[11617,-4208],[16000,994],[9476,9700]],[[437734,428346],[-13860,16215]],[[370679,436497],[18024,11424],[3692,7655],[-11347,26937],[-1112,8736],[1197,8298],[6086,14929],[-9728,1344],[-9881,7100],[15967,23403],[4384,17792],[15579,16654],[8818,14784],[4452,1840],[5833,-2600],[19154,20890],[1231,4412]],[[570679,559470],[-3355,-24367]],[[567324,535103],[-5885,-21357],[-354,-17530],[-5530,-3827],[-14888,-3068],[-2293,-12213],[-303,-20598],[-4721,-16799],[6896,-5347],[-1113,-9174],[-12325,-4587],[-10218,-22204]],[[88653,449878],[5361,4237],[2867,5171],[-4418,11248],[-15309,23403],[-7773,23432],[3979,4733],[27179,-11015],[32356,-18961],[18310,-22468],[13017,-9554],[18563,-5989]],[[214888,419055],[-6390,-4763],[-6745,-9904],[-7924,-23578],[-20115,-5142],[-4400,-8531],[-17434,-14872],[-13927,-3622],[-25830,-2718],[-2681,5230],[3777,12885],[2141,24396],[-16861,6018],[-4333,-642]],[[853953,465597],[-10336,-9817],[-6069,-7596],[-1990,-5405]],[[567324,535103],[11330,68484]],[[601095,602243],[1315,-4558],[16136,-1373],[25898,4879],[12359,-1344],[10605,-9787],[24599,4938],[3558,9203],[23352,1928],[5648,-8297],[-13893,-20890],[12140,-43446],[13437,4734],[16659,-15953],[10925,10840],[20503,26295],[34142,-2951],[1889,-6954],[36857,-13001],[1281,-7743],[-14028,-6661],[-1719,-14638],[-7234,-13790],[22003,-5025],[-3574,-23052]],[[745202,813947],[19390,-23782],[31108,-23753],[5985,4820],[40533,55278],[8329,2075],[10589,-3711],[6862,-8589],[-1096,-5581],[-4603,-5405],[-21818,-11424],[-15916,-20013],[-3490,-9379],[8885,-28983],[46940,-92558],[13050,-6048],[5042,-9524],[6963,-19663],[7385,-4996],[10976,2571],[6761,-8765],[7941,-19575],[9071,-11892],[-5395,-14374],[-1214,-10664],[-6019,-7451],[-22340,-7625],[-9678,-18144],[-2411,-19896],[607,-11541],[-32744,-2279],[-10942,-7479]]],"bbox":[41.6634,44.7884,47.5944,48.2111],"transform":{"scale":[0.000005931005931005928,0.0000034227034227034217],"translate":[41.6634,44.7884]}}