{"type":"Topology","objects":{"muni":{"type":"GeometryCollection","geometries":[{"type":"MultiPolygon","arcs":[[[0,1,2,3,4,5,6,7]]],"properties":{"GID_2":"RUS.23.1_1","GID_0":"RUS","COUNTRY":"Russia","GID_1":"RUS.23_1","NAME_1":"Kaluga","NL_NAME_1":"Калужскаяобласть","NAME_2":"Babyninskiyrayon","VARNAME_2":"NA","NL_NAME_2":"Бабынинскийрайон","TYPE_2":"Raion","ENGTYPE_2":"District","CC_2":"R12000","HASC_2":"RU.KG.BB"}},{"type":"MultiPolygon","arcs":[[[8,9,10,11,12]]],"properties":{"GID_2":"RUS.23.2_1","GID_0":"RUS","COUNTRY":"Russia","GID_1":"RUS.23_1","NAME_1":"Kaluga","NL_NAME_1":"Калужскаяобласть","NAME_2":"Baryatinskiyrayon","VARNAME_2":"NA","NL_NAME_2":"Барятинскийрайон","TYPE_2":"Raion","ENGTYPE_2":"District","CC_2":"R12000","HASC_2":"RU.KG.BR"}},{"type":"MultiPolygon","arcs":[[[13,14,15,16,17],[18]]],"properties":{"GID_2":"RUS.23.3_1","GID_0":"RUS","COUNTRY":"Russia","GID_1":"RUS.23_1","NAME_1":"Kaluga","NL_NAME_1":"Калужскаяобласть","NAME_2":"Borovskiyrayon","VARNAME_2":"NA","NL_NAME_2":"Боровскийрайон","TYPE_2":"Raion","ENGTYPE_2":"District","CC_2":"R12000","HASC_2":"RU.KG.BO"}},{"type":"MultiPolygon","arcs":[[[19,20,21,22,23,24,25]]],"properties":{"GID_2":"RUS.23.4_1","GID_0":"RUS","COUNTRY":"Russia","GID_1":"RUS.23_1","NAME_1":"Kaluga","NL_NAME_1":"Калужскаяобласть","NAME_2":"Duminichskiyrayon","VARNAME_2":"NA","NL_NAME_2":"Думиничскийрайон","TYPE_2":"Raion","ENGTYPE_2":"District","CC_2":"R12000","HASC_2":"RU.KG.DU"}},{"type":"MultiPolygon","arcs":[[[-3,26,-1,27,28,29,30,31,32,33,34,35]]],"properties":{"GID_2":"RUS.23.5_1","GID_0":"RUS","COUNTRY":"Russia","GID_1":"RUS.23_1","NAME_1":"Kaluga","NL_NAME_1":"Калужскаяобласть","NAME_2":"Dzerzhinskiyrayon","VARNAME_2":"NA","NL_NAME_2":"Дзержинскийрайон","TYPE_2":"Raion","ENGTYPE_2":"District","CC_2":"R12000","HASC_2":"RU.KG.DZ"}},{"type":"MultiPolygon","arcs":[[[36,37,38,39,40,41,42,43]]],"properties":{"GID_2":"RUS.23.6_1","GID_0":"RUS","COUNTRY":"Russia","GID_1":"RUS.23_1","NAME_1":"Kaluga","NL_NAME_1":"Калужскаяобласть","NAME_2":"Ferzikovskiyrayon","VARNAME_2":"NA","NL_NAME_2":"Ферзиковскийрайон","TYPE_2":"Raion","ENGTYPE_2":"District","CC_2":"R12002","HASC_2":"RU.KG.FE"}},{"type":"MultiPolygon","arcs":[[[44,-29,45,46,47]]],"properties":{"GID_2":"RUS.23.7_1","GID_0":"RUS","COUNTRY":"Russia","GID_1":"RUS.23_1","NAME_1":"Kaluga","NL_NAME_1":"Калужскаяобласть","NAME_2":"Iznoskovskiyrayon","VARNAME_2":"NA","NL_NAME_2":"Износковскийрайон","TYPE_2":"Raion","ENGTYPE_2":"District","CC_2":"R12000","HASC_2":"RU.KG.IZ"}},{"type":"MultiPolygon","arcs":[[[-4,-36,48,49,-41,50,-39,51,52]]],"properties":{"GID_2":"RUS.23.8_1","GID_0":"RUS","COUNTRY":"Russia","GID_1":"RUS.23_1","NAME_1":"Kaluga","NL_NAME_1":"Калужскаяобласть","NAME_2":"Kalugagorsovet","VARNAME_2":"Kaluga","NL_NAME_2":"Калуга(горсовет)","TYPE_2":"Gorsovet","ENGTYPE_2":"District","CC_2":"R12002","HASC_2":"RU.KG.KA"}},{"type":"MultiPolygon","arcs":[[[53,54,55,56]]],"properties":{"GID_2":"RUS.23.9_1","GID_0":"RUS","COUNTRY":"Russia","GID_1":"RUS.23_1","NAME_1":"Kaluga","NL_NAME_1":"Калужскаяобласть","NAME_2":"Khvastovichskiyrayon","VARNAME_2":"NA","NL_NAME_2":"Хвастовичскийрайон","TYPE_2":"Raion","ENGTYPE_2":"District","CC_2":"R12002","HASC_2":"RU.KG.KH"}},{"type":"MultiPolygon","arcs":[[[57]]],"properties":{"GID_2":"RUS.23.10_1","GID_0":"RUS","COUNTRY":"Russia","GID_1":"RUS.23_1","NAME_1":"Kaluga","NL_NAME_1":"Калужскаяобласть","NAME_2":"Kirov","VARNAME_2":"NA","NL_NAME_2":"Киров","TYPE_2":"Gorod","ENGTYPE_2":"City","CC_2":"NA","HASC_2":"RU.KG.KG"}},{"type":"MultiPolygon","arcs":[[[-9,-23,58,59,60,61],[-58]]],"properties":{"GID_2":"RUS.23.11_1","GID_0":"RUS","COUNTRY":"Russia","GID_1":"RUS.23_1","NAME_1":"Kaluga","NL_NAME_1":"Калужскаяобласть","NAME_2":"Kirovskiyrayon","VARNAME_2":"NA","NL_NAME_2":"Кировскийрайон","TYPE_2":"Raion","ENGTYPE_2":"District","CC_2":"R12000","HASC_2":"RU.KG.KR"}},{"type":"MultiPolygon","arcs":[[[-6,62,63,64,65,66,67]]],"properties":{"GID_2":"RUS.23.12_1","GID_0":"RUS","COUNTRY":"Russia","GID_1":"RUS.23_1","NAME_1":"Kaluga","NL_NAME_1":"Калужскаяобласть","NAME_2":"Kozel'skiyrayon","VARNAME_2":"NA","NL_NAME_2":"Козельскийрайон","TYPE_2":"Raion","ENGTYPE_2":"District","CC_2":"R12001","HASC_2":"RU.KG.KO"}},{"type":"MultiPolygon","arcs":[[[68,69,70,-60,71]]],"properties":{"GID_2":"RUS.23.13_1","GID_0":"RUS","COUNTRY":"Russia","GID_1":"RUS.23_1","NAME_1":"Kaluga","NL_NAME_1":"Калужскаяобласть","NAME_2":"Kuybyshevskiyrayon","VARNAME_2":"NA","NL_NAME_2":"Куйбышевскийрайон","TYPE_2":"Raion","ENGTYPE_2":"District","CC_2":"R12001","HASC_2":"RU.KG.KU"}},{"type":"MultiPolygon","arcs":[[[72]]],"properties":{"GID_2":"RUS.23.14_1","GID_0":"RUS","COUNTRY":"Russia","GID_1":"RUS.23_1","NAME_1":"Kaluga","NL_NAME_1":"Калужскаяобласть","NAME_2":"Lyudinov","VARNAME_2":"Lyudinovo","NL_NAME_2":"Людиново","TYPE_2":"Gorod","ENGTYPE_2":"City","CC_2":"NA","HASC_2":"RU.KG.LG"}},{"type":"MultiPolygon","arcs":[[[73,-72,-59,-22,74],[-73]]],"properties":{"GID_2":"RUS.23.15_1","GID_0":"RUS","COUNTRY":"Russia","GID_1":"RUS.23_1","NAME_1":"Kaluga","NL_NAME_1":"Калужскаяобласть","NAME_2":"Lyudinovskiyrayon","VARNAME_2":"NA","NL_NAME_2":"Людиновскийрайон","TYPE_2":"Raion","ENGTYPE_2":"District","CC_2":"R12001","HASC_2":"RU.KG.LT"}},{"type":"MultiPolygon","arcs":[[[75,-15,76,77,78,79,-42,-50,80,-34,81,-32,82,83,84]]],"properties":{"GID_2":"RUS.23.16_1","GID_0":"RUS","COUNTRY":"Russia","GID_1":"RUS.23_1","NAME_1":"Kaluga","NL_NAME_1":"Калужскаяобласть","NAME_2":"Maloyaroslavetskiyrayon","VARNAME_2":"NA","NL_NAME_2":"Малоярославецкий","TYPE_2":"Raion","ENGTYPE_2":"District","CC_2":"R12001","HASC_2":"RU.KG.MA"}},{"type":"MultiPolygon","arcs":[[[85,-85,86,-83,-31,87,-48,88]]],"properties":{"GID_2":"RUS.23.17_1","GID_0":"RUS","COUNTRY":"Russia","GID_1":"RUS.23_1","NAME_1":"Kaluga","NL_NAME_1":"Калужскаяобласть","NAME_2":"Medynskiyrayon","VARNAME_2":"NA","NL_NAME_2":"Медынскийрайон","TYPE_2":"Raion","ENGTYPE_2":"District","CC_2":"R12001","HASC_2":"RU.KG.MD"}},{"type":"MultiPolygon","arcs":[[[-7,-68,89,90,91]]],"properties":{"GID_2":"RUS.23.18_1","GID_0":"RUS","COUNTRY":"Russia","GID_1":"RUS.23_1","NAME_1":"Kaluga","NL_NAME_1":"Калужскаяобласть","NAME_2":"Meshchovskiyrayon","VARNAME_2":"NA","NL_NAME_2":"Мещовскийрайон","TYPE_2":"Raion","ENGTYPE_2":"District","CC_2":"R12001","HASC_2":"RU.KG.MS"}},{"type":"MultiPolygon","arcs":[[[-12,92,93,-91]]],"properties":{"GID_2":"RUS.23.19_1","GID_0":"RUS","COUNTRY":"Russia","GID_1":"RUS.23_1","NAME_1":"Kaluga","NL_NAME_1":"Калужскаяобласть","NAME_2":"Mosal'skiyrayon","VARNAME_2":"NA","NL_NAME_2":"Мосальскийрайон","TYPE_2":"Raion","ENGTYPE_2":"District","CC_2":"R12001","HASC_2":"RU.KG.MO"}},{"type":"MultiPolygon","arcs":[[[-19]]],"properties":{"GID_2":"RUS.23.20_1","GID_0":"RUS","COUNTRY":"Russia","GID_1":"RUS.23_1","NAME_1":"Kaluga","NL_NAME_1":"Калужскаяобласть","NAME_2":"Obninsk","VARNAME_2":"NA","NL_NAME_2":"Обнинск","TYPE_2":"Gorod","ENGTYPE_2":"City","CC_2":"NA","HASC_2":"RU.KG.OB"}},{"type":"MultiPolygon","arcs":[[[-5,-53,94,-37,95,-63]]],"properties":{"GID_2":"RUS.23.21_1","GID_0":"RUS","COUNTRY":"Russia","GID_1":"RUS.23_1","NAME_1":"Kaluga","NL_NAME_1":"Калужскаяобласть","NAME_2":"Peremyshl'skiyrayon","VARNAME_2":"NA","NL_NAME_2":"Перемышльскийрайон","TYPE_2":"Raion","ENGTYPE_2":"District","CC_2":"R12001","HASC_2":"RU.KG.PE"}},{"type":"MultiPolygon","arcs":[[[-10,96,-70,97]]],"properties":{"GID_2":"RUS.23.22_1","GID_0":"RUS","COUNTRY":"Russia","GID_1":"RUS.23_1","NAME_1":"Kaluga","NL_NAME_1":"Калужскаяобласть","NAME_2":"Spas-Demenskiyrayon","VARNAME_2":"NA","NL_NAME_2":"Спас-Деменскийрайон","TYPE_2":"Raion","ENGTYPE_2":"District","CC_2":"R12001","HASC_2":"RU.KG.SP"}},{"type":"MultiPolygon","arcs":[[[-13,-90,-67,98,99,100,-24]]],"properties":{"GID_2":"RUS.23.23_1","GID_0":"RUS","COUNTRY":"Russia","GID_1":"RUS.23_1","NAME_1":"Kaluga","NL_NAME_1":"Калужскаяобласть","NAME_2":"Sukhinichskiyrayon","VARNAME_2":"NA","NL_NAME_2":"Сухиничскийрайон","TYPE_2":"Raion","ENGTYPE_2":"District","CC_2":"R12001","HASC_2":"RU.KG.SU"}},{"type":"MultiPolygon","arcs":[[[-43,-80,101,102]]],"properties":{"GID_2":"RUS.23.24_1","GID_0":"RUS","COUNTRY":"Russia","GID_1":"RUS.23_1","NAME_1":"Kaluga","NL_NAME_1":"Калужскаяобласть","NAME_2":"Tarusskiyrayon","VARNAME_2":"NA","NL_NAME_2":"Тарусскийрайон","TYPE_2":"Raion","ENGTYPE_2":"District","CC_2":"R12002","HASC_2":"RU.KG.TA"}},{"type":"MultiPolygon","arcs":[[[-26,103,-100,104,-65,105,-56,106]]],"properties":{"GID_2":"RUS.23.25_1","GID_0":"RUS","COUNTRY":"Russia","GID_1":"RUS.23_1","NAME_1":"Kaluga","NL_NAME_1":"Калужскаяобласть","NAME_2":"Ul'yanovskiyrayon","VARNAME_2":"NA","NL_NAME_2":"Ульяновскийрайон","TYPE_2":"Raion","ENGTYPE_2":"District","CC_2":"R12002","HASC_2":"RU.KG.UL"}},{"type":"MultiPolygon","arcs":[[[-8,-92,-94,107,-46,-28]]],"properties":{"GID_2":"RUS.23.26_1","GID_0":"RUS","COUNTRY":"Russia","GID_1":"RUS.23_1","NAME_1":"Kaluga","NL_NAME_1":"Калужскаяобласть","NAME_2":"Yukhnovskiyrayon","VARNAME_2":"NA","NL_NAME_2":"Юхновскийрайон","TYPE_2":"Raion","ENGTYPE_2":"District","CC_2":"R12002","HASC_2":"RU.KG.YU"}},{"type":"MultiPolygon","arcs":[[[108,-75,-21,109,-54]]],"properties":{"GID_2":"RUS.23.27_1","GID_0":"RUS","COUNTRY":"Russia","GID_1":"RUS.23_1","NAME_1":"Kaluga","NL_NAME_1":"Калужскаяобласть","NAME_2":"Zhizdrinskiyrayon","VARNAME_2":"NA","NL_NAME_2":"Жиздринскийрайон","TYPE_2":"Raion","ENGTYPE_2":"District","CC_2":"R12000","HASC_2":"RU.KG.ZZ"}},{"type":"MultiPolygon","arcs":[[[-18,110,-102,111,-78,112]]],"properties":{"GID_2":"RUS.23.28_1","GID_0":"RUS","COUNTRY":"Russia","GID_1":"RUS.23_1","NAME_1":"Kaluga","NL_NAME_1":"Калужскаяобласть","NAME_2":"Zhukovskiyrayon","VARNAME_2":"NA","NL_NAME_2":"Жуковскийрайон","TYPE_2":"Raion","ENGTYPE_2":"District","CC_2":"R12000","HASC_2":"RU.KG.ZK"}}]}},"arcs":[[[582576,621975],[18457,5481],[23650,-3062]],[[624683,624394],[41175,-22666]],[[665858,601728],[10946,-12938],[6312,-12445]],[[683116,576345],[-53,-5531]],[[683063,570814],[-3302,-8247],[-9002,-9629],[-2344,-14568],[-16726,-14963],[160,-8000],[4181,-9284],[2424,-16938],[-6925,-10469]],[[651529,478716],[-9641,-5186],[-29403,-29432],[-3888,11605],[-7032,5531]],[[601565,461234],[-2743,24346],[-14648,16197],[-13876,22618],[-9801,3703],[-31694,-13432],[-10067,-148],[-15554,15407],[1465,10025],[13876,39012]],[[518523,578962],[12544,5087],[51509,37926]],[[364396,408642],[-29163,-395],[-12704,10271],[-7537,13531],[-7325,-296],[-69566,33580],[-26154,-13482],[-17897,21432]],[[194050,473283],[21093,54865],[13823,18370],[-1971,14568],[-27166,18173],[-12491,13185],[-11958,19160]],[[175380,611604],[9961,8692],[10813,-4099],[-1145,-11605],[13023,-12296],[17712,12098],[42852,-6321]],[[268596,598073],[427,-12098],[30361,-15309],[17525,-16247],[17578,-28000],[25195,-20049]],[[359682,506370],[-24183,-22617],[2397,-15605],[-11372,-12642],[2184,-4889],[34410,-15309],[1278,-26666]],[[846325,859752],[-32919,12593]],[[813406,872345],[-15607,444],[-15554,-10123],[-10839,592],[-13823,19803],[-27991,-494]],[[729592,882567],[-42108,50914]],[[687484,933481],[5487,4296],[14222,-3852],[4874,-13136],[4634,-2370],[9615,10321],[18217,-1827],[6205,-9729],[9828,7506],[-2157,3408],[10040,15358],[2051,16494],[9668,-939],[-2477,12889],[4022,1284],[2210,8938],[6179,3902],[5194,-7556],[14941,6469],[6792,-3506],[5619,7012],[-1358,3803],[1864,2716],[9295,5037],[7511,-6667],[959,-34370],[40882,-1580],[6578,-23408]],[[888379,933974],[-19043,-61185],[-23011,-13037]],[[845872,887505],[0,4790],[-14888,-3456],[-3276,-11951],[6286,-3556],[11878,14173]],[[438490,197679],[-20135,5037]],[[418355,202716],[-10120,-13975],[-5061,5086],[853,10568],[13849,30617],[-21600,-99],[-42933,25284],[-14302,18025]],[[339041,278222],[2371,10518],[-8390,24741],[7111,7408],[19496,-198],[6525,7358],[-14675,25482]],[[351479,353531],[8789,31259],[4128,23852]],[[364396,408642],[10041,-1186],[45410,-34123],[13476,-20691],[9961,-21581],[11213,-13135],[25115,-14124]],[[479612,303802],[19495,-23901]],[[499107,279901],[-19682,-10914],[-9215,-10913],[-5380,-21926],[-2450,-22568],[-23890,-15901]],[[665858,601728],[-21520,14370],[-19655,8296]],[[582576,621975],[-10840,27901],[-12624,23012],[-5460,17580],[15740,23951],[-1118,16395],[-9748,12494]],[[558526,743308],[11745,14025]],[[570271,757333],[88263,24987],[32386,12148]],[[690920,794468],[12944,9482]],[[703864,803950],[5033,-20445]],[[708897,783505],[17658,-19308]],[[726555,764197],[-6871,-24840],[6791,-41926],[1305,-28444]],[[727780,668987],[8337,-9136]],[[736117,659851],[-13051,-24543],[-17391,-4198],[-2450,-32987],[-5647,-12346],[-14462,-9432]],[[879484,488197],[-22985,39704],[-29323,30765],[-19203,5235]],[[807973,563901],[-26740,740]],[[781233,564641],[-1464,28395]],[[779769,593036],[2184,7852],[33211,62568]],[[815164,663456],[-213,23012]],[[814951,686468],[10840,13087],[18590,-5185],[14728,17086],[14888,6420]],[[873997,717876],[7910,-32494],[26900,-50617]],[[908807,634765],[9481,-23111],[-23331,-17235],[7804,-28987],[26580,-4297],[-7857,-53926],[9775,-15358],[-51775,-3654]],[[625562,771258],[-35635,-6469],[-19656,-7456]],[[558526,743308],[-22931,14716],[-18111,29728],[-11026,6815],[-59872,3803],[-31214,20246]],[[415372,818616],[20641,27260],[11745,-23013],[6206,5186],[-3169,8642],[12491,19703],[-853,2667],[9748,22765],[8949,-543],[24183,45383],[-906,33333],[3862,-11852],[8842,-4839],[28178,-1383],[6845,13037],[8869,-6864],[15527,24049],[11772,-5037],[7724,2469]],[[596026,969579],[5646,-71160],[19282,-12988],[-23996,-44197],[9694,-2222],[-17844,-16544],[1731,-11506],[24290,-4148],[14195,-13037],[-3462,-22519]],[[736117,659851],[13396,-8987]],[[749513,650864],[12012,-2618],[12438,19852],[10014,7062],[13370,642],[17604,10666]],[[815164,663456],[-19176,-34222],[-16219,-36198]],[[781233,564641],[-35901,-7605]],[[745332,557036],[-14302,-11308],[-5380,-13432],[-9641,15259],[-13344,12593],[-19602,10666]],[[312089,56494],[6791,4000],[2823,10370],[20508,26568],[21786,10469],[12571,-3160],[6685,12889],[1065,10864],[8043,22024],[20028,12988],[20961,37037]],[[433350,200543],[38778,-37481]],[[472128,163062],[15793,-11309],[4075,-11852],[-2477,-15160],[3143,-10568],[8043,2370],[13104,14568],[4021,-1235],[9375,-35753]],[[527205,94123],[-11079,-23012],[-8363,-33333],[-12677,1926],[-22559,-15408],[1758,-21629],[-14116,8444],[-22664,-11111],[-23331,20198],[-5540,18469],[-6685,-6815],[-10520,5728],[-18457,-4148],[-27938,10321],[-15900,12691],[-17045,50]],[[238634,368691],[-8416,-5827],[-10840,10518],[18324,7161],[932,-11852]],[[351479,353531],[-25275,-6321],[-5673,18962],[-26313,12692],[-13450,13926],[-10973,-4692],[-18430,-40049],[-1412,-18370],[-7404,-11358],[-4048,3012],[-3249,8395],[-1359,14815],[-9668,444],[-18456,-26913],[-21946,-642],[-6872,-10914],[-22611,3803]],[[154340,310321],[-1998,15407],[4022,48938],[-18803,21976]],[[137561,396642],[1065,5777],[11719,30420]],[[150345,432839],[30175,22765],[13530,17679]],[[651529,478716],[10281,-44544],[3249,-6469],[8789,-4296],[7724,9481]],[[681572,432888],[30095,-18814],[-5087,-11408],[-23570,-3308],[25541,-7358],[10973,6024],[15714,-5481],[-8656,-14568],[-9961,-1383],[-7830,-14469],[2717,-11210],[-5700,-5185],[3276,-27012],[-21680,4987],[-21226,-19456],[9455,-16000],[-25089,-16149],[13183,-19802],[-12890,-18173]],[[650837,234123],[-23890,8938],[-5087,-12790],[-23757,24297],[-60298,43160]],[[537805,297728],[6446,11654]],[[544251,309382],[6445,33531],[-4501,14321],[-8603,9679],[17472,4445],[7803,6419],[-745,9482],[-13583,16889],[10573,29333]],[[559112,433481],[26660,24790],[15793,2963]],[[148640,271753],[-10547,14469],[-13290,-6272],[-30867,59358],[-35769,23902],[-42081,-6321],[-16086,28000],[15048,7061],[11878,-2617],[6392,11901],[-5326,7161],[8016,28098],[19203,10124],[-9828,19605],[5779,12345],[6632,-2172],[5753,12197]],[[63547,488592],[38192,-24000],[-2530,-14815],[23863,-16592],[16220,4987],[11053,-5333]],[[150345,432839],[-12784,-36197]],[[154340,310321],[-5700,-38568]],[[265587,293086],[-3036,-17481],[-20455,1382],[4848,17877],[18643,-1778]],[[257251,203358],[-11639,12000],[106,20296],[-19815,10815],[-2636,13975],[-16886,6864],[-7590,21432],[-50151,-16987]],[[339041,278222],[-11319,-346],[-9002,4939],[-5513,-4544],[-10520,-29580],[-23411,-28197],[-22025,-17136]],[[697925,919900],[31667,-37333]],[[813406,872345],[41442,-13679]],[[854848,858666],[5566,-33729],[8736,-22222],[13183,-18024]],[[882333,784691],[2424,-10223],[186,-11802]],[[884943,762666],[-5832,-10568],[-4129,-16148],[-985,-18074]],[[749513,650864],[-21733,18123]],[[726555,764197],[-12917,11358],[-4741,7950]],[[703864,803950],[-12571,17037],[10813,37679]],[[702106,858666],[-1278,48197]],[[700828,906863],[-2903,13037]],[[687484,933481],[10441,-13581]],[[700828,906863],[1012,-20494],[266,-27703]],[[690920,794468],[-65358,-23210]],[[596026,969579],[4634,4247],[3409,-4741],[6871,7358],[13077,-17382],[3383,-247],[1864,-6716],[7404,-5185],[19522,6321],[4475,-8198],[6844,5482],[16833,-19556],[3142,2519]],[[559112,433481],[-15873,9383],[-16726,4049],[-17045,-3210],[-19070,-10370],[-30229,11753],[-4527,10025],[-20668,13777],[-17391,-1777],[-12385,18568],[-19761,7061],[-6526,7803],[-19229,5827]],[[359682,506370],[13530,12592],[11798,20346],[26367,20247],[42560,-17432],[1865,17136],[4767,17382],[15847,20889]],[[476416,597530],[27725,-3457],[14382,-15111]],[[268596,598073],[5274,6618],[4021,14271],[-3116,8050],[-266,11160],[10094,9383],[1864,8000],[-5433,15605],[-15314,9136],[-5460,14074],[9162,1876],[48046,-17778],[11160,5729],[9295,10864],[23171,2370],[19122,21778],[10867,4198]],[[391083,723407],[1891,-34568],[72735,-75753],[10707,-15556]],[[745332,557036],[16832,4544],[45809,2321]],[[879484,488197],[-20641,-2568],[-15527,13531],[-20242,-13235],[-17817,1284],[-23225,-29975],[-13290,5383],[-7617,-6815],[-9028,8889],[-23438,-27210],[-3009,-11901],[-19975,10469],[-24103,-3161]],[[194050,473283],[-28072,-31111],[-15633,-9333]],[[63547,488592],[7244,17778],[-24076,19457],[14035,36197],[-14062,10568],[11532,27309],[16220,-2618],[13024,20198],[9827,-4346],[6685,14519],[7404,-13432],[8896,13037],[21946,1580],[8336,-10914],[17418,-1432],[7404,-4889]],[[544251,309382],[-13024,-22567]],[[531227,286815],[-22851,-14914]],[[508376,271901],[-18191,16790],[-10573,15111]],[[884943,762666],[17072,-7556],[32546,-5284],[45037,10766],[11292,9580]],[[990890,770172],[9109,-8444],[-6925,-73334],[-7217,-32049],[-19682,-39506],[-26953,26222],[-30415,-8296]],[[499107,279901],[9269,-8000]],[[531227,286815],[6578,10913]],[[650837,234123],[14275,-16345],[11612,-1383],[12891,-17284],[-11585,-17580],[-49778,-41383],[-9082,-22025],[-25728,-2617],[-8842,17383],[-10493,-15803],[-10574,148],[-18457,-50962],[-12810,4148],[12837,30271],[-17898,-6568]],[[472128,163062],[-33638,34617]],[[391083,723407],[7297,11012],[-20960,20198],[-3063,23555],[12118,6765],[5700,23408],[9082,-840],[14115,11111]],[[312089,56494],[-7884,0],[-7404,12889],[-17738,8247],[-692,24691],[5034,6271],[-12225,25136],[2397,10716],[-1625,21976],[1305,30172],[-16006,6766]],[[418355,202716],[14995,-2173]],[[888379,933974],[13450,-2617],[9108,12346],[-2104,3802],[21440,7901],[2104,-2271],[-373,-8247],[3596,-2765],[5859,-16247],[9375,-1828],[1198,-7654],[5247,-5185],[14942,790],[-11613,-4938],[-665,-14864],[17391,-7507],[-1891,-9135],[2370,-8148],[-9854,-4149],[3596,-5333],[586,-6469],[6205,-3803],[7644,-11456],[-3889,-6025],[10361,-11309],[-3036,-4345],[8549,-16889],[-6552,-13136],[1199,-10123],[-1732,-4198]],[[884943,762666],[-2610,22025]],[[854848,858666],[-8523,1086]]],"bbox":[33.4835,53.2849,37.2382,55.3099],"transform":{"scale":[0.0000037547037547037544,0.0000020250020250020237],"translate":[33.4835,53.2849]}}