{"type":"Topology","objects":{"muni":{"type":"GeometryCollection","geometries":[{"type":"MultiPolygon","arcs":[[[0]],[[1]],[[2]],[[3]],[[4]],[[5]],[[6]],[[7]],[[8]]],"properties":{"GID_2":"RUS.24.1_1","GID_0":"RUS","COUNTRY":"Russia","GID_1":"RUS.24_1","NAME_1":"Kamchatka","NL_NAME_1":"Камчатскаякрай","NAME_2":"Aleutskiyrayon","VARNAME_2":"NA","NL_NAME_2":"Алеутскийрайон","TYPE_2":"Raion","ENGTYPE_2":"District","CC_2":"R69090","HASC_2":"RU.KA.AL"}},{"type":"MultiPolygon","arcs":[[[9,10,11,12,13,14,15,16]]],"properties":{"GID_2":"RUS.24.2_1","GID_0":"RUS","COUNTRY":"Russia","GID_1":"RUS.24_1","NAME_1":"Kamchatka","NL_NAME_1":"Камчатскаякрай","NAME_2":"Bystrinskiyrayon","VARNAME_2":"NA","NL_NAME_2":"Быстринскийрайон","TYPE_2":"Raion","ENGTYPE_2":"District","CC_2":"R69090","HASC_2":"RU.KA.BY"}},{"type":"MultiPolygon","arcs":[[[17]],[[18]],[[19]],[[20,21,22,23,24,25]],[[26]],[[27]]],"properties":{"GID_2":"RUS.24.3_1","GID_0":"RUS","COUNTRY":"Russia","GID_1":"RUS.24_1","NAME_1":"Kamchatka","NL_NAME_1":"Камчатскаякрай","NAME_2":"Elizovskiyrayon","VARNAME_2":"NA","NL_NAME_2":"Елизовскийрайон","TYPE_2":"Raion","ENGTYPE_2":"District","CC_2":"R69090","HASC_2":"RU.KA.ER"}},{"type":"MultiPolygon","arcs":[[[28]],[[29]],[[30,31]],[[32]],[[33]],[[34]],[[35]],[[36,37]],[[38]],[[39]],[[40,41]],[[42]],[[43]],[[44]],[[45]],[[46]],[[47]],[[48]],[[49]],[[50]],[[51]],[[52]],[[53]],[[54,55,56,57,58,59,60]],[[61]],[[62]],[[63]],[[64]],[[65]],[[66]],[[67]],[[68]],[[69]],[[70]],[[71]],[[72]],[[73]]],"properties":{"GID_2":"RUS.24.4_1","GID_0":"RUS","COUNTRY":"Russia","GID_1":"RUS.24_1","NAME_1":"Kamchatka","NL_NAME_1":"Камчатскаякрай","NAME_2":"Karaginskiyrayon","VARNAME_2":"NA","NL_NAME_2":"Карагинскийрайон","TYPE_2":"Raion","ENGTYPE_2":"District","CC_2":"R69010","HASC_2":"RU.KR.KA"}},{"type":"MultiPolygon","arcs":[[[-16,74,-25,75,76]]],"properties":{"GID_2":"RUS.24.5_1","GID_0":"RUS","COUNTRY":"Russia","GID_1":"RUS.24_1","NAME_1":"Kamchatka","NL_NAME_1":"Камчатскаякрай","NAME_2":"Mil'kovskiyrayon","VARNAME_2":"NA","NL_NAME_2":"Мильковскийрайон","TYPE_2":"Raion","ENGTYPE_2":"District","CC_2":"R69090","HASC_2":"RU.KA.MI"}},{"type":"MultiPolygon","arcs":[[[77]],[[78]],[[79]],[[80]],[[81]],[[82]],[[83]],[[84]],[[85]],[[86]],[[87]],[[88]],[[89]],[[90]],[[91]],[[92]],[[93]],[[94]],[[95]],[[96]],[[97]],[[98]],[[99]],[[100]],[[101]],[[102]],[[103]],[[104]],[[105]],[[106]],[[107]],[[108]],[[109]],[[110]],[[111]],[[112]],[[113]],[[114,-55,115,116]],[[117]],[[118]],[[119]],[[120]],[[121]],[[122]],[[123]],[[124]],[[125]],[[126]],[[127]],[[128]],[[129]],[[130]],[[131]],[[132]],[[133]],[[134]],[[135]],[[136]],[[137]],[[138]],[[139]],[[140]],[[141]],[[142]],[[143]]],"properties":{"GID_2":"RUS.24.6_1","GID_0":"RUS","COUNTRY":"Russia","GID_1":"RUS.24_1","NAME_1":"Kamchatka","NL_NAME_1":"Камчатскаякрай","NAME_2":"Olyutorskiyrayon","VARNAME_2":"NA","NL_NAME_2":"Олюторскийрайон","TYPE_2":"Raion","ENGTYPE_2":"District","CC_2":"R69010","HASC_2":"RU.KR.OL"}},{"type":"MultiPolygon","arcs":[[[144]],[[145]],[[146]],[[147]],[[148]],[[149]],[[150]],[[151]],[[152]],[[153]],[[154]],[[155]],[[156]],[[157]],[[158]],[[159]],[[160]],[[161]],[[162]],[[-116,-61,163]]],"properties":{"GID_2":"RUS.24.7_1","GID_0":"RUS","COUNTRY":"Russia","GID_1":"RUS.24_1","NAME_1":"Kamchatka","NL_NAME_1":"Камчатскаякрай","NAME_2":"Penzhinskiyrayon","VARNAME_2":"NA","NL_NAME_2":"Пенжинскийрайон","TYPE_2":"Raion","ENGTYPE_2":"District","CC_2":"R69010","HASC_2":"RU.KR.PE"}},{"type":"MultiPolygon","arcs":[[[-17,164,-76,-24,165,166,167,168]]],"properties":{"GID_2":"RUS.24.8_1","GID_0":"RUS","COUNTRY":"Russia","GID_1":"RUS.24_1","NAME_1":"Kamchatka","NL_NAME_1":"Камчатскаякрай","NAME_2":"Sobolevskiyrayon","VARNAME_2":"NA","NL_NAME_2":"Соболевскийрайон","TYPE_2":"Raion","ENGTYPE_2":"District","CC_2":"R69090","HASC_2":"RU.KA.SO"}},{"type":"MultiPolygon","arcs":[[[169]],[[170]],[[171]],[[172]],[[173]],[[174]],[[175]],[[176]],[[177]],[[-10,-169,178,-31,179,-37,180,181,182,-41,183,184,-59,185,186,187,188]],[[189]],[[190]],[[191]],[[192]],[[193]],[[194]],[[195]]],"properties":{"GID_2":"RUS.24.9_1","GID_0":"RUS","COUNTRY":"Russia","GID_1":"RUS.24_1","NAME_1":"Kamchatka","NL_NAME_1":"Камчатскаякрай","NAME_2":"Tigil'skiyrayon","VARNAME_2":"NA","NL_NAME_2":"Тигильскийрайон","TYPE_2":"Raion","ENGTYPE_2":"District","CC_2":"R69010","HASC_2":"RU.KR.TI"}},{"type":"MultiPolygon","arcs":[[[196,-22,197,-167]]],"properties":{"GID_2":"RUS.24.10_1","GID_0":"RUS","COUNTRY":"Russia","GID_1":"RUS.24_1","NAME_1":"Kamchatka","NL_NAME_1":"Камчатскаякрай","NAME_2":"Ust'-Bol'sheretskiyrayon","VARNAME_2":"NA","NL_NAME_2":"Усt.-Большерецкийрайон","TYPE_2":"Raion","ENGTYPE_2":"District","CC_2":"R69090","HASC_2":"RU.KA.UB"}},{"type":"MultiPolygon","arcs":[[[198]],[[199]],[[200]],[[201]],[[202]],[[203]],[[-13,204,-187,205,-57,206,-26,-75,-15,207]],[[208]],[[209]],[[210]],[[211]],[[212]],[[213]],[[214]],[[215]],[[216]],[[217]]],"properties":{"GID_2":"RUS.24.11_1","GID_0":"RUS","COUNTRY":"Russia","GID_1":"RUS.24_1","NAME_1":"Kamchatka","NL_NAME_1":"Камчатскаякрай","NAME_2":"Ust'-Kamchatskiyrayon","VARNAME_2":"NA","NL_NAME_2":"Усt.-Камчатскийрайон","TYPE_2":"Raion","ENGTYPE_2":"District","CC_2":"R69090","HASC_2":"RU.KA.UK"}}]}},"arcs":[[[629180,284972],[1159,-43],[3274,-2335],[1852,-627],[-323,-890],[-941,-242],[31,-747],[2085,-613],[968,356],[1561,-911],[1084,491],[1058,-313],[445,-833],[613,-57],[-936,-811],[672,-456],[2412,477],[207,-1901],[968,121],[-90,-776],[-439,-192],[793,-1068],[-116,-534],[1619,-1267],[1058,21],[1402,897],[2476,-3567],[1174,-163],[1825,754],[175,-1345],[-704,-712],[878,-1467],[1355,-1616],[1470,-199],[1926,-3019],[2762,-1238],[915,-1424],[-587,-235],[-1534,1018],[-2048,2057],[-4285,1730],[-1354,2435],[-1847,662],[-2301,2036],[-2545,1061],[-1825,-85],[-2814,2242],[317,285],[-1344,1324],[-3301,1445],[-301,1018],[-2847,912],[-3248,2691],[26,505],[-2544,1631],[-175,391],[529,178],[-814,755],[449,512],[-651,1353],[376,328]],[[641316,278956],[233,64],[58,-78],[-291,14]],[[633259,283555],[-259,7],[497,85],[-238,-92]],[[628789,285228],[-180,356],[296,-221],[-116,-135]],[[572774,281846],[-32,-199],[-185,78],[217,121]],[[628307,285683],[-84,150],[375,-199],[-291,49]],[[552015,320105],[2338,-391],[5227,-2492],[381,342],[3893,-961],[1572,348],[402,855],[449,-7],[1529,-1837],[767,-199],[-1793,-1068],[-413,-1132],[-883,-271],[878,-1239],[-936,-3296],[296,-1794],[852,-698],[264,-1281],[1233,-1602],[-58,-655],[3264,-1837],[-58,-1367],[910,-1423],[1174,-648],[471,-2257],[2381,-3439],[4761,-2492],[704,-932],[2470,-135],[-354,-1588],[2999,-1837],[413,-1125],[-794,-555],[879,-1089],[-323,-655],[1598,-5204],[-302,-2207],[381,-1246],[-418,-1189],[-1286,612],[-767,1047],[-2904,1267],[-804,1110],[344,349],[-191,1075],[-2677,1325],[-587,1067],[-899,-28],[106,1374],[1089,733],[-238,890],[-936,392],[-1979,-940],[95,861],[-529,-21],[-1528,-769],[-588,947],[-703,121],[497,199],[-587,513],[-445,-1602],[-2449,2164],[545,862],[-1709,-43],[-614,684],[-735,1096],[323,1424],[-2381,142],[-635,662],[-10,798],[-1677,356],[-1164,1075],[137,1516],[-1439,2677],[-2560,1573],[-778,1495],[-804,413],[-196,919],[825,683],[-449,1096],[248,1303],[-301,769],[-1413,1225],[-756,1744],[-3005,1573],[2164,1161],[-1027,-712],[-1090,1943],[-3174,1716],[-1259,-249],[-391,804],[-7074,1795],[3815,1744],[4936,1068],[2174,2534],[1286,71]],[[549189,308900],[-111,363],[265,-164],[-154,-199]],[[541471,309455],[127,363],[95,-271],[-222,-92]],[[36414,341000],[11258,5112],[30171,-3218],[19140,-171],[6396,-2833],[4645,940],[-2253,5588],[9612,6984],[5941,7903],[18284,13348],[-519,1460],[-7321,1901],[-11586,726],[-6947,1680],[-7438,5938],[-10475,14715],[3116,4193],[4412,4101],[-1909,4407],[10586,6151],[9485,-861],[6550,-2955],[6295,-370],[10459,2250],[8513,-14915],[41370,9597]],[[194199,412671],[12803,804]],[[207002,413475],[5074,1317]],[[212076,414792],[1402,-5040],[-297,-6237],[-1571,-4485],[-4216,-4784],[-1937,-6258],[-6792,-3197],[-5772,-1644],[-2751,-2214],[1862,-4201],[3211,-1787],[767,-3004],[-6465,-4756],[-1714,-3531],[1328,-5446]],[[189131,358208],[14750,-4984]],[[203881,353224],[2735,-64]],[[206616,353160],[-1227,-4485],[-3355,-1602],[-2983,-5204],[-5714,-14075],[-5629,-8109],[-3820,-6471],[-4068,-1951],[-4407,292],[-11147,4464],[-3444,263],[-3708,-1402],[-2725,-5489],[-11665,-11569],[-12194,-6835],[-5148,-3723],[-4809,-8508],[-14379,-7361]],[[106194,271395],[-53,3709],[-513,2770],[-1926,5980],[-2904,3481],[-4291,1965],[-11464,1566],[-6460,2877],[-18876,5489],[-5819,-1232],[-6571,-2976],[-5925,-107],[-4333,2563],[-1069,3503],[-1280,7917],[963,8158],[1561,8052],[-1487,8814],[667,7076]],[[91079,26818],[0,100],[143,-7],[-143,-93]],[[113098,45229],[-132,214],[248,42],[-116,-256]],[[114018,45492],[-851,193],[322,263],[529,-456]],[[330871,306621],[1217,-2534],[-503,-584],[778,-14],[2185,-4201],[-947,-185],[3735,-925],[1492,-1652],[767,-1644],[910,-72],[783,-2107],[2322,-1822],[413,-905],[-26,-1900],[910,-556],[349,-1203],[3703,-2121],[413,-1460],[-1910,-178],[-862,-1046],[10,-1289],[1148,-769],[148,-2200],[466,-512],[-3513,-1303],[-1772,-2236],[-2090,-470],[-1016,-2185],[-783,-22],[-994,-1317],[-2053,-776],[-3920,-2619],[-1751,-1852],[-64,-882],[-1476,-1068],[170,-470],[-3090,-2378],[-1122,-221],[-4327,1161],[-4291,-805],[-2671,591],[-3915,-1267],[-2143,256],[-4163,-1381],[-4566,3012],[127,3894],[-503,441],[-7993,591],[-7650,-1445],[-13787,-5895],[-8406,-5282],[-5317,-4037],[-3381,-4051],[-3412,-2057],[-116,-634],[-1381,-100],[-413,-890],[-1143,143],[-455,-1025],[-783,92],[-529,-1004],[-1846,-142],[233,-377],[-439,42],[26,-455],[-852,-178],[-58,-491],[-2264,-1645],[-3709,-4919],[1677,3168],[731,548],[-1254,356],[-974,-541],[-285,-435],[756,-633],[-619,-598],[-693,142],[318,-676],[-974,-548],[1143,-1004],[-519,-1638],[656,-263],[-624,-306],[217,-584],[-772,-641],[-249,-1630],[-4761,-9170],[-947,-3901],[-783,-7141],[407,-3865],[942,-1681],[-1497,1446],[-16,-712],[936,-719],[-1365,220],[3032,-1623],[444,107],[-296,811],[703,577],[640,-441],[-867,-427],[26,-1439],[863,-1402],[423,-1844],[1217,-641],[529,-1203],[-101,-975],[-709,-114],[783,-1353],[-386,-1146],[344,-235],[-275,-555],[328,-1203],[-476,-1282],[-572,-277],[-1523,412],[-2095,1567],[-1254,-7],[-1064,1160],[350,1559],[-1318,-1303],[-1507,-185],[-233,-512],[3153,-1353],[-1735,-598],[-625,-1096],[265,-890],[846,1381],[646,206],[-111,570],[1142,85],[196,-1360],[1952,1453],[-1672,-1360],[-555,-1011],[-58,-1452],[735,-1104],[-354,-1046],[714,-855],[1037,-370],[1275,762],[1698,-1082],[-640,-79],[-376,-1480],[-1063,-776],[635,-1317],[1306,-734],[1640,1104],[572,-620],[-572,-1829],[-1063,-449],[-2100,-2755],[608,-911],[789,299],[920,-2627],[492,-64],[-264,2036],[587,932],[3587,1189],[-1117,-1053],[175,-477],[-825,-1367],[502,-527],[1407,-71],[736,-1317],[-582,-534],[-180,-1581],[973,-655],[-264,-712],[793,-569],[-1237,-1125],[550,-926],[-609,-142],[-10,-1075],[-635,-213],[-1799,1003],[-1317,-213],[-212,1011],[-4624,2185],[-169,527],[-3454,1146],[-3238,2129],[1217,2456],[349,-249],[2116,1858],[2021,627],[-2000,391],[-1513,-320],[-1280,-1873],[-1471,-669],[-831,-1125],[-1968,727],[-761,1210],[-1910,655],[-2794,-306],[-2433,-1282],[-3116,-576],[-249,-890],[-1158,-335],[26,-641],[-905,-619],[-380,-1296],[-1180,-655],[-365,-883],[-3100,1282],[-12613,-4229],[-10819,-6699],[-3295,-2919],[-5021,-5703],[-1497,-719],[-1344,1894],[444,171],[149,1039],[-519,1282],[-1307,-356],[-613,1445],[687,591],[1402,-1217],[1016,598],[450,-449],[-185,548],[-1222,-64],[-450,619],[439,477],[-688,-170],[-1063,1096],[-296,1794],[-53,-584],[-328,136],[95,1146],[-1566,1352],[69,420],[-1042,-242],[-440,890],[-925,321],[-1736,-235],[-677,1445],[-211,-263],[349,-257],[-1206,-356],[603,363],[904,-477],[-793,-498],[148,-570],[-434,-56],[407,-399],[-470,-712],[-2217,-1039],[-2465,-278],[-439,-2705],[1565,242],[1529,-1374],[-2962,-940],[-74,-1787],[1476,-1417],[-291,-868],[1571,427],[2259,-712],[2402,85],[-1021,570],[185,989],[-2185,250],[-1502,1032],[1380,306],[1942,-498],[704,-1047],[1846,-57],[211,641],[2709,-192],[-26,-734],[682,-712],[-1227,-356],[487,-1452],[-2064,-335],[445,-740],[2343,-940],[-3528,-2071],[-778,-2727],[-2942,71],[-264,214],[286,448],[-884,520],[-238,-392],[831,-405],[-1217,-670],[481,-754],[-158,-1773],[4861,-2036],[1207,-1054],[-281,-833],[-1656,-277],[1143,-954],[-1010,-1097],[-1725,136],[947,-670],[-164,-1096],[-2349,-762],[-5264,3097],[-841,-584],[1539,-1651],[2117,-990],[-2968,178],[1015,114],[-529,-1267],[3212,-2663],[2095,-78],[349,-662],[-212,-848],[566,-662],[-534,-1516],[-1079,-755],[1592,-1388],[-1624,-1559],[-1529,228],[-217,-442],[1032,-648],[-2460,-1979],[-1958,-769],[1841,-462],[3931,2541],[2804,-1409],[-878,-627],[989,-712],[482,-1303],[-1233,72],[-275,-1068],[-3153,-1524],[709,-1039],[1989,477],[1016,-477],[439,-883],[-752,-1118],[186,-690],[-1889,-1645],[-651,384],[-3142,-220],[-207,-370],[984,-983],[-1782,-1723],[-1646,-121],[-449,-2136],[1465,-498],[74,-1224],[-926,-855],[-1047,-2257],[-1355,1004],[-2407,-1651],[-317,-1481],[1476,-2058],[-1333,-626],[37,-1403],[-1032,-626],[704,-605],[-233,-783],[-1259,-264],[603,-420],[-646,-1360],[524,-676],[-174,-911],[-2561,-2101],[-1492,-2228],[-693,-107],[-3132,-3453],[-381,-768],[429,-242],[-1249,-969],[127,-1046],[-1507,-22],[-2503,-1658],[-994,-1524],[-730,-2613],[-1503,-398],[-534,-1816],[238,-790],[-1561,-434],[0,-655],[-1497,-1794],[238,-1111],[-2777,-619],[-519,-1189],[-820,-584],[-206,-1011],[-1296,221],[-1027,-563],[-714,-591],[333,-455],[-322,-527],[-1307,-548],[-1497,683],[-1138,-199],[-1862,-1097],[-2793,-655],[529,-106],[-2778,-1709],[-3100,-3474],[-264,199],[-730,-1417],[-662,-2968],[561,-833],[-756,42],[-302,-619],[407,-1153],[-1788,-819],[-2010,662],[-2037,-1068],[-1254,-1196],[-100,-1246],[-1185,-648],[-709,-1637],[-1000,-178],[-307,-1559],[-481,-143],[-646,-1779],[-746,121],[-412,-1211],[-1736,-1025],[-1423,57],[-693,-1288],[-1550,-1282],[-2021,-164],[-1841,-2783],[-1391,-285],[-4952,-4962],[-3555,-1744],[-1407,-1638],[-27,-933],[-2761,-2185],[439,1516]],[[66019,7774],[4269,5710],[857,3545],[-1301,2499],[4534,4891],[14945,12345],[5502,9860],[4010,8956],[3121,9248],[1556,10053],[2539,9647],[5364,8827],[4312,10494],[6899,8828],[11803,10394],[222,8124],[-466,7567],[-2132,4991],[-6533,5752],[-7322,3510],[-7978,1709],[-10015,4805],[-5560,6166],[-2042,7710]],[[92603,173405],[534,21543]],[[93137,194948],[-619,6991],[80,6237],[4486,14096],[6354,6656]],[[103438,228928],[1396,-1787],[6846,-2207],[9110,1232],[3952,-925],[3560,-2763],[397,-2847],[-931,-3653],[1598,-1844],[4512,43],[3206,2300],[3402,1025],[14919,1345],[4449,2051],[10671,8529],[2793,5973],[1159,5695],[6401,4756],[8063,2755],[6951,4293],[5788,6343],[1577,4699],[3962,4457],[16093,10522],[9602,5211],[6180,5084],[6422,6571],[6359,5510],[6925,3837]],[[258800,305133],[6174,-4072],[10904,-2741],[12004,2535],[5634,2278],[3497,541],[3798,-1944],[7470,-5268],[2545,-370],[4084,1474],[1386,2997],[3296,2299],[11279,3759]],[[211155,167774],[344,-50],[-233,-876],[-709,947],[598,-21]],[[232634,196849],[-328,156],[296,143],[32,-299]],[[105109,496265],[1799,2371],[328,1424],[-21,-1196],[-2450,-3061],[344,462]],[[107453,501370],[90,598],[-328,107],[243,491],[-5,-1196]],[[110961,505179],[-1958,-1488]],[[109003,503691],[-2047,-669],[1968,804],[3174,3083],[-1137,-1730]],[[119981,506852],[-27,7],[286,-64],[-259,57]],[[125864,505998],[-5328,740],[847,-100],[6819,-206],[1238,128],[0,1402],[6110,0],[-9686,-1964]],[[116838,507784],[21,-21],[0,-21],[-21,42]],[[116801,507884],[32,-100],[-154,214],[122,-114]],[[112410,508874],[-1042,-783]],[[111368,508091],[407,-285],[-703,313],[1290,1068],[2090,-349],[-2042,36]],[[340500,507578],[-582,-157],[889,285],[-307,-128]],[[340653,508019],[-952,-455],[852,947],[-291,405],[402,-199],[-11,-698]],[[141015,509215],[-1846,307]],[[139169,509522],[629,92],[1117,356],[100,-755]],[[141121,510212],[-122,-135],[43,78],[79,57]],[[116124,509030],[137,0],[-195,-21],[58,21]],[[116685,509073],[-154,-14],[170,135],[-16,-121]],[[364783,495411],[-381,292],[523,292],[879,-897],[-1021,313]],[[371004,562468],[439,156],[-762,-377],[323,221]],[[372094,563984],[-148,-114],[-207,200],[355,-86]],[[379442,567921],[201,-21],[-174,-114],[-27,135]],[[478251,595829],[-275,-1552],[344,-1595],[518,-520],[1799,-163],[-297,-2108],[487,-1623],[1571,-2506],[1556,-1068],[915,-1922],[746,-263],[-339,-285],[529,-733],[-1618,-1951],[-350,-1573],[-724,-976],[375,-1032],[-375,-997],[984,-996],[-260,-997],[-804,-876],[-666,0],[31,-612],[-1640,-1509],[-1624,-470],[-2084,441],[-2968,-712],[-2354,449],[-2302,-1011],[-4692,-862],[-1148,-1153],[-2645,-1338],[-1349,-100],[-1826,847],[-3470,-1103],[-1201,-1488],[-1619,-926],[-5042,-1901],[-2486,-2605],[-4433,-449],[-2757,-1936],[-1809,-1994],[-5031,-2584],[-101,-719],[-2841,-498],[-1936,-1026],[-682,-2007],[-1058,-292],[-540,-1289],[-1868,-1438],[-571,-1765],[312,-1239],[-788,-890],[-2518,2748],[370,1424],[-2127,2399],[334,940],[693,356],[6507,897],[2185,1637],[1936,2819],[1756,4770],[3000,2763],[2635,4948],[243,5375],[4698,5403],[2978,1851],[275,1097],[910,-285],[471,883],[-1301,939],[-5613,-413],[-1286,-363],[624,-149],[-1983,242],[-4328,-2072],[534,520],[3386,1616],[10819,1011],[6936,1879],[4814,2243],[7650,2371],[2026,1559],[1286,2378],[5115,1908],[2910,1908],[2217,704],[254,-391]],[[384204,569409],[-519,214],[254,512],[265,-726]],[[385262,570612],[-651,79],[1032,199],[-381,-278]],[[384468,570790],[201,121],[-407,-341],[206,220]],[[382172,568989],[-413,-334],[-407,277],[820,57]],[[495466,701451],[2819,-4585],[7592,-7988],[-841,-2997],[-2846,-4030],[-16660,-6891],[-4243,-2428],[-3846,-811],[-3920,28],[-2254,1488],[-1671,413],[-2603,-3595],[-587,-2656],[-12417,-4976],[-4634,-1218],[-3153,-3096],[899,-2435],[6523,-5397],[741,-1210]],[[454365,649067],[-4830,1616],[-27,1146],[-1296,-477],[85,-413],[-3910,584],[-4206,-918],[-5269,-3659],[-1852,-3297],[-1994,-2192],[428,-826],[-2031,954],[-196,569],[-7682,406],[48,-434],[-2412,-1688],[-2683,-2854],[-1872,-3076],[-503,-1929],[122,-2506],[2052,-4222],[127,-1068],[-497,-1459],[-3608,-2499],[-2148,-456],[2793,926],[-4174,-15],[-1645,-1310],[90,435],[-1238,-370],[-58,370],[-1910,-1324],[1264,434],[-1290,-2406],[174,-1488],[2703,2377],[1619,371],[-3296,-2015],[-671,-1111],[201,-1502],[576,-698],[1640,-227],[3772,-3589],[879,-1502],[714,-4392],[-291,-4913],[-2614,-3146],[-1264,-791],[-381,292],[233,712],[3608,2649],[243,1231],[-5909,36],[-6169,-1082],[-1767,-1090],[-449,-1993],[1153,-3140],[7422,-3054],[1106,-3908],[-1370,-3019],[-2513,-783],[-1058,691],[3237,434],[1260,2335],[-8000,2741],[2154,-164],[-1344,1132],[-3830,563],[910,156],[-942,812],[503,2114],[-858,-1160],[-216,-1203],[-1307,-862],[-3471,-1203],[-1264,491],[-407,-569],[1349,-2414],[4502,-5510],[2878,-762],[254,1018],[-963,662],[942,-156],[95,-1588],[-609,-228],[640,-50],[-1581,-2207],[-1984,-1388],[-6523,-1894],[-2058,-2157],[381,2214],[1000,734],[1206,121],[-826,-954],[1471,1132],[4603,904],[-783,598],[-1291,0],[529,904],[-767,-57],[-794,498],[387,235],[-355,257],[-561,-1026],[-1084,413],[703,-754],[-735,-157],[58,-534],[699,-448],[-725,-164],[-561,612],[116,-512],[-1084,-613],[2497,235],[-3375,-769],[-1355,-1224],[-1444,-2912],[-619,534],[238,420],[-1920,-420],[-281,-228],[646,-164],[-709,-434],[-1524,-85],[-412,534],[-561,-235],[296,-456],[-1587,157],[793,-1339],[-587,-989],[937,-378],[735,513],[354,-790],[1233,-57],[857,868],[-915,492],[-450,1423],[2127,-1559],[762,257],[-265,690],[1355,612],[-910,-1480],[-8671,-4350],[-2963,-577],[2169,833],[-1587,1025],[-1793,-512],[1000,-890],[1084,106],[-4259,-1309],[3323,847],[-3265,-1894],[-2528,-2300],[-3079,65],[640,946],[-1206,1011],[206,869],[-2291,256],[2201,-256],[-291,-812],[1264,-1167],[-587,-890],[1587,199],[1323,-498],[3671,3147],[4497,1651],[-4438,-2342],[-4259,-3638],[-6058,-7084],[-8348,-11804],[-3142,-5204],[-2735,-7667],[-3349,-7041],[-794,-3702],[148,-2649],[-645,-178],[407,-356],[-233,-768],[355,-791],[-630,-1110],[260,-378],[-810,-1025],[-249,968],[-3481,-2143],[2249,-1167],[740,1118],[-343,377],[1714,-14],[5,-506],[-323,121],[418,-833],[-619,-85],[804,-420],[344,527],[-259,-1324],[741,-264],[-508,-228],[471,-719],[296,954],[-519,855],[371,1203],[-905,128],[296,1367],[302,-306],[-85,1203],[281,-662],[-302,1673],[-455,99],[376,456],[1978,-6080],[2773,-4115],[2788,-2719],[8734,-3596],[4280,-804],[3931,7],[1365,-655],[-4312,335],[-185,-940],[1597,28],[-253,321],[634,534],[937,-249],[-773,-1738],[625,-576],[-3317,-2108],[-1148,-2128],[-1122,-413],[-582,804],[-26,912],[-1265,99],[-735,-534],[1106,314],[1714,-2506],[2766,92],[1085,990],[1545,455],[455,363],[-884,1033],[1561,-15],[545,613],[-339,398],[704,755],[-148,641],[2375,996],[-169,1211],[-757,-449],[307,1339],[-603,982],[185,2300],[-952,1488],[540,932],[-323,677],[598,1217],[894,-71],[365,1260],[1291,961],[58,683],[1762,798],[3348,-548],[2011,619],[322,783],[2863,-2143],[2354,-114],[841,-1224],[3015,-342],[471,-690],[8830,-4706],[3878,-456],[4941,299],[4031,-5745],[1725,-897],[-4936,-4350],[-466,-1467],[1027,-790],[169,-797],[-788,-727],[-175,-1623],[-926,-669],[-3248,-691],[-1412,-2947],[58,-1146],[-1233,-2022],[-5581,-2271],[-974,36],[-1174,-969],[-4206,-626]],[[387108,467347],[-5989,-3175],[-4047,-2855],[-15972,-983],[-3608,2442],[-18130,-576],[-14559,-4393],[-7814,-242],[-8755,2905],[-10063,4321],[-7829,4165],[-19940,2783],[-6332,1374],[-5000,4521],[-4126,726]],[[254944,478360],[-2857,-1950]],[[252087,476410],[-1709,2755],[-677,4827],[37,3922],[2375,4002],[3704,3609],[11448,14103],[8750,14040],[4608,6144],[1915,4592],[-386,6129],[2333,4158],[16072,9874],[3106,3638],[4989,8864],[3100,13014],[3148,4272],[714,4442],[-2344,7041],[3328,3510],[3936,2791],[6909,-1310],[17099,-1951],[2364,2755],[-158,2257],[-1677,1645],[-8238,4157],[-5142,4685],[-3354,4328],[-8867,5397],[-4047,3944],[-3698,5453],[-3608,3574],[-2179,4272],[2137,2983],[2423,825],[1878,1609],[-1984,2051]],[[310392,648811],[1418,1538],[1116,106],[-719,7],[1269,1851],[-280,221],[2508,1374],[1872,-299],[3778,2335],[2730,783],[3110,2037],[2593,818],[2534,1780],[608,1260],[3799,2300],[1322,1630],[445,3339],[-662,1630],[-1047,670],[825,370],[-963,35],[-1518,-1075],[222,890],[937,669],[-387,520],[662,1332],[936,370],[-386,299],[386,591],[-275,669],[995,3260],[5121,1410],[1656,1929],[-196,406],[4274,634],[1101,740],[1682,2634],[1651,-149],[2317,890],[5729,-150],[1847,926],[1047,1708],[1931,520],[767,741],[-164,370],[937,78],[248,705],[1651,-150],[-302,406],[746,36],[4407,-1182],[3196,740],[857,477],[550,748],[-164,370],[2698,370],[2370,3631],[4243,3339],[53,1559],[5708,1517],[1185,-36],[2450,-1595],[2645,299],[635,185],[0,663],[-1487,598],[2920,669],[1572,1445],[3523,-890],[4164,406],[-1519,-4564],[1185,933],[59,662],[936,968],[-275,221],[1598,961],[1375,1858],[6587,2407],[2645,299],[1873,1189],[2206,291],[862,-583]],[[429320,711760],[-936,-2150],[-238,-1787],[3697,-2848],[-2026,-6692],[3164,-5240],[6169,-3182],[6978,-2713],[7258,-1096],[5174,968],[2328,2428],[84,3559],[-1306,4073],[1782,2805],[5698,2534],[7089,2228],[5629,-1025],[5000,-1687],[5671,-726],[4931,242]],[[348853,685240],[-84,-35],[-80,106],[164,-71]],[[348964,689248],[662,72],[-302,-406],[-360,334]],[[440631,579782],[2105,-954],[-2624,933],[-3285,227],[3804,-206]],[[404101,616610],[793,2214],[587,299],[-444,-1566],[-936,-947]],[[409804,711938],[-1159,-741],[439,961],[720,-220]],[[340854,510184],[101,-449],[-593,612],[307,983],[185,-1146]],[[142131,510789],[143,64],[-275,-143],[132,79]],[[340468,511515],[233,93],[-37,-193],[-196,100]],[[340151,511821],[206,185],[63,-178],[-269,-7]],[[146470,512982],[2364,1630],[-3825,-2478],[1461,848]],[[345272,684500],[714,520],[-217,-670],[-497,150]],[[360809,689469],[170,0],[0,-78],[-170,0],[0,78]],[[381421,707267],[936,1332],[222,-1111],[-1158,-221]],[[206616,353160],[2492,890],[-1656,2115],[1889,1011],[3861,-4115],[-581,-1702],[6195,-5354],[5348,-1644],[3074,-2891],[555,-3189],[2286,-2812],[7110,-6842],[6989,-3816],[1735,-2549],[127,-2449],[6486,-4058],[4809,-1473],[804,-3183],[-1534,-2313],[2195,-3653]],[[103438,228928],[333,8764],[984,4941],[7190,8408],[417,5304],[-2380,4271]],[[109982,260616],[-3788,10779]],[[483224,623708],[439,-1459],[-244,-492],[503,-142],[-79,-413],[-1624,-121],[-1471,2122],[1206,719],[1270,-214]],[[477420,651424],[275,-150],[-275,-149],[0,299]],[[464496,652128],[84,-114],[-275,-142],[191,256]],[[463946,654357],[-302,256],[497,-149],[-195,-107]],[[501835,655054],[-169,-71],[69,107],[100,-36]],[[503407,656129],[-32,-256],[-164,0],[196,256]],[[505470,656614],[-164,78],[164,0],[0,-78]],[[502936,656763],[222,71],[-497,-220],[275,149]],[[509326,656763],[-164,71],[85,43],[79,-114]],[[551597,675522],[825,299],[-936,-519],[111,220]],[[552755,676192],[1487,2449],[608,299],[-883,-2150],[-1381,-890],[169,292]],[[554850,679459],[990,371],[-858,-705],[-132,334]],[[611166,675601],[-164,71],[85,43],[79,-114]],[[611389,675900],[-85,-43],[-79,114],[164,-71]],[[566034,677381],[111,1110],[603,299],[-106,-1708],[-608,299]],[[627149,679602],[-164,0],[0,78],[164,-78]],[[771920,650349],[0,113],[164,0],[0,-113],[-164,0]],[[787870,653018],[-79,114],[164,0],[-85,-114]],[[757451,663697],[-80,114],[164,0],[-84,-114]],[[757451,665776],[-80,107],[164,0],[-84,-107]],[[791399,667848],[0,149],[191,-106],[-191,-43]],[[748748,678085],[-85,107],[164,0],[-79,-107]],[[744087,681681],[-164,71],[85,43],[79,-114]],[[731247,690950],[276,-221],[-492,-149],[216,370]],[[792394,668887],[-85,114],[164,0],[-79,-114]],[[854445,704042],[-85,107],[164,0],[-79,-107]],[[874061,709973],[-1846,256],[1624,192],[222,-448]],[[875495,710863],[302,-257],[-603,0],[301,257]],[[725269,689206],[0,-292],[-1433,292],[1433,0]],[[722185,689505],[191,-114],[-498,0],[307,114]],[[721741,689654],[84,-114],[-1597,0],[1513,114]],[[726788,691918],[550,-149],[-307,-185],[-243,334]],[[556940,680641],[550,221],[-301,-406],[-249,185]],[[571515,679716],[-79,114],[164,0],[-85,-114]],[[571822,680121],[-386,-71],[79,114],[307,-43]],[[572070,682827],[80,-107],[-386,0],[306,107]],[[647014,687276],[-79,114],[164,0],[-85,-114]],[[791399,667848],[-1513,-2556],[-275,-1709],[-635,1595],[-3306,0],[-445,-591],[1408,-484],[909,-997],[1958,257],[-386,-591],[164,-1559],[-720,-1851],[170,-2150],[-498,-1560],[609,-1409],[-1270,-1111],[164,-669],[-714,-819],[0,-1068],[613,-256],[-560,-2143],[-847,-1025],[-4925,-1602],[-2778,-164],[-3063,2328],[-3952,563],[-79,776],[1317,1701],[-1047,969],[275,220],[-4465,1851],[1709,670],[-2508,-406],[-1074,185],[275,370],[-741,627],[-883,-442],[-772,591],[-440,-441],[-968,334],[386,370],[-714,221],[164,370],[-825,670],[-497,3189],[-551,890],[-2258,1410],[164,1851],[-493,448],[2947,627],[138,854],[2068,185],[1212,740],[550,-740],[1513,256],[-1185,783],[-2645,150],[-1873,740],[-2174,-334],[-170,-819],[-523,-185],[-1788,1445],[-2921,968],[386,812],[-830,968],[386,1111],[-2037,1559],[58,961],[-497,370],[714,598],[223,2150],[-2868,2072],[-3693,1559],[276,221],[-492,377],[851,406],[3280,-185],[-4904,370],[524,406],[-1656,-741],[-2973,442],[-2952,1523],[280,221],[-2481,669],[-58,520],[-937,370],[498,150],[-387,299],[387,220],[-746,335],[-7465,1516],[1735,114],[3307,-890],[1957,1075],[138,855],[-1074,334],[386,1111],[-1381,370],[169,370],[-1544,1040],[-3831,484],[-772,591],[-746,-634],[280,-1260],[-608,-71],[275,-221],[-497,-377],[497,-143],[-497,-598],[497,-441],[-412,-406],[-1958,477],[-799,1154],[-301,-1154],[603,-292],[-524,-334],[-1651,890],[-4163,106],[3724,-405],[990,-741],[-5402,591],[-15649,299],[-1624,-484],[-280,-1111],[-741,-35],[-1106,890],[-2396,-114],[-910,1595],[-2397,35],[275,669],[-518,634],[-6507,292],[-13115,-1481],[-7936,-1929],[-3306,-1780],[-5619,-1630],[-2729,334],[164,370],[-715,371],[276,811],[-1519,192],[-852,-783],[0,-1110],[1709,-1260],[-714,-741],[164,-370],[-1518,-335],[-2423,741],[-635,-185],[58,-819],[-1518,-926],[-5619,-1630],[-3195,0],[-2867,-1481],[-2841,477],[830,370],[-1709,819],[-830,1851],[-937,-149],[498,-442],[-53,-1260],[714,-370],[-275,-520],[1047,-669],[-275,-520],[498,-370],[-112,-520],[-1518,-925],[-1984,740],[-1566,-1886],[-3941,-1524],[-2979,449],[-4518,2370],[-745,-405],[386,811],[-937,1631],[720,149],[-746,335],[-413,-185],[-333,-1040],[280,-520],[-497,-590],[1376,-969],[-826,-1110],[1376,-669],[-164,-371],[608,-811],[-883,-1410],[-4577,-370],[-439,-598],[275,-221],[-1158,-370],[386,-591],[-217,-370],[-4052,-3304],[-5153,114],[1846,-704],[1762,149],[85,-413],[-1270,-961],[-937,-1559],[-1486,-961],[-2148,-4229],[-3142,-2001],[-5788,-5303],[-8650,-5368],[-1338,-2784],[-1863,-2292],[-3206,-2905],[-724,-128],[-3772,-406],[-1000,591],[-2127,-826],[-2254,-128],[-1026,285],[206,306],[-418,555],[1148,2898],[-661,1623],[1212,1495],[391,1837],[2650,3823],[-433,968],[264,861],[-497,449],[1270,1409],[0,1261],[-826,291],[603,520],[-164,968],[1487,1560],[-275,441],[222,1851],[3910,968],[661,890],[-275,1111],[1381,1708],[-334,2001],[-1597,1559],[936,591],[-497,149],[497,1702],[-936,669],[936,890],[-603,890],[275,1111],[-1931,2819],[963,-406],[1767,1039],[1211,-299],[3280,2855],[-333,1111],[-1375,669],[1486,1410],[-1846,185],[-138,-705],[-523,-36],[-1238,1004],[-2069,627],[-5375,-1965],[3169,334],[0,-448],[-5290,-292],[-7576,-1673],[-1984,-1922],[714,-748],[-106,-1701],[-2370,-968],[741,-257],[-5153,-1523],[-1211,-1182],[-276,-968],[-3057,-1965],[-2868,-591],[-661,-741],[-2090,-299],[-2206,-1331],[-5068,-1637],[-2402,484],[-217,669],[603,890],[-714,1039],[-58,-1260],[-603,-890],[714,-370],[-164,-669],[1270,-299],[-6338,-2300],[-3857,-2370],[-608,-1410],[-2508,-1225],[-1762,-299],[-523,413],[825,890],[-1624,627],[-445,-442],[-740,627],[439,669],[1820,669],[-1074,855],[-635,-185],[275,-228],[-1598,-1552],[191,-1154],[-3307,-591],[-79,406],[1264,591],[-2063,335],[-661,-741],[-968,114],[830,-1189],[-111,-811],[-719,-378],[195,-555],[963,43],[275,662],[1074,484],[1296,-256],[360,996],[524,-35],[-85,-406],[2730,107],[222,-370],[-1380,-1560],[-223,-1260],[498,-71],[-275,-520],[439,-590],[2481,-969],[-7962,-405],[10015,-129],[5,-541],[-1910,-526],[-1085,-947],[-386,-1887],[-3396,-5660],[-2111,-1367],[-5021,-555],[-2486,-2285],[-1862,-207],[-1704,-1473],[-1629,149],[-233,1723],[-1238,669],[-323,1246],[471,2356],[-1148,4450],[-2439,2314],[-1000,2449],[-2195,520],[-661,740],[-2619,335],[-275,961],[-1265,818],[-830,1410],[-4709,2855],[-3089,0],[-2614,-1075],[275,-1040],[-275,-1260],[386,-299],[-634,-776],[-413,185],[497,442],[-608,299],[164,961],[-497,228],[497,441],[-328,819],[-1820,-1040],[-661,-2890],[1560,-1687],[90,719],[773,327],[-175,-2071],[-1381,-869],[-5576,-1303],[-2619,-1701],[-1666,-1887],[90,-1872],[3068,-1446],[1455,-57],[-10,-647],[-1117,-442],[-2999,1267],[-3206,-434],[-937,2414],[3042,1302],[3127,3347],[2883,1281],[-1180,676],[-1878,-911],[-1962,299]],[[495466,701451],[841,4471],[4311,3289],[5259,1652],[5994,484],[3656,-1075],[5862,-613],[4047,2585],[-524,5104],[2195,1531],[709,2271],[450,4293],[5894,3837],[13056,2563],[4513,1873],[10914,6265],[3708,-285],[10512,-2827],[6211,1638],[4159,2627],[2888,7589],[4211,3503],[6359,1260],[11935,-2150],[6629,733],[3175,-2321],[4750,-569],[7978,790],[8893,4834],[15126,7084],[14987,5104],[21812,-1061],[14184,7490],[15083,5069],[16051,8016],[6163,10850],[4587,5397],[5973,3872],[7835,1816]],[[765852,808440],[3153,-1702],[3772,1104],[3201,2719],[4158,-1245],[10438,-1439],[5893,-2826],[4767,-192],[1550,2442],[4899,0],[4280,904],[180,2776],[5047,399],[1772,3175],[3063,961],[1746,-804],[-746,-4371],[2751,484],[2899,2114],[1810,-327],[-1080,-3332],[8026,1395],[4089,2179],[11666,1687],[238,1979],[3454,2143],[2143,-135],[3835,2121],[4032,1417],[6375,-1644],[2565,-3005],[8613,257],[3190,1965],[7111,982],[9866,-2399],[6179,-3382],[4312,2620],[5348,876],[6777,3346],[16819,4364],[7073,591],[7502,1673],[5734,-1118],[2476,-3090],[6687,-299],[4624,-2242],[2629,-5375],[-4814,-2549],[-4020,-3916],[5517,-2057],[1603,-3880],[-476,-4735],[3603,-1658],[6301,989],[2169,-2449],[74,-3495],[4269,-2250],[1244,-4442],[3761,-2122],[-667,-3367],[-973,-86],[-222,1552],[-413,185],[-1873,-149],[-1074,-1816],[1048,-220],[-4164,-1225],[-5401,449],[-466,847],[-1074,484],[-3751,0],[-2396,1296],[-111,-371],[994,-890],[1376,-590],[-3719,-186],[-741,-484],[275,-149],[-275,-370],[1265,-1111],[58,-669],[1735,-926],[1291,36],[-3693,-1851],[-217,-370],[498,-299],[-1270,-961],[-386,-1118],[-2064,263],[-1740,-484],[-4767,-3673],[-412,42],[306,406],[-523,555],[381,150],[-604,221],[-58,669],[-5676,2000],[-1762,1930],[302,263],[-2751,740],[-4524,-740],[-629,627],[497,669],[-2042,-299],[386,-669],[-1158,227],[386,-370],[-714,-890],[825,-747],[-825,-591],[1047,-520],[-386,-669],[825,-221],[111,-2449],[-2042,-520],[-217,-512],[714,-890],[-1047,221],[1492,-1040],[-1296,36],[-85,-555],[1074,113],[635,-633],[-497,-812],[497,-78],[-275,-370],[825,-1260],[-550,-1111],[-2069,-1075],[-1322,890],[-3307,0],[-2835,-1374],[-662,-1410],[1487,-1481],[-1212,-2078],[-2206,-1631],[-1925,-519],[-3228,-2044],[-4846,-740],[-2179,933],[-466,704],[-1407,36],[-550,740],[164,371],[-1624,1224],[-1958,-406],[609,442],[-445,818],[-1211,1033],[-2069,633],[1185,-705],[-4348,-1260],[-2207,-1338],[-1243,-1588],[-963,776],[387,150],[-112,662],[-851,192],[-1185,-1153],[2481,-1111],[-307,-263],[1735,-335],[-79,-406],[550,299],[2756,-889],[577,-855],[3280,-626],[191,-264],[-387,-149],[773,-591],[1492,-221],[661,-1260],[-1159,-747],[2037,-663],[-386,-889],[386,-228],[-2090,-1481],[-1740,-484],[-3719,932],[-1323,741],[-164,1110],[-825,-220],[-884,441],[164,520],[-412,185],[-3857,1039],[-1873,-299],[-635,-334],[551,-662],[3391,-335],[2645,-1039],[1513,-1595],[-825,-669],[-164,-812],[-3169,-925],[-1624,-1083],[-884,-1181],[53,-1111],[-852,-1225],[-7274,442],[-138,555],[-3470,1260],[-280,819],[-1953,335],[-772,890],[-2619,-1374],[-111,-670],[1159,-370],[661,-1182],[222,-519],[-497,-741],[3910,-1267],[0,-812],[-551,-591],[-2285,257],[-1101,-890],[-3862,-150],[-2396,1446],[1492,-1182],[53,-520],[1296,-484],[2534,-150],[2867,890],[1185,-776],[-936,-1630],[492,-228],[-1047,-811],[306,-1296],[1873,1331],[2174,-35],[223,-520],[-328,-591],[-1328,-1338],[-1815,-670],[164,-370],[-2507,-626],[-1762,890],[-1878,-890],[-1651,0],[-412,334],[164,370],[-2587,962],[52,818],[-1708,221],[164,520],[-1847,1075],[-1428,-150],[-4301,2229],[-2397,-784],[3169,-555],[-196,-406],[4799,-2007],[-773,-1111],[-1486,-591],[2809,669],[53,-818],[1047,-670],[-275,-370],[773,-1331],[714,-370],[-714,-371],[1486,-227],[-386,-890],[275,-520],[-2089,-1182],[-3476,-78],[1047,-441],[-328,-969],[-1931,-1701],[609,-1559],[-1492,-371],[-275,-961],[-1709,0],[-492,2001],[-995,890],[-963,35],[-1629,-484],[386,-292],[-492,-1189],[217,-1110],[1048,-299],[-1847,-926],[-3306,-598],[-878,449],[-2868,-150],[-26,705],[-1074,926],[-4518,-890],[190,-257],[-497,-78],[275,-1110],[-2587,-371],[-1984,-2079],[1926,-2221],[-1434,-2150],[-3936,114],[-3830,-1374],[-2979,-2079],[170,-519],[-720,-72],[164,-818],[-714,-520],[-249,-854],[413,-406],[-439,-741],[-4603,-1075],[-6279,-3410],[-2207,-448],[-1544,747],[-1873,-598],[-4989,-3075],[-1513,106],[-2206,-1181],[-3084,-449],[-27,705],[-3613,1673],[-2063,-1303],[1761,-1630],[1376,-520],[-714,-221],[857,-185],[217,449],[412,-563],[-2285,-2997],[-2645,741],[-1297,-335],[1159,-740],[-190,-705],[-4079,441],[79,1154],[-413,334],[-5592,-192],[-111,-662],[746,-335],[2423,-299],[-190,555],[412,335],[2064,-484],[222,-370],[-1270,-1481],[1492,-1039],[-1820,-520],[-333,-662],[746,-634],[3058,-35],[222,-1111],[-1709,-890],[1402,256],[418,-1004],[-2291,-1516],[-3634,-448],[-1984,-1332],[-2286,335],[-1793,1744],[-1624,-43],[0,-811],[1428,-1189],[609,71],[-275,-221],[439,-740],[1296,-926],[772,442]],[[730200,691099],[0,-71],[-164,0],[0,71],[164,0]],[[730369,691398],[164,-78],[-275,-149],[111,227]],[[730200,691541],[-164,-71],[85,114],[79,-43]],[[729015,691726],[524,413],[-715,-520],[191,107]],[[728105,692210],[-825,78],[857,627],[-32,-705]],[[875469,711639],[439,-143],[-609,0],[170,143]],[[894339,726290],[85,-114],[-825,0],[740,114]],[[894234,726582],[439,0],[-635,-107],[196,107]],[[896212,729401],[-439,-890],[-1407,335],[1079,705],[767,-150]],[[912083,741568],[-79,107],[164,0],[-85,-107]],[[947137,759067],[-195,107],[195,43],[0,-150]],[[961131,770636],[-80,107],[164,0],[-84,-107]],[[949862,772523],[-386,-71],[84,114],[302,-43]],[[979097,773157],[301,-257],[-492,-149],[191,406]],[[979541,773306],[-85,107],[164,0],[-79,-107]],[[979620,773861],[-111,-220],[-164,0],[111,220],[164,0]],[[977224,773747],[-85,114],[170,0],[-85,-114]],[[950772,774345],[85,-113],[-281,0],[196,113]],[[981081,776268],[746,114],[-937,-371],[191,257]],[[982181,776716],[635,114],[-937,-370],[302,256]],[[983948,777457],[635,114],[-635,-406],[0,292]],[[985821,777905],[-85,107],[169,0],[-84,-107]],[[986921,778347],[85,-107],[-275,0],[190,107]],[[979398,778382],[-164,0],[0,78],[164,0],[0,-78]],[[987366,778496],[190,-114],[-386,0],[196,114]],[[987805,778646],[195,-114],[-386,0],[191,114]],[[996719,779927],[-730,-57],[2164,256],[-1434,-199]],[[429119,713383],[111,149],[190,-256],[-301,107]],[[430664,714273],[79,-107],[-164,0],[85,107]],[[446974,743640],[79,-107],[-164,0],[85,107]],[[395086,754653],[280,-441],[-444,-598],[-1815,0],[1429,1260],[550,-221]],[[393959,755657],[-302,406],[604,299],[-302,-705]],[[392166,759324],[-80,-107],[-84,36],[164,71]],[[392277,760064],[0,-71],[-164,0],[0,71],[164,0]],[[389658,761438],[-413,-107],[-106,513],[1048,299],[-529,-705]],[[372686,762478],[2947,-406],[-4708,-634],[-3058,783],[1624,556],[550,-299],[-190,256],[1624,783],[1211,-1039]],[[387045,763332],[386,-78],[-196,-185],[-190,263]],[[375527,764663],[-169,-71],[85,114],[84,-43]],[[394430,756505],[301,42],[80,-114],[-381,72]],[[419639,816912],[-1297,256],[223,598],[1074,36],[412,-484],[-412,-406]],[[448958,830410],[85,-114],[-170,0],[85,114]],[[523462,825512],[-550,-150],[-412,264],[962,-114]],[[522336,825775],[-170,-78],[0,78],[170,0]],[[482901,834561],[196,-114],[-386,0],[190,114]],[[482795,836931],[302,-106],[-498,0],[196,106]],[[475383,840085],[773,71],[-196,-256],[-577,185]],[[429320,711760],[1783,-1488],[2396,334],[-2396,257],[-963,633],[53,812],[-937,78],[715,143],[-387,669],[720,78],[164,513],[1375,78],[-1042,0],[603,961],[-714,78],[-333,741],[936,811],[-2613,1823],[-5597,1815],[-1127,1595],[-1296,-555],[-59,662],[-714,448],[3085,2371],[2401,-107],[1624,1075],[-58,961],[720,591],[-111,1040],[-937,1189],[1265,370],[941,1260],[1953,185],[3555,2784],[4825,1516],[328,598],[2094,143],[2069,1224],[989,2079],[-714,1111],[767,1039],[2926,1709],[-386,292],[386,448],[-275,1111],[825,220],[328,819],[-550,1630],[-2201,3261],[-5486,2264],[-3307,-441],[-910,-1595],[-1185,-335],[-634,1075],[608,961],[-936,79],[-112,1701],[498,370],[275,1261],[1047,669],[498,1260],[2920,3638],[492,4371],[661,1338],[2841,1076],[4740,-300],[688,1154],[1376,520],[-164,1260],[497,811],[-275,150],[217,1260],[497,520],[-164,961],[497,2079],[-222,2819],[-1375,1481],[1042,370],[1656,3417],[333,1260],[-1270,1702],[498,448],[105,1260],[-1042,1780],[2259,2449],[-719,1922],[275,670],[-492,220],[-169,1260],[-826,890],[2593,2300],[-223,1410],[-936,968],[275,149],[-275,812],[1375,1559],[-386,149],[275,292],[-275,2008],[662,2072],[608,228],[-164,370],[1211,1032],[2810,819],[1021,1744],[4079,1331],[2200,0],[884,1189],[1434,-149],[1846,633],[275,2592],[3031,669],[1323,1481],[53,968],[3941,185],[1873,1182],[3090,-441],[2200,441],[4079,-1630],[6835,-1332],[413,-263],[-497,-142],[1185,-335],[7713,149],[3640,-1637],[4158,-627],[1656,-1039],[497,-1260],[1291,-783],[85,413],[-825,519],[53,663],[-1984,2078],[-4682,1260],[-3857,2079],[-222,670],[635,626],[3412,890],[4962,-441],[2757,740],[9697,-1039],[2317,-741],[1323,442],[1650,-890],[857,114],[-2730,1075],[-5618,590],[-5957,1638],[-14104,441],[-2095,1189],[-4190,890],[-3635,1929],[-4740,1033],[-1545,-442],[-3274,1517],[-667,1488],[386,519],[-1925,2001],[275,370],[-2593,1260],[-164,1111],[-1185,932],[-2645,-448],[-1433,740],[-2312,-292],[-5291,883],[-5179,-2221],[-6507,150],[-2862,-890],[-3418,0],[-2206,-598],[-1185,-627],[-3111,-3524],[-1545,150],[-2862,1480],[-4301,-291],[-4962,-1638],[-3084,150],[-3418,-1631],[-3635,-890],[-2978,598],[-550,-598],[-7026,-1516],[-1762,-1189],[826,-740],[222,-2891],[-2508,-1224],[-1629,-185],[-1651,-1560],[609,0],[243,556],[2730,-335],[439,-591],[58,-2150],[2063,-783],[1958,114],[608,-819],[2921,-1552],[0,-519],[-7111,-1118],[-1100,-1403],[1158,-890],[-4687,-1559],[-2037,-2000],[-1931,-819],[1270,-740],[-386,-741],[275,-1409],[-386,-598],[936,-962],[-275,-220],[608,-520],[-169,-669],[524,-634],[963,-35],[-381,-442],[381,-669],[-439,-1189],[-1820,-221],[555,-1409],[741,-627],[1984,591],[1407,-484],[217,-662],[-767,-890],[-2153,-968],[-217,-1260],[603,-890],[-825,-71],[-1487,-2150],[-857,256],[-1074,-634],[1270,-441],[-1048,-741],[714,-519],[-1375,-221],[497,-370],[-2042,-968],[2042,-150],[-719,-890],[497,-811],[-1820,-1709],[386,-669],[-1158,-520],[-53,-1552],[-2148,-1929],[661,-1189],[4931,-2115],[1873,150],[1074,-335],[-164,-370],[634,-477],[5841,-748],[4931,-2185],[-1265,-961],[386,-2150],[-3719,-1082],[-2206,0],[-746,-627],[334,-819],[603,79],[661,-969],[-1709,299],[-386,962],[-630,185],[-3613,-1218],[-2090,-2150],[1926,-968],[-164,-669],[608,-890],[-3613,-2257],[-1984,-149],[-1846,1665],[386,969],[-1270,811],[59,1111],[-2730,-256],[-852,633],[1048,741],[111,811],[-1630,484],[-1846,-555],[1106,1410],[825,220],[164,819],[1381,221],[989,1331],[-1100,1559],[-2953,1666],[-3195,150],[-3084,-741],[-5264,-3004],[-111,-520],[936,-811],[-518,-264],[2973,-740],[2730,263],[661,-598],[-169,-662],[936,-819],[-852,-405],[-1761,740],[-2868,-150],[-2312,1930],[-1629,-264],[-386,819],[-1291,776],[-6454,1488],[1555,2057],[-48,2478],[-1322,1680],[-4121,1865],[-3355,3959],[-1327,3446],[3094,1879],[3921,-420],[2243,1182],[4745,4122],[-2634,4948],[-12073,1602],[-3756,2406],[1190,2841],[16363,3310],[6587,2179],[5195,2790],[1349,2414],[-1867,2499],[693,3552],[2301,4158],[-4169,4350],[-2079,3460],[6539,3709],[1238,3189],[-3534,1801],[-5894,50],[-2968,1524],[4021,3545],[-3841,2884],[-8237,4300],[-7703,1210],[-481,4058],[3687,9704],[3561,2691],[4460,-1239],[5322,883],[4909,4442],[6481,1773],[428,1673],[-4523,2698],[2577,3503],[-2931,3581],[328,2363],[8168,1709],[4148,3076],[4777,4592],[-550,5553],[-3339,3573],[-5618,1410],[-264,3054],[-5164,2449],[2354,4421],[2751,3083],[4518,2257],[-746,8906],[-6057,5931],[1291,3495],[6406,2691],[11666,926],[4269,2114],[-2809,2107],[841,1937],[3888,1267],[3820,2549],[5994,2036],[180,2278],[-5105,3396],[90,3076],[-4322,1566],[-5085,4143],[-1349,4322],[984,4741],[-269,2834],[-4026,2342],[269,2485],[2646,1132],[5655,-606],[5603,3532],[5882,5517],[3275,-1616],[6370,-328],[4248,-2256],[9036,213],[4888,2442],[6910,-57],[18452,-7048],[2566,-1822],[6328,-57],[3364,-2250],[2508,-2506],[973,-2720],[2000,-1039],[4317,1851],[-259,3196],[-2249,2827],[2381,2506],[8465,1659],[4846,-1061],[3095,-2777],[1211,-2548],[11316,-947],[8153,306],[2883,-1944],[778,-3688],[2608,-3232],[-2000,-4164],[3772,-1339],[5846,733],[5438,4542],[6486,-1552],[8915,-946],[5359,-3980],[3317,-1709],[8729,1595],[6565,-676],[8529,2050],[5465,4613],[3629,670],[2555,-3332],[5587,-5162],[5465,-3481],[8432,-2513],[-206,-3603],[931,-3324],[3550,-890],[7423,1481],[957,-3617],[4899,-968],[8232,1253],[5184,2783],[2884,-1146],[10073,1410],[1883,-5838],[3529,-2955],[10432,-1381],[1228,-6827],[2830,-5446],[5618,-3111],[2005,-2264],[7597,-990],[5206,235],[5042,-1545],[-550,-4122],[7623,-2748],[3947,-10928],[2052,-2634],[-3560,-3019],[571,-1780],[-5607,-2847],[-9047,-1382],[-4486,-2299],[-4582,-4984],[-7168,-1630],[-2370,-3987],[-4280,-1765],[90,-5012],[-2825,-919],[-3677,-3588],[-6624,-861],[-1825,-2400],[-5100,-1203],[-561,-3168],[7391,-3488],[6407,-1403],[3550,-3353],[9305,-2364],[8248,1232],[10607,-4193],[4222,-3005],[9925,-4086],[6258,-6820],[4878,142],[4539,-2734],[5671,-292],[2127,-3865],[-1539,-5240],[5369,-3496],[-1301,-2919],[4148,-3018],[-344,-2343],[2232,-1993],[175,-2755]],[[106194,271395],[1698,-5610],[2090,-5169]],[[93137,194948],[-391,-17784]],[[92746,177164],[-6222,-3716],[-3349,-2976],[-5882,-2086],[-11798,-7155],[-9089,-2086],[-10147,-1139]],[[46259,158006],[-16400,-5268],[-2122,17990],[-2936,14566],[-2195,16182],[-2323,11847],[-2560,11334],[-7962,28634],[-3174,15740],[-5762,34330],[-825,8009],[32,7119],[820,8230],[1709,7945],[1983,14253],[-105,-1353]],[[4439,347564],[2555,-1110],[7518,-406],[16114,-5646],[5788,598]],[[195093,540768],[-116,114],[254,36],[-138,-150]],[[194017,541067],[-50,-57],[42,50],[8,7]],[[194017,541067],[108,121],[-74,-92],[-34,-29]],[[9845,374632],[-529,-947],[593,1880],[-64,-933]],[[9994,376020],[116,136],[-85,-235],[-31,99]],[[52401,449819],[196,-925],[-651,-620],[-37,1331],[492,214]],[[54517,448943],[0,371],[291,99],[-291,-470]],[[194866,540555],[-265,-499],[-618,435],[470,797],[413,-733]],[[195173,540939],[-265,335],[349,-171],[-84,-164]],[[4439,347564],[587,6522],[116,9134],[1915,4891],[143,-1154],[-116,1268],[1090,2491],[291,321],[-233,-790],[619,669],[-386,178],[264,576],[58,-562],[1587,-463],[-1179,506],[968,1452],[3095,-997],[1264,200],[1820,-1090],[-1471,1047],[-2116,100],[-3100,1708],[1148,4599],[2317,6436],[1339,1752],[-693,-591],[0,527],[-355,-919],[1312,5133],[1973,4991],[1350,932],[-762,606],[3645,12223],[2470,5440],[4143,6186],[2380,2378],[2408,1424],[1121,36],[-767,-257],[-1233,-2114],[-2206,-1011],[-1381,-1816],[2587,1346],[90,534],[3672,747],[233,1467],[735,968],[64,634],[-535,356],[736,925],[1296,299],[-297,-313],[6291,2983],[-323,-512],[6084,4563],[3756,5005],[482,2833],[-889,1147],[857,1381],[5375,-1958],[-206,-356],[1116,-612],[3354,833],[349,512],[-1084,456],[735,1758],[2645,3261],[1614,2912],[1999,2150],[7084,12124],[878,2663],[0,4371],[-613,3111],[-1587,4506],[-2942,5226],[-1645,1958],[-3349,1737],[-793,100],[-440,-634],[-624,335],[2799,3111],[1349,434],[127,812],[-603,99],[328,791],[2909,156],[900,1139],[4364,2912],[1677,-1915],[-296,-968],[1175,-1168],[6528,-1922],[6814,-534],[7142,1744],[4296,2036],[1195,1068],[2069,3197],[-201,541],[577,1267],[-577,2036],[1862,513]],[[110961,505179],[1227,1915],[-90,591],[-730,406]],[[112410,508874],[4275,199]],[[116685,509073],[-323,-420],[852,-1225],[8650,-1430]],[[125864,505998],[10363,1964],[2942,1560]],[[141015,509215],[106,997]],[[141121,510212],[7057,3617],[3899,3979],[7608,4834],[4983,3980],[21770,11804],[3545,3232],[1502,2834],[429,-150],[-370,-961],[2671,-1780],[-407,-1125],[1058,-534],[846,1225],[-2645,2819],[-1201,605],[450,1004],[1995,2285],[5549,3097],[4645,4742],[3613,1901],[2439,2014],[3497,4158],[1127,413],[-719,-21],[1037,1502],[-508,676],[989,1182],[2365,-406],[2216,1922],[1312,2385],[736,3916],[-640,1787],[-1582,448],[2370,4393],[778,57],[3190,2570],[-328,-7],[16,1310],[1692,2648],[7143,4094],[2190,2406],[2428,1751],[973,1439],[932,64],[2269,1516],[1185,1395],[439,1367],[3545,29],[2587,833],[5555,4051],[2232,4492],[175,1381],[825,0],[117,477],[-910,456],[1698,4428],[2095,0],[-1587,-313],[-588,-862],[498,684],[6279,996],[3899,1972],[4857,349],[4931,1709],[3782,4186],[-476,1709],[2947,512],[566,990],[1137,292],[646,1146],[1232,21],[3222,1631],[2101,1886],[1084,1923],[1540,320],[2719,1680],[3486,5631],[2339,1859],[1264,78],[931,1666]],[[252087,476410],[-1386,-961]],[[250701,475449],[-1143,-7412],[-1450,-3823],[-2560,-1865],[137,-2421],[-4343,-3865],[-1021,-4443],[-4745,-5282],[-3810,-2464],[90,-3545],[-5221,413],[-1497,-819],[-1826,-4492],[1762,-2058],[-1783,-1167],[-5285,-698],[-1672,-2427],[4846,-2471],[-100,-3239],[-9041,-3880],[-482,-1453],[2402,-2776]],[[213959,415262],[-6957,-1787]],[[207002,413475],[-4565,-484],[-8238,-320]],[[194718,541324],[116,78],[32,-157],[-148,79]],[[256996,607725],[572,634],[-514,-762],[-58,128]],[[259562,612844],[-539,-548],[248,811],[291,-263]],[[259557,612937],[32,128],[100,-150],[-132,22]],[[261467,617771],[174,206],[-174,-335],[0,129]],[[270074,620682],[148,157],[117,-121],[-265,-36]],[[309218,647344],[217,71],[-85,-114],[-132,43]],[[92746,177164],[-143,-3759]],[[66019,7774],[-212,-1545],[-762,-477],[-31,-690],[-1588,-748],[-1703,-2313],[-3000,-2001],[-349,1346],[3322,3260],[2582,4706],[-84,1467],[-588,334],[291,3567],[-1174,1595],[-2026,-136],[1153,4550],[-508,3161],[-1529,968],[-513,1360],[-1455,1523],[-2963,257],[-2015,1430],[-963,2749],[90,2491],[-704,1446],[207,3203],[-1148,2036],[0,1510],[-736,1516],[90,1524],[-471,868],[365,2563],[-481,819],[460,377],[402,2271],[244,12744],[-842,15299],[-1518,12274],[-1682,7952],[-1862,6258],[-6449,17143],[-3550,8002],[-2989,8835],[-1058,5788],[-455,5589],[16442,5361]],[[364714,380384],[-3841,-1039],[2910,733],[783,506],[148,-200]],[[364301,380392],[-2465,-620],[2264,776],[201,-156]],[[367327,382107],[-1100,577],[582,-36],[518,-541]],[[366169,383090],[666,-221],[-1402,242],[736,-21]],[[367724,382243],[-169,277],[259,-99],[-90,-178]],[[367306,382278],[-386,342],[587,-413],[-201,71]],[[212076,414792],[1883,470]],[[250701,475449],[4243,2911]],[[387108,467347],[1915,242],[-2037,-1203],[-1254,-1752],[-1380,-541],[-1169,-1367],[-752,-1124],[-931,-4144],[349,-605],[-90,-2285],[-2142,99],[2026,-413],[-1439,-441],[1555,-192],[1148,-6351],[2360,-4542],[910,-3196],[-619,-3994],[-1635,-3510],[11,-1908],[-1042,-3154],[-551,-4400],[249,-455],[-460,-1367],[1174,-1894],[1899,-1709],[2762,-1637],[2233,-612],[-2550,327],[-3698,1680],[3835,-1908],[2048,-284],[2719,484],[354,868],[1471,670],[0,761],[2285,-185],[963,1061],[3074,-1175],[1000,776],[2190,-206],[2413,534],[-186,-2122],[1773,-1459],[1116,-185],[-1508,-2044],[-1143,-2997],[53,-847],[1963,-2634],[-1354,-2100],[1084,-4087],[619,-911],[-238,-498],[-899,35],[-434,-1751],[1820,-983],[629,-719],[-105,-811],[925,-399],[1402,-4129],[926,-1453],[-1174,-3502],[1513,-5995],[-3487,-1658],[-846,-954],[-5333,-969],[-3253,-2712],[-2926,-4179],[-651,-2115],[-1433,-156],[-5793,1203],[-5312,3011],[-3185,3945],[-111,1836],[-2862,1673],[-1370,2086],[-2069,1823],[-4015,114],[-2836,-912],[2550,1346],[4100,-249],[974,1153],[3259,1581],[1687,2883],[-16,897],[667,484],[-561,1011],[1921,1289],[4872,-292],[2111,1744],[1746,-313],[291,455],[-434,556],[148,1438],[1545,534],[-53,541],[1375,35],[693,1175],[2275,214],[1265,690],[1761,2784],[-148,1566],[-1872,854],[-1910,-448],[-810,1210],[-1370,36],[-2111,-3033],[-746,-3759],[-1195,-356],[-619,-740],[201,-549],[-7624,3952],[-4221,555],[-1323,-413],[-2100,-2826],[-2889,-1246],[-2428,548],[-1153,-634],[-138,-1011],[-799,-697],[-2391,-499],[-836,520],[-693,-434],[-450,-919],[445,-854],[2671,-698],[16,-733],[-719,-491],[1047,698],[281,-591],[1603,-392],[-249,-327],[2137,-499],[265,-932],[-746,-420],[227,-627],[-889,-406],[3355,492],[349,-670],[-423,-462],[1423,-1531],[-1201,-178],[-3190,-2171],[-736,363],[-69,598],[-2481,840],[-169,-620],[2016,-1053],[-381,-848],[-931,-377],[-1561,598],[-3322,-811],[-1260,-634],[4857,1089],[-3899,-911],[1280,164],[-6010,-2314],[10618,2848],[-301,-271],[-4428,-904],[-9819,-3311],[-4566,-2698],[-2280,-1972],[79,-505],[-1391,-2086],[296,-983],[1180,-420],[-275,-761],[-1926,-1773],[-931,-2157],[74,-1559],[-2529,-2649],[-518,-968],[63,-1054],[-1899,-2242],[-714,-2314],[428,-1025],[-851,-1716],[-1080,-698],[-4380,-6464],[-2841,-8095],[-460,-171],[476,-626],[-820,-10230],[545,-4884],[1904,-8180],[1328,-3176]],[[203881,353224],[-9295,3233],[-5455,1751]],[[364968,392865],[3354,-2108],[-3746,2051],[392,57]],[[366936,380349],[-286,-64],[508,171],[-222,-107]],[[367153,380705],[-175,-21],[355,99],[-180,-78]],[[368089,381602],[95,100],[143,-136],[-238,36]],[[367465,381837],[169,-14],[-69,-193],[-100,207]],[[374295,382969],[-1630,-605],[-1423,534],[3053,71]],[[378628,391761],[894,-306],[-22,-541],[-671,-413],[-1297,1153],[1096,107]],[[393689,396837],[-143,7],[307,50],[-164,-57]],[[389314,414970],[116,-114],[-576,121],[460,-7]],[[407301,417618],[-529,107],[365,114],[164,-221]]],"bbox":[155.5533,50.865,174.4555,64.9113],"transform":{"scale":[0.000018902218902218895,0.000014046314046314042],"translate":[155.5533,50.865]}}