{"type":"Topology","objects":{"muni":{"type":"GeometryCollection","geometries":[{"type":"MultiPolygon","arcs":[[[0,1,2,3,4],[5]]],"properties":{"GID_2":"RUS.25.1_1","GID_0":"RUS","COUNTRY":"Russia","GID_1":"RUS.25_1","NAME_1":"Karachay-Cherkess","NL_NAME_1":"Карачаево-ЧеркессияРеспублика","NAME_2":"Adyge-Khabl'skiyrayon","VARNAME_2":"NA","NL_NAME_2":"Адыге-Хабльскийрайон","TYPE_2":"Raion","ENGTYPE_2":"District","CC_2":"R44010","HASC_2":"RU.KC.AD"}},{"type":"MultiPolygon","arcs":[[[-6]]],"properties":{"GID_2":"RUS.25.2_1","GID_0":"RUS","COUNTRY":"Russia","GID_1":"RUS.25_1","NAME_1":"Karachay-Cherkess","NL_NAME_1":"Карачаево-ЧеркессияРеспублика","NAME_2":"Cherkessk","VARNAME_2":"NA","NL_NAME_2":"Черкесск","TYPE_2":"Gorod","ENGTYPE_2":"City","CC_2":"NA","HASC_2":"RU.KC.CH"}},{"type":"MultiPolygon","arcs":[[[6]]],"properties":{"GID_2":"RUS.25.3_1","GID_0":"RUS","COUNTRY":"Russia","GID_1":"RUS.25_1","NAME_1":"Karachay-Cherkess","NL_NAME_1":"Карачаево-ЧеркессияРеспублика","NAME_2":"Karachayevsk","VARNAME_2":"NA","NL_NAME_2":"Карачаевск","TYPE_2":"Gorsovet","ENGTYPE_2":"District","CC_2":"NA","HASC_2":"RU.KC.KG"}},{"type":"MultiPolygon","arcs":[[[7,8,9,10],[-7]]],"properties":{"GID_2":"RUS.25.4_1","GID_0":"RUS","COUNTRY":"Russia","GID_1":"RUS.25_1","NAME_1":"Karachay-Cherkess","NL_NAME_1":"Карачаево-ЧеркессияРеспублика","NAME_2":"Karachayevskiyrayon","VARNAME_2":"NA","NL_NAME_2":"Карачаевскийрайон","TYPE_2":"Raion","ENGTYPE_2":"District","CC_2":"R44010","HASC_2":"RU.KC.KR"}},{"type":"MultiPolygon","arcs":[[[-1,11,12,13,14]]],"properties":{"GID_2":"RUS.25.5_1","GID_0":"RUS","COUNTRY":"Russia","GID_1":"RUS.25_1","NAME_1":"Karachay-Cherkess","NL_NAME_1":"Карачаево-ЧеркессияРеспублика","NAME_2":"Khabezskiyrayon","VARNAME_2":"NA","NL_NAME_2":"Хабезскийрайон","TYPE_2":"Raion","ENGTYPE_2":"District","CC_2":"R44010","HASC_2":"RU.KC.KH"}},{"type":"MultiPolygon","arcs":[[[15]]],"properties":{"GID_2":"RUS.25.6_1","GID_0":"RUS","COUNTRY":"Russia","GID_1":"RUS.25_1","NAME_1":"Karachay-Cherkess","NL_NAME_1":"Карачаево-ЧеркессияРеспублика","NAME_2":"Kislovodsk","VARNAME_2":"NA","NL_NAME_2":"Кисловодск","TYPE_2":"Gorsovet","ENGTYPE_2":"District","CC_2":"NA","HASC_2":"RU.ST.KS"}},{"type":"MultiPolygon","arcs":[[[-10,16,17],[-16]]],"properties":{"GID_2":"RUS.25.7_1","GID_0":"RUS","COUNTRY":"Russia","GID_1":"RUS.25_1","NAME_1":"Karachay-Cherkess","NL_NAME_1":"Карачаево-ЧеркессияРеспублика","NAME_2":"Malokarachayevskiyrayon","VARNAME_2":"NA","NL_NAME_2":"Малокарачаевскийрайон","TYPE_2":"Raion","ENGTYPE_2":"District","CC_2":"R44010","HASC_2":"RU.KC.MA"}},{"type":"MultiPolygon","arcs":[[[-5,18,-3,19,20,-12]]],"properties":{"GID_2":"RUS.25.8_1","GID_0":"RUS","COUNTRY":"Russia","GID_1":"RUS.25_1","NAME_1":"Karachay-Cherkess","NL_NAME_1":"Карачаево-ЧеркессияРеспублика","NAME_2":"Prikubanskiyrayon","VARNAME_2":"NA","NL_NAME_2":"Прикубанскийрайон","TYPE_2":"Raion","ENGTYPE_2":"District","CC_2":"R44010","HASC_2":"RU.KC.PR"}},{"type":"MultiPolygon","arcs":[[[21,22]]],"properties":{"GID_2":"RUS.25.9_1","GID_0":"RUS","COUNTRY":"Russia","GID_1":"RUS.25_1","NAME_1":"Karachay-Cherkess","NL_NAME_1":"Карачаево-ЧеркессияРеспублика","NAME_2":"Urupskiyrayon","VARNAME_2":"NA","NL_NAME_2":"Урупскийрайон","TYPE_2":"Raion","ENGTYPE_2":"District","CC_2":"R44010","HASC_2":"RU.KC.UR"}},{"type":"MultiPolygon","arcs":[[[-9,-13,-21,23,-17]]],"properties":{"GID_2":"RUS.25.10_1","GID_0":"RUS","COUNTRY":"Russia","GID_1":"RUS.25_1","NAME_1":"Karachay-Cherkess","NL_NAME_1":"Карачаево-ЧеркессияРеспублика","NAME_2":"Ust'-Dzhegutinskiyrayon","VARNAME_2":"NA","NL_NAME_2":"Усть-Джегутинскийрайон","TYPE_2":"Raion","ENGTYPE_2":"District","CC_2":"R44010","HASC_2":"RU.KC.US"}},{"type":"MultiPolygon","arcs":[[[24,-22,25,-14,-8]]],"properties":{"GID_2":"RUS.25.11_1","GID_0":"RUS","COUNTRY":"Russia","GID_1":"RUS.25_1","NAME_1":"Karachay-Cherkess","NL_NAME_1":"Карачаево-ЧеркессияРеспублика","NAME_2":"Zelenchukskiyrayon","VARNAME_2":"NA","NL_NAME_2":"Зеленчукскийрайон","TYPE_2":"Raion","ENGTYPE_2":"District","CC_2":"R44010","HASC_2":"RU.KC.ZE"}}]}},"arcs":[[[615807,797687],[-51121,14511],[231,15211],[-10307,7139],[-14051,1397],[-33788,-11020]],[[506771,824925],[-6887,19945],[-17148,22272],[-23897,18392],[-4391,18469],[35267,30731],[35498,16452],[7997,23747],[15669,9157],[8319,15909],[50335,-6131],[8320,-22660],[3467,-28403],[13265,-21806],[48903,-38181]],[[681488,882818],[1340,-29645],[-8227,-21341]],[[674601,831832],[-35776,-39034]],[[638825,792798],[-23018,4889]],[[668684,880490],[-25052,24212],[-17240,2018],[-19691,-100031],[5039,-3105],[56944,76906]],[[596949,448005],[-20846,-35232],[-8782,2716],[3882,25377],[25746,7139]],[[360850,75275],[47053,76129],[15438,37561],[3975,32438],[6610,19478],[13728,16297],[26716,-7683],[26022,55409],[2681,28791],[8228,11097],[24358,-8303],[4530,14434],[-2820,56806],[2358,29644],[6887,37173],[19274,56029],[7118,10011]],[[573006,540586],[11232,-15831],[23619,-12572],[69794,-13348],[6749,-6053],[2264,-11019],[-4206,-13969],[8551,-10166],[98498,-33913]],[[789507,423715],[12942,-37560],[-4853,-60298],[13265,-8614],[22325,11951],[8181,-3647],[2589,-27860],[-13173,-117336],[4252,-44933]],[[835035,135418],[7257,-25376],[0,-18470],[-14052,-34844],[416,-17383],[19044,-39345],[-44327,21729],[-1617,8459],[6424,12727],[-13034,10864],[-35868,-10399],[-5870,-11563],[-13034,388],[-13636,-13968],[-11324,1319],[-19736,15443],[-15577,-9235],[-15022,621],[-8458,1397],[-11047,-10244],[-29859,-9933],[-14144,15366],[-26993,-3725],[-7673,12106],[-32725,16762],[-5084,-7605],[3235,-11020],[-2126,-5587],[-22463,-9235],[-23943,9157],[-12434,13348],[-13265,-13736],[-23018,11641],[-15993,-4346],[-18673,8459],[-39566,36085]],[[615807,797687],[12850,-21186],[3928,-32982],[-17194,-53236]],[[615391,690283],[-45343,-56883],[23527,-34611],[-20569,-58203]],[[573006,540586],[-40536,-25221],[-13127,1707],[-33325,29102],[-38457,19090],[-277,16840],[50428,41673],[15206,18237],[10030,25842],[-600,30421],[-25746,54167]],[[496602,752444],[11602,49666],[-1433,22815]],[[948601,528635],[-12018,-9312],[-27871,12416],[-2034,62394],[24081,11795],[-2357,-34611],[20199,-42682]],[[789507,423715],[25375,14823],[8459,21418],[1433,36396],[-3189,25609],[-27456,49511],[1572,22117]],[[795701,593589],[9059,22505],[29258,-10321],[26670,-39578],[20476,-3725],[17425,156],[5917,14822],[-10724,24135],[4807,17693],[10909,931],[22833,-10942],[7719,-28480],[13913,-14745],[13496,-29024],[-3605,-46019],[10862,-32671],[25283,-19866],[-13497,-1009],[4715,-34611],[-3652,-29877],[-13034,-17461],[-18951,-14512],[-60457,-28869],[-30969,-37405],[-2819,-29334],[10261,-48036],[-4576,-21652],[-31985,-40276]],[[638825,792798],[16871,15132],[18905,23902]],[[681488,882818],[30691,6984],[58146,-19246],[34343,-4656],[9937,-13037],[3883,-22272],[8643,-12495],[28334,-16374],[8320,15598],[-6055,23049],[9567,4501],[36700,-8071],[10908,10399],[694,18236],[-7257,18315],[19829,5820],[-1340,-9390],[6239,-15210],[33835,-40199],[9567,-24910],[-13959,-17461],[-21816,4346],[-12110,-12107],[-12434,-24134],[-38086,-6209],[-23943,-25919],[-30644,-20332],[-18674,-28869]],[[804806,669175],[-24312,-4656],[-83106,40276],[-22649,3958],[-32678,-27006],[-26670,8536]],[[336491,603290],[-36006,-25221],[-37439,-41130],[20245,-76905],[-9291,-59134],[13127,-10554],[25329,10709],[19968,-388],[1849,-6752],[-47100,-71007],[-15761,-7217],[-67114,13115],[-13912,-7838],[20984,-25221],[-4807,-13348],[-17009,-20254],[-13081,-34146],[-16824,-74810]],[[159649,153189],[-8505,6519],[-5870,19556],[-15438,12261],[-14976,-6673],[-13404,1862],[-4715,13193],[-13866,12106],[-1572,16452],[-27871,4811],[-13635,10244],[-39797,24988],[6795,110352],[-3282,44778],[17656,22582],[6749,25221],[-4022,28015],[19182,26541],[4484,37793],[14744,7682],[30368,1242],[7904,16142],[12156,48890],[-4252,24833],[-13127,24367],[8828,19091],[13219,12339],[23758,5199],[21909,-9157],[24451,-19866],[17980,-3182],[23157,7139],[18951,-7760],[11370,-18082],[20754,-6674],[26531,3105],[12895,-23514],[1849,-24057],[15484,-18237]],[[804806,669175],[7257,-28403],[-16362,-47183]],[[360850,75275],[-10908,13115],[-22094,5433],[-2403,36706],[-5778,6441],[-18119,155],[-17148,-22427],[-9059,1009],[-12850,15133],[-66975,31895],[-9013,310],[-8458,-13425],[-18396,3569]],[[336491,603290],[51491,-12106],[14698,19168],[15808,33602],[5639,31507],[17749,10865],[11925,-10555],[12064,-232],[23573,50830],[7164,26075]]],"bbox":[40.7162,43.1849,42.8797,44.4735],"transform":{"scale":[0.0000021635021635021627,0.000001288601288601291],"translate":[40.7162,43.1849]}}