{"type":"Topology","objects":{"muni":{"type":"GeometryCollection","geometries":[{"type":"MultiPolygon","arcs":[[[0]],[[1]],[[2]],[[3]],[[4]],[[5]],[[6]],[[7]],[[8]],[[9]],[[10]],[[11]],[[12]],[[13]],[[14]],[[15]],[[16]],[[17]],[[18]],[[19]],[[20]],[[21]],[[22]],[[23]],[[24]],[[25]],[[26]],[[27]],[[28]],[[29]],[[30]],[[31]],[[32]],[[33]],[[34]],[[35]],[[36]],[[37]],[[38]],[[39]],[[40]],[[41]],[[42]],[[43]],[[44]],[[45]],[[46]],[[47]],[[48]],[[49]],[[50]],[[51]],[[52]],[[53]],[[54]],[[55]],[[56,57,58,59,60]],[[61]],[[62]],[[63]],[[64]],[[65]],[[66]],[[67]],[[68]],[[69]],[[70]],[[71]],[[72]],[[73]],[[74]],[[75]],[[76]],[[77]],[[78]],[[79]],[[80]],[[81]],[[82]],[[83]],[[84]],[[85]],[[86]],[[87]],[[88]],[[89]],[[90]],[[91]],[[92]],[[93]]],"properties":{"GID_2":"RUS.26.1_1","GID_0":"RUS","COUNTRY":"Russia","GID_1":"RUS.26_1","NAME_1":"Karelia","NL_NAME_1":"РеспубликаКарелия","NAME_2":"Belomorskiyrayon","VARNAME_2":"NA","NL_NAME_2":"Беломорскийрайон","TYPE_2":"Raion","ENGTYPE_2":"District","CC_2":"R01000","HASC_2":"RU.KI.BE"}},{"type":"MultiPolygon","arcs":[[[94,95,96,97,98,99,100,101,-59,102,103,104]]],"properties":{"GID_2":"RUS.26.2_1","GID_0":"RUS","COUNTRY":"Russia","GID_1":"RUS.26_1","NAME_1":"Karelia","NL_NAME_1":"РеспубликаКарелия","NAME_2":"Kaleval'skiyrayon","VARNAME_2":"NA","NL_NAME_2":"Калевальскийрайон","TYPE_2":"Raion","ENGTYPE_2":"District","CC_2":"R01000","HASC_2":"RU.KI.KA"}},{"type":"MultiPolygon","arcs":[[[105,106]]],"properties":{"GID_2":"RUS.26.3_1","GID_0":"RUS","COUNTRY":"Russia","GID_1":"RUS.26_1","NAME_1":"Karelia","NL_NAME_1":"РеспубликаКарелия","NAME_2":"Kem'","VARNAME_2":"KemKem","NL_NAME_2":"Кемь","TYPE_2":"Gorsovet","ENGTYPE_2":"District","CC_2":"NA","HASC_2":"RU.KI.KG"}},{"type":"MultiPolygon","arcs":[[[107]],[[108]],[[109]],[[110]],[[111]],[[112]],[[113]],[[114]],[[115]],[[116]],[[117]],[[118]],[[119]],[[120]],[[-60,-102,121,122,123],[-107,124]],[[125]],[[126]],[[127]],[[128]],[[129]],[[130]],[[131]],[[132]],[[133]],[[134]],[[135]],[[136]],[[137]],[[138]],[[139]],[[140]],[[141]],[[142]],[[143]],[[144]],[[145]],[[146]],[[147]],[[148]],[[149]],[[150]],[[151]],[[152]],[[153]],[[154]],[[155]],[[156]],[[157]],[[158]],[[159]],[[160]],[[161]],[[162]],[[163]],[[164]],[[165]],[[166]],[[167]],[[168]],[[169]],[[170]],[[171]],[[172]],[[173]],[[174]],[[175]],[[176]],[[177]],[[178]],[[179]],[[180]],[[181]],[[182]],[[183]],[[184]],[[185]],[[186]],[[187]],[[188]],[[189]],[[190]],[[191]],[[192]],[[193]],[[194]],[[195]],[[196]],[[197]],[[198]],[[199]],[[200]],[[201]],[[202]],[[203]],[[204]],[[205]],[[206]],[[207]],[[208]],[[209]],[[210]],[[211]],[[212]],[[213]],[[214]],[[215]],[[216]],[[217]],[[218]],[[219]],[[220]],[[221]],[[222]],[[223]],[[224]],[[225]],[[226]],[[227]],[[228,229,230,231,232,233]],[[234]],[[235]],[[236]],[[237]]],"properties":{"GID_2":"RUS.26.4_1","GID_0":"RUS","COUNTRY":"Russia","GID_1":"RUS.26_1","NAME_1":"Karelia","NL_NAME_1":"РеспубликаКарелия","NAME_2":"Kemskiyrayon","VARNAME_2":"NA","NL_NAME_2":"Кемскийрайон","TYPE_2":"Raion","ENGTYPE_2":"District","CC_2":"R01000","HASC_2":"RU.KI.KR"}},{"type":"MultiPolygon","arcs":[[[238]]],"properties":{"GID_2":"RUS.26.5_1","GID_0":"RUS","COUNTRY":"Russia","GID_1":"RUS.26_1","NAME_1":"Karelia","NL_NAME_1":"РеспубликаКарелия","NAME_2":"Kondopoga","VARNAME_2":"NA","NL_NAME_2":"Кондопога","TYPE_2":"Gorod","ENGTYPE_2":"City","CC_2":"NA","HASC_2":"RU.KI.KN"}},{"type":"MultiPolygon","arcs":[[[239,240,241,242,243,244,245,246,247,248],[-239]]],"properties":{"GID_2":"RUS.26.6_1","GID_0":"RUS","COUNTRY":"Russia","GID_1":"RUS.26_1","NAME_1":"Karelia","NL_NAME_1":"РеспубликаКарелия","NAME_2":"Kondopozhskiyrayon","VARNAME_2":"NA","NL_NAME_2":"Кондопожскийрайон","TYPE_2":"Raion","ENGTYPE_2":"District","CC_2":"R01000","HASC_2":"RU.KI.KD"}},{"type":"MultiPolygon","arcs":[[[249]]],"properties":{"GID_2":"RUS.26.7_1","GID_0":"RUS","COUNTRY":"Russia","GID_1":"RUS.26_1","NAME_1":"Karelia","NL_NAME_1":"РеспубликаКарелия","NAME_2":"Kostomuksh","VARNAME_2":"Kostomushksa","NL_NAME_2":"Костомукша","TYPE_2":"Gorsovet","ENGTYPE_2":"District","CC_2":"NA","HASC_2":"RU.KI.KM"}},{"type":"MultiPolygon","arcs":[[[250,-105,251],[-250]]],"properties":{"GID_2":"RUS.26.8_1","GID_0":"RUS","COUNTRY":"Russia","GID_1":"RUS.26_1","NAME_1":"Karelia","NL_NAME_1":"РеспубликаКарелия","NAME_2":"Kostomukshgorsovet","VARNAME_2":"Kostomuksh","NL_NAME_2":"Костомукша(горсовет)","TYPE_2":"Gorsovet","ENGTYPE_2":"District","CC_2":"R01001","HASC_2":"RU.KI.KM"}},{"type":"MultiPolygon","arcs":[[[252,253,254,255]]],"properties":{"GID_2":"RUS.26.9_1","GID_0":"RUS","COUNTRY":"Russia","GID_1":"RUS.26_1","NAME_1":"Karelia","NL_NAME_1":"РеспубликаКарелия","NAME_2":"Lakhdenpokhskiyrayon","VARNAME_2":"NA","NL_NAME_2":"Лахденпохскийрайон","TYPE_2":"Raion","ENGTYPE_2":"District","CC_2":"R01000","HASC_2":"RU.KI.LA"}},{"type":"MultiPolygon","arcs":[[[256]],[[257]],[[258]],[[259]],[[260]],[[261]],[[262]],[[263]],[[264]],[[265]],[[266]],[[267]],[[268]],[[269]],[[270]],[[271]],[[272]],[[273]],[[274]],[[275]],[[276]],[[277]],[[278]],[[279]],[[280]],[[-231,281,-229,282,-233,283,-123,284,285,286,287,288,289,290,291,-98,292,-96,293],[294,295]],[[296]],[[297]],[[298]],[[299]],[[300]],[[301]],[[302]],[[303]],[[304]],[[305]],[[306]],[[307]],[[308]],[[309]],[[310]],[[311]],[[312]],[[313]],[[314]],[[315]],[[316]],[[317]],[[318]],[[319]]],"properties":{"GID_2":"RUS.26.10_1","GID_0":"RUS","COUNTRY":"Russia","GID_1":"RUS.26_1","NAME_1":"Karelia","NL_NAME_1":"РеспубликаКарелия","NAME_2":"Loukhskiyrayon","VARNAME_2":"NA","NL_NAME_2":"Лоухскийрайон","TYPE_2":"Raion","ENGTYPE_2":"District","CC_2":"R01000","HASC_2":"RU.KI.LO"}},{"type":"MultiPolygon","arcs":[[[320,321,322,323,324,325,-246,326,-244,327,328,329,330,331,332,333,334,335,336,337,338,339]]],"properties":{"GID_2":"RUS.26.11_1","GID_0":"RUS","COUNTRY":"Russia","GID_1":"RUS.26_1","NAME_1":"Karelia","NL_NAME_1":"РеспубликаКарелия","NAME_2":"Medvezh'egorskiyrayon","VARNAME_2":"NA","NL_NAME_2":"Медвежьегорскийрайон","TYPE_2":"Raion","ENGTYPE_2":"District","CC_2":"R01000","HASC_2":"RU.KI.ME"}},{"type":"MultiPolygon","arcs":[[[340,-252,341,-103,-58,342,-330,343]]],"properties":{"GID_2":"RUS.26.12_1","GID_0":"RUS","COUNTRY":"Russia","GID_1":"RUS.26_1","NAME_1":"Karelia","NL_NAME_1":"РеспубликаКарелия","NAME_2":"Muyezerskiyrayon","VARNAME_2":"NA","NL_NAME_2":"Муезерскийрайон","TYPE_2":"Raion","ENGTYPE_2":"District","CC_2":"R01000","HASC_2":"RU.KI.MU"}},{"type":"MultiPolygon","arcs":[[[344,345,346,347,348,349,350]]],"properties":{"GID_2":"RUS.26.13_1","GID_0":"RUS","COUNTRY":"Russia","GID_1":"RUS.26_1","NAME_1":"Karelia","NL_NAME_1":"РеспубликаКарелия","NAME_2":"Olonetskiyrayon","VARNAME_2":"NA","NL_NAME_2":"Олонецкийрайон","TYPE_2":"Raion","ENGTYPE_2":"District","CC_2":"R01000","HASC_2":"RU.KI.OL"}},{"type":"MultiPolygon","arcs":[[[351]]],"properties":{"GID_2":"RUS.26.14_1","GID_0":"RUS","COUNTRY":"Russia","GID_1":"RUS.26_1","NAME_1":"Karelia","NL_NAME_1":"РеспубликаКарелия","NAME_2":"Petrozavodsk","VARNAME_2":"NA","NL_NAME_2":"Петрозаводск","TYPE_2":"Gorsovet","ENGTYPE_2":"District","CC_2":"NA","HASC_2":"RU.KI.PE"}},{"type":"MultiPolygon","arcs":[[[352]]],"properties":{"GID_2":"RUS.26.15_1","GID_0":"RUS","COUNTRY":"Russia","GID_1":"RUS.26_1","NAME_1":"Karelia","NL_NAME_1":"РеспубликаКарелия","NAME_2":"Pitkyaranta","VARNAME_2":"NA","NL_NAME_2":"Питкяранта","TYPE_2":"Gorod","ENGTYPE_2":"City","CC_2":"NA","HASC_2":"RU.KI.PG"}},{"type":"MultiPolygon","arcs":[[[-255,353,354,355,356,-350,357]]],"properties":{"GID_2":"RUS.26.16_1","GID_0":"RUS","COUNTRY":"Russia","GID_1":"RUS.26_1","NAME_1":"Karelia","NL_NAME_1":"РеспубликаКарелия","NAME_2":"Pitkyarantskiy","VARNAME_2":"NA","NL_NAME_2":"Питкярантский","TYPE_2":"Gorsovet","ENGTYPE_2":"District","CC_2":"R01001","HASC_2":"RU.KI.PG"}},{"type":"MultiPolygon","arcs":[[[-345,358,-356,359,360,361,362,363],[-353]]],"properties":{"GID_2":"RUS.26.17_1","GID_0":"RUS","COUNTRY":"Russia","GID_1":"RUS.26_1","NAME_1":"Karelia","NL_NAME_1":"РеспубликаКарелия","NAME_2":"Pitkyarantskiyrayon","VARNAME_2":"NA","NL_NAME_2":"Питкярантскийрайон","TYPE_2":"Raion","ENGTYPE_2":"District","CC_2":"R01001","HASC_2":"RU.KI.PR"}},{"type":"MultiPolygon","arcs":[[[364]]],"properties":{"GID_2":"RUS.26.18_1","GID_0":"RUS","COUNTRY":"Russia","GID_1":"RUS.26_1","NAME_1":"Karelia","NL_NAME_1":"РеспубликаКарелия","NAME_2":"Primorskiy","VARNAME_2":"NA","NL_NAME_2":"NA","TYPE_2":"Raion","ENGTYPE_2":"District","CC_2":"NA","HASC_2":"RU.AR.PR"}},{"type":"MultiPolygon","arcs":[[[-240,365,366,367,368,369,370],[-352]]],"properties":{"GID_2":"RUS.26.19_1","GID_0":"RUS","COUNTRY":"Russia","GID_1":"RUS.26_1","NAME_1":"Karelia","NL_NAME_1":"РеспубликаКарелия","NAME_2":"Prionezhskiyrayon","VARNAME_2":"NA","NL_NAME_2":"Прионежскийрайон","TYPE_2":"Raion","ENGTYPE_2":"District","CC_2":"R01001","HASC_2":"RU.KI.PN"}},{"type":"MultiPolygon","arcs":[[[-241,-371,371,-348,372,-346,-364,373,374,375,376]]],"properties":{"GID_2":"RUS.26.20_1","GID_0":"RUS","COUNTRY":"Russia","GID_1":"RUS.26_1","NAME_1":"Karelia","NL_NAME_1":"РеспубликаКарелия","NAME_2":"Pryazhinskiyrayon","VARNAME_2":"NA","NL_NAME_2":"Пряжинскийрайон","TYPE_2":"Raion","ENGTYPE_2":"District","CC_2":"R01001","HASC_2":"RU.KI.PZ"}},{"type":"MultiPolygon","arcs":[[[377,-322,378]]],"properties":{"GID_2":"RUS.26.21_1","GID_0":"RUS","COUNTRY":"Russia","GID_1":"RUS.26_1","NAME_1":"Karelia","NL_NAME_1":"РеспубликаКарелия","NAME_2":"Pudozhskiyrayon","VARNAME_2":"NA","NL_NAME_2":"Пудожскийрайон","TYPE_2":"Raion","ENGTYPE_2":"District","CC_2":"R01001","HASC_2":"RU.KI.PU"}},{"type":"MultiPolygon","arcs":[[[379]]],"properties":{"GID_2":"RUS.26.22_1","GID_0":"RUS","COUNTRY":"Russia","GID_1":"RUS.26_1","NAME_1":"Karelia","NL_NAME_1":"РеспубликаКарелия","NAME_2":"Segezha","VARNAME_2":"NA","NL_NAME_2":"Сегежа","TYPE_2":"Gorsovet","ENGTYPE_2":"District","CC_2":"NA","HASC_2":"RU.KI.SG"}},{"type":"MultiPolygon","arcs":[[[380,-340,381,382,383,-336,384,385,-331,-343,-57],[-380]]],"properties":{"GID_2":"RUS.26.23_1","GID_0":"RUS","COUNTRY":"Russia","GID_1":"RUS.26_1","NAME_1":"Karelia","NL_NAME_1":"РеспубликаКарелия","NAME_2":"Segezhskiyrayon","VARNAME_2":"NA","NL_NAME_2":"Сегежскийрайон","TYPE_2":"Raion","ENGTYPE_2":"District","CC_2":"R01001","HASC_2":"RU.KI.SR"}},{"type":"MultiPolygon","arcs":[[[386,387,388,389,-253,390]]],"properties":{"GID_2":"RUS.26.24_1","GID_0":"RUS","COUNTRY":"Russia","GID_1":"RUS.26_1","NAME_1":"Karelia","NL_NAME_1":"РеспубликаКарелия","NAME_2":"Sortaval'gorsovet","VARNAME_2":"Sortaval'","NL_NAME_2":"Сортавала(горсовет)","TYPE_2":"Gorsovet","ENGTYPE_2":"District","CC_2":"R01001","HASC_2":"RU.KI.SO"}},{"type":"MultiPolygon","arcs":[[[391,-344,-329,392,-242,-377,393,-375,394,-362,-387]]],"properties":{"GID_2":"RUS.26.25_1","GID_0":"RUS","COUNTRY":"Russia","GID_1":"RUS.26_1","NAME_1":"Karelia","NL_NAME_1":"РеспубликаКарелия","NAME_2":"Suoyarvskiyrayon","VARNAME_2":"NA","NL_NAME_2":"Суоярвскийрайон","TYPE_2":"Raion","ENGTYPE_2":"District","CC_2":"R01001","HASC_2":"RU.KI.SU"}},{"type":"MultiPolygon","arcs":[[[-248,395,-325,396,-323,-378,397,-369,398,-367,399]],[[-384,400,-337]],[[-334,401,-332,-386,402]],[[403,-291,404,-289,405,-287,406,-100]],[[-296,407]]],"properties":{"GID_2":"RUS.26.26_1","GID_0":"RUS","COUNTRY":"Russia","GID_1":"RUS.26_1","NAME_1":"Karelia","NL_NAME_1":"РеспубликаКарелия","NAME_2":"Waterbody","VARNAME_2":"NA","NL_NAME_2":"NA","TYPE_2":"Waterbody","ENGTYPE_2":"Waterbody","CC_2":"NA","HASC_2":"NA"}}]}},"arcs":[[[838571,553716],[718,-350],[-660,-433],[-58,783]],[[864630,565673],[0,-2598],[-2779,-2082],[1089,3131],[-244,3631],[-845,699],[1575,0],[1204,-2781]],[[824395,574783],[-185,266],[359,0],[-174,-266]],[[854010,575732],[486,-866],[-729,-683],[-3498,-350],[1205,2598],[2536,-699]],[[841038,585191],[-1378,616],[1807,-350],[-429,-266]],[[860044,588239],[-1563,682],[1378,783],[185,-1465]],[[849424,590653],[243,-516],[-603,350],[360,166]],[[859801,591703],[243,-517],[-602,333],[359,184]],[[827534,593518],[174,-250],[-1078,0],[904,250]],[[843517,597764],[3312,617],[-174,-1999],[4946,-2431],[-5976,-3897],[-1147,2165],[1089,1915],[-6880,1899],[2351,2697],[2479,-966]],[[830904,594567],[672,250],[-672,-949],[0,699]],[[853593,593868],[-1390,266],[904,783],[486,-1049]],[[838386,595600],[660,-250],[-1320,-350],[660,600]],[[841108,600712],[1563,-866],[-1088,0],[-475,866]],[[824453,600712],[1332,-516],[-672,-433],[-660,949]],[[825356,601845],[-173,266],[359,0],[-186,-266]],[[811122,557096],[-185,250],[371,0],[-186,-250]],[[811783,574350],[-174,-250],[-672,83],[846,167]],[[806293,575132],[0,700],[903,-433],[-903,-267]],[[813474,575399],[-846,333],[1807,-516],[-961,183]],[[812755,591703],[232,-517],[-602,333],[370,184]],[[778010,597764],[-429,-83],[-173,267],[602,-184]],[[809617,597764],[-429,-83],[-173,267],[602,-184]],[[820226,600196],[-603,183],[429,83],[174,-266]],[[774269,596732],[-730,516],[1807,350],[-1077,-866]],[[760510,613386],[1088,-2265],[-602,-866],[846,-517],[-846,-1032],[417,-1316],[-5246,4264],[-475,2248],[4818,-516]],[[718410,613036],[-429,-83],[-173,266],[602,-183]],[[755391,615034],[2652,1033],[903,-1299],[-3555,266]],[[767204,623011],[2479,-3730],[3741,-1915],[961,-1549],[-1089,-1732],[1818,-1749],[-3567,-2514],[-6208,1482],[-2779,5379],[-4459,2598],[-487,2082],[6695,3031],[2895,-1383]],[[698199,617466],[-185,250],[371,0],[-186,-250]],[[733605,620663],[-602,183],[428,84],[174,-267]],[[755391,620930],[-1390,949],[2050,-683],[-660,-266]],[[819751,601062],[-602,-167],[173,250],[429,-83]],[[820226,601595],[-359,0],[0,166],[359,0],[0,-166]],[[821743,608090],[6937,-2682],[-5976,250],[-2837,2698],[1876,-266]],[[818755,610138],[509,-566],[-359,0],[-150,566]],[[829456,606707],[429,-616],[-846,0],[417,616]],[[830186,612253],[-1448,-699],[-1876,966],[3324,-267]],[[802065,610471],[-1019,650],[1575,-866],[-556,216]],[[801405,612003],[-359,0],[0,167],[359,0],[0,-167]],[[825843,614335],[-973,-1033],[-3069,783],[4042,250]],[[801533,614601],[359,0],[486,-866],[-359,0],[-486,866]],[[787472,615734],[429,-267],[-3255,866],[2826,-599]],[[788445,622312],[417,-250],[-3498,516],[3081,-266]],[[682274,617466],[186,-267],[-1089,0],[903,267]],[[678661,623361],[174,-266],[-2294,0],[2120,266]],[[664658,627524],[-173,250],[359,0],[-186,-250]],[[674549,628207],[186,-250],[-1089,0],[903,250]],[[744040,623011],[1390,-83],[730,-1915],[-2838,-433],[-3799,3048],[3799,433],[718,-1050]],[[712619,624310],[-185,-949],[-3556,83],[243,1916],[1622,433],[1876,-1483]],[[749831,624743],[1147,-249],[-1807,-350],[660,599]],[[724560,625693],[-3197,-2332],[-1390,83],[-961,2082],[3081,-83],[475,1032],[1992,-782]],[[688007,625176],[-428,-83],[-174,267],[602,-184]],[[749773,626225],[-602,167],[429,83],[173,-250]],[[725220,626475],[-1147,616],[1819,-349],[-672,-267]],[[726193,631338],[243,700],[1135,-433],[-1378,-267]],[[774037,496411],[-11454,7627],[-12103,5429],[-13250,2248],[-29730,733],[-1691,16820],[-3637,13256],[-10748,4680],[-2617,6945],[-6278,533],[-5547,-1949],[-8652,-633],[-9648,9943],[-20106,9992],[2293,10558],[-2918,4830],[-27322,5678],[-6428,6962],[-14906,1132],[-11859,-12257],[-12613,-9826],[-10065,-866],[-29556,3498],[-8142,3280],[1007,3148],[-2351,4496],[-18913,4014],[-28688,3547],[-3162,2648],[-5779,2248],[-16945,1666]],[[442229,606791],[-7864,3730],[-6289,6595],[-24808,9376],[-10922,1982]],[[392346,628474],[6034,2614],[2479,7395],[-185,8360],[1158,8560],[11466,1998],[20986,-2964],[4065,5412],[47,4830],[3880,7560],[-20778,19402]],[[421498,691641],[12288,5146],[6428,5246],[1147,3697],[50821,1948],[18728,-799],[42876,-6612],[16758,-199],[19516,3613],[44903,-2231]],[[634963,701450],[16573,-3914],[1031,-316],[-1841,-1782],[-846,-2948],[-6880,-4346],[1332,-1899],[-7180,-1132],[-545,-1649],[-4216,-1033],[1564,-516],[-845,-1915],[4042,-783],[3439,3731],[4042,782],[0,1033],[10378,0],[4517,-2165],[486,-866],[-3741,-866],[186,-949],[-10378,-1732],[-8142,-3914],[2652,-2948],[7841,-2947],[-1806,-866],[2050,-1216],[845,-3297],[3556,266],[4042,-2348],[-3498,-1216],[-5189,-4679],[-8559,-3298],[-3023,-3297],[-5906,-2248],[3254,-700],[-1807,-1565],[4761,266],[729,-1399],[4517,-766],[-845,-533],[2119,-1815],[2351,83],[3440,3031],[903,-599],[-1331,-1033],[1633,600],[243,-1383],[3069,84],[-1320,1032],[417,966],[5072,0],[545,-1299],[3011,-533],[-1563,-2081],[602,-517],[-3498,-866],[-730,-2248],[846,-699],[-2293,-1216],[602,-2598],[-1089,-1399],[5247,-433],[2420,-2415],[5305,1732],[2177,-1049],[2108,1299],[-116,-2948],[1321,-866],[-1089,-2598],[1818,-183],[-602,-516],[961,-2082],[3012,-516],[-2294,-1049],[672,-949],[3371,349],[1934,-1732],[3382,1033],[3069,2348],[-961,2082],[-3012,1215],[-243,1216],[4274,433],[1390,783],[57,1299],[6938,-783],[-3011,-1032],[845,-883],[-1089,-516],[128,-1899],[-2780,-3131],[2351,600],[904,-600],[-2293,-699],[6636,-1216],[-2050,-4163],[0,-2598],[1876,-783],[4818,699],[2896,-2081],[5073,699],[787,3381],[3069,-267],[5073,2782],[8617,-617],[2177,1749],[244,2248],[-4946,4863],[3556,1815],[301,-1299],[2837,-1482],[9347,-2864],[1448,-1382],[-417,-950],[1378,84],[-417,1299],[1147,-433],[845,-3648],[904,-433],[4586,1050],[7412,-3897],[6764,-6595],[-3254,-4697],[4702,-1215],[-602,-1549],[3497,-1915],[-602,-2248],[2166,-1732],[4227,333],[2954,4430],[6694,-2165],[127,-1916],[6868,-3647],[371,-2947],[5965,-766],[3324,-2865],[-1935,-2964],[-4459,-517],[-1216,-1382],[244,-1215],[2293,-1899],[-603,-883],[8803,-3980],[-1564,-7111],[4587,-4513],[2594,1649],[3857,0],[7725,-2781],[5304,1398],[-660,-1998],[718,-1049],[3081,-1133],[13933,-1115],[463,-1166],[-3139,-6279],[3660,-10691],[5455,-10076],[-15635,-17170],[-13887,-9775],[-20071,3614],[-9161,-3831],[-17524,1716]],[[636190,645560],[174,-249],[-1077,0],[903,249]],[[639989,647392],[-417,-100],[-185,267],[602,-167]],[[637638,648341],[417,-616],[-845,350],[428,266]],[[662551,630555],[602,350],[718,-1216],[-1320,866]],[[667982,631938],[-845,-167],[174,267],[671,-100]],[[657663,632720],[-185,267],[370,0],[-185,-267]],[[682460,635235],[-429,-83],[-173,266],[602,-183]],[[662006,636884],[-417,266],[1321,-516],[-904,250]],[[661763,641747],[-174,266],[359,0],[-185,-266]],[[657420,643479],[185,-250],[-1575,0],[1390,250]],[[661045,666727],[-185,267],[359,0],[-174,-267]],[[656632,664729],[-602,183],[429,83],[173,-266]],[[645120,671240],[660,-266],[-1332,-350],[672,616]],[[642699,670890],[-173,267],[359,0],[-186,-267]],[[648189,671673],[-602,167],[428,100],[174,-267]],[[682031,636201],[904,-266],[-1077,0],[173,266]],[[684209,644878],[474,333],[429,-600],[-903,267]],[[641495,672972],[185,-266],[-1089,0],[904,266]],[[644390,673322],[-173,250],[359,0],[-186,-250]],[[639630,674271],[1564,-166],[-2050,-700],[486,866]],[[658624,675404],[-4517,-267],[661,1299],[3856,-1032]],[[659829,667427],[672,-100],[-672,-1299],[-2583,1132],[903,1299],[1680,-1032]],[[662192,680350],[-1819,-533],[915,-949],[-3081,782],[3081,1649],[904,-949]],[[666106,681998],[243,1033],[2352,-783],[-2595,-250]],[[669002,684413],[428,-83],[-428,-600],[0,683]],[[643128,675487],[-429,-83],[-173,266],[602,-183]],[[644390,676436],[-173,267],[359,0],[-186,-267]],[[651872,686162],[-185,250],[370,0],[-185,-250]],[[651814,689193],[243,-516],[-602,349],[359,167]],[[662493,685812],[-2351,-266],[903,966],[1448,-700]],[[670693,695521],[1389,-250],[-1146,-449],[-243,699]],[[649764,689709],[359,183],[243,-533],[-602,350]],[[651212,690758],[961,2598],[1089,-699],[-243,-2249],[-1807,350]],[[57191,689293],[-7470,682],[-7737,4980],[1506,2615],[-6370,6711],[-5305,19052],[3498,4729],[-93,6928],[12520,5113],[12393,-383],[5710,2764],[-7320,5563],[7957,9376],[-2085,3114],[-15867,2515],[-9601,-117],[-5583,3897],[1054,3714],[17373,10108],[-2791,8460],[-290,8161],[695,3214],[-695,2148],[1459,816],[1159,4447],[9369,6711],[3730,4530],[-11073,5645],[-5524,4797],[2247,732]],[[50057,830315],[36147,-8310],[40385,6212],[22967,600],[487,-3531],[-7598,-8110],[10806,-1616],[23326,5696],[59484,-217],[4841,-2281],[5328,-9509],[-116,-3498],[25573,-3647]],[[271687,802104],[18056,-516],[53427,-1066]],[[343170,800522],[25619,2898]],[[368789,803420],[4401,-1632]],[[373190,801788],[6382,1249],[3520,-1332],[-57,-2165],[-2305,-2049],[34,-2198],[9833,-6628],[336,5712],[-2351,2348],[4054,1382],[556,2715]],[[393192,800822],[19457,-1599]],[[412649,799223],[-3567,-5229],[-394,-10092],[-26661,-19019],[19724,-8360],[-3625,-7394],[-17095,-16104],[-4424,-4896],[-2062,-4713],[4158,-4863],[32232,-18968],[10563,-7944]],[[392346,628474],[-9404,33],[-19307,5712],[-5872,83],[-9404,-4846]],[[348359,629456],[-8027,150],[-36228,3331]],[[304104,632937],[-2513,4979],[1147,5063],[-2097,5496],[-27252,7344],[-23059,8443],[35,2682],[5003,11108],[-2479,2831],[-27611,8326],[10227,10059],[915,5096],[-17072,-3247],[-12566,2997],[-67835,-1082],[-35973,-4497],[-22422,-1315],[-17327,483],[-4945,-5379],[-1089,-3031]],[[608602,719719],[3046,1632],[1854,-483]],[[613502,720868],[567,-1815],[-3081,-1049],[-2386,1715]],[[625570,746181],[-58,-616],[-602,0],[660,616]],[[620983,745832],[-1621,599],[2293,-333],[-672,-266]],[[622918,747564],[185,-250],[-1089,0],[904,250]],[[618818,747913],[-186,267],[359,0],[-173,-267]],[[623879,752776],[-174,250],[359,0],[-185,-250]],[[629195,753109],[-1633,616],[2050,-349],[-417,-267]],[[627261,756590],[-186,250],[371,0],[-185,-250]],[[617613,757622],[174,-249],[-1077,0],[903,249]],[[610849,763185],[-173,250],[359,0],[-186,-250]],[[605244,764301],[-417,-84],[-186,267],[417,83],[186,-266]],[[607954,764917],[-417,266],[2050,333],[-1633,-599]],[[612065,765616],[-428,250],[1563,0],[-1135,-250]],[[601445,768730],[1146,-266],[-1146,-433],[0,699]],[[603553,768814],[729,-350],[-845,-333],[116,683]],[[412649,799223],[42888,2232]],[[455537,801455],[20812,2698],[52686,-3065],[2965,5329],[-591,4580],[5189,18019],[-150,12890],[3254,1466],[12451,233],[58835,-2398],[9104,2331]],[[620092,843538],[2189,1866],[-1228,-1999],[2826,-83],[428,616],[-2293,0],[3081,1815],[1378,-949],[-3741,-2781],[5015,266],[3556,-3047],[-3255,-866],[359,-866],[-1633,-1133],[-2826,267],[1564,-866],[-2293,-1382],[6879,-533],[-1390,-1632],[-3555,-267],[1320,-166],[730,-1050],[-602,-866],[2768,-516],[-603,-3647],[1807,516],[3382,-4679],[-903,-1483],[-5733,-249],[2779,682],[-903,966],[-3081,-2181],[0,-1199],[3011,-1566],[-1077,-2265],[2293,-166],[0,-1566],[-3022,-1898],[127,-1216],[-7667,-783],[-4517,-3563],[3498,-350],[-1819,-516],[3984,-2249],[-845,-1215],[1575,166],[475,-1549],[-845,-1049],[1575,-2082],[-2780,-1049],[602,883],[-660,783],[-3857,-1050],[660,-782],[-660,-600],[-973,1732],[-2826,-433],[174,-966],[-4586,700],[2351,1132],[-2351,949],[-5722,-782],[661,-600],[-3139,1382],[-2108,-2348],[5907,-2598],[243,-1215],[-5189,0],[2108,-1816],[3324,267],[243,-1216],[-5733,949],[417,617],[-6451,2847],[1633,-1981],[-7667,949],[-1390,-949],[3811,-1832],[301,1299],[1807,349],[1204,-866],[-2780,-1032],[4714,-2265],[-428,-600],[-10551,1466],[1146,616],[-4111,0],[0,-1049],[-2884,1049],[-545,-1649],[-1818,-349],[10806,-783],[1448,-1732],[1204,683],[10076,-2515],[-2293,-683],[660,-949],[6695,-433],[-6637,-2781],[2780,0],[-903,-1649],[-3324,600],[1806,-1732],[-1320,-2082],[602,-1898],[-1088,-700],[1876,-2165],[2652,1382],[718,-1382],[2594,250],[788,-5462],[5247,433],[-1633,1299],[5258,-1466],[-128,-1216],[1332,-349],[-2293,-700],[4459,-2248],[-3973,-700],[417,-599],[12972,250],[-1089,-1549],[1332,-350],[-1390,-783],[-5489,950],[3741,-2248],[-3324,599],[-904,-949],[4946,-2082],[-2826,-1132],[-2896,1049],[-2119,-1649],[2293,-516],[359,-2265],[2050,-1216],[-1807,-2081],[904,-950],[2119,1466],[-127,1232],[4227,333],[475,-866],[-718,-699],[-3498,-1899],[1320,-1049],[-602,-866],[2838,-1116],[1448,1383],[1934,-1383],[2409,1033],[2108,-1815],[-232,-2948],[-1575,-866],[127,-1915],[-1575,-516],[2537,-700],[-360,-1898],[719,-700],[1331,516],[-1088,-1898],[4945,1732],[-5188,-4347],[845,-516],[-1390,-1482],[-1922,350],[-1935,-2082],[-4760,-783],[174,-949],[-10794,-1649],[15624,-1132],[1922,1049],[1517,-1999],[4703,-2248],[1262,-2348],[3081,1649],[-243,-1216],[-2050,-166],[0,-1566],[2351,-1465],[3799,-100],[973,-1216],[-2050,-2765],[3497,-1049],[-1146,3031],[2594,-1465],[1448,-1566],[-2537,-2431],[1564,-516],[-602,-866],[729,-1033],[2351,600],[661,-950],[-4239,450],[81,899],[-13655,3098]],[[613502,720868],[-3776,266],[-1124,-1415]],[[603553,769513],[-603,167],[429,100],[174,-267]],[[598549,769080],[-660,600],[2050,1049],[-486,-1915],[-904,266]],[[604097,778090],[185,-250],[-1088,0],[903,250]],[[607954,778439],[672,-249],[-672,-433],[0,682]],[[608440,787116],[-185,266],[371,0],[-186,-266]],[[622431,761103],[-417,250],[1564,0],[-1147,-250]],[[618088,795093],[-174,267],[359,0],[-185,-267]],[[620439,805585],[-602,183],[428,83],[174,-266]],[[621227,806900],[185,-266],[-1807,0],[1622,266]],[[593233,788165],[-173,250],[359,0],[-186,-250]],[[599267,788848],[-417,266],[1321,-516],[-904,250]],[[606274,789198],[-185,266],[359,0],[-174,-266]],[[604583,789897],[-185,267],[359,0],[-174,-267]],[[607954,790247],[-660,599],[1332,-349],[-672,-250]],[[616397,790930],[428,-600],[-845,350],[417,250]],[[604827,791979],[-186,250],[359,0],[-173,-250]],[[616883,792678],[186,-266],[-846,-350],[660,616]],[[633781,749296],[1135,-250],[-1135,-433],[0,683]],[[629369,814611],[-603,183],[429,84],[174,-267]],[[633237,815660],[-429,-100],[-173,267],[602,-167]],[[630643,818691],[-186,267],[359,0],[-173,-267]],[[632565,826319],[-1621,266],[660,1132],[1390,-782],[-429,-616]],[[629855,827101],[-428,-83],[-174,266],[602,-183]],[[632751,828667],[-186,-267],[-660,100],[846,167]],[[636132,831964],[-602,167],[417,100],[185,-267]],[[647946,828667],[-174,-267],[-660,100],[834,167]],[[646568,829799],[417,-616],[-846,350],[429,266]],[[645352,835695],[-174,249],[359,0],[-185,-249]],[[639144,837510],[1563,-700],[-1807,0],[244,700]],[[639086,834312],[417,-616],[-1077,0],[660,616]],[[633052,838476],[1864,-267],[-2525,-349],[661,616]],[[630643,838126],[-186,250],[359,0],[-173,-250]],[[640777,838809],[-2595,-250],[904,949],[1691,-699]],[[609830,795010],[0,-167],[-359,0],[0,167],[359,0]],[[628465,817992],[904,616],[0,-866],[-904,250]],[[629195,842639],[174,-266],[-1077,0],[903,266]],[[625813,843672],[-185,266],[370,0],[-185,-266]],[[627747,846453],[660,-267],[-660,-433],[0,700]],[[627990,847835],[-185,266],[359,0],[-174,-266]],[[627747,848884],[-185,250],[359,0],[-174,-250]],[[627921,849833],[-174,-266],[-672,83],[846,183]],[[624122,851649],[-58,-600],[-602,0],[660,600]],[[626716,851565],[0,-166],[-359,0],[0,166],[359,0]],[[661821,695604],[0,184],[371,0],[0,-184],[-371,0]],[[668284,700734],[-1390,1299],[2293,-1049],[-903,-250]],[[666593,707329],[417,-267],[-1564,0],[1147,267]],[[671955,708095],[-58,-433],[-417,616],[475,-183]],[[658207,695271],[0,167],[359,0],[0,-167],[-359,0]],[[650007,709494],[0,166],[359,0],[0,-166],[-359,0]],[[652590,713907],[429,-250],[-1332,-350],[903,600]],[[655428,715739],[-660,-100],[-186,266],[846,-166]],[[665203,708794],[1332,-350],[-1390,-782],[58,1132]],[[671179,710793],[-1633,249],[903,783],[730,-1032]],[[677445,711475],[-232,-682],[-1146,432],[1378,250]],[[683004,712175],[-428,266],[602,0],[-174,-266]],[[679564,713474],[-1088,-167],[185,267],[903,-100]],[[675696,713141],[486,-883],[-903,-433],[-3625,0],[-1865,783],[-961,2265],[4030,1465],[2838,-3197]],[[683780,714007],[0,166],[359,0],[0,-166],[-359,0]],[[662493,715988],[660,-599],[-1564,0],[904,599]],[[647112,705680],[0,166],[359,0],[0,-166],[-359,0]],[[645664,710876],[1622,-1466],[2351,433],[-3069,-1482],[-1216,1049],[-4517,-616],[2536,1049],[-428,1982],[2721,-949]],[[645352,713907],[671,-600],[-1332,350],[661,250]],[[641981,715639],[-1876,616],[2536,0],[-660,-616]],[[641020,716688],[-429,266],[603,0],[-174,-266]],[[643128,718503],[1922,-1032],[-2050,0],[128,1032]],[[640707,719036],[-173,-266],[-904,83],[174,266],[903,-83]],[[645120,718770],[-429,266],[603,0],[-174,-266]],[[641796,719203],[0,166],[359,0],[0,-166],[-359,0]],[[646626,721118],[-730,1032],[1818,350],[-1088,-1382]],[[648490,724315],[672,-599],[-845,-350],[173,949]],[[644576,733958],[243,-533],[-846,349],[603,184]],[[638426,721284],[0,167],[359,0],[0,-167],[-359,0]],[[639260,722317],[-3313,-2165],[-1390,1132],[244,1915],[1146,433],[3139,350],[174,-1665]],[[635160,733608],[243,-533],[-1089,0],[846,533]],[[637152,736123],[-2108,-966],[359,1915],[-1564,699],[4459,683],[-1146,-2331]],[[651142,714956],[-903,433],[243,1216],[2050,-350],[-1390,-1299]],[[657663,717387],[1147,-616],[-2595,-783],[-903,1133],[2351,266]],[[659597,717737],[-428,250],[602,0],[-174,-250]],[[656702,718770],[2351,949],[-672,-1982],[-1679,1033]],[[677445,717038],[1633,-950],[-4702,-349],[903,1648],[2166,-349]],[[682031,719119],[1390,-949],[-1089,0],[-301,949]],[[662666,719902],[-1320,516],[1807,0],[-487,-516]],[[664902,722933],[2837,-1299],[-7366,0],[429,1649],[4100,-350]],[[656945,720502],[417,-250],[-1332,-350],[915,600]],[[652416,724748],[0,183],[360,0],[0,-183],[-360,0]],[[651687,725098],[0,183],[370,0],[0,-183],[-370,0]],[[656702,732642],[-243,-683],[-429,433],[672,250]],[[660802,729878],[-186,249],[359,0],[-173,-249]],[[662249,731610],[417,-617],[-845,350],[428,267]],[[652833,735773],[-2826,250],[1135,433],[1691,-683]],[[660744,736722],[231,-516],[-602,350],[371,166]],[[651872,828400],[-185,267],[370,0],[-185,-267]],[[659111,840208],[1633,-617],[-3799,-782],[-1147,2348],[3313,-949]],[[660559,847485],[185,-599],[-1089,0],[904,599]],[[653806,855812],[-1876,616],[2293,0],[-417,-616]],[[649637,857111],[243,-516],[-845,350],[602,166]],[[655497,857544],[660,-599],[-1331,349],[671,250]],[[650841,863889],[-1320,516],[660,433],[660,-949]],[[640232,840807],[-3567,-1998],[-1864,1132],[2837,1649],[2594,-783]],[[637395,841940],[-2351,266],[2768,0],[-417,-266]],[[631604,842289],[-1390,250],[429,433],[961,-683]],[[632751,842889],[-186,-250],[-417,83],[186,250],[417,-83]],[[634499,844721],[417,-267],[-602,0],[185,267]],[[616548,855296],[2107,1032],[70,1582]],[[618725,857910],[7007,2082],[12844,-2648]],[[638576,857344],[1239,783]],[[639815,858127],[-2119,2465],[3011,3464],[-1807,-350],[5004,1482],[1146,-616],[-3497,-516],[-2409,-2598],[6451,1648],[428,-616],[-845,-350],[2768,-1215],[-2525,-1383],[1564,-2081],[-1321,-516],[1807,-866],[-1332,-1399],[487,-866],[3798,1998],[2409,-1382],[2896,1382],[3081,-1465],[-846,-533],[3741,-2598],[-359,-1216],[2108,266],[417,-1299],[-5490,-83],[-417,-616],[1564,-699],[-2108,-1466],[-1622,1299],[-729,-1565],[4945,-1383],[-4216,-183],[603,-1199],[-3498,-1216],[174,-966],[2108,100],[-2769,-1565],[-602,-1915],[-1876,-433],[-2594,433],[-6637,5729],[-6393,2947],[1089,866],[-5432,2598],[845,1216],[-12740,2931]],[[618076,853797],[2757,600]],[[620833,854397],[-1598,183],[-2687,716]],[[648189,854863],[-359,0],[0,166],[359,0],[0,-166]],[[648977,860675],[1146,-616],[-1563,0],[417,616]],[[647529,862407],[417,-267],[-1077,0],[660,267]],[[642943,866221],[903,-250],[-1077,0],[174,250]],[[571981,251786],[-2328,483],[-788,1782],[1610,1149],[2177,-833],[846,-1099],[-1517,-1482]],[[588357,245358],[-9045,-950],[-13736,1099],[-11188,-6694]],[[554388,238813],[-13898,7028],[-15022,3846],[-10852,-266],[-19574,-3714],[-11350,-816],[-29001,417],[-5930,5512],[-3891,7561]],[[444870,258381],[5907,11990],[312,8627],[-3694,13989],[-730,7594],[2548,2548],[4749,1565],[9682,150],[16377,11824],[5768,7678],[-4367,4096],[-10620,983],[-2398,3947],[5050,10175],[11524,15388],[1193,5296]],[[486171,364231],[7736,-1899]],[[493907,362332],[9034,450],[4807,1549],[10018,-716],[21206,-6379],[3764,533],[13852,7045],[4749,4496],[18786,5579]],[[580123,374889],[7713,-1948],[3695,-1649]],[[591531,371292],[1007,-4130],[6602,-8077],[18230,-8194],[1888,-2331],[-93,-2148],[-2629,-2498],[-4540,-19585]],[[611996,324329],[-3313,3031]],[[608683,327360],[-1540,-1499],[20060,-24947],[5397,-9209],[3266,-3031],[3231,-11175],[70,-3014],[-5003,2381],[-11721,14456],[-4286,7211],[-12647,12590],[-3301,-2149],[14698,-18735],[4169,-9376],[12254,-8793],[799,-6312],[-834,-1832],[-6949,2582],[-3069,2181],[-1309,2865],[-3567,-1283],[1911,-5345],[5293,-6229],[9555,-8277],[3011,-7377],[208,-3814],[-1667,-3647],[-17582,9875],[-19469,7045],[-5999,3580],[-6752,6878],[3150,2948],[417,3497],[-2154,1016],[-7459,-6095],[7065,-10708],[-1413,-2298],[-2456,-317],[-822,-1832]],[[583238,249171],[5119,-3813]],[[146753,661148],[-3509,-2198],[-3845,1415],[-104,1283],[3567,2031],[3787,-1249],[104,-1282]],[[84872,626609],[1540,8443],[-3787,3814],[741,2165],[-3127,3364],[-695,6861],[1529,5979],[11825,5762],[2061,2748],[-972,3413],[-5131,3947],[-5270,6595],[753,2498],[5061,4180],[-440,1433],[-5096,2597],[-12728,400],[-13945,-1515]],[[304104,632937],[-11952,-2615],[-39946,4946],[-9300,-916],[-9266,-4979],[-45898,11757],[-26372,-1632],[-21774,5429],[-20002,-2498],[-7100,-9775],[-1077,-4313],[-5825,-2215],[-13366,-633],[-7354,1116]],[[83806,186387],[16504,-7028],[57203,-18935]],[[157513,160424],[-3625,-2831]],[[153888,157593],[5571,-1515],[1239,-1932],[-3660,-4963],[-3382,-1482],[-10968,116],[3243,-4163],[-1436,-1565],[-29788,4713],[-1900,-2099],[13493,-6028],[2652,-2482],[-1899,-2098],[-7586,1599],[-2155,-1283],[-3092,-6595],[-6173,-8926],[-209,-1349],[7077,-2098],[-2710,-1765],[-209,-1333],[2722,-2514],[-1424,-1566],[-6069,999],[-7702,-1932],[-1888,-2081],[509,-3747],[-5292,-1466],[-13609,4647],[-4216,3080],[-3359,-1532],[81,-2148],[-3625,-716],[-4470,-3914],[20419,-8010],[1528,-2731],[244,-2931],[-5316,683],[-14594,5728],[2004,-2198],[-394,-2664]],[[67545,87332],[-11558,2914],[-9046,866],[-10076,-883],[-4054,1366],[-1749,1382],[-2918,6745],[-15566,4496],[-6857,4147],[-5721,6445],[1436,2848],[13690,11674],[2478,1332],[3730,4580],[-348,4979],[15462,2099],[1668,3447],[11188,8427],[938,4896],[6393,5745],[3069,4630],[3081,1232],[487,2182],[20534,13506]],[[623103,876546],[-185,-267],[-417,100],[602,167]],[[632021,875330],[-359,0],[0,167],[359,0],[0,-167]],[[624122,850266],[185,-266],[-1806,0],[1621,266]],[[620925,850350],[-359,0],[0,166],[359,0],[0,-166]],[[640232,871516],[-359,0],[0,167],[359,0],[0,-167]],[[639329,874198],[417,-250],[-1089,0],[672,250]],[[637812,874114],[-2525,-516],[903,949],[1622,-433]],[[568483,918613],[324,-267],[-602,0],[278,267]],[[533818,927722],[-359,0],[0,167],[359,0],[0,-167]],[[547636,929721],[417,-267],[-1078,0],[661,267]],[[535567,930753],[904,-266],[-1321,-333],[417,599]],[[531954,937698],[6451,-1999],[-5247,-782],[-2409,1049],[1147,-1999],[-3081,-433],[-4586,683],[-6451,3214],[7180,1299],[6753,0],[243,-1032]],[[540397,936649],[660,-600],[-1077,0],[417,600]],[[532614,943160],[-174,-266],[-428,100],[602,166]],[[482673,943860],[-4772,-1299],[-2594,1632],[7366,-333]],[[521333,942561],[429,-267],[-1089,0],[660,267]],[[523985,942894],[429,-250],[-1089,0],[660,250]],[[529116,943860],[1876,433],[174,-966],[-2050,533]],[[514338,951570],[417,-599],[-602,333],[185,266]],[[523441,946291],[2178,333],[-1390,-949],[-788,616]],[[517534,946291],[4042,83],[6938,-2697],[-9347,949],[-4528,-766],[2050,-1732],[-1147,-616],[-5547,0],[-7482,349],[-1622,600],[1865,1132],[-5305,0],[-1633,1133],[16111,599],[4818,700],[-904,949],[1390,783],[1147,-1133],[-846,-333]],[[526406,946374],[660,-266],[-1088,0],[428,266]],[[514338,947407],[417,-250],[-1077,0],[660,250]],[[526406,947057],[174,-250],[-602,0],[428,250]],[[525375,951487],[1691,-1565],[-3741,-167],[-243,-866],[2293,-699],[-2594,-1466],[-3069,433],[359,2598],[-1807,1549],[3312,-766],[1935,1382],[1864,-433]],[[638576,857344],[-11918,2648],[-7933,-2082]],[[616548,855296],[4285,-899]],[[618076,853797],[3579,-1882],[-2780,-866],[3498,-2948],[-1088,-699],[486,-866],[1807,-350],[-3486,-2648]],[[455537,801455],[-49860,-1749],[-12485,1116]],[[393192,800822],[-6046,2281],[-2061,1516]],[[385085,804619],[-1217,3364],[-13411,3547],[822,1865],[-1413,1982],[-12914,-2498]],[[356952,812879],[-6706,1715],[-8026,2898]],[[342220,817492],[-7146,4730],[3428,3114],[4401,583],[2375,2032],[-406,3031],[10667,-1666],[-7238,4780],[660,8427],[-2120,3647],[-6706,-4847],[-10389,2948],[1054,3231],[4575,6312],[-4517,1565],[-4007,-3630],[-4992,-1149],[-3046,1765],[7772,8077],[11141,3347],[1471,2348],[-984,2515],[-6729,-2715],[-12370,-2214],[-9613,2531],[-2768,-4780],[-6810,-583],[-4598,3664],[-324,2948],[4332,2831],[9508,-300],[4100,1482],[15995,-1115],[1482,2364],[-8709,2232]],[[321709,874997],[-18369,-1016]],[[303340,873981],[-8895,2915],[-8246,-883],[-5571,-3847],[-8478,-2232],[-4019,-3647],[-3451,-5212],[-8525,-117],[-8118,-3064],[3845,-3997],[-487,-2648],[7482,-5213],[-799,-1848],[417,-2948],[2374,-2181],[7366,1115],[21925,-8043],[1714,1565],[475,2698],[10273,-4230],[-1703,-3714],[5513,-4047],[-5547,-3797],[-2745,-4779],[7343,1016],[6682,2698],[6208,-34],[12138,-3580],[-4969,-1116],[-3416,-3098],[8281,-3680],[5918,-1416],[3428,3098],[-648,1682],[5350,-1932],[5259,250],[7412,-3431]],[[357126,806284],[11663,-2864]],[[343170,800522],[-71483,1582]],[[50057,830315],[29279,9593],[13759,-4030],[278,11524],[-2838,16737],[-3625,10292],[371,1382],[-3880,5912],[-857,5129],[-1645,150],[-4169,7228],[-209,3780],[-822,67],[-7633,16587],[-27726,25513],[-6417,17620],[-2953,3730],[289,1049],[-2374,966],[-695,2332],[-9173,15155],[-8269,8210],[43386,5762],[39274,-1549],[47033,2565],[16099,3347],[46038,-1882],[33136,2515],[-1089,-3197],[13064,965],[13458,-1915],[-486,-4763],[2583,-8460],[46,-4196],[9161,-1283],[7378,-2864],[1575,-3964],[11362,-15288],[20002,900],[14824,-1816],[15682,-66],[3544,3047],[70,4164],[-3301,4529],[14767,-4030],[2965,433],[-3487,3198],[-15705,6445],[25214,1565],[4772,6062],[-104,10459],[4702,1898],[29869,-2132],[6359,-2464],[-1332,-517],[1390,-782],[7482,-1049],[-1147,1299],[3081,433],[7713,-3115],[8443,350],[9590,-2515],[-11454,-699],[4459,-1049],[-3556,-600],[-13516,350],[672,-616],[-2050,-866],[5246,-1999],[5791,-1032],[11038,1482],[-18218,1032],[2837,1299],[10609,0],[4587,-1732],[9890,1050],[1390,-966],[-1806,-683],[1864,-1482],[5976,-84],[-3254,-1049],[-243,-1215],[3497,-1216],[-845,-516],[903,-433],[6764,-1033],[-915,-966],[1622,-416],[19075,-2781],[660,599],[-2536,1566],[1332,866],[-2050,866],[1563,349],[128,1566],[10794,-966],[0,-1033],[-7656,-1815],[-243,-1565],[10551,-3914],[8628,-1116],[-7180,-1998],[-4818,1032],[-5803,-2081],[-4100,699],[-3799,-1465],[-1563,-2265],[-1575,166],[3080,-949],[5305,699],[6764,-1732],[173,-965],[-1864,616],[-660,-966],[6208,-3198],[1633,250],[-3267,1749],[5676,-1749],[-2108,-949],[-26303,-1382],[-3625,-1732],[-9161,-1049],[-4042,-1466],[-544,-1998],[-9416,-2432],[-11582,350],[-5490,-1815],[915,-966],[-7424,-1299],[9346,599],[2352,1133],[-904,966],[15682,333],[9902,2431],[904,783],[-371,866],[3811,1482],[17129,-699],[3614,2431],[6277,0],[5548,-1049],[417,-600],[-1077,-699],[9531,-2948],[-1876,-599],[7725,-700],[9347,-4247],[-1633,-616],[10806,-1815],[-3255,-1732],[417,-616],[5247,966],[-4216,-2082],[-313,-1299],[3567,433],[2224,2332],[9416,-683],[9173,1732],[1019,-1999],[3498,-516],[4343,-4163],[-3498,-3298],[6695,250],[-661,1649],[2780,0],[4575,-2948],[-2826,-83],[-1691,1382],[-3081,-1299],[5976,-2165],[3382,700],[4100,-1399],[7957,-5546],[15624,-5629],[3625,-3131],[475,-1565],[-1564,-1033],[4946,517],[2895,-2249],[-3254,-349],[6150,-4697],[-602,-866],[7840,-2598],[2166,-2081],[0,-1549],[-5663,-883],[602,-1216],[-1089,-1382],[2293,0],[-2536,-1215],[602,-866],[-3729,-1216],[7354,1049],[-2536,-1049],[3254,-700],[-3497,-2081],[2536,-333],[-1563,-4347],[2050,-350],[-359,2965],[4459,866],[544,1648],[4042,-1132],[-1807,-866],[1564,166],[1505,-1648],[5247,616],[602,-2265],[2293,-1549],[-602,-882],[1089,-1383],[-3984,-866],[1332,-349],[-1332,-1033],[359,-1565],[-2768,-2265],[1806,-333],[-185,-966],[1587,416],[1563,-1915]],[[204999,920944],[-4934,2815]],[[200065,923759],[-1159,3114],[-4655,2032],[-3626,-2432],[-7481,1483],[-3382,-1116],[197,-4230],[1725,-2582],[-5084,-632],[-8548,-5196],[-5686,949],[-3011,-1932],[-1043,-3181],[8594,-4530],[-1923,-2914],[-8223,-3930],[-2976,-3997],[-1251,-6578],[22376,-6212],[10285,566],[9149,-2564],[-1123,-1050],[-12543,-599],[14987,-5113],[16006,-3664],[-3683,-4446],[-17732,-1116],[567,-1515],[10864,-3115],[8362,-4479],[1703,-483],[3683,2348],[-1309,3830],[1981,799],[17071,-2997],[626,2581],[-11640,4846],[-2270,2032],[1146,1049],[3405,-999],[3429,1066],[567,2598],[-6185,4563],[-9867,4230],[556,2598],[9091,133],[2062,4913],[-2027,3347],[6555,2931],[-1366,1766],[-19029,6145],[8489,1715],[-9937,6279],[3440,3164],[-9752,3480],[4529,4230]],[[501065,952969],[660,-616],[-602,0],[-58,616]],[[494973,953052],[-359,0],[0,167],[359,0],[0,-167]],[[510724,953652],[417,-250],[-1088,0],[671,250]],[[504447,954701],[903,-266],[-660,-433],[-243,699]],[[522966,962945],[3139,-1915],[-4042,-783],[-12010,1465],[2594,966],[7482,-699],[1204,1732],[1633,-766]],[[518496,963111],[-962,517],[1089,0],[-127,-517]],[[495517,964410],[660,-599],[-1077,0],[417,599]],[[479778,968490],[-3324,-266],[-417,616],[3741,-350]],[[474948,969873],[-4227,349],[2362,433],[1865,-782]],[[481040,969956],[-1147,616],[2050,-350],[-903,-266]],[[471566,971255],[-602,-167],[185,267],[417,-100]],[[468740,975168],[417,-616],[-602,350],[185,266]],[[488035,976551],[1390,-600],[-1806,0],[416,600]],[[433022,988008],[544,267],[-116,-183],[-428,-84]],[[458363,991822],[3857,-1732],[10551,-1132],[243,-1216],[-1077,-700],[1621,267],[1876,-783],[-1088,-866],[3984,-1215],[-3984,-1916],[4042,-2498],[8686,-1399],[1147,-1299],[-6695,267],[-17372,4163],[-3382,-349],[-7482,3114],[-2166,-683],[-6034,1732],[-961,-1382],[-4343,0],[-4830,683],[-1390,1482],[2351,1299],[4042,-950],[-1563,683],[417,1299],[14234,-2081],[1876,1315],[-4945,1732],[3972,1549],[973,1049],[-660,600],[4100,-1033]],[[482430,988092],[-359,0],[0,166],[359,0],[0,-166]],[[481283,988691],[417,-250],[-602,0],[185,250]],[[458409,993904],[-1262,-383],[-70,383],[1332,0]],[[453834,995036],[301,250],[290,-350],[-591,100]],[[455166,994070],[-289,-816],[-81,34],[370,782]],[[474763,972387],[2351,-949],[-4216,350],[185,949],[1680,-350]],[[470118,972304],[-173,-616],[-1877,966],[2050,-350]],[[479778,973004],[-603,-184],[174,267],[429,-83]],[[472840,974119],[660,-949],[-4227,699],[3567,250]],[[818431,439922],[-9509,-8127],[3799,-2598],[14222,4330],[-1424,-6079],[-5386,-2615],[-9138,-9809],[2525,-5745],[-324,-5096],[984,-8010],[17280,-15305],[9636,-10159]],[[841096,370709],[-18612,-5012],[-8501,299],[-8258,2415],[-11223,-2182],[-4389,-3897],[-1112,-6944],[127,-15738],[-6335,-6711],[-2525,-9260],[-6462,84],[-2734,-5429],[-2339,-7095],[185,-9809],[-903,-5779]],[[768015,295651],[-6810,10825],[-9451,5379],[-1309,5862],[-14373,6978],[1622,4430],[-2340,1882],[-6463,3114],[-5767,-200],[-869,-1815],[3602,-7694],[-3741,-449],[-5212,3264],[-2907,4380],[-440,4663],[1425,5279],[-7807,2997],[-8593,1116],[-9266,3664],[-6115,-1549],[-7876,766],[-9694,5313],[14617,1265],[-3683,4697],[-12659,1515],[-20743,8244],[-3104,-766],[-3313,-5096],[-7493,4230],[-2815,3514],[-5837,2714],[-4192,6345],[-6405,-916],[-2768,2731],[-2166,-3197],[-104,-2165],[2837,-3514],[9185,-5712]],[[616988,367745],[11246,-17037],[2675,-5679]],[[630909,345029],[290,-3830],[3092,-10325],[5258,-3214],[-3579,6861],[-104,5979],[2479,3264],[4343,-2049],[5351,-9176],[2802,-11691],[13540,-19784],[6323,-5246],[1761,633],[-13783,23648],[128,5129],[-3023,7361],[1031,3964],[4540,-2881],[2606,2464],[7609,-2131],[9045,-5779],[4726,-766],[6520,-6095],[13470,-2732],[278,4330],[4911,-1598],[9219,-15638],[12219,-11891],[4679,-12756],[961,-7195],[-1795,-3614],[-4980,-3547],[-2421,-3297],[-13840,-3697],[-6000,-4547],[-9103,6662],[-4146,1265],[-6370,-2881],[-5316,1083],[-3741,2564],[-3487,6895],[-4424,-117],[186,-3797],[-1680,-3663],[4714,-6745],[16272,-13107],[-2466,-3264],[440,-4696],[-2270,-1132],[-27021,15321],[-3555,4680],[-1888,5379],[-4031,6395],[2664,2431],[-69,3014],[-3834,5546],[637,5629],[-1784,7527],[-2397,-3314],[-1228,-150],[-6092,9576],[-602,2498],[637,5629],[-4390,2082],[-7620,8027],[-4830,-1416]],[[621771,313104],[-9775,11225]],[[591531,371292],[-11408,3597]],[[493907,362332],[-21426,4164],[-16261,4063]],[[456220,370559],[-4876,5696],[-8953,3797],[-8061,516]],[[434330,380568],[-5709,3847],[1019,3181],[12149,3547],[2629,2515],[626,9109],[3138,7345],[-162,9442],[-3011,9893],[-4795,4879],[-14547,3864],[996,3180],[-2548,3914],[-12392,7228],[-1923,7927],[4679,14522],[-1563,12740],[-2757,6078],[-19087,7611],[-752,5962],[289,10508],[-10910,1449],[2953,8727],[6845,5779],[17836,-1349],[3243,-1283],[348,-2964],[39563,-3014]],[[450487,525205],[24739,-20751],[7586,-2398],[13435,183],[24206,2848],[9520,-383],[5212,-5779],[2525,-6095],[1714,-5779],[533,-15388],[6046,-4729]],[[546003,466934],[-8640,2215],[-3162,-816],[2015,-4480],[-1552,-1499],[-8953,3081],[-6185,-3880],[-4354,1115],[4123,4031],[2142,4146],[-3764,3747],[-2061,150],[-3428,-6478],[-6625,8543],[-7772,-9692],[-5652,-1232],[-9265,1715],[-7714,-1099],[-9740,3330],[-324,-1298],[15160,-7761],[3602,-783],[4367,1049],[4540,-6228],[6208,-11991],[-7575,3198]],[[491394,446017],[-11964,8626],[-5582,3048]],[[473848,457691],[-301,-833],[1656,-1632],[-1332,-2398],[11640,-5063],[-267,-3497],[1274,-1965],[4517,-1915],[1772,-3631],[-4459,-7510],[10053,-4980],[4575,217],[4123,4030],[10922,-1049],[556,2664],[4818,-616],[15797,-6795],[2676,2482],[3057,849],[4216,-1099],[3069,849],[1633,1483],[-416,3813],[1042,999],[9810,-4246],[6613,33]],[[570892,427881],[-2780,7761]],[[568112,435642],[20824,1115],[40352,-2398],[17731,184]],[[647019,434543],[2988,-1316],[2583,-4813],[-3254,-2964],[20048,-11924],[938,6944],[2548,317],[927,1798],[-105,2981],[-10354,4647],[4459,3130],[-5050,4464],[-4447,7111],[5849,5462]],[[664149,450380],[-1425,633],[13945,-333]],[[676669,450680],[30275,-4763],[31479,-1732]],[[738423,444185],[22052,-4147],[18543,-383],[20731,1566],[18682,-1299]],[[260835,378520],[-383,2248],[-1876,1466],[232,1015],[-4934,7395],[-6162,3047],[-127,3747],[-8304,3647],[-2525,3681],[-5444,1982],[-4609,4013],[-2363,3764],[47,7078],[-3209,7943],[-8246,3614],[-6648,6129],[-14906,5595],[-3289,5496],[-10898,3131],[-7772,6462],[-32336,8893],[-13030,13522],[-14234,6795],[-1703,3664],[-21982,16587],[-2745,966],[-6740,6561],[2015,1832],[24878,7827],[4239,2615],[7979,12906],[20639,19036],[3116,5479],[3498,10508],[-2352,4796],[-3185,2881],[-4053,6379],[4586,3797],[-521,2414],[-2745,3498],[-13377,3713],[-1656,3664],[-6359,2598],[-4146,3747],[-16736,3647],[-7597,8311]],[[304104,632937],[44255,-3481]],[[442229,606791],[-3833,-2731],[-1379,-3664],[3139,-9643],[3753,-4263],[12635,-9176],[452,-8660],[21658,-17853],[6741,-3430],[2200,-4447],[-1169,-6645],[-2548,-2531],[-21844,-8227],[-11547,-316]],[[434330,380568],[-30135,-11857],[-18404,1898],[-7250,2299],[-14918,9742],[-4331,7511],[-6915,7111],[-9694,7494],[-4644,1882],[-10864,-7778],[-37641,-19901],[-28699,-449]],[[343598,96591],[1819,5013],[-1981,9592],[-2722,7727],[-532,8943],[5628,9909],[429,7794],[-1112,6295]],[[345127,151864],[4042,-5396],[7158,-3114],[1540,-5745],[10841,-4747],[32950,-7244],[14558,117],[5861,1765],[7134,4130],[5374,8560],[-266,5962],[1726,8010],[2629,4680],[13423,-5262],[4169,1049],[11652,-833],[3602,-1632]],[[471520,152164],[2710,-10742]],[[474230,141422],[-2073,-4196],[590,-2465],[14026,-7827],[1181,-7145],[-2246,-8526],[-742,-6995],[5768,-7777]],[[490734,96491],[-4135,-1033],[-5964,-3880],[880,-3347],[2745,-3447],[17558,-9526],[10007,4929],[3636,533],[9845,-1615],[5223,-3148],[-9358,-17736],[-3729,-4880],[-4239,-3197],[-6625,1615],[-9995,4613],[-3950,3281],[-8628,1765],[-6752,-566],[1830,-4513],[-1807,-2831],[-6034,-899],[-6567,-3597],[-16203,-12357],[-4158,-5429],[336,-5996],[-3475,-3530],[-10111,-4164],[-9821,1532],[-6984,-4130],[-8142,2232]],[[406117,17170],[3811,9209],[-684,4680],[-6358,7244],[-17801,12324],[868,8343],[-1598,1449],[-3231,-2198],[-1668,1466],[2073,6361],[-93,7328],[-18670,15538]],[[362766,88914],[-19168,7677]],[[598630,175296],[-2328,-4863],[-17268,5179],[-11304,10059],[8559,4030],[22341,-14405]],[[257638,158726],[-2895,-900],[-1136,2165],[3301,433],[730,-1698]],[[153888,157593],[13829,11574]],[[167717,169167],[6057,9709],[6578,8077]],[[180352,186953],[12254,-6378],[6127,-1049],[15357,-6262],[672,-2431],[-2675,-3931],[660,-2431],[1482,-2748],[6741,-3514],[1540,1532],[-741,2465],[1459,3697],[7297,-3014],[1714,2881],[2201,1249],[3879,-4496],[2189,-900],[1228,4530],[2919,-1216],[5976,-7544],[18716,-14372],[-4563,-8893],[11837,-3580],[741,1865],[-5444,5928],[4830,-1332],[3069,-2032],[4216,-8310],[11941,-8726]],[[295974,117941],[66792,-29027]],[[406117,17170],[9601,-2898],[-5848,-8410],[-8745,-5862],[-17488,833],[-135797,37720],[-103750,27645],[-39633,9226],[-18659,6712],[-13655,582],[-4598,4614]],[[343598,96591],[-47624,21350]],[[180352,186953],[2467,4730]],[[182819,191683],[11710,12440],[12751,11325]],[[207280,215448],[8605,-7078],[17975,-3397],[2699,-2565],[4262,-8543],[5420,-4863],[18219,-1349],[4308,-1799],[1888,-3397],[-46,-3148],[2073,-7377],[6879,-9876],[6394,-2148],[5466,-217],[37745,4147]],[[329167,163838],[3452,-8027]],[[332619,155811],[5304,-3014],[7204,-933]],[[867584,756940],[-3081,949],[3799,2165],[2594,-83],[-3312,-3031]],[[588357,245358],[10285,-1999]],[[598642,243359],[1112,-2015],[9995,-4746],[12265,-16987],[255,-5346],[-5444,417],[1437,-3664],[-2849,-6795],[498,-4680],[-3463,-1315],[-4737,3764],[-11177,4596],[-1922,5362],[-6313,5230],[-8559,4063],[-1250,-2048],[13307,-11441],[185,-3448],[-2930,-3780],[17234,-11208],[15265,-14039],[8767,-4996],[-4030,-1765]],[[626288,168518],[4644,-3731],[11061,-6878]],[[641993,157909],[3637,467],[9763,-7011],[5513,-1966],[2536,2482],[4598,-766],[3521,-1732],[1483,-3714],[5351,1083],[14755,-4314],[16319,-14105],[5084,-3298],[3614,433],[2802,-1415],[5896,-9693],[8420,-7261],[-8073,-8676]],[[727212,98423],[-6173,-2748],[-5177,-4946],[-1645,-3681],[-4528,716],[-11906,5813],[-788,3364],[4169,12157],[-3022,2215],[-8038,-5812],[-6463,899],[-7783,-4447],[-5768,550],[-10041,5562],[-15937,3914],[-9149,4363],[-5085,183],[-6856,-5662],[-11744,-3331],[-10771,-7494],[-3869,-15205],[-3127,17],[-5246,6162],[-5409,4030],[-16678,9276],[-9289,-3031]],[[556889,101287],[-5211,8310],[-1992,5363],[-6996,10608],[730,4813],[9914,5746],[-7123,13606],[-5165,3114],[-10644,-3214],[-10493,-1066],[6115,6012],[11744,6395],[4563,4546],[-683,5463],[-5166,18568],[-185,5979],[3139,5179],[9381,6046],[1830,2847],[10018,3514],[2560,2515],[1424,4513],[-10458,6245],[197,12424]],[[556889,101287],[-41173,3597],[-13562,-6278],[-11420,-2115]],[[474230,141422],[-973,6295],[-1737,4447]],[[332619,155811],[-5258,12424]],[[327361,168235],[1911,9342],[5084,9410],[3231,9492],[6683,5829],[5131,-17],[26198,-6961]],[[375599,195330],[7806,-483],[7401,3331]],[[390806,198178],[8362,9459],[10563,8510],[15890,5429],[10389,9310],[8860,27495]],[[825588,133329],[-16539,7744],[-1760,5445],[1239,6146],[-18010,20500],[-4366,2965],[3521,4246],[-209,3864],[-6126,5362],[1424,5296],[-23453,9526],[3197,2914],[-3718,5613],[3706,3397],[2247,4147],[-11269,5612],[-4598,3780],[-5015,8477],[-1807,5379],[185,5163],[12543,12557],[1413,8293],[-1030,5013],[7435,6828],[-2861,4396],[7297,4663],[-1019,4996]],[[841096,370709],[8814,-8110],[24635,-10875],[26950,-9875],[32789,3780],[11477,-2848],[9034,-7744],[4204,-5995],[3857,-15055],[-313,-5979],[-1945,-7410],[-5027,-8111],[-3845,-11024],[-8188,-317],[1100,-6711],[5629,-6795],[4713,-1699],[9231,2032],[6393,-300],[4992,-3414],[1830,-3297],[301,-5529],[3452,-5696],[7493,-7077],[-1228,-3964],[116,-4696],[3185,-4030],[8571,-2299],[-2212,-5745],[2895,-6195],[-2073,-2748],[-4552,-2948],[-1807,-4446],[1390,-4597],[-4262,-4646],[9231,-6545],[-695,-3497],[-15485,-12440],[-1888,-7478],[1263,-7627],[-510,-8227],[-34340,-1865],[-11327,-2548],[-10169,3597],[-1807,5396],[-4922,2464],[-6810,-349],[-13377,6644],[-7911,-1315],[-6231,-2881],[-6219,-5896],[-1656,-3663],[-15149,5978],[-7552,-33],[-7262,-3880],[-8836,-10559],[-1263,-5329],[-7876,-6561],[-2316,3597]],[[563873,512598],[-3358,716],[-568,1382],[3533,1816],[2559,-1666],[-2166,-2248]],[[774037,496411],[-4204,399],[22365,-23281],[10713,-6645],[-35,-5962],[1541,-7461],[12195,-8160],[1819,-5379]],[[738423,444185],[-46362,3281],[-15392,3214]],[[676669,450680],[-21102,-150]],[[655567,450530],[1355,12590],[-741,5429],[-4378,4130],[1887,2815],[10528,-4630],[4622,150],[3995,-2515],[6868,-8909],[3012,-1333],[4563,3098],[15265,-8310],[5026,-1532],[-440,4613],[-13539,9009],[-1401,2831],[1146,950],[4760,-650],[5258,-2365],[6116,-533],[7516,1782],[4818,-699],[5050,-4480],[3521,2098],[1517,7411],[-2224,6145],[-4192,-1782],[-10389,9793],[-11640,-1416],[-3509,-2115],[-3718,-6411],[-19307,2714],[-2131,-1982],[-3787,1682],[-4691,2798],[2444,3298],[3648,1315],[-822,3298],[10644,2614],[-5317,2332],[-8373,8793],[-9173,1832],[-2525,1832],[2664,2481],[660,2615],[-2768,2664],[1888,2815],[-3706,3797],[-6810,-2149],[-10366,850],[-7123,3797],[822,1832],[5490,1981],[-1146,4114],[-4622,4163],[-4737,-2315],[-3636,833],[-4575,-5279],[-3811,1615],[-2061,2332],[116,4280],[-16365,4779],[1725,-5778],[3313,-2132],[-23662,12856],[-2838,4780],[1610,3631],[-3683,816],[-4250,-3964],[-7077,-1366],[8918,-6578],[-1818,-2831],[17732,-4580],[-348,-5612],[7830,-1149],[5605,-7427],[2583,-1832],[-2710,-2465],[-6509,-833],[-5698,983],[-6011,-4680],[-3637,-1332],[-614,-2631],[4621,-4131],[-11,-2165],[-5328,-7127],[7019,3514],[8894,-5263],[4367,-1149],[-3695,5929],[-4876,2814],[-1448,2798],[1066,3147],[2977,3798],[4945,1515],[3787,-1632],[753,-2481],[14524,-8427],[2432,-3947],[-3452,-4313],[5282,-2299],[417,-3813],[-2571,-333],[-1958,-2781],[3000,-3498],[3810,-1648],[-8628,-2798],[706,-2482],[9938,-2148],[2663,-2631],[394,-3814],[5525,-966],[7933,5279],[4772,-2831],[2328,-3947],[-324,-6445],[3428,-8093],[-2965,-3814],[1772,-4446],[-2282,-4130]],[[568112,435642],[-706,2481]],[[567406,438123],[-21276,12091],[-347,5945],[1100,5312],[7563,4014],[-5363,2298],[-3080,-849]],[[202451,293353],[-5780,-19435],[-4609,-11724],[3717,-20001],[-880,-9625],[5258,-8544],[7123,-8576]],[[207280,215448],[-4378,-4680],[-4899,-3031],[-15184,-16054]],[[182819,191683],[-15102,-22516]],[[167717,169167],[-10204,-8743]],[[83806,186387],[1506,5962],[2501,2948],[9880,6511],[4169,4247],[139,1416],[8223,6361],[5120,1249],[521,2215],[-823,300],[-69,2082],[8292,5146],[3985,4646],[5987,4113],[533,2215],[2548,1233],[4957,6528],[8165,5679],[2583,4496],[-463,2265],[3243,3697],[7018,1166],[7598,5113],[556,2215],[1865,366],[1112,2615],[5119,2181],[3694,3214],[7749,1566],[752,2948],[-2397,766],[5930,4146],[5941,5396],[383,1466],[2328,499]],[[202451,293353],[3648,3731],[7134,3730],[3371,7078],[4401,1965],[2640,3081],[1031,3597],[13099,19235],[6996,19585],[3034,533],[-278,2931],[13748,16537],[614,2215],[-1054,949]],[[456220,370559],[29951,-6328]],[[390806,198178],[-4447,-2432],[-10760,-416]],[[327361,168235],[1806,-4397]],[[608683,327360],[13088,-14256]],[[630909,345029],[-9972,17187],[-3949,5529]],[[825588,133329],[2363,-3731],[-730,-1732],[-85543,-32158],[-6127,-3447],[-8339,6162]],[[641993,157909],[-15705,10609]],[[598642,243359],[-4158,1232],[-3683,-482],[-7563,5062]],[[655567,450530],[8582,-150]],[[473848,457691],[13029,-7611],[4517,-4063]],[[567406,438123],[3486,-10242]],[[373190,801788],[-16064,4496]],[[303340,873981],[5652,-449],[12717,1465]],[[342220,817492],[14732,-4613]],[[385085,804619],[8107,-3797]],[[200065,923759],[4076,-2565],[858,-250]]],"bbox":[29.3216,60.6465,37.9558,66.6512],"transform":{"scale":[0.000008634208634208638,0.000006004706004706004],"translate":[29.3216,60.6465]}}