{"type":"Topology","objects":{"muni":{"type":"GeometryCollection","geometries":[{"type":"MultiPolygon","arcs":[[[0]]],"properties":{"GID_2":"RUS.27.1_1","GID_0":"RUS","COUNTRY":"Russia","GID_1":"RUS.27_1","NAME_1":"Kemerovo","NL_NAME_1":"Кемеровскаяобласть","NAME_2":"Anzhero-Sudzhensk","VARNAME_2":"NA","NL_NAME_2":"Анжеро-Судженск","TYPE_2":"Gorsovet","ENGTYPE_2":"District","CC_2":"NA","HASC_2":"RU.KE.AN"}},{"type":"MultiPolygon","arcs":[[[1]]],"properties":{"GID_2":"RUS.27.2_1","GID_0":"RUS","COUNTRY":"Russia","GID_1":"RUS.27_1","NAME_1":"Kemerovo","NL_NAME_1":"Кемеровскаяобласть","NAME_2":"Belovo","VARNAME_2":"NA","NL_NAME_2":"Белово","TYPE_2":"Gorsovet","ENGTYPE_2":"District","CC_2":"NA","HASC_2":"RU.KE.BG"}},{"type":"MultiPolygon","arcs":[[[2,3,4,5,6,7,8,9,10,11,12],[-2]]],"properties":{"GID_2":"RUS.27.3_1","GID_0":"RUS","COUNTRY":"Russia","GID_1":"RUS.27_1","NAME_1":"Kemerovo","NL_NAME_1":"Кемеровскаяобласть","NAME_2":"Belovskiyrayon","VARNAME_2":"NA","NL_NAME_2":"Беловскийрайон","TYPE_2":"Raion","ENGTYPE_2":"District","CC_2":"R54000","HASC_2":"RU.KE.BR"}},{"type":"MultiPolygon","arcs":[[[13]]],"properties":{"GID_2":"RUS.27.4_1","GID_0":"RUS","COUNTRY":"Russia","GID_1":"RUS.27_1","NAME_1":"Kemerovo","NL_NAME_1":"Кемеровскаяобласть","NAME_2":"Berezovskiy","VARNAME_2":"Berëzovskiy","NL_NAME_2":"Березовский","TYPE_2":"Gorsovet","ENGTYPE_2":"District","CC_2":"NA","HASC_2":"RU.KE.BZ"}},{"type":"MultiPolygon","arcs":[[[14,15,16,17,18,19,20,21,22,23,24]]],"properties":{"GID_2":"RUS.27.5_1","GID_0":"RUS","COUNTRY":"Russia","GID_1":"RUS.27_1","NAME_1":"Kemerovo","NL_NAME_1":"Кемеровскаяобласть","NAME_2":"Chebulinskiyrayon","VARNAME_2":"NA","NL_NAME_2":"Чебулинскийрайон","TYPE_2":"Raion","ENGTYPE_2":"District","CC_2":"R54001","HASC_2":"RU.KE.CH"}},{"type":"MultiPolygon","arcs":[[[25]]],"properties":{"GID_2":"RUS.27.6_1","GID_0":"RUS","COUNTRY":"Russia","GID_1":"RUS.27_1","NAME_1":"Kemerovo","NL_NAME_1":"Кемеровскаяобласть","NAME_2":"Gur'evsk","VARNAME_2":"Guryevsk","NL_NAME_2":"Гурьевск","TYPE_2":"Gorsovet","ENGTYPE_2":"District","CC_2":"NA","HASC_2":"RU.KE.GG"}},{"type":"MultiPolygon","arcs":[[[26,27,-6,28,29,30],[-26]]],"properties":{"GID_2":"RUS.27.7_1","GID_0":"RUS","COUNTRY":"Russia","GID_1":"RUS.27_1","NAME_1":"Kemerovo","NL_NAME_1":"Кемеровскаяобласть","NAME_2":"Gur'evskiyrayon","VARNAME_2":"NA","NL_NAME_2":"Гурьевскийрайон","TYPE_2":"Raion","ENGTYPE_2":"District","CC_2":"R54000","HASC_2":"RU.KE.GU"}},{"type":"MultiPolygon","arcs":[[[-18,31,-16,32,33,34,35]]],"properties":{"GID_2":"RUS.27.8_1","GID_0":"RUS","COUNTRY":"Russia","GID_1":"RUS.27_1","NAME_1":"Kemerovo","NL_NAME_1":"Кемеровскаяобласть","NAME_2":"Izhmorskiyrayon","VARNAME_2":"NA","NL_NAME_2":"Ижморскийрайон","TYPE_2":"Raion","ENGTYPE_2":"District","CC_2":"R54000","HASC_2":"RU.KE.IZ"}},{"type":"MultiPolygon","arcs":[[[36]]],"properties":{"GID_2":"RUS.27.9_1","GID_0":"RUS","COUNTRY":"Russia","GID_1":"RUS.27_1","NAME_1":"Kemerovo","NL_NAME_1":"Кемеровскаяобласть","NAME_2":"Kemerovo","VARNAME_2":"NA","NL_NAME_2":"Кемерово","TYPE_2":"Gorsovet","ENGTYPE_2":"District","CC_2":"NA","HASC_2":"RU.KE.KG"}},{"type":"MultiPolygon","arcs":[[[-15,37,38,39,40,41,42,-33],[-14],[-37]]],"properties":{"GID_2":"RUS.27.10_1","GID_0":"RUS","COUNTRY":"Russia","GID_1":"RUS.27_1","NAME_1":"Kemerovo","NL_NAME_1":"Кемеровскаяобласть","NAME_2":"Kemerovskiyrayon","VARNAME_2":"NA","NL_NAME_2":"Кемеровскийрайон","TYPE_2":"Raion","ENGTYPE_2":"District","CC_2":"R54000","HASC_2":"RU.KE.KR"}},{"type":"MultiPolygon","arcs":[[[43]]],"properties":{"GID_2":"RUS.27.11_1","GID_0":"RUS","COUNTRY":"Russia","GID_1":"RUS.27_1","NAME_1":"Kemerovo","NL_NAME_1":"Кемеровскаяобласть","NAME_2":"Kiselevsk","VARNAME_2":"NA","NL_NAME_2":"Киселевск","TYPE_2":"Gorsovet","ENGTYPE_2":"District","CC_2":"NA","HASC_2":"RU.KE.KI"}},{"type":"MultiPolygon","arcs":[[[-13,44,-11,45,46,-39,47,-24,48,49,50,51,52]]],"properties":{"GID_2":"RUS.27.12_1","GID_0":"RUS","COUNTRY":"Russia","GID_1":"RUS.27_1","NAME_1":"Kemerovo","NL_NAME_1":"Кемеровскаяобласть","NAME_2":"Krapivinskiyrayon","VARNAME_2":"NA","NL_NAME_2":"Крапивинскийрайон","TYPE_2":"Raion","ENGTYPE_2":"District","CC_2":"R54000","HASC_2":"RU.KE.KP"}},{"type":"MultiPolygon","arcs":[[[53,-9,54,-7,-28,55,-46]]],"properties":{"GID_2":"RUS.27.13_1","GID_0":"RUS","COUNTRY":"Russia","GID_1":"RUS.27_1","NAME_1":"Kemerovo","NL_NAME_1":"Кемеровскаяобласть","NAME_2":"Leninsk-Kuznetskiyrayon","VARNAME_2":"NA","NL_NAME_2":"Ленинск-Кузнецкийрайон","TYPE_2":"Raion","ENGTYPE_2":"District","CC_2":"R54000","HASC_2":"RU.KE.LG"}},{"type":"MultiPolygon","arcs":[[[56]]],"properties":{"GID_2":"RUS.27.14_1","GID_0":"RUS","COUNTRY":"Russia","GID_1":"RUS.27_1","NAME_1":"Kemerovo","NL_NAME_1":"Кемеровскаяобласть","NAME_2":"Mariynsk","VARNAME_2":"Marinsk|Mariinsk","NL_NAME_2":"Мариинск","TYPE_2":"Gorod","ENGTYPE_2":"City","CC_2":"NA","HASC_2":"RU.KE.MG"}},{"type":"MultiPolygon","arcs":[[[-19,-36,57,58],[-57]]],"properties":{"GID_2":"RUS.27.15_1","GID_0":"RUS","COUNTRY":"Russia","GID_1":"RUS.27_1","NAME_1":"Kemerovo","NL_NAME_1":"Кемеровскаяобласть","NAME_2":"Mariynskiyrayon","VARNAME_2":"NA","NL_NAME_2":"Марийнскийрайон","TYPE_2":"Raion","ENGTYPE_2":"District","CC_2":"R54000","HASC_2":"RU.KE.MR"}},{"type":"MultiPolygon","arcs":[[[59]]],"properties":{"GID_2":"RUS.27.16_1","GID_0":"RUS","COUNTRY":"Russia","GID_1":"RUS.27_1","NAME_1":"Kemerovo","NL_NAME_1":"Кемеровскаяобласть","NAME_2":"Mezhdurechenski","VARNAME_2":"NA","NL_NAME_2":"Междуреченск","TYPE_2":"Raion","ENGTYPE_2":"District","CC_2":"NA","HASC_2":"RU.KE.MZ"}},{"type":"MultiPolygon","arcs":[[[-3,-53,60,61,62,63,64,65,66,67,68]]],"properties":{"GID_2":"RUS.27.17_1","GID_0":"RUS","COUNTRY":"Russia","GID_1":"RUS.27_1","NAME_1":"Kemerovo","NL_NAME_1":"Кемеровскаяобласть","NAME_2":"Mezhdurechenskiyrayon","VARNAME_2":"NA","NL_NAME_2":"Междуреченскийрайон","TYPE_2":"Raion","ENGTYPE_2":"District","CC_2":"R54000","HASC_2":"RU.KE.MD"}},{"type":"MultiPolygon","arcs":[[[69]]],"properties":{"GID_2":"RUS.27.18_1","GID_0":"RUS","COUNTRY":"Russia","GID_1":"RUS.27_1","NAME_1":"Kemerovo","NL_NAME_1":"Кемеровскаяобласть","NAME_2":"Myski","VARNAME_2":"NA","NL_NAME_2":"Мыски","TYPE_2":"Gorsovet","ENGTYPE_2":"District","CC_2":"NA","HASC_2":"RU.KE.MY"}},{"type":"MultiPolygon","arcs":[[[70]]],"properties":{"GID_2":"RUS.27.19_1","GID_0":"RUS","COUNTRY":"Russia","GID_1":"RUS.27_1","NAME_1":"Kemerovo","NL_NAME_1":"Кемеровскаяобласть","NAME_2":"Novokuznetsk","VARNAME_2":"NA","NL_NAME_2":"Новокузнецк","TYPE_2":"Gorsovet","ENGTYPE_2":"District","CC_2":"NA","HASC_2":"RU.KE.NG"}},{"type":"MultiPolygon","arcs":[[[71,72,-65,73,74,75,76,77],[-60],[-70],[-71],[78],[79]]],"properties":{"GID_2":"RUS.27.20_1","GID_0":"RUS","COUNTRY":"Russia","GID_1":"RUS.27_1","NAME_1":"Kemerovo","NL_NAME_1":"Кемеровскаяобласть","NAME_2":"Novokuznetskiy","VARNAME_2":"NA","NL_NAME_2":"Новокузнецкийрайон","TYPE_2":"Raion","ENGTYPE_2":"District","CC_2":"R54000","HASC_2":"RU.KE.NR"}},{"type":"MultiPolygon","arcs":[[[-79]]],"properties":{"GID_2":"RUS.27.21_1","GID_0":"RUS","COUNTRY":"Russia","GID_1":"RUS.27_1","NAME_1":"Kemerovo","NL_NAME_1":"Кемеровскаяобласть","NAME_2":"Osinniki","VARNAME_2":"NA","NL_NAME_2":"Осинники","TYPE_2":"Gorsovet","ENGTYPE_2":"District","CC_2":"NA","HASC_2":"RU.KE.OG"}},{"type":"MultiPolygon","arcs":[[[-80]]],"properties":{"GID_2":"RUS.27.22_1","GID_0":"RUS","COUNTRY":"Russia","GID_1":"RUS.27_1","NAME_1":"Kemerovo","NL_NAME_1":"Кемеровскаяобласть","NAME_2":"Osinnikskiyrayon","VARNAME_2":"NA","NL_NAME_2":"Осинникскийрайон","TYPE_2":"Raion","ENGTYPE_2":"District","CC_2":"R54000","HASC_2":"RU.KE.OG"}},{"type":"MultiPolygon","arcs":[[[80]]],"properties":{"GID_2":"RUS.27.23_1","GID_0":"RUS","COUNTRY":"Russia","GID_1":"RUS.27_1","NAME_1":"Kemerovo","NL_NAME_1":"Кемеровскаяобласть","NAME_2":"Prokop'evsk","VARNAME_2":"NA","NL_NAME_2":"Прокопьевск","TYPE_2":"Gorsovet","ENGTYPE_2":"District","CC_2":"NA","HASC_2":"RU.KE.PG"}},{"type":"MultiPolygon","arcs":[[[81,-30,82,-4,-69,83,-67,84,-72],[-44],[-81]]],"properties":{"GID_2":"RUS.27.24_1","GID_0":"RUS","COUNTRY":"Russia","GID_1":"RUS.27_1","NAME_1":"Kemerovo","NL_NAME_1":"Кемеровскаяобласть","NAME_2":"Prokop'evskiyrayon","VARNAME_2":"NA","NL_NAME_2":"Прокопьевскийрайон","TYPE_2":"Raion","ENGTYPE_2":"District","CC_2":"R54001","HASC_2":"RU.KE.PR"}},{"type":"MultiPolygon","arcs":[[[-27,85,86,-47,-56]]],"properties":{"GID_2":"RUS.27.25_1","GID_0":"RUS","COUNTRY":"Russia","GID_1":"RUS.27_1","NAME_1":"Kemerovo","NL_NAME_1":"Кемеровскаяобласть","NAME_2":"Promyshlennovskiyrayon","VARNAME_2":"NA","NL_NAME_2":"Промышленновскийрайон","TYPE_2":"Raion","ENGTYPE_2":"District","CC_2":"R54001","HASC_2":"RU.KE.PM"}},{"type":"MultiPolygon","arcs":[[[87]]],"properties":{"GID_2":"RUS.27.26_1","GID_0":"RUS","COUNTRY":"Russia","GID_1":"RUS.27_1","NAME_1":"Kemerovo","NL_NAME_1":"Кемеровскаяобласть","NAME_2":"Tashtagol","VARNAME_2":"NA","NL_NAME_2":"Таштагол","TYPE_2":"Gorod","ENGTYPE_2":"City","CC_2":"NA","HASC_2":"RU.KE.TG"}},{"type":"MultiPolygon","arcs":[[[-77,88,-75,89],[-88]]],"properties":{"GID_2":"RUS.27.27_1","GID_0":"RUS","COUNTRY":"Russia","GID_1":"RUS.27_1","NAME_1":"Kemerovo","NL_NAME_1":"Кемеровскаяобласть","NAME_2":"Tashtagol'skiyrayon","VARNAME_2":"NA","NL_NAME_2":"Таштагольскийрайон","TYPE_2":"Raion","ENGTYPE_2":"District","CC_2":"R54001","HASC_2":"RU.KE.TR"}},{"type":"MultiPolygon","arcs":[[[90]]],"properties":{"GID_2":"RUS.27.28_1","GID_0":"RUS","COUNTRY":"Russia","GID_1":"RUS.27_1","NAME_1":"Kemerovo","NL_NAME_1":"Кемеровскаяобласть","NAME_2":"Tayga","VARNAME_2":"NA","NL_NAME_2":"Тайга","TYPE_2":"Gorsovet","ENGTYPE_2":"District","CC_2":"NA","HASC_2":"RU.KE.TA"}},{"type":"MultiPolygon","arcs":[[[-23,91,-21,92,93,94,-63,95,-61,-52,96,97,-49]]],"properties":{"GID_2":"RUS.27.29_1","GID_0":"RUS","COUNTRY":"Russia","GID_1":"RUS.27_1","NAME_1":"Kemerovo","NL_NAME_1":"Кемеровскаяобласть","NAME_2":"Tisul'skiyrayon","VARNAME_2":"NA","NL_NAME_2":"Тисульскийрайон","TYPE_2":"Raion","ENGTYPE_2":"District","CC_2":"R54001","HASC_2":"RU.KE.TI"}},{"type":"MultiPolygon","arcs":[[[98]]],"properties":{"GID_2":"RUS.27.30_1","GID_0":"RUS","COUNTRY":"Russia","GID_1":"RUS.27_1","NAME_1":"Kemerovo","NL_NAME_1":"Кемеровскаяобласть","NAME_2":"Topki","VARNAME_2":"NA","NL_NAME_2":"Топки","TYPE_2":"Gorod","ENGTYPE_2":"City","CC_2":"NA","HASC_2":"RU.KE.TK"}},{"type":"MultiPolygon","arcs":[[[-40,-87,99,100],[-99]]],"properties":{"GID_2":"RUS.27.31_1","GID_0":"RUS","COUNTRY":"Russia","GID_1":"RUS.27_1","NAME_1":"Kemerovo","NL_NAME_1":"Кемеровскаяобласть","NAME_2":"Topkinskiyrayon","VARNAME_2":"NA","NL_NAME_2":"Топкинскийрайон","TYPE_2":"Raion","ENGTYPE_2":"District","CC_2":"R54001","HASC_2":"RU.KE.TP"}},{"type":"MultiPolygon","arcs":[[[101,-59,102,-94]]],"properties":{"GID_2":"RUS.27.32_1","GID_0":"RUS","COUNTRY":"Russia","GID_1":"RUS.27_1","NAME_1":"Kemerovo","NL_NAME_1":"Кемеровскаяобласть","NAME_2":"Tyazhinskiyrayon","VARNAME_2":"NA","NL_NAME_2":"Тяжинскийрайон","TYPE_2":"Raion","ENGTYPE_2":"District","CC_2":"R54001","HASC_2":"RU.KE.TY"}},{"type":"MultiPolygon","arcs":[[[103,-41,104,105,106,107,108,109,110,111],[-91]]],"properties":{"GID_2":"RUS.27.33_1","GID_0":"RUS","COUNTRY":"Russia","GID_1":"RUS.27_1","NAME_1":"Kemerovo","NL_NAME_1":"Кемеровскаяобласть","NAME_2":"Yashkinskiyrayon","VARNAME_2":"NA","NL_NAME_2":"Яшкинскийрайон","TYPE_2":"Raion","ENGTYPE_2":"District","CC_2":"R54002","HASC_2":"RU.KE.YS"}},{"type":"MultiPolygon","arcs":[[[-34,-43,-112,112,113,-109,114],[-1]]],"properties":{"GID_2":"RUS.27.34_1","GID_0":"RUS","COUNTRY":"Russia","GID_1":"RUS.27_1","NAME_1":"Kemerovo","NL_NAME_1":"Кемеровскаяобласть","NAME_2":"Yayskiyrayon","VARNAME_2":"NA","NL_NAME_2":"Яйскийрайон","TYPE_2":"Raion","ENGTYPE_2":"District","CC_2":"R54001","HASC_2":"RU.KE.YY"}},{"type":"MultiPolygon","arcs":[[[115]]],"properties":{"GID_2":"RUS.27.35_1","GID_0":"RUS","COUNTRY":"Russia","GID_1":"RUS.27_1","NAME_1":"Kemerovo","NL_NAME_1":"Кемеровскаяобласть","NAME_2":"Yurga","VARNAME_2":"NA","NL_NAME_2":"Юрга","TYPE_2":"Gorod","ENGTYPE_2":"City","CC_2":"NA","HASC_2":"RU.KE.YG"}},{"type":"MultiPolygon","arcs":[[[-101,116,-107,117,-105],[-116]]],"properties":{"GID_2":"RUS.27.36_1","GID_0":"RUS","COUNTRY":"Russia","GID_1":"RUS.27_1","NAME_1":"Kemerovo","NL_NAME_1":"Кемеровскаяобласть","NAME_2":"Yurginskiyrayon","VARNAME_2":"NA","NL_NAME_2":"Юргинскийрайон","TYPE_2":"Raion","ENGTYPE_2":"District","CC_2":"R54001","HASC_2":"RU.KE.YR"}}]}},"arcs":[[[310140,833766],[-1807,554],[1888,703],[-81,-1257]],[[376104,479694],[-4879,171],[2811,2216],[2209,-490],[-141,-1897]],[[579417,510227],[5020,-5689],[8052,-2983],[8073,-16704],[2570,-10483],[-17610,-469],[-50723,-9268],[-2410,-4624],[2952,-6307]],[[535341,453700],[-17430,-3046],[-4699,618],[-4116,4794],[-19860,1534],[-28895,-17450],[-13414,-5370],[-5944,448],[-6987,3643],[-11366,-4730],[-4076,-4240]],[[418554,429901],[-6245,-1577]],[[412309,428324],[-21627,29126],[-35743,405],[-8092,7628]],[[346847,465483],[2631,5625],[-743,5028],[-4659,5114],[-1004,5774],[1124,6221],[6848,3836]],[[351044,497081],[10542,532],[7892,-1172]],[[369478,496441],[1767,-6242],[5381,-2472],[5422,1257],[3875,3047],[-1727,6072],[6265,8438],[8776,-874],[1064,-5177],[10944,-597],[9678,5114]],[[420923,505007],[21747,3068],[11446,809]],[[454116,508884],[16185,-4708],[18012,10610]],[[488313,514786],[19197,-1044]],[[507510,513742],[5883,-6179],[23233,3537],[42791,-873]],[[363172,739676],[-3453,831],[1044,1534],[4357,-405],[-1948,-1960]],[[467991,668662],[13996,16789],[-1405,7117],[4177,15425],[4136,7564],[502,13423]],[[489397,728980],[9317,-2833],[21105,2855],[12791,14829]],[[532610,743831],[11928,22606],[3052,8011]],[[547590,774448],[-1607,7905],[3053,8011],[6405,6030]],[[555441,796394],[24759,5561],[20060,8736],[25081,19282],[13976,6840],[23594,3366],[16325,-3558],[21024,-1279],[26446,-5838],[9277,-7862],[25241,-13274]],[[761224,808368],[-2289,-13572]],[[758935,794796],[-12731,-9780],[-15301,-6903],[-121,-11591],[-5562,-5880],[-7269,-192],[-7389,-3153],[-1687,-4304],[3092,-5732],[442,-6818],[-6366,-6392],[-20763,320],[-35240,-10909],[-17029,-3068],[-14498,-6712],[-6686,-6242],[-10442,-3708]],[[601385,703732],[-30582,-5241],[-40221,-12273]],[[530582,686218],[-12611,-1065]],[[517971,685153],[-15502,2706],[-8594,-4155],[-4779,-8629],[-10100,-597]],[[478996,674478],[-11005,-5816]],[[304779,447863],[-2631,-491],[-462,2131],[2129,426],[964,-2066]],[[116325,518771],[12912,-4752],[5020,-7414],[7490,-746],[6767,2897],[1024,3473],[7269,3367]],[[156807,515596],[24779,-11463],[17651,-17152],[14939,-767],[46004,10781],[34559,3708],[7309,-3196],[1827,-6264],[6446,-3495],[4016,-6946],[1325,-4751],[-2289,-7585],[-4839,-4751],[6124,-5498],[15261,1769],[16928,5497]],[[412309,428324],[-9157,-2514]],[[403152,425810],[-3695,-4389],[-2389,-7372],[-12410,-4325],[-25160,-4560],[-4539,1960],[-11807,661],[-12209,-7649],[-18694,-4602],[-12611,-5412]],[[299638,390122],[-7490,1236],[-2510,6349],[-18373,4666],[-9599,13700],[-21988,3793],[-10200,6903],[-17069,6200],[-18333,-2173],[-7128,-852],[-22551,20198],[-17610,22457],[-9819,4581],[-11145,-2514],[-19116,27784],[-3314,6243],[824,3877],[12108,6201]],[[547590,774448],[-10723,-23245],[-4257,-7372]],[[489397,728980],[-7510,3452],[-5642,11740],[-13956,8395],[-14759,1022],[-8032,5732],[-3535,6285],[1004,12720],[-7269,10185],[-8072,4751]],[[421626,793262],[1727,9481],[-1225,9311],[783,26527],[6587,8267],[4216,15895],[-8674,11015],[-18434,17173],[-12932,25333],[-10441,16364]],[[383233,932628],[12108,-1129],[16506,3728],[12309,4006],[7530,5838],[8735,-1364],[17631,2642],[14618,-1470],[1607,-3579],[-7852,-9780],[5964,-4261],[17731,277],[13253,2301],[11486,-1449]],[[514859,928388],[3112,-10909],[-60,-10653],[5502,-4112],[9197,-2898],[863,-5433],[-2992,-9205],[-25180,-14914],[5502,-7053],[28554,-6008],[27048,-2663],[-6566,-3686],[-10583,-2770],[-5783,-5987],[-21285,-10100],[5763,-6029],[8334,1342],[13875,-8075],[10442,3153],[8996,405],[4257,-1683],[1727,-9247],[-4338,-5220],[-8795,-3942],[-7008,-6307]],[[321405,683768],[-3012,-384],[-1325,1556],[2410,2791],[3433,-810],[583,-2429],[-2089,-724]],[[467991,668662],[-26987,-13445]],[[441004,655217],[-16446,-6306],[-6647,-10632],[-1486,-13168],[-3795,-6349],[-22731,-4965],[-24257,-12038],[-19257,8033],[-11044,383],[-16285,-3430]],[[319056,606745],[-2972,15959],[-19337,16278],[-18876,7265],[-241,9013],[2852,9652],[-9980,6413],[-3936,7180],[442,10717],[5401,18239],[-5120,7649],[-18213,13061]],[[249076,728171],[-1887,14169],[7429,4517],[14257,2386],[9538,-2152],[-381,15745],[4257,5881],[8373,3814],[41,9076],[5863,4304],[9157,1726]],[[305723,787637],[8453,-937],[8294,-2323]],[[322470,784377],[8353,-6264],[12470,-1832],[38614,7074],[33153,3600],[6566,6307]],[[440461,382814],[-2911,-362],[-723,2258],[2851,511],[1707,-1363],[-924,-1044]],[[507510,513742],[-6607,1364],[-12590,-320]],[[454116,508884],[-2972,7095],[-6867,7010],[-20362,3409],[-11164,4134],[-6486,9609],[-964,9694],[-5823,8523],[-2591,10696],[7972,7457],[-703,5028],[-9839,7628],[-34799,-15511],[-8836,852],[-12911,-3579]],[[337771,570929],[-8073,15703],[-7911,4708],[140,9077],[-2871,6328]],[[441004,655217],[37992,19261]],[[517971,685153],[25161,-12017],[5703,-4261],[2148,-5625],[-8273,-9205],[-1164,-5624],[5120,-6691],[10161,-5880],[67389,-19581],[8936,-170],[13333,3643],[16687,-895],[9900,-5561],[8112,-11633],[6185,-4219]],[[687369,597434],[36506,-7351]],[[723875,590083],[12209,-9247]],[[736084,580836],[441,-6008],[4358,-9311]],[[740883,565517],[-13173,-2812],[-25602,-11399],[-7771,4240],[-13996,-13104],[-11707,64],[-5723,8182],[-20321,-1705],[-19117,-14105],[-15984,-8288],[-18233,-4048],[-6706,-5668],[-3133,-6647]],[[454116,508884],[-25000,-2088],[-8193,-1789]],[[369478,496441],[-18434,640]],[[156807,515596],[8052,6605],[24599,3494],[7951,3409],[3735,5050],[5241,2663],[22470,4134],[19076,7244],[18133,-1193],[37490,6200],[32028,11740],[2189,5987]],[[656325,865555],[-3012,298],[1465,1257],[1547,-1555]],[[514859,928388],[24277,6094],[3193,4687],[3193,11612],[22610,-1832],[15482,1917],[-1948,-14403],[44598,15149],[6265,-4453],[2932,-7777],[-1084,-7010],[1446,-5348],[11807,4624],[7189,-22],[26486,6776],[35622,19112],[50381,16044],[26185,12507],[7811,-4113],[10723,-2258],[8293,1598],[12510,11889],[1366,6818],[6466,-5454],[-1687,-14531],[1767,-8289],[8092,-7265],[-2389,-5348],[-382,-7884],[-9156,-5646],[-18595,-873],[-4959,-3452],[-2069,-8864],[4197,-4879],[13092,-1449],[5964,-4900],[-3393,-8991],[5180,-4986]],[[836324,907188],[-3835,-4112],[-8715,-1279],[-13192,1023],[-5021,-3643],[-3172,-5242],[-11064,-2706],[-5061,-5220],[-5120,-18622],[3514,-8267],[-342,-5347],[-9477,-3324],[-3595,-4709],[4016,-18430],[-1405,-6626],[-12631,-12316]],[[733995,312438],[-8172,-2769],[-4780,3664],[2872,5604],[9478,-810],[602,-5689]],[[740883,565517],[5120,-4155],[28936,3494]],[[774939,564856],[12912,-1960],[13855,-4197]],[[801706,558699],[4518,-12614],[-3052,-17705],[1667,-7053],[4498,-4410],[8373,-1279],[6486,1471]],[[824196,517109],[622,-11655],[-4056,-25824],[-10903,-5837],[-22711,-4965],[6948,-7478],[35923,-12593],[13173,3537],[5944,8629],[8172,7500],[12852,3473],[11887,1044],[8675,-4794],[2490,-12826],[12189,-4794],[15984,2599],[7751,4496],[9518,2706],[5964,-4283],[7710,-21860],[181,-9141],[-9056,-8139],[-18815,-11846],[-4659,-10249],[-2269,-10184],[221,-6818],[11948,-2088],[13594,191],[-181,-8607],[2048,-6818],[11045,-13338],[381,-7564],[-39056,-5923],[-11064,-18494]],[[906646,315166],[-157691,1193],[-197630,105872]],[[551325,422231],[843,2493]],[[552168,424724],[9036,4005],[26346,6222],[-2069,5646],[-10542,2876],[-17148,-2791]],[[557791,440682],[-18755,2280]],[[539036,442962],[-342,6243],[-3353,4495]],[[667509,326437],[-1204,0],[1285,469],[-81,-469]],[[555180,330187],[-3313,-554],[-1165,1491],[3173,1577],[1867,-405],[-562,-2109]],[[404859,292794],[40743,9076],[11988,4240],[7349,13679],[15040,3622],[21848,19368],[18193,12997],[-6286,12784],[7691,6029],[1747,8630],[-19799,1938],[7791,9759],[8956,7159],[26807,11633]],[[546927,413708],[4398,8523]],[[906646,315166],[-7671,-8459],[-21305,-11591],[-3514,-3515],[7349,-15448],[-5783,-6477]],[[875722,269676],[-34518,5732],[-2851,6924],[-12109,3985],[-8393,-2642],[-7571,-8864],[-943,-23586],[-6667,-9716],[-15241,-4815],[-20,-4304],[-2892,-5220],[-16285,-1023],[-17470,2003],[-18554,-1896],[-13614,618],[-28976,16512],[-15502,2536],[-14759,-2110],[-5703,-3004],[-25000,-3516],[-29297,-8948],[-11506,-1364],[-7008,341],[-15823,7521],[-8374,-1406],[-19679,-17514],[-1305,-7819],[1526,-6882],[4157,-2238],[15662,1897],[7390,-4603],[2851,-6136],[-13514,-10887],[15061,-11336],[11907,853],[2249,4794],[141,6690],[10743,3643],[12309,-2450],[14237,2472],[6887,6115],[9880,4495],[7952,554],[8112,-4176]],[[653212,190906],[9358,-11463]],[[662570,179443],[20,-5284],[-9759,-745],[-5201,-3367],[-3374,-6477],[-4297,-18771],[-8514,-4751],[-20341,532],[-6105,-5433],[-622,-21328],[-2109,-4176],[-8574,-4389],[-35321,43],[-15843,1193],[-15763,3771]],[[526767,110261],[-9719,-1598],[-8916,661],[-8996,19559],[402,14403],[16064,10270],[984,12699],[-4779,10227],[-18273,13252],[-14880,5433],[-29056,14255],[-14117,13529],[4458,6669],[30462,6967],[9097,5071],[11204,16321],[2530,9929],[-2289,7180],[-8152,-1193],[-19940,1044],[-12048,4006],[-16607,-512],[-21546,2983],[-7791,11378]],[[573112,304086],[984,895],[-2169,-256],[1185,-639]],[[589076,303745],[-301,1044],[-1587,-511],[1888,-533]],[[456967,356671],[-1686,1257],[4016,809],[-2330,-2066]],[[404859,292794],[-4438,7500],[-19538,10099],[-17048,33984],[-17108,5284],[-1225,10248],[-3856,10526],[-10201,9289],[-21245,8672],[-10562,1726]],[[403152,425810],[15402,4091]],[[539036,442962],[7971,-1790],[10784,-490]],[[552168,424724],[-5241,-11016]],[[116325,518771],[2370,3281],[-1948,3494],[-21125,9929],[3775,10994],[15583,3111],[6385,4027],[3093,4964],[-8293,16853],[-9579,8757],[-22510,13914],[7631,9566],[2871,16790]],[[94578,624451],[17209,8075],[7831,1236],[6707,-1854],[40,-4538],[-8494,-10036],[2069,-5454],[12309,-4474],[28173,-959],[72791,6434],[10702,-2152],[21587,-13188],[5020,2620],[1526,5924],[5863,1129],[6667,-4858],[34478,4389]],[[687208,140729],[-1546,299],[1044,596],[502,-895]],[[662570,179443],[-2852,4389],[-6506,7074]],[[875722,269676],[-9157,-14659],[-562,-7095],[2992,-6349],[8735,3473],[9157,7798],[8072,-11463],[17128,-12698],[5944,-9162],[-5401,-3303],[-10422,-1491],[5402,-6286],[13674,-3259],[1787,-9418],[-14578,-3281],[-9016,-4645],[-5562,-5881],[903,-9119],[7129,-8054],[12952,1364],[9478,-8821],[5984,-9566],[20140,-5945],[4398,-6413],[1365,-5156],[-13414,-1769],[-7429,-11356],[-16747,-6456],[-3534,-8608],[5582,-7074],[16606,-8075],[-10803,-2109],[-30723,-24844],[-13253,-2982],[-27309,-11975],[-6847,-5071],[-984,-6413],[4176,-12912],[-10763,-6285],[-38634,-14318],[-6386,1065],[-1305,22883],[6004,10100],[-6004,7201],[-3313,9460],[-23273,4283],[-13474,-4283],[-10100,-1150],[-30683,15767],[-19257,13103],[-12731,-682],[-16365,-10184],[-14217,-13104],[-13534,-1001],[-25844,9098],[-37189,7713],[3354,8075],[-8293,8842],[-16426,1129],[-10181,-4985],[-9578,5902],[-60,14957],[-6566,6072]],[[228875,825094],[-1446,298],[1627,661],[-181,-959]],[[530582,686218],[54739,15682],[16064,1832]],[[758935,794796],[1446,6435]],[[760381,801231],[15542,-554],[22349,4858],[6647,-1854],[3092,-3622],[60,-5859],[-5281,-4858],[5663,-4326],[21787,-1299],[8755,-4602],[9880,-9780],[8052,-3686],[11948,1001],[16004,-2130],[14237,-5625],[17068,-469],[1606,4070],[-2590,4431],[-5422,3793],[-20,7031],[9719,8395],[9498,2684],[2530,-4261],[8835,-4219],[6265,1577],[5221,-2216],[7430,-6328],[1707,-8459],[3956,-6264]],[[964919,758660],[-14297,-11740],[-14599,-3579],[-32028,-2940],[-8715,-4389],[-10522,-7692],[-19899,-18643],[-27852,-19261],[-4056,-7649],[-6787,-7543],[-19799,-5753],[-462,-13167],[5442,-19176],[7449,-12336],[-1626,-7010],[462,-6989],[3694,-8799],[16225,-13551],[4378,-10888],[16506,-5710],[6124,-6797],[-1827,-7223],[-5361,-8757],[-19318,-5497],[-7891,-12357],[-5964,-14105]],[[801706,558699],[-26767,6157]],[[736084,580836],[-5522,5476],[-6687,3771]],[[723875,590083],[-11024,3090],[-14117,1214],[-11365,3047]],[[238132,663953],[-1606,874],[3594,170],[-1988,-1044]],[[94578,624451],[-9096,18536],[-2189,9183],[4438,5753],[261,9716],[-1747,6285]],[[86245,673924],[12389,4262],[20784,3387],[4538,6542],[723,8607],[-1486,7308],[6666,3665],[10362,980],[19919,6776],[11225,-1279],[10061,4475],[6124,-192],[20040,-11420],[5221,9375],[6807,4240],[29458,7521]],[[760381,801231],[843,7137]],[[836324,907188],[8535,-2088],[10522,-14680],[13634,-1769],[17671,2131],[11265,-14020],[28092,-1172],[2892,-14850],[5743,-6882],[11385,-8118],[10261,-4304],[6767,-7393],[2551,-7990],[-4157,-8629],[6205,-13104],[11787,-15703],[20522,-5689],[-4799,-4559],[-1105,-4602],[2671,-6392],[-31847,-8715]],[[322470,784377],[-16747,3260]],[[249076,728171],[-22871,15447]],[[226205,743618],[-24257,7138],[-5422,106]],[[196526,750862],[-11285,-5838],[-10422,-959],[-11124,917],[-9820,3664],[-10261,1215],[-25221,618],[-8514,5390],[-6506,8054],[1948,7969],[10864,8586],[662,5242],[-1425,7137],[-9960,16705],[-1225,6562],[7952,16129],[-2229,3856],[-9920,5242]],[[100040,841351],[22048,7265],[38494,8203],[53916,1982],[10462,-1449],[10100,3068],[9759,-4112]],[[244819,856308],[35201,-128],[11546,-6285],[10823,-14467],[482,-8629],[-6064,-7479]],[[296807,819320],[2831,-4006],[5984,-6157]],[[305622,809157],[6868,-3899],[16104,-6094]],[[328594,799164],[2771,-5795],[-1325,-4709],[-7570,-4283]],[[328594,799164],[-22972,9993]],[[305622,809157],[-8815,10163]],[[244819,856308],[-20964,6648],[-8032,6711],[1667,4560],[42751,8160],[3313,2983],[823,9609],[5944,3303],[11727,1662],[4819,6328],[22129,4133],[6566,6328],[9839,4965],[15803,937],[5904,10014],[1125,12784],[7911,3729],[11326,-3601],[15763,-12933]],[[90924,752141],[-2189,170],[723,874],[1466,-1044]],[[86245,673924],[-1366,6946],[-7590,2323],[-41064,-1257],[6807,4900],[15040,2663],[7631,6179],[-2490,8970],[9056,7756],[-823,9801],[-7410,10270],[-23735,6285],[-3353,8459],[-15081,10610],[-1144,2834],[6104,3409],[-4980,16555],[-7449,7522],[8915,7372],[-7369,8117],[2429,11634],[-18373,3238],[26365,8161],[30342,13657],[21425,2855],[11868,192],[10040,-2024]],[[196526,750862],[14839,-1854],[14840,-5390]]],"bbox":[84.4592,52.1785,89.4392,56.8719],"transform":{"scale":[0.0000049800049800049835,0.00000469340469340469],"translate":[84.4592,52.1785]}}