{"type":"Topology","objects":{"muni":{"type":"GeometryCollection","geometries":[{"type":"MultiPolygon","arcs":[[[0]]],"properties":{"GID_2":"RUS.28.1_1","GID_0":"RUS","COUNTRY":"Russia","GID_1":"RUS.28_1","NAME_1":"Khabarovsk","NL_NAME_1":"Хабаровскийкрай","NAME_2":"Amursk","VARNAME_2":"NA","NL_NAME_2":"Аму́рск","TYPE_2":"Gorod","ENGTYPE_2":"City","CC_2":"NA","HASC_2":"RU.KH.AG"}},{"type":"MultiPolygon","arcs":[[[1,2,3,4],[-1]]],"properties":{"GID_2":"RUS.28.2_1","GID_0":"RUS","COUNTRY":"Russia","GID_1":"RUS.28_1","NAME_1":"Khabarovsk","NL_NAME_1":"Хабаровскийкрай","NAME_2":"Amurskiyrayon","VARNAME_2":"NA","NL_NAME_2":"Амурскийрайон","TYPE_2":"Raion","ENGTYPE_2":"District","CC_2":"R67090","HASC_2":"RU.KH.AR"}},{"type":"MultiPolygon","arcs":[[[5]],[[6]],[[7,8,9,10]],[[11]]],"properties":{"GID_2":"RUS.28.3_1","GID_0":"RUS","COUNTRY":"Russia","GID_1":"RUS.28_1","NAME_1":"Khabarovsk","NL_NAME_1":"Хабаровскийкрай","NAME_2":"Ayano-Mayskiyrayon","VARNAME_2":"NA","NL_NAME_2":"Аяно-Майскийрайон","TYPE_2":"Raion","ENGTYPE_2":"District","CC_2":"R67090","HASC_2":"RU.KH.AM"}},{"type":"MultiPolygon","arcs":[[[12]]],"properties":{"GID_2":"RUS.28.4_1","GID_0":"RUS","COUNTRY":"Russia","GID_1":"RUS.28_1","NAME_1":"Khabarovsk","NL_NAME_1":"Хабаровскийкрай","NAME_2":"Bikin","VARNAME_2":"NA","NL_NAME_2":"Бикин","TYPE_2":"Gorod","ENGTYPE_2":"City","CC_2":"NA","HASC_2":"RU.KH.BG"}},{"type":"MultiPolygon","arcs":[[[13,14],[-13]]],"properties":{"GID_2":"RUS.28.5_1","GID_0":"RUS","COUNTRY":"Russia","GID_1":"RUS.28_1","NAME_1":"Khabarovsk","NL_NAME_1":"Хабаровскийкрай","NAME_2":"Bikinskiyrayon","VARNAME_2":"NA","NL_NAME_2":"Бикинскийрайон","TYPE_2":"Raion","ENGTYPE_2":"District","CC_2":"R67090","HASC_2":"RU.KH.BR"}},{"type":"MultiPolygon","arcs":[[[15,16,17,18,19,20]]],"properties":{"GID_2":"RUS.28.6_1","GID_0":"RUS","COUNTRY":"Russia","GID_1":"RUS.28_1","NAME_1":"Khabarovsk","NL_NAME_1":"Хабаровскийкрай","NAME_2":"im.Lazorayon","VARNAME_2":"ImeniLazo","NL_NAME_2":"им.Лазорайон","TYPE_2":"Raion","ENGTYPE_2":"District","CC_2":"R67090","HASC_2":"RU.KH.IL"}},{"type":"MultiPolygon","arcs":[[[21,22,23,24,25,26,27,28,29,30]]],"properties":{"GID_2":"RUS.28.7_1","GID_0":"RUS","COUNTRY":"Russia","GID_1":"RUS.28_1","NAME_1":"Khabarovsk","NL_NAME_1":"Хабаровскийкрай","NAME_2":"im.PolinyOsipenkorayon","VARNAME_2":"ImeniPolinyOsipenko","NL_NAME_2":"им.ПолиныОсипенкорайон","TYPE_2":"Raion","ENGTYPE_2":"District","CC_2":"R67091","HASC_2":"RU.KH.IP"}},{"type":"MultiPolygon","arcs":[[[31]]],"properties":{"GID_2":"RUS.28.8_1","GID_0":"RUS","COUNTRY":"Russia","GID_1":"RUS.28_1","NAME_1":"Khabarovsk","NL_NAME_1":"Хабаровскийкрай","NAME_2":"Khabarovsk","VARNAME_2":"NA","NL_NAME_2":"Хабаровск","TYPE_2":"Gorod","ENGTYPE_2":"City","CC_2":"NA","HASC_2":"RU.KH.KG"}},{"type":"MultiPolygon","arcs":[[[32,33,34,-5,35,36,-16,37],[-32]]],"properties":{"GID_2":"RUS.28.9_1","GID_0":"RUS","COUNTRY":"Russia","GID_1":"RUS.28_1","NAME_1":"Khabarovsk","NL_NAME_1":"Хабаровскийкрай","NAME_2":"Khabarovskiyrayon","VARNAME_2":"NA","NL_NAME_2":"Хабаровскийрайон","TYPE_2":"Raion","ENGTYPE_2":"District","CC_2":"R67091","HASC_2":"RU.KH.KR"}},{"type":"MultiPolygon","arcs":[[[-3,38,39,40,41,42,43],[44]]],"properties":{"GID_2":"RUS.28.10_1","GID_0":"RUS","COUNTRY":"Russia","GID_1":"RUS.28_1","NAME_1":"Khabarovsk","NL_NAME_1":"Хабаровскийкрай","NAME_2":"Komsomol'skiyrayon","VARNAME_2":"NA","NL_NAME_2":"Комсомольскийрайон","TYPE_2":"Raion","ENGTYPE_2":"District","CC_2":"R67090","HASC_2":"RU.KH.KA"}},{"type":"MultiPolygon","arcs":[[[-45]]],"properties":{"GID_2":"RUS.28.11_1","GID_0":"RUS","COUNTRY":"Russia","GID_1":"RUS.28_1","NAME_1":"Khabarovsk","NL_NAME_1":"Хабаровскийкрай","NAME_2":"Konsomolsk-na-amure","VARNAME_2":"Komsomol'skiy","NL_NAME_2":"Комсомольск-на-Амуре","TYPE_2":"Raion","ENGTYPE_2":"District","CC_2":"NA","HASC_2":"RU.KH.KO"}},{"type":"MultiPolygon","arcs":[[[-4,-44,45,46,47,48,-18,49,-36]]],"properties":{"GID_2":"RUS.28.12_1","GID_0":"RUS","COUNTRY":"Russia","GID_1":"RUS.28_1","NAME_1":"Khabarovsk","NL_NAME_1":"Хабаровскийкрай","NAME_2":"Nanayskiyrayon","VARNAME_2":"NA","NL_NAME_2":"Нанайскийрайон","TYPE_2":"Raion","ENGTYPE_2":"District","CC_2":"R67090","HASC_2":"RU.KH.NA"}},{"type":"MultiPolygon","arcs":[[[50,51,52,53,54]]],"properties":{"GID_2":"RUS.28.13_1","GID_0":"RUS","COUNTRY":"Russia","GID_1":"RUS.28_1","NAME_1":"Khabarovsk","NL_NAME_1":"Хабаровскийкрай","NAME_2":"Nikolaevskiy","VARNAME_2":"Nikolayevsk-na-Amure","NL_NAME_2":"Николаевск","TYPE_2":"Raion","ENGTYPE_2":"District","CC_2":"NA","HASC_2":"RU.KH.NR"}},{"type":"MultiPolygon","arcs":[[[55]],[[56]],[[57]],[[58]],[[59]],[[60]],[[61]],[[62]],[[63]],[[64]],[[65]],[[66]],[[67]],[[68]],[[69]],[[70]],[[71]],[[72]],[[73]],[[74]],[[75]],[[76]],[[77]],[[78]],[[79]],[[80]],[[81,82,83],[84,-54,85,-52,86]],[[87]],[[88]],[[89]],[[90]],[[91]]],"properties":{"GID_2":"RUS.28.14_1","GID_0":"RUS","COUNTRY":"Russia","GID_1":"RUS.28_1","NAME_1":"Khabarovsk","NL_NAME_1":"Хабаровскийкрай","NAME_2":"Nikolaevskiyrayon","VARNAME_2":"Nikolaevsk-na-A","NL_NAME_2":"Николаевскийрайон","TYPE_2":"Raion","ENGTYPE_2":"District","CC_2":"R67091","HASC_2":"RU.KH.NG"}},{"type":"MultiPolygon","arcs":[[[92]],[[93]],[[94]],[[95]],[[96]],[[97]],[[98]],[[99]],[[100]],[[101,-8]]],"properties":{"GID_2":"RUS.28.15_1","GID_0":"RUS","COUNTRY":"Russia","GID_1":"RUS.28_1","NAME_1":"Khabarovsk","NL_NAME_1":"Хабаровскийкрай","NAME_2":"Okhotskiyrayon","VARNAME_2":"NA","NL_NAME_2":"Охотскийрайон","TYPE_2":"Raion","ENGTYPE_2":"District","CC_2":"R67091","HASC_2":"RU.KH.OK"}},{"type":"MultiPolygon","arcs":[[[102,-34,103,104,-29,105,-27,106,107,-39]]],"properties":{"GID_2":"RUS.28.16_1","GID_0":"RUS","COUNTRY":"Russia","GID_1":"RUS.28_1","NAME_1":"Khabarovsk","NL_NAME_1":"Хабаровскийкрай","NAME_2":"Solnechnyyrayon","VARNAME_2":"NA","NL_NAME_2":"Солнечныйрайон","TYPE_2":"Raion","ENGTYPE_2":"District","CC_2":"R67091","HASC_2":"RU.KH.SO"}},{"type":"MultiPolygon","arcs":[[[108,109]]],"properties":{"GID_2":"RUS.28.17_1","GID_0":"RUS","COUNTRY":"Russia","GID_1":"RUS.28_1","NAME_1":"Khabarovsk","NL_NAME_1":"Хабаровскийкрай","NAME_2":"SovetskayaGavan","VARNAME_2":"NA","NL_NAME_2":"СоветскаяГавань","TYPE_2":"Gorsovet","ENGTYPE_2":"District","CC_2":"NA","HASC_2":"RU.KH.SG"}},{"type":"MultiPolygon","arcs":[[[110]],[[-48,111,112,113],[-109,114]]],"properties":{"GID_2":"RUS.28.18_1","GID_0":"RUS","COUNTRY":"Russia","GID_1":"RUS.28_1","NAME_1":"Khabarovsk","NL_NAME_1":"Хабаровскийкрай","NAME_2":"Sovetsko-Gavanskiyrayon","VARNAME_2":"NA","NL_NAME_2":"Советско-Гаванскийрайон","TYPE_2":"Raion","ENGTYPE_2":"District","CC_2":"R67091","HASC_2":"RU.KH.SR"}},{"type":"MultiPolygon","arcs":[[[115]],[[116]],[[117]],[[118]],[[-10,119,-83,120,-23,121]],[[122]],[[123]],[[124]],[[125]],[[126]],[[127]],[[128]],[[129]],[[130]],[[131]],[[132]],[[133]],[[134]],[[135]],[[136]],[[137]],[[138]],[[139]],[[140]],[[141]],[[142]],[[143]],[[144]],[[145]]],"properties":{"GID_2":"RUS.28.19_1","GID_0":"RUS","COUNTRY":"Russia","GID_1":"RUS.28_1","NAME_1":"Khabarovsk","NL_NAME_1":"Хабаровскийкрай","NAME_2":"Tuguro-Chumikanskiyrayon","VARNAME_2":"NA","NL_NAME_2":"Тугуро-Чумиканскийрайон","TYPE_2":"Raion","ENGTYPE_2":"District","CC_2":"R67091","HASC_2":"RU.KH.TU"}},{"type":"MultiPolygon","arcs":[[[146]],[[147]],[[148]],[[149]],[[150]],[[151,-24,-121,-82,152,153,154,155,-42,156,-40,157,-107,-26]]],"properties":{"GID_2":"RUS.28.20_1","GID_0":"RUS","COUNTRY":"Russia","GID_1":"RUS.28_1","NAME_1":"Khabarovsk","NL_NAME_1":"Хабаровскийкрай","NAME_2":"Ul'chskiyrayon","VARNAME_2":"NA","NL_NAME_2":"Ульчскийрайон","TYPE_2":"Raion","ENGTYPE_2":"District","CC_2":"R67091","HASC_2":"RU.KH.UL"}},{"type":"MultiPolygon","arcs":[[[158]],[[159]],[[160]],[[-156,161,-154,162,-113,163,-46,-43]]],"properties":{"GID_2":"RUS.28.21_1","GID_0":"RUS","COUNTRY":"Russia","GID_1":"RUS.28_1","NAME_1":"Khabarovsk","NL_NAME_1":"Хабаровскийкрай","NAME_2":"Vaninskiyrayon","VARNAME_2":"NA","NL_NAME_2":"Ванинскийрайон","TYPE_2":"Raion","ENGTYPE_2":"District","CC_2":"R67090","HASC_2":"RU.KH.VA"}},{"type":"MultiPolygon","arcs":[[[-31,164,-104,-33,165]]],"properties":{"GID_2":"RUS.28.22_1","GID_0":"RUS","COUNTRY":"Russia","GID_1":"RUS.28_1","NAME_1":"Khabarovsk","NL_NAME_1":"Хабаровскийкрай","NAME_2":"Verkhnebureinskiyrayon","VARNAME_2":"NA","NL_NAME_2":"Верхнебуреинскийрайон","TYPE_2":"Raion","ENGTYPE_2":"District","CC_2":"R67090","HASC_2":"RU.KH.VE"}},{"type":"MultiPolygon","arcs":[[[-20,166,-14,167]]],"properties":{"GID_2":"RUS.28.23_1","GID_0":"RUS","COUNTRY":"Russia","GID_1":"RUS.28_1","NAME_1":"Khabarovsk","NL_NAME_1":"Хабаровскийкрай","NAME_2":"Vyazemskiyrayon","VARNAME_2":"NA","NL_NAME_2":"Вяземскийрайон","TYPE_2":"Raion","ENGTYPE_2":"District","CC_2":"R67090","HASC_2":"RU.KH.VY"}}]}},"arcs":[[[386823,298011],[-953,-412],[-1609,178],[-462,561],[432,1232],[2592,-63],[408,-688],[-408,-808]],[[339755,314050],[4331,1077]],[[344086,315127],[5692,-3534],[5147,-5070],[3621,-2543],[4195,-796],[9272,326],[7219,-1420],[7686,-659],[3289,-1615],[1213,-2492],[-1976,-5929],[6177,1272],[5994,-2549],[-7556,-2698],[-65,-1701],[7544,-647],[14419,-2853],[4053,-2543]],[[420010,279676],[-3733,-1289],[-3888,1335],[-6626,1386],[-6462,653],[-14508,-1810],[-6845,2795],[-2870,435],[-3361,-1810],[-1680,-1982],[-4343,-194],[-876,-2458],[-10206,-6289],[-5444,-4291],[-5224,-5201],[-4290,-1415],[-4071,-2446],[-3934,-4267],[-3367,-2767],[-4473,-825],[-3864,247],[-2260,-584],[-3319,-2320],[-2000,-2693],[-13041,-2720],[-2769,-4308],[-615,-2664],[-2095,-2245],[-13153,-4731]],[[280693,227218],[-4437,3213],[-8532,619],[-3681,5928],[5000,-727],[136,2068],[2497,1638],[-7568,1650],[-686,7595],[1899,4268],[338,3345],[-5852,1191],[-17005,6748],[-148,2159],[8455,8071],[3136,6296],[4852,-762],[25685,9944],[852,3345],[16857,911],[11958,1157],[7792,2360],[5775,4462],[2869,6181],[5036,699],[3834,4473]],[[473776,668037],[314,212],[-119,-212],[-195,0]],[[510111,685342],[30,-18],[-30,-17],[0,35]],[[404751,823344],[-142,-1719],[-3379,-3334],[-3485,-4571],[1207,-4301],[5870,383],[2739,1587],[1420,-1466],[1645,-258],[3805,1014],[4733,2125],[2130,-470],[468,-1420],[2053,-1421],[3810,-86],[5018,2950],[2869,-705],[-2153,-2256],[1212,-1106],[4710,424],[3698,-1209],[3402,98],[6325,2543],[2977,4021],[3041,882],[4219,-2663],[4076,-848],[5515,1701],[1455,-2354],[-970,-2761],[-1917,-2148],[-5012,-2280],[-6378,-6060],[-3461,-1415],[-1054,-2847],[4053,-2555],[1941,-3116],[-1988,-3952],[12633,-5241],[2354,-1364],[2562,-4920],[11645,-3133],[24874,-5127],[1402,-2555],[5331,-1008],[3609,1409],[3349,-916],[6396,-2979],[2693,-3557],[-279,-3317],[2858,-641],[5355,504],[2432,-2366],[509,-2967],[9390,-6467],[8407,-2864],[5911,349],[13307,2761],[2059,-1340],[-526,-1765],[1716,-721],[5461,1443],[5331,3506],[3136,664]],[[601118,741139],[-2639,-5040],[183,-2108],[-343,-424],[-3710,-911],[-1846,-1449],[-2745,-630],[-2509,-2532],[-1047,1014],[-2757,51],[-2681,-1031],[-6390,-573],[-4864,-1781],[-2993,-1770],[-3474,-2996],[-3313,-3889],[-1308,-2481],[-1751,-1546],[-3041,492],[-2000,-160],[-5887,-1621],[-2266,-1781],[-1018,-2103],[-1976,-2354],[-5870,-2984],[-1822,504],[-4669,-1879],[-1378,269],[-5852,-510],[-3284,-1477],[-4733,-3185],[-1118,-1810],[-89,-1243],[-1935,1054],[-3467,-688],[-787,-716],[491,-956],[-722,114],[-757,-687],[1290,-648],[-462,-1334],[314,-350],[-1077,-979],[-272,-876],[-1894,-1066],[-2698,115],[-461,956],[-1379,-63],[-882,-773],[1574,-384],[-372,-269],[-752,-201],[-1473,464],[-3296,-1873],[-1899,424],[-3225,-1271],[-2100,-2658],[-1190,-3105],[-76,-1117],[366,-183],[-958,-751],[100,-567],[935,-389],[426,-1432],[-1118,-350],[-953,1020],[628,1970],[-231,653],[592,241],[-6,790],[-1343,167],[-332,-705],[-1313,-223],[-4468,-189],[261,-814],[-332,-172],[2142,-687],[-2958,-1684],[160,-733],[-592,-46],[-1083,-2194],[-923,-705],[-1408,-475],[-1183,304],[-3030,-1432],[-479,-619],[414,-464],[-325,-401],[-1053,-63],[-438,-601],[621,-1770],[598,-264],[-681,-166],[-1023,716],[-983,-143],[-656,-1094],[-4474,-304],[-1674,-1398],[-207,-2663],[1544,-2194],[2391,-1226],[3307,-470],[1402,327],[-71,-636],[-1396,-510],[-177,-1340],[-2420,52],[-397,1036],[-787,224],[-2207,-716],[-3556,217],[-976,-693],[527,-321],[-202,-538],[610,-911],[-1444,-1042],[-1526,195],[-5970,-1003],[-1805,-2641],[-663,-166],[-402,-1987],[-1716,-1341],[166,-1346],[-3752,-968],[-1520,-2245],[-1101,-252],[-982,-1112],[314,-1054],[-1793,-269],[-349,-475],[-1184,349],[-1449,-584],[-3284,-138],[-2337,-624],[775,430],[-432,361],[-822,-694],[337,-521],[-349,-372],[-6603,-3162],[-900,-1913],[-47,-1358],[361,-206],[-1184,-521],[-195,-1146],[-2532,653],[0,619],[-3089,-241],[-3124,-2560],[-3284,-1049],[-491,-572],[-1420,63],[-1704,-1387],[-2301,-733],[-1811,-1970],[-414,-1931],[-4645,373],[-2207,-911],[-1018,51],[-1212,-750],[-497,-1226],[-2332,-286],[-526,-796],[-2562,-1639],[-166,-1924],[-1710,-224],[-627,-945],[-2231,1455],[-5952,-2881],[-1544,-252],[-2468,653],[-94,-1782],[-592,-687],[-3485,143],[-2337,-595]],[[358801,603659],[-1521,653],[-1940,-161],[-8497,-9302],[-3816,-2756],[-7645,613],[-6644,1324],[-6065,-1037],[-2550,710],[3437,2079],[2592,2664],[-3473,389],[-2249,-1787],[-5502,252],[-7266,-2245],[-2379,951],[2580,2847],[-4248,1495],[-30,1111],[4136,3506],[-2059,2314],[-41,2640],[-1136,3053],[-1491,1513],[-2616,-264],[-2059,-2028],[-1059,-3024],[-4094,-2051],[-154,-4107],[-2745,-160],[-2154,1054],[-4189,538],[2775,2595],[-2142,2263],[-9810,240],[-3467,-1707],[-5059,12],[-5680,-1501],[-1716,-1226],[958,-3276],[-810,-2057],[-5355,-933],[-2947,1712],[-739,2544],[-4420,3139],[-7787,4473],[1693,2807],[-752,1627],[-3692,899],[-2213,-2348],[-3929,120],[-2112,1799],[-3242,-1971],[-4882,-808],[-3479,464],[-2065,-280],[-2662,-1965],[-3781,-178],[-3248,2733],[-3243,-590],[1911,-3111],[-2331,-2732],[-4183,-1867],[-6136,-138],[-6183,2521],[-2852,2715],[-3000,-373],[-3698,-1540],[-2893,257],[-1704,928],[-3905,-767],[-3047,-1856],[-1888,-2263],[-1757,-1220],[-2651,-298],[-230,1862],[-2083,-103],[-2509,-1598],[-2284,-230],[-2296,1988],[-3029,-252],[-3662,-1862],[-4491,573]],[[135217,603664],[881,1656],[-5348,2085],[-1971,2480],[-420,2268],[-2225,940],[-5502,-92],[-4077,928],[-3414,-515],[-8970,-2567],[-11614,6],[-9745,-1421],[-1060,2194],[-4135,86],[-10254,-2131],[-5237,734],[-5875,-1163],[-7970,292],[-5124,-315],[-7183,1799],[-1449,2365],[1390,2687],[-4935,4153],[-526,3436],[2763,2086],[-1006,2445],[3124,4228],[4923,4221],[5834,6038],[1467,10030],[4882,3941],[4692,870],[2591,-985],[2249,-1896],[3822,447],[1799,2349],[2934,1569],[2403,-825],[763,-2211],[2420,-1243],[4751,722],[2242,2108],[-4526,4239],[1467,2440],[-739,4090],[8183,3053],[1183,2394],[-2674,2956],[-6100,5350],[-12704,9171],[-4674,2686],[-4254,1753],[-5840,338],[-2124,4118],[4390,505],[1769,4038],[3213,281],[-65,-1673],[8899,-2314],[3207,1094],[3692,3780],[260,4554],[9236,5957],[799,2303],[6579,3082],[4698,229],[1136,2624],[3414,332],[2136,2131],[-2094,2245],[-10130,5373],[-6136,2457],[3018,2830],[-3651,1403],[-5632,568],[-4550,2835],[2331,2022],[-870,1552],[-5781,711],[-1295,4840],[10963,1352],[4379,-3489],[4289,-338],[5621,-1781],[4651,-2824],[8615,275],[-2592,3580],[-1094,4290],[3017,3231],[4331,802],[-3414,8655],[-372,5316],[14963,-945],[2036,1741],[29,2257],[5639,3477],[-3106,4044],[3230,2767],[-83,2864],[2959,4279],[13307,1380],[2656,3196],[-5603,2899],[2390,2457],[1219,2291],[4497,-635],[5065,1128],[1941,4256],[5277,1300],[7828,-704],[7438,1197],[8473,2079],[7135,-2005],[4888,333],[6869,1380],[4982,-452],[3627,950],[8094,-1535],[6301,-2182],[5385,876],[1899,-1340],[4349,-1426],[6396,-58],[7000,2893],[3396,-115],[2745,-1357],[864,-2011],[3627,-962],[3562,659],[3662,-556],[5190,-1529],[5626,-648],[5331,1450],[-35,1489],[5875,3133],[-53,3706],[2479,1965],[6526,2899],[1716,2669],[7887,5018],[6580,916],[8260,-710],[5573,-2394],[6302,-940],[716,-1592],[4638,-882],[6716,-121],[3384,-1300],[13065,-453],[9236,-2829],[4100,154],[4172,2549],[6579,2429],[6662,166],[6018,900]],[[560593,710935],[-621,252],[361,23],[260,-275]],[[233797,103324],[-764,-235],[-1236,464],[-261,619],[1953,733],[899,-527],[-591,-1054]],[[226442,124529],[4171,4022],[2172,-2658],[3804,550],[4148,2600],[2751,344],[10414,-991],[6000,263],[4709,1501],[-798,-3064],[1248,-1289],[213,-3466]],[[265274,122341],[-2260,-1689],[-3615,395],[-4249,-361],[-1940,-4222],[-2610,-1621],[-390,-3906],[-2527,108],[-2792,2028],[-2740,361],[-645,-2921],[2716,-2876],[-1035,-3603],[1502,-2371],[-668,-2744],[-2024,-1713],[-2893,-1157],[-8923,-756],[-5206,-956],[-5497,-212],[-4118,-877],[408,1152],[-47,2783],[1491,2383],[-1687,2767],[1148,1455],[237,1890],[1663,2635],[-361,2601],[1739,1621],[1101,2102],[6,1449],[1207,1455],[4650,917],[486,847],[71,3558],[-1030,1666]],[[254210,181181],[1994,-3053],[5668,-2171],[6094,-505],[5627,3386],[6680,928],[23158,4725],[10373,825],[7762,-1483],[4379,1025],[2106,7000],[900,4892],[2136,4954],[-852,3936],[2704,3494]],[[332939,209134],[2307,1799]],[[335246,210933],[1024,-5895],[17,-3271],[6479,-3992],[3059,-3242],[2917,-1409],[4911,-567],[1621,-1816],[243,-4921],[5355,-991],[3307,-2411],[4408,1340],[3763,-681],[3994,893],[-1236,4245],[763,2217],[3923,2113],[65,2417],[-2355,1100],[917,4938],[2100,2698],[4373,2343],[4219,3832],[5189,8363],[7372,5253],[7396,-2847],[3935,939],[5165,-1272],[7639,527],[4840,-4015],[-722,-3345],[-2320,-2045],[4403,137],[6538,3265],[6248,-143],[1940,-3528],[-6283,-5144],[-1201,-2859],[236,-1827],[-2224,-767],[-6444,-493],[-4952,-4153],[343,-2228],[-6479,-5041],[-65,-3569],[4538,-3557]],[[424205,181524],[-958,-618],[-3432,366],[-6260,-3488],[-2195,-1942],[1219,-2595],[2982,-1621],[313,-1936],[9390,-2847],[1687,-1415],[-1444,-2612],[-6538,-1386],[-1935,-1392],[444,-1329],[1941,-790],[2680,658],[5331,-360],[10289,-4795],[2959,-137],[4851,1266],[1734,-115],[1870,-905],[1414,-1323],[3686,343],[-438,-1460],[-3739,-2572],[5136,-1243],[650,-2165],[60,-3747],[-3982,-1369],[-847,-1655],[-4656,-418],[-527,-3798],[-6561,-2062],[-2746,1031],[-3307,407],[-3846,-1255],[-2290,-1541],[-2136,-2514],[-4006,-1134],[-1343,-659],[-769,-1134],[-2479,-671],[-7100,1656],[-1361,2016],[-3035,92],[-8651,2509],[-1858,-756],[-1319,-3328],[-2462,-3111],[-2550,-5235],[2627,-3002],[628,-1644],[-5385,-3534],[-2319,-143],[-3994,-2228],[-3615,-1301],[-1598,-1455],[-6254,-3173],[-8555,871],[-4142,-1931],[-3071,-687],[-4893,876],[-6100,1891],[-2852,3150],[-2917,-155],[-1426,-1294],[-1793,-2807],[-1586,-149],[-7360,2526],[-1355,2079],[-4308,1793],[1639,854],[59,1695],[-3023,705],[-2781,-412],[-4053,137],[-71,1277],[-2893,-11],[-4077,-3179],[-3083,-773],[-3739,1311],[444,1375],[4153,4508],[-1130,1209],[-4307,1283],[-1337,2045],[834,2646]],[[294438,122788],[1899,1444],[142,3328],[-3491,2743],[1036,3283],[-1586,1964],[-2816,1472],[8940,3271],[1290,4382],[4828,733],[-343,843],[-2539,1907],[409,5132],[-3326,2796],[6,2016],[-769,1592],[-5248,951],[-16100,-1140],[-10869,1633],[-5568,-212],[-3567,-2870]],[[256766,158056],[432,-561],[-2929,2136],[-1101,4056],[-4023,767],[-462,636],[332,1232],[-344,1254],[-1597,1146],[-154,705],[-41,1764],[6709,7063],[622,2927]],[[244565,422598],[4172,510],[1627,1724],[-36,2412],[-2597,2320],[1745,1632],[3905,2102],[1882,1770],[-1314,2910],[-3650,1054],[1354,2314],[279,1593],[-2320,1747],[83,2738],[-686,1982],[5958,6679],[2479,1821],[3580,1272]],[[261026,459178],[-243,-3139],[1136,-1592],[4367,-1845],[5106,-527],[4905,-2950],[2763,-1065],[5077,189],[2621,-1747],[5023,-1438],[5556,1294],[704,-2130],[3213,-2578],[178,-2125],[4573,-1593],[645,-1804],[3639,-487],[4716,2412],[2467,3878],[7822,3076],[5071,3872],[6141,3517],[5870,97],[3798,2303],[4403,1592],[4372,470],[1704,1558],[-183,2326],[16614,1541],[-521,2892],[5041,739],[10183,-762],[2024,1513],[2574,166],[1656,-2377],[7645,2680],[5136,-17],[1349,-2291],[6698,-1306],[-929,-2280],[-2468,-567],[4047,-3145],[9976,-28],[3787,-1077],[3662,-3449],[2645,41],[4314,3814],[6413,-527],[8148,3724],[14792,10517],[6585,3053],[5828,212]],[[481669,473808],[1805,-1513],[-450,-4084],[284,-3345],[3669,-2400],[8733,-825],[4514,-1776],[3290,-2451],[9384,-4835],[4550,-149],[6627,1724],[12686,-1976],[7958,-40],[337,-1655],[2852,-516],[722,-1993],[4846,893],[2106,-544],[-982,-2497],[2313,-1392],[7018,-1146],[3786,-1638],[3728,-3861],[-935,-3872],[-2852,-3191],[-8189,-5716],[-3852,-172],[-2905,991],[-4455,4136],[-8852,-1364],[-4810,768],[-2124,1449],[-13946,768],[-3461,-900],[-4497,-2537],[-3603,-590],[-9597,2113],[-2829,-68],[-1266,-917],[-396,-1753],[-2604,-2755],[-7567,-3666],[-12467,-2543],[-4526,-1341],[-11213,-6925]],[[454499,409704],[-4869,-1037],[-4391,-395]],[[445239,408272],[-6910,1278],[-6734,-235]],[[431595,409315],[-3946,1815],[1089,3689],[-5444,1730],[-3414,-2715],[-16455,-6839],[-7964,-2395],[-3668,-1552],[-3396,-3036],[-6994,120],[-2591,-1575],[5230,-5092],[1047,-2738],[-2420,-1501],[-5431,1180],[-4124,-538],[-781,-2521]],[[372333,387347],[-10361,-2600],[-5692,-1060]],[[356280,383687],[-2266,1369],[-1272,1976],[-6112,-1094],[-9721,3282],[-5426,-515],[-18756,-6702],[-3959,2251],[-1124,1421],[-2236,670],[-2710,-1678],[-5018,-149],[-2349,-2882],[-2242,-171],[-1201,1684],[-6029,-104],[-3876,-4198],[-6674,-894]],[[275309,377953],[-4160,-1060]],[[271149,376893],[-2473,1455],[-171,2504],[-2065,1609],[-3763,1295],[3212,5333],[4834,842],[3160,2606],[2739,3781],[-970,3328],[-4757,2909],[-7639,1667],[-1929,1862],[-3443,-676],[-1183,-2108],[-3255,-1581],[-846,-2217],[-4467,447],[-47,1810],[-1876,1289],[-858,1965],[1550,2641],[-461,2846],[-3580,1633],[-2349,2108],[3260,2429],[1687,3202],[-894,2726]],[[278539,191228],[-4490,240],[-1722,2206],[3520,2543],[3444,-516],[1473,-2308],[-2225,-2165]],[[139690,245570],[799,2183],[343,3843],[1497,2360],[3739,1685],[-2319,2337],[296,3391],[-5201,1237],[1029,3036],[468,3689],[5922,-195],[6763,5230],[3331,4141],[5787,-681],[1793,2319],[-189,1518],[-2456,3546],[5988,-1157],[4337,1650],[3083,4806],[2751,2875],[4769,1913],[1935,-3620],[3993,-979],[5846,1712],[3840,2040],[5657,-505],[1011,1587],[8562,2068],[-3355,2480],[3195,2429],[4959,-1747],[3425,1524],[2929,-705],[5373,1323],[2526,-2096],[2473,3546],[6272,3700],[1355,2996],[2148,1667],[7059,784],[1384,-1248],[2852,-1226],[13911,-281]],[[269570,310745],[2266,-3208],[4248,-2858],[2775,-338],[4390,2509],[3757,1438],[5876,206],[4940,2131],[4858,-1037],[7645,733],[3715,2561],[2627,590],[3154,-968],[3177,1094],[4965,-802],[5224,160]],[[333187,312956],[6568,1094]],[[280693,227218],[213,-4617],[4852,-7785],[3887,1953],[6314,-1002],[3236,-1421],[8053,4256],[7289,275],[8574,2326],[9011,5224],[4473,46],[5337,-1942],[1740,-3672],[-2071,-4605]],[[341601,216254],[-8662,-7120]],[[254210,181181],[-385,-567],[432,3081],[2160,1896],[-4835,1369],[-2396,1856],[-1177,1959],[-3468,-1105],[-2348,469],[-3971,1707],[-3550,-653],[-3023,12],[8928,5201],[4325,813],[4935,-704],[4846,-1736],[4455,-303],[5917,2411],[2450,3242],[420,2389],[-929,1277],[-7183,1644],[-4698,-1672],[-2414,1924],[-3077,510],[-2166,-1758],[-2958,1815],[-420,2624],[-3645,412],[-858,1535],[-2751,1564],[-3899,201],[-2036,-1283],[-1396,-1742],[-1958,-1369],[-3556,-1455],[-6633,327],[-18898,2337],[-19555,5648],[-9645,6541],[-2331,10139],[-3296,6009],[-3544,544],[-3633,1971],[-4426,-281],[-3343,876],[-6159,52],[-2828,4662]],[[344086,315127],[3668,3466],[8491,601],[12674,-2824],[11407,3597],[9260,2062],[7491,2847],[7964,6593],[343,1736],[-2994,6519],[1195,1718],[6562,670],[3136,1999],[1260,4680],[3615,3815],[3675,2933],[-480,3718],[858,1678],[190,4537],[7804,1243],[5497,-1283],[6739,-751]],[[442441,364681],[4520,-2366],[8148,-1283]],[[455109,361032],[9331,-177],[1455,-292]],[[465895,360563],[1047,-2022],[13248,-3420],[6230,2463],[6231,3534],[4100,1203],[6574,2836],[3615,383],[9402,-8036],[-343,-2750],[4550,-3179],[4106,-871],[5213,-3551],[-3379,-1581],[112,-1667]],[[526601,343905],[-4159,-2291],[-2923,-3815],[-1822,1375],[-2207,590],[-3195,-2034],[-4621,315],[-7225,-1575],[-5112,-3110],[-3804,-4789],[-5503,-2973],[112,-2961],[3272,-797],[6160,-452],[-858,-3907],[7680,-527],[2497,-1122],[4946,-1180],[834,-1621],[-7674,-3443],[-10419,-2595],[4639,-1804],[3414,-10139],[-261,-4359],[26295,-13169],[5709,4869],[2870,-1054],[-1047,-2853],[1065,-1546],[3331,-1295],[-740,-1163],[-3970,-1649],[112,-2366],[2687,-2366],[-11686,-8632],[-3562,3133],[2101,2807],[-5089,6410],[-4929,-3145],[-8129,-974],[-10266,837],[-4532,1237],[-1953,2663],[515,3460],[-3272,-1048],[-4580,-4084],[-2650,-848],[-935,-3282],[2787,-5860],[-2125,-2268],[3752,-2601],[5514,-1747],[2870,195]],[[490515,254352],[-4083,-2922],[-7455,-1197],[-7502,361],[-3982,2160],[-4391,-493],[-5337,1564],[722,2400],[-2751,2732],[7230,4571],[-4928,1031],[-2426,3260],[-4101,85],[-3384,-1878],[-2941,1174],[-3035,-46],[-3349,-2016],[-4201,-424],[-562,2016],[-2745,1152],[-4172,-3191],[142,-3162],[-2077,-2457],[-5520,7899],[-1526,3820],[1970,6576],[-101,2309]],[[395621,316502],[1225,1231],[-1740,2349],[-1639,326],[-3242,-807],[982,-2881],[1574,-545],[2840,327]],[[490515,254352],[5798,2520],[2935,-200],[-1704,-4165],[609,-4554],[-4615,-4559],[-2763,212],[-2396,-3809],[-3580,-1616],[-2467,-2543],[-3526,-647],[2337,-3185],[1319,-4743],[-669,-3500]],[[481793,223563],[-2443,-3185]],[[479350,220378],[-18283,-10711],[-2290,-3065],[1183,-2938],[3840,-1341],[2332,-2280],[4248,-2119]],[[470380,197924],[420,-2154],[-2804,-34],[-5361,-2028],[-2160,-1856],[219,-1168],[1539,-1536],[-1533,-744],[-3154,286],[-2834,-1283],[-3656,189],[-2823,-573],[-2070,-767],[-361,-2486],[-2710,-1163],[-3568,200],[-2467,-1512],[-1462,-240],[-1355,1031],[-5059,853],[-2781,-195],[-2195,-1220]],[[335246,210933],[6355,5321]],[[611969,468131],[1864,-544],[1100,-894]],[[614933,466693],[-881,-1094]],[[614052,465599],[-2941,218]],[[611111,465817],[-728,1346]],[[610383,467163],[1119,682],[467,286]],[[650612,423904],[284,35],[-172,-155],[-112,120]],[[650961,424122],[231,607],[153,-470],[-384,-137]],[[651257,425640],[290,-143],[-1592,-642],[-2035,160],[307,590],[3030,35]],[[651446,427971],[272,-114],[-1047,-98],[95,390],[680,-178]],[[650239,428177],[195,-45],[-130,-46],[-65,91]],[[650002,428401],[-556,-212],[-450,229],[1006,-17]],[[655398,464442],[-556,-401],[-923,161],[722,492],[823,52],[-66,-304]],[[653328,469466],[284,80],[-154,-126],[-130,46]],[[647281,460541],[-657,-395],[-1154,109],[1811,286]],[[641305,477657],[59,143],[307,-86],[-366,-57]],[[643630,479478],[4307,-1878],[-1875,905],[656,-825],[-1508,395],[-2633,1530],[1053,-127]],[[654842,473636],[261,-413],[-1083,126],[822,287]],[[649748,476374],[2657,-539],[4768,-2594],[-1579,-35],[-196,481],[-1644,602],[-2562,349],[-953,1083],[-822,-413],[491,-366],[-1775,17],[-983,905],[521,447],[2077,63]],[[647967,393236],[201,-46],[-296,-46],[95,92]],[[647139,415455],[100,138],[189,-103],[-289,-35]],[[640802,421670],[656,-550],[-1266,-154],[-89,865],[699,-161]],[[645760,428504],[633,-57],[-1426,-103],[793,160]],[[639086,421917],[-337,229],[952,-178],[-615,-51]],[[635488,425416],[-171,-40],[467,75],[-296,-35]],[[635542,426304],[301,-68],[-224,-115],[-77,183]],[[640234,445923],[307,-63],[-201,-29],[-106,92]],[[643659,428716],[338,-109],[-89,-63],[-249,172]],[[642843,459797],[95,349],[165,-401],[-260,52]],[[645866,460066],[-792,-161],[-456,287],[1248,-126]],[[642742,460209],[-230,-241],[-592,338],[822,-97]],[[632802,455329],[1462,-751],[-1929,270],[988,-562],[-414,-11],[-1231,624],[1124,430]],[[638536,389100],[-5793,4050],[-6698,928],[326,2394],[-468,3615],[2615,2869],[1373,2429],[-3869,3580],[1254,722],[71,1300],[-2012,1444],[1959,1483],[301,2017],[-7455,3333],[-12526,3764],[-2426,1965],[2669,2612],[9656,2388],[-970,1409],[-7402,3254],[-4515,1002],[2166,2985],[2029,1604],[3639,80],[4745,-1684],[4669,-481],[5236,7916],[-4236,2383],[-30,2749],[-4656,1404],[-5811,-1684],[166,3287],[-12230,1673],[-3331,-693],[-3355,-4525],[-3615,143],[-10372,4187],[-8408,2578],[4325,3975],[1787,3007],[-6532,4864],[2266,1667],[-834,2102],[-3107,435],[-3047,-1947],[834,-1329],[-1236,-573],[-5633,34],[-2757,-693],[-2201,-1925],[-4775,-1718],[-3373,3809],[-4337,2383],[2355,831],[545,3918],[-3598,1397],[1361,4176],[-160,2022],[-5970,745],[-3455,1965],[-6195,166],[-2325,1426],[-2278,-596],[-8355,-5138],[-2840,-939],[-1893,962],[-4586,3551],[-11449,1845]],[[493769,488002],[5302,8203],[-3947,3706],[4331,3746],[3692,5917],[10307,1134],[1994,-2583],[4426,-1060],[1260,-1707],[2905,-939],[11982,5762],[-320,2171],[6828,4571],[2006,3065],[4036,2005],[2059,2297],[4970,3631]],[[555600,527921],[1207,-567],[-710,-1271],[1017,-1112],[3485,-1163],[1610,1032],[692,-333],[-988,-573],[65,-349],[4349,-2795],[14768,-4165],[988,-1901],[-479,-1295],[2680,-1283],[4485,-1197],[-1153,-1575],[-1764,-401],[-1420,-1587],[-136,-1146],[1089,-1495],[2367,-2497],[3118,-1896],[-1148,447],[657,-539],[9532,-3202],[266,-378],[-858,-779],[0,-768],[2893,-2211],[11503,-4851],[11342,-3248],[8911,-1971],[2266,-973],[-11088,2801],[-746,-224],[-952,-1352],[-1083,-45],[964,-1135],[-473,-1283],[2858,0],[1118,923],[1314,126],[-284,-1753],[-379,-195],[7473,-808],[95,-349],[-1545,-1031],[592,126],[2467,-1209],[3154,-2085],[953,224],[195,-493],[2041,-493],[2302,602],[3254,-951],[3781,412],[917,-555],[-1639,-1644],[426,-172],[-296,-413],[-923,-337],[1083,-207],[-1343,-109],[-1775,-842],[1378,-509],[2959,223],[230,-241],[-692,-572],[201,-1049],[1971,-1644],[-426,-441],[426,-240],[-4734,-894],[130,-1128],[-1213,-493],[-100,-429],[1444,-1066],[-1314,-321],[-1805,671],[-3751,-161],[-1870,-922],[196,-556],[2005,-1037],[-2993,-1174],[-527,-590],[219,-561],[-3710,-596],[-941,138],[-266,544],[-1018,-310],[-964,1077],[-3148,539],[-4207,2400],[-4177,956],[-917,-240],[-722,1718],[-2633,1495],[-3088,321],[-2758,-664],[403,-103],[-225,-951],[2514,-562],[592,-825],[2314,-1260],[810,-1443],[1130,435],[3166,-1140],[1751,499],[-461,-911],[1550,-2475],[396,-2171],[1752,-819],[3331,-46],[1047,-1540],[42,-791],[2360,189],[4331,-1764],[3994,550],[-2390,-1375],[-2136,-2881],[4929,-3162],[213,-2830],[2005,-1650],[-1757,-882],[752,-2938],[-817,-464],[-651,-1828],[-1757,-2451],[-3816,-40],[-2231,-1386],[503,-608],[-408,-257],[449,-138],[-704,-378],[746,-470],[-586,-280],[686,-247],[142,-727],[-621,-189],[438,-264],[-36,-1203],[941,-217],[-308,-184],[284,-458],[1864,-1197],[-1485,-727],[1414,567],[2610,-756],[106,-774],[905,-343],[0,-522],[1468,-34],[-622,-624],[610,-653],[1556,-602],[2100,-40],[1568,-1942],[2586,-1701],[3402,-327],[639,499],[1935,-527],[1308,315],[-255,739],[497,378],[1012,-327],[-876,-945],[1456,-853],[-793,-1215],[1266,-1775],[-2639,550],[-2319,-115],[-2586,-917],[-4130,-2531],[160,-831],[-828,-3105],[378,-1844],[385,-596],[911,-80],[1420,-1008],[1456,29],[-83,-545],[532,-275],[-1461,-836],[-467,-1524],[-2261,252],[-3094,-1603],[-2296,-321],[-1343,-905],[746,-607],[-3154,-510],[-1609,-1209]],[[611969,468131],[-1586,-968]],[[611111,465817],[1710,-378],[1231,160]],[[614933,466693],[-479,390],[-2485,1048]],[[619602,461114],[331,-1146],[-1810,991],[1479,155]],[[618087,461481],[296,-172],[-917,109],[621,63]],[[640796,478121],[-764,321],[1060,-201],[-296,-120]],[[635269,481787],[3562,-430],[3550,-1655],[-1443,189],[-296,447],[-923,-258],[-296,573],[-1219,510],[-3248,687],[313,-63]],[[633311,481787],[-751,-372],[319,372],[432,0]],[[769741,651328],[118,-200],[-391,57],[273,143]],[[828015,821356],[302,86],[112,-109],[-414,23]],[[824045,821682],[89,75],[242,-86],[-331,11]],[[822826,821751],[438,-6],[-408,-80],[-30,86]],[[940813,810994],[95,-29],[-136,-17],[41,46]],[[859564,821075],[195,98],[-118,-189],[-77,91]],[[837707,821173],[-852,0],[929,17],[-77,-17]],[[846316,821350],[8473,-240],[-11869,114],[3396,126]],[[852919,821465],[-390,28],[526,35],[-136,-63]],[[404751,823344],[16413,7452],[2467,1919],[-1183,3717],[4722,2761],[4893,1988],[11786,481],[9792,-624],[3988,1655],[2397,-2646],[-1231,-3237],[6733,126],[2237,1885],[2449,899],[-213,1295],[-4266,1140],[-278,2480],[-1248,2354],[6189,4686],[-734,905],[-3970,1965],[1396,2595],[-83,2875],[-2603,3403],[2254,1787],[-372,2348],[449,2899],[6384,4691],[2420,3173],[-1437,2246],[-2302,2073],[3905,2538],[1260,1604],[-426,2119],[3852,2555],[3012,4371],[-3059,1867],[-8189,3723],[-6846,4548],[2391,3924],[6307,5413],[-2130,2859],[1840,1243],[5426,-631],[3366,1782],[4633,1031],[6154,2984],[2574,2143],[-2681,3339],[3533,2910],[2372,-831],[604,-1294],[3976,1409],[5911,533],[5390,-499],[3118,1730],[-136,3271],[3816,1839],[7704,-1192],[7899,2658],[11408,1169],[8378,6828],[5248,1157],[870,3230],[5840,5230],[3414,5339],[-2947,4319],[5438,1237],[9401,-710],[1758,406],[781,2017],[5662,2858],[-3515,2435],[1947,8597],[1722,5167],[2018,3019],[5407,1884],[6840,-544],[5118,716],[3261,2217],[2573,2795],[8355,52],[3556,-2893],[5147,642],[2302,-447],[-343,-3735],[3455,-424],[3314,189],[5491,1215],[1402,-3202],[6112,-4159],[7029,-1987],[-272,-3838],[3911,-2612],[5437,-1261],[1160,-1884],[7171,-865],[4284,-3895],[4367,1220],[3934,86],[3503,2194],[5952,74],[1988,-5224],[1764,-1844],[4295,-613],[4840,-2332],[6313,378],[7586,3941],[14786,-1947],[2165,-2830],[5231,842],[639,3133],[6538,3569],[278,2034],[-669,2600],[3249,1375],[4372,103],[296,-3002],[5597,-1792],[-349,-1432],[3130,252],[3976,1707],[5408,-516],[2687,-2910],[-2178,-1398],[7130,-5831],[4739,4417],[4911,601],[4178,1570],[3354,-688],[-2171,-1730],[-414,-1804],[1946,-2675],[-3662,-2709],[1077,-2378],[6402,-1615],[3852,1277],[8946,167],[4065,1454],[2248,2481],[5366,487],[4030,1008],[4378,8334],[4497,1444],[2598,1770],[2899,-292],[7159,1094],[4668,0],[3752,-1650],[840,-1741],[8964,-1805],[1657,-1048],[4260,2956],[3207,-292],[165,-1243],[2101,-493],[4035,464],[-2142,-2916],[4816,-23],[1746,1810],[4881,350],[2846,1810],[-1100,3236],[3437,1272],[3473,-3574],[8586,-671],[4603,-1094],[4100,-2365],[7201,-1530],[2450,-2371],[7573,-3420],[7136,-4869],[-243,-2703],[2284,-1793],[4799,-1610],[2307,-2005],[-1828,-3752],[698,-2984],[3503,-985],[2988,-2784],[-1959,-3895],[2462,-4514],[3668,-4176],[-1083,-2641],[645,-2107],[-3420,-2023],[1249,-1340],[-1870,-4010],[-2136,-1449],[-4307,-555],[-5160,34],[-2674,-1776],[728,-1478],[426,-3288],[-1326,-3482],[3089,-2652],[-2953,-2532],[-6289,-69],[-5887,1444],[-5947,3190],[-4118,-504],[-3852,-2137],[-4207,-206],[-1656,-3288],[-2811,-1397],[-4094,17],[-4680,-2349],[-4225,-739],[36,-3454],[-5616,-744],[-1928,-2383],[3810,-1432],[1799,-2664],[-4337,-1020],[5278,-3454],[13437,-6301],[2834,178],[3118,1667],[2568,349],[4272,-1042],[3639,0],[8182,2320],[6994,-1037],[4083,-3202],[1929,-2967],[5011,-1094],[6840,-207],[1982,-1787],[184,-1289],[-3740,-2904],[4745,-3437],[1917,-1976],[2787,-435],[7148,3494],[4721,206],[450,-3568],[6899,-1364],[947,-2623],[-3083,-1604],[3686,-1770],[834,-1696],[-1106,-2405],[1568,-2681],[-4704,-5700],[-207,-7400],[-9828,-1140],[-4289,-1610],[-4024,-23],[-2189,-469],[-1231,630],[-2946,91],[-1403,648],[-1325,28],[-112,413],[-1953,-92],[-574,263],[468,1347],[-1320,876],[-3603,865],[-2444,-52],[-189,510],[-2243,390],[-5337,-23],[-5289,-2045],[-2994,-2062],[544,-436],[894,-3259],[-89,-1174],[-1379,-1724],[758,-671],[1295,69],[-1053,-235],[-420,-1048],[959,-773],[1301,-298],[77,-1008],[-2449,-1232],[-2349,963],[-1817,-189],[-935,315],[154,498],[-449,-493],[-1089,275],[-1515,-813],[-1337,-57],[-396,-562],[-935,58],[609,-1014],[-870,693],[-1023,-699],[-1361,34],[-2355,-1535],[-3935,206],[633,2108],[-3721,1982],[-2758,-6],[-3189,1736],[1349,1547],[142,1678],[2355,544],[817,974],[2497,1094],[-148,1226],[515,86],[988,1924],[-2829,1037],[-2698,-1386],[-2366,876],[-888,-126],[65,-836],[-663,-676],[231,-756],[-692,-384],[-1834,459],[-651,486],[189,447],[-2982,676],[-562,693],[361,367],[-988,349],[-1118,-464],[307,-446],[-6331,612],[-15082,-2056],[752,624],[-758,728],[-3709,447],[-14822,-2721],[-6609,-189],[-4449,166],[8638,0],[-2307,63],[41,321],[-1680,-401],[-586,326],[-4988,29],[-1456,349],[255,418],[-16159,-939],[6491,126],[-5722,-298],[-6633,57],[1107,126],[-8958,1146],[189,-515],[-692,-23],[8189,-711],[-1586,-17],[-14561,1495],[-13094,378],[-9627,-1008],[-15987,-3775],[-1526,441],[-4337,-45],[-3456,1901],[-1236,206],[-4769,-263],[-7763,-1455],[2467,710],[-3550,-395],[-1254,-641],[432,-41],[-12591,-3064],[-16272,-2543],[-7431,-1816],[-17887,-7401],[-5680,-3225],[-5094,-3758],[-6509,-6839],[-10100,-8289],[-798,-97],[-6172,-3872],[-7981,-2910],[-6639,-3133],[-3023,-459],[-4107,-1707],[-3094,81],[-6805,-1828],[-14584,-7532],[-6113,-5940],[-4200,-7974],[-2012,-1741],[-2124,-3357]],[[344086,315127],[-10899,-2171]],[[269570,310745],[1467,1312],[1278,2784],[2213,3053],[5000,1776],[2585,3574],[5254,2864],[444,1856],[-8834,6255],[-3153,6610],[-4083,3025],[1183,3081],[-1307,1644],[-7692,1553],[-4781,5441],[-11277,5780],[-432,3168],[6922,5625],[6160,1443],[4574,3122]],[[265091,374711],[10218,3242]],[[356280,383687],[16053,3660]],[[431595,409315],[-1674,-1713],[-10189,-4938],[-2698,-2090],[-77,-2286],[4970,-1249],[101,-2348],[5668,-1753],[1468,-3414],[2952,-2022],[4420,-1243],[3828,-344],[3272,-2400],[5976,-326],[4343,641],[4165,-40],[1645,-1495],[24,-3402],[-1686,-3449],[-4515,-4210]],[[453588,371234],[-9295,-5802],[-1852,-751]],[[588710,223254],[-2077,905],[119,699],[958,675],[1473,58]],[[589183,225591],[793,-493],[60,-676],[-1326,-1168]],[[370753,607],[1047,-240],[-1000,-367],[-361,349],[314,258]],[[479350,220378],[1698,2240]],[[481048,222618],[7798,298],[12349,-4749],[6804,-2016],[4698,-138],[10757,4354],[4183,-682],[3236,-2469],[4053,350],[3852,4840],[-1639,3947],[2586,2010],[5964,900],[16662,750],[3432,-647],[4035,-1845],[5739,848],[6343,1655]],[[581900,230024],[3911,-1415],[-3763,-1008],[-704,476],[278,-647],[3000,687],[1639,-80],[-1965,-963],[166,-698],[-2053,-430],[313,-315],[-1532,-1369],[1112,997],[2260,280],[302,-441],[-911,-361],[124,-498],[521,-97],[-385,452],[770,252],[816,-143],[-402,727],[361,688],[491,-229],[-154,882],[1355,74],[-18,516],[556,-63],[-41,492],[1035,636],[1083,-132],[-18,-601],[-763,-46],[-89,-389],[420,183],[207,-464],[598,344],[-248,-779],[1378,-29],[870,-813],[-1213,-493],[-509,-2732],[-3278,-2314],[-4207,-2114],[-5,-1868],[-2592,-3408],[-562,-23],[1059,-618],[-1030,-1427],[-420,-2698],[728,-1861],[-509,-745],[290,-533],[-787,-435],[1397,-578],[-539,-825],[237,-619],[-870,12],[-1296,-1043],[1349,-876],[-266,-602],[716,-361],[-160,-1730],[-597,-865],[207,-1592],[-5254,-2434],[-1450,-1295],[-1586,-2927],[-6567,-1707],[-971,-1123],[-1538,-624],[-775,-1392],[-8633,-4754],[-716,-694],[-77,-847],[-1112,-567],[207,-516],[-1219,-739],[-1603,-2406],[-1450,-521],[-4710,-3471],[-461,-653],[361,-590],[-7946,-2647],[-5882,-5453],[-1609,-739],[-763,-779],[-1160,-2818],[-1627,-1380],[-1130,-2131],[59,-1879],[-2083,-1174],[47,-608],[-656,-211],[142,-413],[-2829,-3030],[-230,-1598],[-1929,-1490],[-758,-1844],[-538,-286],[556,-711],[-432,-3053],[-5834,1358],[-1597,1495],[-3763,1713],[-2332,217],[-4964,-1879],[-2798,-68],[-5278,1856],[-4692,257],[3526,3065],[1071,4118],[-4420,3180],[953,1970],[2089,1661],[8614,2612],[2574,1197],[1148,2360],[-160,1587],[-2035,390],[-1745,4508],[-4184,2692],[-2982,607],[-1106,1317],[3077,4239],[4692,1140],[-278,3007],[-2977,-721],[-3970,298],[-2242,1191],[461,2812],[-1367,1054],[-3059,928],[-1005,1621],[1047,1965],[-473,2057],[-1989,2268],[-6473,2011],[-390,1993]],[[588710,223254],[1296,1506],[-823,831]],[[421158,493684],[201,75],[-248,-132],[47,57]],[[416070,517777],[461,143],[-343,-218],[-118,75]],[[417217,518172],[640,172],[-574,-241],[-66,69]],[[418111,521718],[130,28],[-65,-97],[-65,69]],[[358801,603659],[-1349,-407],[-1243,-1742],[-1023,218],[-1580,-848],[-1083,-1174],[-722,-1753],[-1378,-1031],[94,-1861],[-2532,-636],[-586,-1610],[-2077,-1919],[-2366,-326],[-213,-1661],[-1397,-167],[-787,-1466],[-4242,-143],[-1095,-1243],[-1786,-1025],[-1131,269],[-2112,-602],[-112,-922],[-2686,-865],[-592,-1151],[-2479,-963],[-2598,728],[-639,-1094],[-1870,-722],[-792,-979],[-805,86],[-2816,-1369],[-1710,418],[-3639,-934],[-657,189],[-7633,-2847],[-923,-1793],[-6029,-2108],[-3160,-1770],[-1059,-1649],[-1076,45],[-397,-1002],[-1408,-115],[-539,-1094],[-940,-17],[35,-1541],[-1384,-68],[-657,-2223],[1639,-2102],[3994,-3099],[18229,-4348],[1947,-166],[1828,516],[3627,-1169],[-858,-659],[385,-343],[-290,-424],[947,-739],[-551,-424],[941,-619],[-319,-349],[4603,-1701],[-130,796],[3863,-264],[7805,390],[6644,1352],[669,613],[2390,-247],[4142,865],[882,-86],[-12,-641],[1591,-470],[2994,756],[1687,-928],[2550,596],[532,-705],[1752,321],[5603,-424],[5751,1839],[574,1146],[3053,2560],[142,-1048],[-1627,-2337],[2219,-1083],[4136,487],[1414,1627],[3337,120],[-1166,-1237],[799,-235],[-485,-395],[408,-407],[-1166,-332],[1456,-149],[-278,-521],[2012,229],[1526,-1512],[-1485,-138],[-467,-951],[-947,121],[-320,-1043],[-1029,-103],[112,-682],[-580,-103],[598,-830],[2231,-642],[-1343,-120],[94,-802],[-1662,-441],[1751,-2074],[-2195,-1615],[-432,1839],[-1929,-115],[604,-510],[-1302,-481],[1142,-1151],[-681,-2137],[1888,-1409],[1236,92],[971,-665],[-852,-1478],[-1201,418],[-2160,-945],[1745,-1718],[1580,166],[-337,-567],[627,-773],[-1313,-877],[-2243,-275],[633,-240],[586,-1140],[1237,-86],[1372,-1220],[-337,-934],[533,-1042],[-882,-504],[-1941,-6],[1888,-877],[-1734,-1437],[734,-1232],[-1018,-252],[124,-670],[-1520,-69],[-1545,-802],[-313,-802],[-894,-200],[60,-1266],[-770,126],[912,-630],[-1426,-1512],[402,-1249],[-775,-1014],[1278,-344],[-444,-1380],[438,-922],[757,-178],[-71,-561],[-816,-304],[852,-1243],[-172,-447],[876,-807],[-544,-579],[958,-624],[2349,-476],[1805,-1117],[952,436],[-35,584],[1615,338],[1367,865],[83,974],[-456,624],[4917,682],[485,824],[3071,-676],[4207,195],[461,-1701],[2432,-510],[2396,842],[2438,1593],[752,3580],[2532,2875],[1231,2778],[1869,1329],[-609,648],[-1609,469],[-4178,-1059],[-2124,57],[-444,1919],[-2266,1100],[604,1243],[-2391,824],[551,1266],[970,-292],[-432,458],[722,951],[4621,1467],[361,704],[-562,373],[1793,595],[1420,-739],[2727,974],[-219,900],[-1017,-46],[-243,395],[3373,1346],[1361,-435],[2088,693],[752,636],[-764,538],[888,573],[1733,-344],[1681,825],[1148,-493],[1544,235],[438,-676],[899,-183],[2799,-160],[2473,699],[1349,-585],[2172,1295],[1591,206],[923,-412],[1403,418],[272,-487],[-355,-791],[-2834,-1117],[-1403,-1334],[-2023,-796],[-485,-1140],[-2060,-1031],[30,-533],[-2018,-1014],[-1893,-1913],[-1781,-510],[-840,-1094],[-47,-1192],[-1752,-446],[456,143],[639,2709],[-1083,688],[-4532,-596],[-3243,-1209],[450,-750],[-2018,-2933],[3456,-830],[2597,280],[1278,-613],[1125,401],[6827,-3792],[3024,-1128],[1515,607],[2301,155],[6142,-860],[4935,1135],[426,-321],[-1645,-859],[-722,-2022],[-722,-636],[-2633,-161],[-1574,-951],[-1976,-206],[-1148,-911],[-988,304],[-787,-590],[-35,-556],[-2432,-968],[-752,-1277],[225,-2131],[-1674,17],[-722,-2560],[-3651,-2183],[30,-1260],[-4107,373],[-5881,-991],[-1378,-860],[-2302,-584],[-1118,-1323],[-3302,-1398],[-479,-699],[-1237,-85],[1207,-6],[882,819],[1053,-63],[1118,-813],[-455,-625],[1639,-74],[4532,-1724],[2597,51],[4935,1083],[13674,-29],[15449,1908],[1573,1615],[1912,934],[5390,1048],[627,670],[4272,1065],[1864,1564],[2538,453],[2503,1197],[1935,2560],[100,3105],[1148,1587],[1053,2692],[6840,2686],[1580,1226],[4041,1260],[592,-464],[-201,-395],[733,-1380],[-568,469],[-822,-1237],[-65,-2675],[1023,-1896],[-793,-699],[65,-1002],[-757,-1747],[-2627,-2326],[-2035,-762],[-1219,-1340],[-1083,-286],[-5621,-4136],[-1053,-1318],[1012,-200],[597,-865],[-3875,-2326],[-2207,-126],[657,-1117],[-1184,-664],[858,-751],[-1645,-366],[-556,-653],[1710,670],[-1319,-412],[432,-688],[-101,636],[2893,796],[4994,-653],[3059,510],[3716,1163],[1804,1690],[1385,647],[2923,2629],[2006,2910],[899,619],[1136,1615],[870,4119],[1562,2875],[0,2371],[432,384],[-361,590],[822,842],[-396,235],[1444,928],[1905,3019],[-338,584],[409,1123],[-604,1810],[900,2005],[-728,653],[497,189],[-5231,-2051],[-1278,241],[3941,5029],[231,1157],[-722,1638],[988,2910],[-538,865],[-2060,143],[-2035,1198],[2231,28],[23,716],[3065,287],[1048,-791],[13650,-3969],[10088,-1919],[7987,-636],[10029,1409],[2367,1037],[7568,1821],[2224,1501],[3089,1094],[3544,-355],[-165,-2629],[-1077,452]],[[493769,488002],[-2195,-1043],[-5443,390],[3780,-2326],[-1278,-7778],[-4112,-785],[-2852,-2652]],[[261026,459178],[1976,2171],[-1787,2297],[320,1713],[3100,3855],[-3035,3998],[-3882,1123],[-1497,1231],[1408,1524],[8420,-166],[1562,1844],[-6431,3260],[-4846,1197],[-1166,1907],[-2479,1071],[-3958,527],[-1770,2349],[-3473,607],[-2710,-979],[-2260,-2584],[-4485,-452],[-4556,538],[-7041,-2824],[-3804,-739],[-5118,-1827],[-5136,-309],[-2018,1558],[-2994,1094],[-4058,-854],[-4048,103],[-2633,1696],[-1940,2005],[-5745,761],[-3373,-3305],[-3479,453],[-4177,-527],[-10899,-4090],[-846,-2371],[1793,-2836],[-4266,-1884],[-3107,1397],[-4887,-1031],[-3130,-3494],[-5065,-979],[-5650,1157],[-16786,-946],[-2941,1370],[-3053,-12],[-4012,-916],[-10200,-1295],[-1184,-3070],[-5733,-1644],[-5467,991],[-2775,3070],[3396,1936],[-1278,1678],[-8485,522],[-12277,-2967],[-4023,830],[6905,5144],[940,2606],[-1319,2211],[-5059,5660],[1917,2675],[-4769,9388],[610,2595],[-2562,1501],[-3119,962],[-3283,120],[-3888,-1002],[-9307,2664],[-4804,-631],[-3373,-1678],[-4651,2372],[-1414,1449],[-6816,223],[-810,1690],[-3669,1323],[-3970,-882],[-4621,298],[-5976,1833],[7319,4748],[1621,2996],[77,3374],[1811,3070],[2810,1621],[3408,516],[4325,4130],[3213,985],[3379,-5],[5733,2325],[4106,29],[2876,-1106],[3225,974],[710,2623],[6331,9819],[-1391,2508],[1491,2647],[8142,2366],[2485,3373],[6437,-171],[4136,1134],[1509,2348],[6627,1071],[4491,1261],[3597,3242],[5899,916],[4284,2681],[1793,2515],[633,1718],[8780,676],[6822,1535],[2906,2492],[-462,1919],[604,3219],[11579,1638],[3319,2492],[355,2704],[3822,2646],[10159,722],[1876,1839],[-10987,2571],[-3965,2171],[-2325,2051],[1657,1850]],[[350020,553297],[2284,97],[988,-1071],[-1094,-143],[106,-917],[1675,-761],[3426,-613],[1745,292],[556,590],[539,-613],[-787,-836],[-4544,504],[-2527,899],[-2438,-69],[-751,1375],[-1385,527],[1178,1100],[1029,-361]],[[290527,555416],[-438,6],[473,97],[-35,-103]],[[290971,555571],[-249,-57],[6,103],[243,-46]],[[440382,533277],[-2154,-315],[1178,687],[686,81],[290,-453]],[[428643,545226],[-379,-361],[1095,-676],[18,-1283],[1118,-441],[-160,-567],[639,-435],[-917,-316],[30,-927],[-894,-195],[-1586,-1793],[3101,-2778],[-2485,1031],[-403,-252],[515,-384],[-313,-172],[-2231,-252],[-2071,1192],[1183,555],[1923,2217],[-242,802],[-1154,-17],[195,716],[-609,401],[479,893],[-881,418],[2124,2091],[1266,40],[-184,533],[823,-40]],[[396911,548674],[574,-46],[-1095,-979],[-1088,332],[1609,693]],[[402863,552770],[947,149],[-976,-355],[29,206]],[[353576,558761],[675,258],[-278,-303],[-397,45]],[[350937,560549],[273,166],[295,-172],[-568,6]],[[387669,565532],[-77,-395],[-651,120],[728,275]],[[378468,565670],[420,23],[-278,-115],[-142,92]],[[556688,533707],[1320,-12],[-456,-590],[-2775,-149],[284,779],[1290,270],[337,-298]],[[441524,534537],[-278,69],[497,-92],[-219,23]],[[446624,541319],[1657,-1460],[-5828,-1129],[-190,-1409],[-1402,-1896],[-6940,-1478],[-243,825],[3728,1421],[3289,2090],[-325,842],[1189,2097],[4361,624],[704,-527]],[[450097,539750],[474,206],[-148,-298],[-326,92]],[[525323,547219],[-1692,-538],[-1012,384],[160,332],[1746,86],[2082,1254],[-1284,-1518]],[[464286,554901],[1284,-355],[-30,-338],[-2568,-711],[-1319,802],[2633,602]],[[443879,569668],[-202,69],[267,68],[-65,-137]],[[473072,576209],[3118,-475],[190,-481],[-740,-1770],[-769,-224],[-4692,894],[337,1695],[2556,361]],[[404159,553136],[207,23],[-331,-149],[124,126]],[[430442,581296],[6538,-2412],[1402,144],[5224,-1009],[2438,968],[811,-143],[1520,-2131],[5621,-2783],[-4337,1489],[-2934,-2555],[-83,-664],[-1172,-6],[219,-235],[-2426,-1942],[503,115],[-361,-447],[403,-178],[686,109],[722,923],[1645,492],[331,751],[1852,979],[4461,1025],[3811,-80],[6325,-939],[390,-630],[-2455,-1707],[-3142,458],[-2876,-1260],[-1100,-1203],[6,-1048],[-1290,234],[-686,-761],[-1639,-625],[-314,-2847],[698,-1460],[-160,-590],[592,-579],[-722,-2303],[-923,-853],[-1485,-229],[-396,-762],[-1941,556],[-1929,-350],[-1041,-744],[-982,-1874],[-977,-549],[-1520,-69],[-491,-791],[-1420,-120],[-746,-991],[-1059,-223],[-959,-928],[-331,-1238],[-858,-504],[-775,52],[112,533],[-668,910],[-1521,126],[-1343,2704],[-745,321],[-432,1913],[-1438,424],[-95,762],[521,636],[-3112,796],[-385,1650],[-3154,3121],[-219,751],[-4532,-1226],[-2130,-2228],[-1313,-35],[-1367,-893],[-1574,-333],[106,-796],[-4088,-842],[1580,2721],[532,2555],[1929,3001],[2112,1908],[3136,1644],[320,429],[-391,487],[610,556],[4579,2142],[722,837],[-195,670],[1213,842],[-373,567],[965,865],[-770,842],[2977,2578],[-136,1271],[3828,430],[775,515],[1296,-687]],[[447020,578787],[190,11],[-160,-57],[-30,46]],[[363759,568545],[1947,-120],[467,-504],[-1438,246],[-1384,-613],[-1231,773],[1639,218]],[[402325,577492],[1083,-475],[-2237,-1919],[-1083,-389],[-656,-1495],[-847,-304],[-218,-1157],[-2485,-785],[-811,-1518],[2112,-1781],[-1728,-1770],[-7082,-52],[-728,424],[-112,687],[1130,155],[-225,464],[-2461,939],[-1491,-492],[745,11],[-615,-813],[-3166,292],[-260,-372],[663,-355],[-261,-327],[-3100,579],[-876,-270],[95,-979],[1024,-1060],[-1202,-722],[-3076,871],[-740,-407],[-189,401],[-1077,69],[-290,791],[1077,1071],[-243,1094],[4941,2251],[1160,1346],[6431,1541],[562,733],[2627,825],[3929,2245],[4586,-45],[5094,698]],[[621276,366062],[722,-98],[-1195,-63],[-432,779],[905,-618]],[[618791,366898],[-18,143],[196,-103],[-178,-40]],[[617596,368863],[-160,189],[391,-18],[-231,-171]],[[609904,360356],[-35,115],[165,-17],[-130,-98]],[[617276,368198],[208,189],[272,-74],[-480,-115]],[[445239,408272],[9260,1432]],[[638536,389100],[-527,-1655],[1160,-745],[-1225,-590],[-1379,-1558],[196,-258],[-2196,-1460],[60,-573],[988,-367],[-841,-1226],[-2709,270],[-3030,-384],[-2692,-779],[-882,-888],[-2485,-1174],[-1775,-109],[-278,-802],[491,-395],[-390,-997],[1509,-3735],[-752,-664],[-177,-1140],[-1480,-436],[-1147,327],[-669,-401],[-343,120],[83,854],[-1829,-1008],[196,-373],[-663,-693],[-3355,46],[3385,-636],[-89,-1564],[722,-653],[863,602],[1113,-504],[2071,229],[-592,-527],[598,-1157],[-622,-962],[349,-258],[-1609,-350],[-1745,-1392],[-1456,-372],[-1254,642],[-5101,-1043],[338,-1306],[-314,-905],[1870,-2194],[-2231,-166],[-2106,-882],[-2071,206],[3775,-853],[-89,-1495],[621,-1266],[-426,-315],[119,-1037],[-817,-1409],[-1171,-361],[1047,34],[1195,-1054],[888,-2480],[-190,-1312],[-1893,-641],[-1976,320],[1745,-412],[-550,-1323]],[[606792,341511],[-6373,-2532],[-1567,-2492]],[[598852,336487],[-6402,-4594]],[[592450,331893],[-4113,-842],[-1763,1163],[-7325,63],[-5349,4061],[-5177,1220],[-1988,1622],[391,2090],[-4148,1759],[-3485,-3025],[-3923,-2113],[-2349,-292],[-3526,2955],[-3681,-1655],[-2514,395],[-8325,4222],[-4574,1489],[-4000,-1100]],[[465895,360563],[-10786,469]],[[442441,364681],[5751,2990],[5396,3563]],[[588728,230047],[207,-452],[-1917,-1043],[941,1449],[769,46]],[[590024,236709],[-172,-23],[166,120],[6,-97]],[[589213,243050],[-130,46],[308,63],[-178,-109]],[[592450,331893],[4366,2841],[2036,1753]],[[606792,341511],[899,-1146],[-53,-1220],[-2100,-745],[-1243,212],[-3887,-2669],[260,-653],[-1876,-1226],[142,-807],[1077,-1169],[-331,-888],[-1314,-2056],[-2366,-1478],[-326,-573],[290,-773],[-1236,-865],[934,-945],[1491,-3351],[1344,-779],[-681,-464],[-698,126],[59,-418],[-982,-407],[-2432,-3821],[562,-1970],[3645,-2853],[-456,-762],[1119,-2400],[195,-1959],[1941,-1621],[-1219,-716],[-1059,-1483],[-24,-2051],[858,-1243],[-77,-1157],[-751,-1003],[804,-2835],[2154,-2148],[6319,-1592],[1562,429],[675,-527],[-1190,-481],[-461,-1146],[-1130,-246],[-497,-664],[-5385,-1387],[-3354,-1443],[-793,-779],[-533,-2291],[-1585,-1261],[-54,-1357],[-2053,-859],[290,-1066],[1633,-1495],[882,-1621],[2645,-1214],[2165,-115],[-615,-1369],[313,-893],[-1485,-1776],[42,-2062],[627,-774],[284,-1529],[1177,-1128],[758,-3116],[-1415,-1730],[-1094,-92],[237,-2790],[-1977,-824],[-3402,-3873],[36,-584],[935,-825],[-1136,-1592],[-142,-1656],[863,-847],[-177,-636],[-740,280],[-1864,-847],[-3112,636],[296,-464],[-473,-327],[148,-659],[2568,825],[1017,-1071],[-1136,-137],[385,-568],[-284,-263],[-1864,556],[-178,-590],[492,-132],[-888,-659],[-254,-899],[-829,-212],[12,-796],[823,-619],[426,-97],[792,790],[-112,-1306],[-775,-177],[177,-722],[1657,-854],[-751,-120],[154,-865],[-1344,-435],[302,-367],[-373,-710],[977,137],[402,-298],[-302,-538],[-1313,103],[-1249,-504],[-1254,344],[-2450,-1409],[2266,973],[1681,-469],[-355,-201],[621,-229],[-337,-395],[1035,435],[-822,-716],[284,-395],[-1604,-1472],[-1136,63],[-3236,1420]],[[481048,222618],[745,945]],[[271149,376893],[-6058,-2182]],[[139690,245570],[-2343,-1271],[-2876,-453],[-5786,1077],[-5101,-1821],[-4709,2285],[1183,2813],[-1781,2554],[-6290,1278],[-3934,2314],[-3272,756],[-6402,-1718],[-1296,-4050],[-3106,-1209],[372,-4118],[-3922,-602],[-3012,2412],[-6047,876],[-5911,-2755],[-5875,-1730],[-4320,-2165],[-5502,1535],[3662,762],[1515,1890],[2018,5196],[-776,5269],[663,4875],[-1597,2750],[-4616,3975],[1918,2056],[4970,2377],[704,2148],[-1675,1616],[2124,3442],[107,1404],[-3467,3099],[946,2589],[-1029,2280],[-3876,561],[-367,1380],[2971,1971],[2420,2881],[-1190,2332],[-2857,996],[-799,2721],[-6467,1289],[-6,1730],[-1544,3700],[-3716,-1231],[-3071,297],[-947,1730],[-5366,590],[-4296,-1638],[-3828,1667],[592,2641],[5786,4181],[-201,3168],[-2195,2789],[-2745,1977],[-3917,-40],[-7000,-3088],[-2562,1277],[-455,2607],[2230,1008],[2586,5046],[2083,2257],[2141,1260],[-254,1690],[-2171,1919],[-1101,1713],[2615,1237],[4817,922],[3053,1398],[7833,12436],[5988,275],[3083,1443],[2952,3855],[2917,2240],[3154,-378],[4568,177],[1467,1816],[231,2017],[-3935,5132],[-1225,2750],[2385,3224],[-1556,1633],[2083,1340],[7638,-1099],[5006,567],[5502,1105],[4503,2057],[4041,-550],[3562,1701],[6432,-6],[5650,2097],[2095,-304],[4863,1352],[3799,2612],[1106,2583],[521,3116],[3716,888],[2171,2778],[6018,3575],[8088,3861],[6059,1970],[2343,-802],[2461,-137],[4757,607],[10313,-413],[5882,1593],[5301,3082],[1036,3161],[-3054,3477],[-5922,2744],[-1172,3042],[3929,2537],[-3396,2458],[-1314,3987],[3994,3236],[3822,23],[6781,-1713],[4627,-1976],[6704,-2005],[4023,-241],[5905,-1220],[2964,-1695],[7047,-407],[4716,-2285],[9313,68],[2745,-1277],[10313,-235],[4142,-1518]],[[294438,122788],[-1621,848],[-5379,-688],[-3017,1965],[-5615,693],[-3533,-3815],[-2485,-779],[-5976,1467],[-1538,-138]],[[226442,124529],[-3319,2114],[0,733],[2242,4090],[3254,1260],[1551,2773],[1621,1134],[3716,1020],[2236,-241],[3828,745],[1929,-224],[2065,1776],[2722,1438],[89,1019],[2627,1364],[2928,2423],[486,2686],[4455,2744],[1219,2893],[-136,1397],[-3189,2383]]],"bbox":[130.3781,45.0358,147.2791,62.4935],"transform":{"scale":[0.000016901016901016912,0.000017457717457717452],"translate":[130.3781,45.0358]}}