{"type":"Topology","objects":{"muni":{"type":"GeometryCollection","geometries":[{"type":"MultiPolygon","arcs":[[[0]]],"properties":{"GID_2":"RUS.29.1_1","GID_0":"RUS","COUNTRY":"Russia","GID_1":"RUS.29_1","NAME_1":"Khakass","NL_NAME_1":"РеспубликаХакасия","NAME_2":"Abakan","VARNAME_2":"NA","NL_NAME_2":"Абака́н","TYPE_2":"Gorod","ENGTYPE_2":"City","CC_2":"NA","HASC_2":"RU.KK.AB"}},{"type":"MultiPolygon","arcs":[[[1,2,3]]],"properties":{"GID_2":"RUS.29.2_1","GID_0":"RUS","COUNTRY":"Russia","GID_1":"RUS.29_1","NAME_1":"Khakass","NL_NAME_1":"РеспубликаХакасия","NAME_2":"Altayskiyrayon","VARNAME_2":"NA","NL_NAME_2":"Алтайскийрайон","TYPE_2":"Raion","ENGTYPE_2":"District","CC_2":"R62010","HASC_2":"RU.KK.AL"}},{"type":"MultiPolygon","arcs":[[[4,5,6,7,8]]],"properties":{"GID_2":"RUS.29.3_1","GID_0":"RUS","COUNTRY":"Russia","GID_1":"RUS.29_1","NAME_1":"Khakass","NL_NAME_1":"РеспубликаХакасия","NAME_2":"Askizskiyrayon","VARNAME_2":"NA","NL_NAME_2":"Аскизскийрайон","TYPE_2":"Raion","ENGTYPE_2":"District","CC_2":"R62010","HASC_2":"RU.KK.AS"}},{"type":"MultiPolygon","arcs":[[[-2,9,10,11,-6]]],"properties":{"GID_2":"RUS.29.4_1","GID_0":"RUS","COUNTRY":"Russia","GID_1":"RUS.29_1","NAME_1":"Khakass","NL_NAME_1":"РеспубликаХакасия","NAME_2":"Beyskiyrayon","VARNAME_2":"NA","NL_NAME_2":"Бейскийрайон","TYPE_2":"Raion","ENGTYPE_2":"District","CC_2":"R62010","HASC_2":"RU.KK.BE"}},{"type":"MultiPolygon","arcs":[[[12,13,14]]],"properties":{"GID_2":"RUS.29.5_1","GID_0":"RUS","COUNTRY":"Russia","GID_1":"RUS.29_1","NAME_1":"Khakass","NL_NAME_1":"РеспубликаХакасия","NAME_2":"Bogradskiyrayon","VARNAME_2":"NA","NL_NAME_2":"Боградскийрайон","TYPE_2":"Raion","ENGTYPE_2":"District","CC_2":"R62010","HASC_2":"RU.KK.BO"}},{"type":"MultiPolygon","arcs":[[[15,16]]],"properties":{"GID_2":"RUS.29.6_1","GID_0":"RUS","COUNTRY":"Russia","GID_1":"RUS.29_1","NAME_1":"Khakass","NL_NAME_1":"РеспубликаХакасия","NAME_2":"Ordzhonikidzevskiyrayon","VARNAME_2":"NA","NL_NAME_2":"Орджоникидзевскийрайон","TYPE_2":"Raion","ENGTYPE_2":"District","CC_2":"R62010","HASC_2":"RU.KK.OR"}},{"type":"MultiPolygon","arcs":[[[17]]],"properties":{"GID_2":"RUS.29.7_1","GID_0":"RUS","COUNTRY":"Russia","GID_1":"RUS.29_1","NAME_1":"Khakass","NL_NAME_1":"РеспубликаХакасия","NAME_2":"Sayanogorsk","VARNAME_2":"NA","NL_NAME_2":"Саяногорск","TYPE_2":"Gorsovet","ENGTYPE_2":"District","CC_2":"NA","HASC_2":"RU.KK.SA"}},{"type":"MultiPolygon","arcs":[[[18,-17,-14,19]]],"properties":{"GID_2":"RUS.29.8_1","GID_0":"RUS","COUNTRY":"Russia","GID_1":"RUS.29_1","NAME_1":"Khakass","NL_NAME_1":"РеспубликаХакасия","NAME_2":"Shirinskiyrayon","VARNAME_2":"NA","NL_NAME_2":"Ширинскийрайон","TYPE_2":"Raion","ENGTYPE_2":"District","CC_2":"R62010","HASC_2":"RU.KK.SH"}},{"type":"MultiPolygon","arcs":[[[-8,20,-11,21]]],"properties":{"GID_2":"RUS.29.9_1","GID_0":"RUS","COUNTRY":"Russia","GID_1":"RUS.29_1","NAME_1":"Khakass","NL_NAME_1":"РеспубликаХакасия","NAME_2":"Tashtypskiyrayon","VARNAME_2":"NA","NL_NAME_2":"Таштыпскийрайон","TYPE_2":"Raion","ENGTYPE_2":"District","CC_2":"R62010","HASC_2":"RU.KK.TA"}},{"type":"MultiPolygon","arcs":[[[22,-20,-13,23,-3,-5]]],"properties":{"GID_2":"RUS.29.10_1","GID_0":"RUS","COUNTRY":"Russia","GID_1":"RUS.29_1","NAME_1":"Khakass","NL_NAME_1":"РеспубликаХакасия","NAME_2":"Ust'-Abakanskiyrayon","VARNAME_2":"NA","NL_NAME_2":"Усть-Абаканскийрайон","TYPE_2":"Raion","ENGTYPE_2":"District","CC_2":"R62010","HASC_2":"RU.KK.UA"}}]}},"arcs":[[[900202,583046],[-7023,-677],[1318,3775],[2333,701],[3372,-3799]],[[882961,435537],[-33418,18729],[608,12728],[-14097,14204],[-20918,-6098],[-2333,-10647],[-19700,-8929],[-42216,14543],[-1116,9921]],[[749771,479988],[13185,12196],[17064,2952],[24340,9969],[4463,11470],[21906,11954],[21273,8324],[16278,3508],[12551,9171],[4817,7260],[14960,3145]],[[900608,559937],[4564,-9412],[-685,-12922],[20411,-8203],[26014,193],[23124,-8227],[18914,-14373],[7049,-8566],[-1293,-15414],[-14123,-12583],[-14756,-9534],[-17115,-9292],[-21805,-8760],[-15695,-3871],[-19473,387],[-12778,-3823]],[[335066,600130],[9001,-1670],[26774,2057],[13286,-12123],[-8316,-7671],[-22769,-3266],[-7378,-6921],[-20107,-5251],[-10395,-7235],[16126,-4719],[23276,1307],[41962,-11857],[45943,5590],[36182,1960],[14300,-5832],[8950,-10308],[11942,-920],[6162,-14373],[18889,-3001],[27941,4937],[19295,11034],[22059,2613],[17064,14350],[24721,5686],[10877,-8179],[22160,533],[-2915,-12244],[-38768,-9534],[-19777,-9268],[15036,-3364],[53169,5203],[21602,24],[21273,-9776],[17140,-27924]],[[749771,479988],[-5350,-6437],[-28245,-18826],[-20132,-10598],[-28981,-11373],[-8849,-17471],[-48859,-14737],[-16354,-10138],[-7707,-18076],[1546,-17689]],[[586840,354643],[-28904,-1282]],[[557936,353361],[-9711,12510],[-21577,16092],[-60827,-1815],[-51116,-15318],[-30831,5082],[-15872,10115],[6719,14494],[-10954,16382],[-17773,12147],[-28474,-967],[-16100,3581],[-7607,6872],[-10497,2396]],[[283316,434932],[9204,1863],[-2257,10695],[-17266,3703],[-6821,7138],[13159,1694],[6821,3750],[-7505,10405],[-21628,14422],[-10193,13019],[-11561,-8857],[-11030,-3944],[-3778,7211],[710,8058],[18864,24004],[-9280,17544],[4437,3992],[26902,13164],[9686,9606],[13970,21004],[49316,6727]],[[882961,435537],[-8545,-3533],[14427,-31554],[-2967,-19141],[-17697,-16745],[-21451,-12413],[-51698,-21101],[-10776,-14276],[-24417,-5808],[-13996,-6533]],[[745841,304433],[-4260,4767],[26,7138],[-10142,2275],[-32708,-10817],[-22008,3896],[10801,23690],[3474,13212],[-12221,16575],[-21121,-48]],[[657682,365121],[-70842,-10478]],[[903321,647025],[-56643,-11881],[-18357,2541],[-35675,-7477],[-17368,4840],[-9584,21390],[-13337,14229],[-24391,-871],[-7708,6702],[4538,6364],[-12119,5445],[-12830,-5493],[-17672,532],[-31085,-9703],[-2181,7598],[-10193,6921],[-24061,-2275],[-11461,-6291],[2105,-10260],[4589,-6485],[-15391,-4428],[-23808,9267],[-19092,11446],[-14681,12050],[-29969,10938]],[[506947,702124],[11612,7913],[11131,508],[12018,-6727],[15061,1766],[11765,4549],[22819,1307],[12424,-5590],[32657,10309],[12247,11881],[7936,1766],[5781,11349],[-11207,8179],[-12246,5396],[-1065,22770],[-10979,14398],[8291,6678],[27358,-1282],[7404,6582],[-3626,7695],[-11917,7670],[-3017,8397],[355,13333],[-3702,24972]],[[648047,865943],[57454,8203],[9787,-8082],[-2180,-9703],[31846,1863],[18965,-11567],[-15289,-39757],[28245,-12607],[32556,-12292],[16278,-8711],[7049,-11857],[5755,-24343],[10700,-15342],[15213,-12558],[38590,-40266],[305,-21899]],[[250127,746962],[-9407,4622],[-15010,-1185],[-16227,-3945],[-10320,-8517],[-7505,-9800],[-16633,-4017],[-45360,14301],[-8773,8493],[28677,5638],[13768,6630],[5121,29328],[-786,13236],[7531,16019],[9964,14035],[24392,6243],[6769,9945],[2308,8203],[-7734,7719],[-20841,6485],[-5528,12366],[-20487,15389],[-4665,9994],[-583,7937],[2054,7961],[-9407,14011],[-6871,21778],[583,14954],[25000,6533],[15872,18681],[13895,-3339],[17469,-16189],[15822,823],[13869,-9171],[18585,-4960],[4970,-14011],[-938,-11228],[25608,-12752],[-7404,-11591],[27764,-1887],[13540,-20810],[36992,2274],[11410,-6315],[8545,3000],[5527,12704],[26065,1887],[4361,2832],[15188,-6437],[7784,-6872],[18179,7380],[24392,3678],[19853,9026],[26115,2904],[12145,-2299],[18839,4041],[4386,7695],[12526,3484],[10471,-11106],[-2130,-9510],[8520,-3944],[26242,-702],[17672,-7429],[11943,-21415],[-8672,-8034],[2485,-5783]],[[648047,865943],[-14706,-5856],[-80248,-11639],[-46146,-11712],[-16709,8542],[-4589,-7743],[6212,-17011],[-17140,-12148],[-26953,-4621],[-24848,10018],[-3575,6339],[-8417,7453],[-17850,1525],[-37728,-8542],[5299,13139],[-13591,5663],[-18610,-11712],[7251,-19576],[-17494,-3872],[-11334,-14180],[-8976,-17761],[-47768,-25287]],[[894446,439384],[5173,-605],[1445,-5154],[-8849,-290],[-2383,3847],[4614,2202]],[[318052,631611],[229,9776],[-17166,-217],[-15086,2371],[-279,7743],[2865,11567],[5883,11639],[23757,13454],[11435,9244],[-228,10380],[-9736,24827],[-7531,4864],[-12018,-3073],[-9787,-5106],[-20182,-2952],[-15391,5445],[-4690,15389]],[[506947,702124],[-16177,-7429],[-29919,-4694],[-20892,-775],[-18813,-7936],[-14275,-3291],[-10345,3944],[-27003,-5832],[-11106,-10816],[-5349,-16334],[-8393,-11252],[-11029,-5493],[-15594,-605]],[[557936,353361],[40111,2274],[59635,9486]],[[745841,304433],[-11562,-5445],[-24873,-16841],[-18687,-18778],[-5172,-11615],[-19802,-18245],[-19295,-22698],[-40315,2009],[-9102,-9534],[-20766,-4549],[-23149,7065],[-8976,-4186],[6136,-24924],[-22160,-12994],[-6972,-18535],[15998,-18197],[10168,-17882],[-10446,-7235],[-9077,1645],[-26141,-6001],[-5883,-10187],[-25127,-10430],[-8341,-11977],[-26116,-9849],[-18230,944],[-16582,5589],[-11004,6776],[-32252,-4017],[-20867,-8542],[-15847,4065],[11410,15003],[-3829,6558],[-44827,-6631],[-10548,-8904],[-15973,-3388],[-28068,315],[-4995,-2517],[-11790,1742],[-12906,-9824],[-4970,-24730],[-19016,-16745],[-20512,-7913],[-27662,-2831],[-19194,8590],[659,6364],[-40999,9437],[-26166,18173],[-33570,5638],[-8443,10792],[406,6993],[456,5493],[25051,4646],[4006,8736],[23504,19068],[-3702,11494],[-22515,-4598],[-13464,3944],[-10268,10357],[15923,16696],[9178,16455],[8291,8711],[1547,12922],[25862,7840],[30172,411],[8773,9849],[21805,7574],[6795,10090],[8063,-1210],[15289,3993],[33494,12268],[13590,7139],[-5273,14663],[1242,7284],[8646,5759],[34483,13599],[16734,3388],[38793,28215],[13641,2395],[-20969,9171],[-7048,8034],[4462,9776],[21146,7332],[9382,12897],[16937,2009],[-1724,5855],[-5553,7284],[-25431,6751],[-7556,10865],[-11967,10018],[-16354,-1549],[-9001,9147],[-1141,10357],[7023,6678],[11384,5275],[9204,1864]],[[335066,600130],[-482,8590],[-13945,15148],[-2587,7743]],[[903321,647025],[-11030,-17688],[-15061,-9123],[-9026,-9340],[1699,-14277],[20334,-21705],[10371,-14955]]],"bbox":[87.9024,51.2922,91.8464,55.4248],"transform":{"scale":[0.000003944003944003946,0.000004132604132604129],"translate":[87.9024,51.2922]}}