{"type":"Topology","objects":{"muni":{"type":"GeometryCollection","geometries":[{"type":"MultiPolygon","arcs":[[[0,1,2,3,4,5],[6]]],"properties":{"GID_2":"RUS.30.1_1","GID_0":"RUS","COUNTRY":"Russia","GID_1":"RUS.30_1","NAME_1":"Khanty-Mansiy","NL_NAME_1":"Ханты-МансийскийАОк","NAME_2":"Beloyarskiyrayon","VARNAME_2":"NA","NL_NAME_2":"Белоярскийрайон","TYPE_2":"Raion","ENGTYPE_2":"District","CC_2":"R58010","HASC_2":"RU.KM.BR"}},{"type":"MultiPolygon","arcs":[[[-7]]],"properties":{"GID_2":"RUS.30.2_1","GID_0":"RUS","COUNTRY":"Russia","GID_1":"RUS.30_1","NAME_1":"Khanty-Mansiy","NL_NAME_1":"Ханты-МансийскийАОк","NAME_2":"Beloyarsky","VARNAME_2":"NA","NL_NAME_2":"Белоярский","TYPE_2":"Gorod","ENGTYPE_2":"City","CC_2":"NA","HASC_2":"RU.KM.BG"}},{"type":"MultiPolygon","arcs":[[[-5,7,8,9,10,11,12]]],"properties":{"GID_2":"RUS.30.3_1","GID_0":"RUS","COUNTRY":"Russia","GID_1":"RUS.30_1","NAME_1":"Khanty-Mansiy","NL_NAME_1":"Ханты-МансийскийАОк","NAME_2":"Berezovskiyrayon","VARNAME_2":"NA","NL_NAME_2":"Березовскийрайон","TYPE_2":"Raion","ENGTYPE_2":"District","CC_2":"R58010","HASC_2":"RU.KM.BE"}},{"type":"MultiPolygon","arcs":[[[13]]],"properties":{"GID_2":"RUS.30.4_1","GID_0":"RUS","COUNTRY":"Russia","GID_1":"RUS.30_1","NAME_1":"Khanty-Mansiy","NL_NAME_1":"Ханты-МансийскийАОк","NAME_2":"Khanty-Mansiysk","VARNAME_2":"NA","NL_NAME_2":"Ханты-Мансийск","TYPE_2":"Raion","ENGTYPE_2":"District","CC_2":"NA","HASC_2":"RU.KM.KR"}},{"type":"MultiPolygon","arcs":[[[-1,14,15,16,17,18,19,20,21,22],[-14]]],"properties":{"GID_2":"RUS.30.5_1","GID_0":"RUS","COUNTRY":"Russia","GID_1":"RUS.30_1","NAME_1":"Khanty-Mansiy","NL_NAME_1":"Ханты-МансийскийАОк","NAME_2":"Khanty-Mansiyskiyrayon","VARNAME_2":"NA","NL_NAME_2":"Ханты-Мансийскийрайон","TYPE_2":"Raion","ENGTYPE_2":"District","CC_2":"R58010","HASC_2":"RU.KM.KG"}},{"type":"MultiPolygon","arcs":[[[23]]],"properties":{"GID_2":"RUS.30.6_1","GID_0":"RUS","COUNTRY":"Russia","GID_1":"RUS.30_1","NAME_1":"Khanty-Mansiy","NL_NAME_1":"Ханты-МансийскийАОк","NAME_2":"Kogalym","VARNAME_2":"OzeroKogolymlor","NL_NAME_2":"Когалым","TYPE_2":"Gorsovet","ENGTYPE_2":"District","CC_2":"NA","HASC_2":"RU.KM.KO"}},{"type":"MultiPolygon","arcs":[[[-21,24,25,26,27],[28]]],"properties":{"GID_2":"RUS.30.7_1","GID_0":"RUS","COUNTRY":"Russia","GID_1":"RUS.30_1","NAME_1":"Khanty-Mansiy","NL_NAME_1":"Ханты-МансийскийАОк","NAME_2":"Kondinskiyrayon","VARNAME_2":"NA","NL_NAME_2":"Кондинскийрайон","TYPE_2":"Raion","ENGTYPE_2":"District","CC_2":"R58010","HASC_2":"RU.KM.KD"}},{"type":"MultiPolygon","arcs":[[[29]]],"properties":{"GID_2":"RUS.30.8_1","GID_0":"RUS","COUNTRY":"Russia","GID_1":"RUS.30_1","NAME_1":"Khanty-Mansiy","NL_NAME_1":"Ханты-МансийскийАОк","NAME_2":"Langepas","VARNAME_2":"NA","NL_NAME_2":"Лангепас","TYPE_2":"Gorod","ENGTYPE_2":"City","CC_2":"NA","HASC_2":"RU.KM.LA"}},{"type":"MultiPolygon","arcs":[[[30]]],"properties":{"GID_2":"RUS.30.9_1","GID_0":"RUS","COUNTRY":"Russia","GID_1":"RUS.30_1","NAME_1":"Khanty-Mansiy","NL_NAME_1":"Ханты-МансийскийАОк","NAME_2":"Megion","VARNAME_2":"NA","NL_NAME_2":"Мегион","TYPE_2":"Gorsovet","ENGTYPE_2":"District","CC_2":"NA","HASC_2":"RU.KM.ME"}},{"type":"MultiPolygon","arcs":[[[31]]],"properties":{"GID_2":"RUS.30.10_1","GID_0":"RUS","COUNTRY":"Russia","GID_1":"RUS.30_1","NAME_1":"Khanty-Mansiy","NL_NAME_1":"Ханты-МансийскийАОк","NAME_2":"Nefteyugansk","VARNAME_2":"NA","NL_NAME_2":"Нефтеюганск","TYPE_2":"Gorod","ENGTYPE_2":"City","CC_2":"NA","HASC_2":"RU.KM.NG"}},{"type":"MultiPolygon","arcs":[[[-19,32,-17,33,34,35],[-32],[36]]],"properties":{"GID_2":"RUS.30.11_1","GID_0":"RUS","COUNTRY":"Russia","GID_1":"RUS.30_1","NAME_1":"Khanty-Mansiy","NL_NAME_1":"Ханты-МансийскийАОк","NAME_2":"Nefteyuganskiyrayon","VARNAME_2":"NA","NL_NAME_2":"Нефтеюганскийрайон","TYPE_2":"Raion","ENGTYPE_2":"District","CC_2":"R58010","HASC_2":"RU.KM.NR"}},{"type":"MultiPolygon","arcs":[[[37]]],"properties":{"GID_2":"RUS.30.12_1","GID_0":"RUS","COUNTRY":"Russia","GID_1":"RUS.30_1","NAME_1":"Khanty-Mansiy","NL_NAME_1":"Ханты-МансийскийАОк","NAME_2":"Nizhnevartovski","VARNAME_2":"NA","NL_NAME_2":"Нижневартовск","TYPE_2":"Raion","ENGTYPE_2":"District","CC_2":"NA","HASC_2":"RU.KM.NV"}},{"type":"MultiPolygon","arcs":[[[38,39],[-30],[-31],[-38],[40],[41]]],"properties":{"GID_2":"RUS.30.13_1","GID_0":"RUS","COUNTRY":"Russia","GID_1":"RUS.30_1","NAME_1":"Khanty-Mansiy","NL_NAME_1":"Ханты-МансийскийАОк","NAME_2":"Nizhnevartovskiyrayon","VARNAME_2":"NA","NL_NAME_2":"Нижневартовскийрайон","TYPE_2":"Raion","ENGTYPE_2":"District","CC_2":"R58010","HASC_2":"RU.KM.NZ"}},{"type":"MultiPolygon","arcs":[[[42]]],"properties":{"GID_2":"RUS.30.14_1","GID_0":"RUS","COUNTRY":"Russia","GID_1":"RUS.30_1","NAME_1":"Khanty-Mansiy","NL_NAME_1":"Ханты-МансийскийАОк","NAME_2":"Nyagan'","VARNAME_2":"NA","NL_NAME_2":"Нягань","TYPE_2":"Gorsovet","ENGTYPE_2":"District","CC_2":"NA","HASC_2":"RU.KM.NY"}},{"type":"MultiPolygon","arcs":[[[-3,43,-22,-28,44,45,-11,46,-9,47],[-43]]],"properties":{"GID_2":"RUS.30.15_1","GID_0":"RUS","COUNTRY":"Russia","GID_1":"RUS.30_1","NAME_1":"Khanty-Mansiy","NL_NAME_1":"Ханты-МансийскийАОк","NAME_2":"Oktyabr'skiy","VARNAME_2":"NA","NL_NAME_2":"Октябрьскийрайон","TYPE_2":"Raion","ENGTYPE_2":"District","CC_2":"R58010","HASC_2":"RU.KM.OK"}},{"type":"MultiPolygon","arcs":[[[-42]]],"properties":{"GID_2":"RUS.30.16_1","GID_0":"RUS","COUNTRY":"Russia","GID_1":"RUS.30_1","NAME_1":"Khanty-Mansiy","NL_NAME_1":"Ханты-МансийскийАОк","NAME_2":"Pokachi","VARNAME_2":"NA","NL_NAME_2":"Покачи","TYPE_2":"Gorod","ENGTYPE_2":"City","CC_2":"NA","HASC_2":"RU.KM.PO"}},{"type":"MultiPolygon","arcs":[[[-37]]],"properties":{"GID_2":"RUS.30.17_1","GID_0":"RUS","COUNTRY":"Russia","GID_1":"RUS.30_1","NAME_1":"Khanty-Mansiy","NL_NAME_1":"Ханты-МансийскийАОк","NAME_2":"Pyt'-Yakh","VARNAME_2":"NA","NL_NAME_2":"Пыть-Ях","TYPE_2":"Gorsovet","ENGTYPE_2":"District","CC_2":"NA","HASC_2":"RU.KM.PY"}},{"type":"MultiPolygon","arcs":[[[-41]]],"properties":{"GID_2":"RUS.30.18_1","GID_0":"RUS","COUNTRY":"Russia","GID_1":"RUS.30_1","NAME_1":"Khanty-Mansiy","NL_NAME_1":"Ханты-МансийскийАОк","NAME_2":"Raduga","VARNAME_2":"NA","NL_NAME_2":"NA","TYPE_2":"Gorod","ENGTYPE_2":"City","CC_2":"NA","HASC_2":"RU.KM.RA"}},{"type":"MultiPolygon","arcs":[[[-12,-46,48,-26,49]]],"properties":{"GID_2":"RUS.30.19_1","GID_0":"RUS","COUNTRY":"Russia","GID_1":"RUS.30_1","NAME_1":"Khanty-Mansiy","NL_NAME_1":"Ханты-МансийскийАОк","NAME_2":"Sovetskiyrayon","VARNAME_2":"NA","NL_NAME_2":"Советскийрайон","TYPE_2":"Raion","ENGTYPE_2":"District","CC_2":"R58010","HASC_2":"RU.KM.SO"}},{"type":"MultiPolygon","arcs":[[[50]]],"properties":{"GID_2":"RUS.30.20_1","GID_0":"RUS","COUNTRY":"Russia","GID_1":"RUS.30_1","NAME_1":"Khanty-Mansiy","NL_NAME_1":"Ханты-МансийскийАОк","NAME_2":"Surgut","VARNAME_2":"NA","NL_NAME_2":"Сургут","TYPE_2":"Gorod","ENGTYPE_2":"City","CC_2":"NA","HASC_2":"RU.KM.SG"}},{"type":"MultiPolygon","arcs":[[[51,-39,52,-35,53,-15],[-24],[-51]]],"properties":{"GID_2":"RUS.30.21_1","GID_0":"RUS","COUNTRY":"Russia","GID_1":"RUS.30_1","NAME_1":"Khanty-Mansiy","NL_NAME_1":"Ханты-МансийскийАОк","NAME_2":"Surgutskiyrayon","VARNAME_2":"NA","NL_NAME_2":"Сургутскийрайон","TYPE_2":"Raion","ENGTYPE_2":"District","CC_2":"R58010","HASC_2":"RU.KM.SR"}},{"type":"MultiPolygon","arcs":[[[-29]]],"properties":{"GID_2":"RUS.30.22_1","GID_0":"RUS","COUNTRY":"Russia","GID_1":"RUS.30_1","NAME_1":"Khanty-Mansiy","NL_NAME_1":"Ханты-МансийскийАОк","NAME_2":"Uray","VARNAME_2":"Uraysk","NL_NAME_2":"Урай","TYPE_2":"Gorsovet","ENGTYPE_2":"District","CC_2":"NA","HASC_2":"RU.KM.UR"}}]}},"arcs":[[[444525,644459],[-26901,127],[-4065,-5817],[-13754,-14886],[-17475,-15264],[-8199,-9615],[-3086,-7148],[-1713,-757],[-5472,5789],[-1466,4261],[-378,11017],[-2091,5158],[-1358,6924],[-3045,-911],[-5951,-11970],[-3964,981],[-3887,-4527],[-1675,1808],[-1411,-673],[-1028,-1892],[557,-5074],[-957,-5677],[-3868,-6700],[-15586,-13764],[-4549,-953],[-2667,-5270]],[[310536,569626],[-1630,3532]],[[308906,573158],[-401,3658],[-2367,2860],[-430,-2103],[-1145,-2046],[-2626,-1388],[-4376,869],[-6744,2874],[-9381,8774],[-12366,19118],[-3400,7835],[311,3476],[2741,6602],[-1612,5312],[-2614,4668],[-3453,2719],[-4769,1948],[-6055,5943],[-3008,6209],[165,3350],[1492,3589],[4530,2186],[-789,4359],[-7511,10022],[-7859,7078],[-7922,2453]],[[229317,683523],[-557,5803]],[[228760,689326],[681,4906],[3295,12166],[-1014,5943],[-2079,6419],[-1040,6518],[961,4121],[5910,10498],[5682,21249],[4301,10414],[497,5298],[-1750,15923],[-116,6826],[1541,3896],[3221,4836],[965,5578],[-7002,17675]],[[242813,831592],[16959,3743],[2917,-2103],[5446,-8676],[2738,504],[9632,7457],[3430,70],[2652,-3532],[1930,-5172],[351,-4499],[-3374,-13288],[-1006,-8746],[1448,-7471],[3598,-6125],[9478,-4163],[1369,-4891],[595,-5257],[4084,1977],[10425,-210],[2573,2214],[1014,-1724],[1605,-6237],[2308,827],[2214,5480],[3957,4527],[4160,2804],[3418,6756],[10346,13806],[2166,-911],[7597,-8985],[6489,-4499],[973,4219],[-599,8045],[3337,8578],[-2506,5649],[-1051,6125],[6291,3266],[5020,490],[3239,-2088],[4728,-8564],[9807,1878],[3759,-981],[1777,-8073],[11569,1766],[5584,2523],[2723,-4640],[3535,-7947],[5024,-5663],[4342,-2817],[1732,-5256],[494,-7877],[-2843,-8368],[-3198,-3322],[1534,-6658],[4200,-11017],[3176,-10260],[1728,-15712],[1847,-1640],[13986,869],[2813,-3280],[4582,-13483],[789,-10373],[-441,-11745],[1028,-8522],[1904,-10499],[1272,-10974],[-20962,-4458]],[[280740,713028],[546,1513],[-303,1556],[-1309,1458],[-2682,-1121],[101,-2425],[1474,-2804],[2173,1823]],[[228760,689326],[557,-3869],[4,-3798]],[[229321,681659],[-830,-2691]],[[228491,678968],[-9692,-7751]],[[218799,671217],[-5640,-855],[-3337,-5859],[-1081,-3701],[-2252,-4401],[569,-27990],[-1773,-13652],[-1332,-6910],[1691,-16722],[2510,-18095],[2095,-10989],[3115,-9966],[453,-6307],[-2484,-1304],[-2162,-2733],[-1137,-3924],[-131,-3364],[-1806,-2986],[-2409,-1233]],[[203688,530226],[-2465,2369],[-7563,1654],[-3468,28],[-2633,-1346],[-7406,-10064],[-15014,-10905],[-6168,-11185],[-6018,3056],[-21403,575],[-10200,2242],[-4589,-2859],[-1885,-6868],[-1369,-1948],[-2765,911],[-4069,7162],[-2888,1668],[-2704,-687],[-4298,-4135],[-10963,-14170],[-2499,-4471],[-1982,-7401],[-842,-5817],[-1911,-5060],[-3280,841],[-4111,-3602],[-11326,-13161],[-1507,-4794]],[[58362,442259],[-3404,1780],[-10421,2004],[-8812,-4078],[-4485,-953],[-3067,6181],[-352,8129],[460,6013],[-1462,3785],[-4534,4499],[-6628,2663],[-4881,5298],[-2151,-3798],[-916,15558],[254,14829],[1553,4149],[-71,10218],[5550,5579],[-961,8017],[842,8788],[-2682,9728],[-2708,630],[-1470,3813],[-573,4205],[-160,5887],[-2215,13918],[4223,8298],[587,4891],[-486,6742],[-987,4373],[-5484,6714],[-1331,3392],[-1583,4948],[-7,5466],[1002,4752],[2177,3602],[-755,4640],[-1257,4092],[251,5761],[2102,2901],[1010,4738],[-1598,8606],[2873,3728],[-669,7177],[1612,5999],[187,10540],[1881,9924],[872,10666],[632,14045],[-1264,9615],[2322,2467],[2271,12741],[2513,3868],[3284,2846],[105,4359],[1231,4331],[4013,6615],[-2106,9938],[-2345,-617],[-3725,967],[-1448,6392],[124,9853],[766,16610],[-1013,8073],[-2181,4429],[-2536,1626],[-516,3112],[4249,9896],[632,4919],[1885,7429],[2570,2032],[-1395,3420],[-2899,4317],[303,9461],[4447,2117],[842,8157],[5266,2930],[569,4219],[3834,841],[-86,11437],[3183,6237],[2614,2005],[2312,-1934],[6067,-1823],[1758,-2494],[56,-2972],[673,-3560],[3359,-2705],[587,-2439],[374,-5663],[6239,6167],[-93,5929],[1017,2201],[7160,5803],[3654,4163],[344,3924],[1264,5439],[1751,2298],[2162,281],[2685,3770],[2832,6307],[-816,4023],[-920,8130],[842,5592],[1399,6125],[2753,5607],[6175,15404],[3987,2523],[262,3238],[3479,3840],[2629,6013],[5974,5074],[2356,-2775],[6568,-11031],[1684,-7975],[2532,-4570],[834,-3756],[-127,-7149],[939,-4723],[8745,-11003],[4548,-1990],[2297,-2635],[-752,-14858],[-1380,-14717],[26,-13652],[-2843,-10680],[176,-2874],[1717,-3167],[2102,-6602],[939,-6055],[-1369,-7891],[-1998,-5747],[-3261,-4443],[-5054,-4878],[187,-3616],[943,-3617],[2914,-4849],[8075,-6868],[5102,5200],[1695,448],[4507,-2537],[9216,-7610],[1654,-4878],[564,-3210],[45,-5536],[494,-3280],[2813,-4794],[3755,-4625],[3172,378],[3550,2075],[2951,3448],[2700,5144],[3269,3125],[3879,701],[4354,-1093],[6250,238],[3494,4780],[3946,-1514],[8173,6574],[3535,1654],[4103,-968],[5128,2047],[11629,7218],[6243,729]],[[411950,271666],[-954,-393],[-321,953],[830,1065],[445,-1625]],[[444525,644459],[1167,-24178],[1571,-20940],[1882,-17339],[1174,-25972],[2121,-11143],[759,-10681],[-1522,-8900],[-5102,-8003],[-1863,-6672],[-864,-8256],[-5015,-11493],[-4740,-5565],[-8472,-4345],[-3736,-5915],[-1463,-7961],[-247,-7373],[4212,-16665],[8240,-8256],[6194,-10666],[3995,-11508],[3262,-11843],[-329,-10905],[-2080,-14185]],[[443669,375695],[-838,-13161],[-310,-11872]],[[442521,350662],[-3053,-11830]],[[439468,338832],[-7664,-16904],[-4043,-6966]],[[427761,314962],[-4952,-5831],[-7597,-12656],[-1246,-5046],[-355,-11424],[-1388,-9825],[-699,-20772],[-816,-9335],[71,-4724],[1093,-7204],[7264,-10737],[5053,-8760],[7133,-25075],[1208,-6041]],[[432530,177532],[-7806,-4023],[-3505,1710],[-6673,6489],[-6620,9756],[-6703,-6125],[-5809,-3953],[-3857,-953],[-523,5887],[336,3700],[-5217,4612],[-6894,-1332],[-3164,-2481],[-1612,-4892]],[[374483,185927],[-1515,5971],[400,5214],[3449,4920],[6201,12825],[2559,6896],[1862,7233],[442,6770],[-2839,12138],[2221,4443],[2652,7218],[1665,7163],[1590,9209],[377,9391],[-2068,3938],[-2618,1892],[-3262,-1527],[-9927,-13274],[-4717,-3336],[-4926,294],[-6830,2355],[-3396,-2733],[-4829,-13932],[-2207,-10358],[-419,-5242],[3217,-10232],[-542,-6784],[-1710,-6476],[-4600,-7246],[-4380,-4051],[-10335,-3252],[-8483,4205],[-7541,-2229],[-4676,3014],[-4600,8970],[2599,19273],[3943,9769],[127,5299],[-1051,7456],[-3243,7905],[-3486,4079],[-5772,-2214],[-8648,532],[-6575,7906],[-344,5144],[2076,14647],[931,14212],[-1429,10583],[-4264,9236],[-5973,18404],[-1519,8059],[-4653,18880],[-123,3785],[-1074,1836]],[[266220,384105],[1638,1332],[3969,12740],[2229,-7372],[2633,-4513],[2787,-1318],[16159,3518],[15911,27781],[13253,16090],[8558,13891],[2715,5480],[655,3308],[-823,4667],[-3000,10260],[-6957,14213],[-7851,20436],[-3797,6826],[-4503,2887],[-4807,589],[-1642,5228],[7661,7485],[2079,5200],[-2786,8045],[258,6700],[1380,5551],[3434,2537],[677,3770]],[[316050,559436],[-5514,10190]],[[551748,548195],[-890,897],[1014,1023],[340,-1500],[-464,-420]],[[374483,185927],[557,-3882],[2255,-5158],[3049,-9391],[-19783,-30654],[-9793,112],[-2173,-24052],[-2222,-9854],[-2633,-7695],[-3052,-1233],[-9519,-8017],[-5723,-2776],[-6269,-756],[-1624,-3196],[-3340,-12110],[-6564,-5439],[-10948,-13007],[-1616,6434],[-3378,1892],[-7881,-12615],[397,-7401],[-124,-24318],[-19540,-12026],[-9934,3644],[-1661,-757],[-741,-3672],[45,7415],[-1488,5340],[-2376,2074],[-3055,211],[-2398,3195],[-7099,15502],[-2065,9349],[-3329,18979],[-352,5410],[-965,6489],[-2098,9335],[-943,10569],[-1137,2831],[-3804,-603],[-1612,12755],[-8719,-687],[-5068,1486],[-9811,7947],[-11655,603],[-4563,3729],[-4261,8732],[-1758,5662],[-1028,5299],[-101,13371],[-591,9896],[-86,9279],[875,6237],[-2443,23688],[-568,8760],[-2544,8942],[-8640,6966],[-4144,1893],[-3864,3966],[1840,6167],[662,4850],[-1320,10905],[-5671,16161]],[[146089,272703],[7432,-1808],[23071,18515],[18579,16974],[19035,21333],[374,4640],[1679,4401],[1919,3181],[4115,2215],[5633,6405],[17591,24193]],[[245517,372752],[4743,10526]],[[250260,383278],[6190,-729],[5214,1696],[4556,-140]],[[209325,214535],[123,2214],[-378,1220],[-909,84],[-976,-1500],[509,-2831],[1631,813]],[[598533,378891],[-1679,-70],[-442,1205],[599,3098],[1844,1275],[482,-4205],[-804,-1303]],[[639188,335580],[-3569,-2368],[-1365,2312],[412,6714],[2132,659],[2102,-1836],[288,-5481]],[[505206,361020],[-804,42],[602,799],[202,-841]],[[427761,314962],[7829,14984],[3878,8886]],[[442521,350662],[142,5298]],[[442663,355960],[1791,-1864],[2847,2663],[3897,-2060],[4137,6517],[2794,-210],[1059,-5410],[4679,-883],[5312,-3448],[5823,-5551],[9269,7499],[1440,3939],[-67,5648],[901,2663],[6999,4191],[2614,-2088],[1968,-3280],[10630,3924],[4017,85],[2345,-1360],[9351,2397],[6744,-365],[1646,-2733],[632,-8354],[-677,-17604],[1526,-3939],[2645,505],[2079,-1710],[2233,-6714],[3146,-4766],[1111,-8241],[-6030,-13007],[-1672,-5004],[-804,-6140],[247,-5732],[1130,-4640],[-1171,-7526],[-1938,-7443],[-822,-6700],[-3924,-4317],[-2390,-10022],[445,-3924],[-1047,-3322],[-2327,-2663],[-1560,-8985],[-935,-14983],[-1432,-3238],[-7219,-4401],[-266,-7008],[325,-9574],[-512,-9853],[79,-13386],[-386,-11689],[-707,-8621],[-1937,-10344],[-2424,-1990],[-1320,-3588],[-2488,-12068],[-2113,-4261],[-2416,-2299],[-9235,2313]],[[490705,110996],[-3677,9040],[-6520,13652],[-4503,0],[-3157,1808],[-5278,11171],[-13506,17745],[-6816,14339],[-2087,-673],[-5730,-6349],[-2450,2649],[-1096,4807],[-3355,-1653]],[[515474,299923],[-1455,6209],[-2391,673],[-1081,-3350],[947,-5831],[1500,-477],[2480,2776]],[[658589,330380],[-1545,-574],[-1346,1696],[-49,2326],[2682,3224],[1212,-715],[546,-2747],[-1500,-3210]],[[652507,152078],[-12403,15530],[-12123,17717],[-4200,4499],[-5136,2186],[-5251,-504],[-5817,-4219],[-609,15124],[-7107,14380],[-3393,4906],[-4062,2761],[490,2958],[670,11297],[6108,-70],[-135,2775],[-912,3308],[-5177,12909],[471,14689],[-2210,13568],[-2035,2495],[-2491,8438],[-8098,-1261],[-2402,12754],[689,8312],[2670,3056],[13664,2368],[10466,4177],[157,1752],[-2170,3785],[748,9657],[2043,2537],[-2387,8676],[-1395,10078],[-2139,7078],[-2611,2523],[-4664,-6728],[-6071,15488],[-1478,42554],[1627,32714],[2529,27445],[7769,-2383],[7656,911],[15422,7316],[6205,4682],[505,9994],[835,8830],[1915,-98],[14307,7877],[6149,39708],[1347,28608],[605,22034],[15,15838]],[[651093,627107],[3745,-490],[4062,-3827],[4350,-1079],[2891,-4836],[887,-5677],[3220,-11773],[3277,-7583],[5550,-8592],[10769,-13666],[6003,-8901],[7923,-6419],[4843,5032],[3397,1598],[12351,2242],[7477,3364],[7166,-3672],[6419,-1065],[6807,210],[5244,2243],[9340,-2075],[3872,1570],[2528,18950],[243,5607],[606,4457],[1276,2537],[3845,589],[6115,3770],[10331,16553],[-160,2705],[3897,813],[1309,3336],[419,10162],[11263,7429],[1361,-519],[2918,-12194],[10125,-18025],[-1197,-3630],[-124,-3897],[1781,-4023],[3363,-4555],[2820,-2313],[3841,2804],[5203,-13470],[3554,-3560],[2969,1429],[599,5425],[1391,6349],[2095,4948],[3280,1037],[7058,-8410],[3120,-1457],[6830,1724],[7806,-1038],[225,-15558],[1559,-2046],[8850,-3630],[759,-2944],[240,-7246],[4544,-6111],[6344,-4808],[2259,336],[5746,10260],[669,-1415],[-138,-5957],[1507,266],[5233,8550],[2446,-911],[2114,-2369],[2191,-4569],[1796,-6714],[2973,-8564],[4119,701],[3276,-6476],[670,-9279],[3026,-3714],[1833,-6167],[2199,-2747],[22,-3518],[-800,-11984],[737,-11059],[3007,-13400],[3415,-9840],[2966,-4779],[7032,-2733],[2222,-3280],[7529,-6742],[7066,-1486],[6583,-12152],[2865,-3308],[6662,-925],[3112,-3098],[1990,-6013],[-180,-5158],[-6194,-2775],[-3052,-3546],[-2371,-4191],[119,-3995],[808,-5424],[-239,-7148],[-385,-2229],[-40995,-42441],[-11700,-15769],[-7459,-2579],[-4024,1262],[-6684,9643],[-5667,11675],[-3666,3743],[-5539,252],[-6490,-1906],[-19716,-25958],[-5184,-8691],[-4215,-8241],[-573,-14157],[-5823,-11451],[-3509,-813],[-2779,6546],[-3494,5410],[-4544,4597],[-3610,1220],[-2913,-1486],[-3692,771],[-4283,-3532],[-9059,70],[-5689,2719],[-1302,15376],[-4833,5943],[-3669,1359],[-3538,519],[-2978,-2537],[-1881,-3406],[-5087,-364],[-5338,-2930],[-5831,-7470],[-11726,-1514],[-5312,1401],[-9482,-3980],[-2969,154],[-2593,2243],[-1312,5508],[-105,4892],[561,4457],[-1231,3700],[-5521,2397],[-3272,477],[-2473,-3589],[-797,-4751],[-1855,-1234],[-3056,1795],[-2513,3321],[-1740,6462],[-5490,-7849],[-3273,-365],[-8723,3546],[-3740,-280],[-3161,-5831],[-3239,281],[-6336,6139],[-9632,2158],[-5839,-1415],[-3766,1359],[-3846,4149],[-2371,-1668],[-1317,-5172],[715,-6812],[-326,-4135],[-2393,-10722],[2640,-13414],[-699,-3686],[-2072,-2705],[-3546,-1921],[-1680,-3952],[-680,-7205],[-360,-8494],[397,-9334],[916,-7107],[-1227,-8522],[-2023,-7036],[-2185,-4990],[932,-6013],[714,-8326],[-1234,-19819],[509,-7246],[-644,-8032],[-2001,-5438],[142,-4527]],[[683306,493951],[924,2131],[-1635,6153],[-3291,-1948],[-820,-5172],[2357,-2635],[2465,1471]],[[596188,425692],[1713,2775],[41,4023],[-2525,3125],[-2397,-1626],[-771,-2901],[68,-6434],[3871,1038]],[[230361,507253],[-606,-589],[-808,1864],[1429,926],[284,-869],[-299,-1332]],[[308906,573158],[7144,-13722]],[[250260,383278],[841,2649]],[[251101,385927],[292,5537],[1234,11115],[-93,7765],[-2678,10134],[3142,10091],[-599,6238],[-2498,5382],[-3475,5298],[-4855,3056],[-13316,-6154],[-1130,-2158],[-553,-4653],[-1672,-3294],[-2473,126],[-7660,8354],[-3464,7036],[-2423,7653],[-5218,11591],[-973,4584],[-105,4022],[5331,6294],[18,4415],[-2502,4822],[-2491,2775],[-2536,6840],[-198,7008],[1148,3364],[2532,-1121],[3426,1247],[782,9153],[-4406,7779]],[[218799,671217],[3950,2887],[5742,4864]],[[229321,681659],[-4,1864]],[[251101,385927],[-1563,-4906],[-4021,-8269]],[[146089,272703],[-4081,13203],[-3392,13989],[-2009,10792],[-464,7177],[-1481,7232],[1280,4962],[1772,13161],[-763,8046],[-6613,18221],[-4623,5620],[-5898,5411],[-14349,18712],[-6358,5494],[-8072,10162],[-7574,7723],[-6621,10596],[-7802,6266],[-6804,757],[-3875,2032]],[[535683,391576],[-2457,-4429],[-1773,1303],[-128,2635],[1519,6350],[2368,-1738],[471,-4121]],[[444525,644459],[24624,5186],[4320,4121],[7346,1682],[2813,1991],[2087,5298],[13076,-2832],[6696,2173],[5139,9966],[1799,6826],[2095,967],[6082,-841],[2356,-11928],[2820,-2509],[5009,-14283],[3976,-3882],[15986,1163],[7986,-1261],[1350,-2481],[1848,182],[1844,-2131],[4762,-7386],[3632,-8564],[19117,2368],[5113,2201],[4036,3658],[4129,827],[4246,-729],[4185,2341],[6610,1738],[4084,-3994],[12456,-8817],[2360,-4065],[1186,-4246],[2581,14],[6437,8942],[2382,953]],[[652507,152078],[139,-6420],[-464,-5887],[-3823,-2635],[-4443,-70],[-7317,-4289],[-3052,855],[-3411,-9489],[-1160,-4779],[-2098,-1753],[-2072,295],[-2405,-6083],[-1201,-5228],[-580,-6574],[-1844,-4471],[-6044,-9293],[2237,-14647],[1009,-9517],[-931,-9027],[-11483,-23519],[-7148,-11101],[-1376,-6939],[-3741,6112],[-1286,406],[-5140,-2257],[-5453,3112],[-3314,617],[-8383,673],[-10622,-1262],[-4941,11704],[-1822,2551],[-5233,-2621],[-4642,8045],[-2326,491],[-6632,-7541],[-3849,-757],[-9156,5144],[-4923,4429],[-90,1738],[3943,6013],[1193,3462],[-288,2958],[-1002,1962],[-6210,8522],[-78,2985],[3288,5467],[-86,2705],[-771,2845],[-2704,3350],[-2315,-378],[-1916,-3799],[-2143,-2452],[-2427,-1178],[-3105,7723],[-4256,5649],[-1010,4163],[314,10568],[-3209,8340]],[[442663,355960],[1006,19735]]],"bbox":[59.2341,58.5671,85.9691,65.7016],"transform":{"scale":[0.000026735026735026737,0.000007134507134507131],"translate":[59.2341,58.5671]}}