{"type":"Topology","objects":{"muni":{"type":"GeometryCollection","geometries":[{"type":"MultiPolygon","arcs":[[[0,1,2,3,4,5,6,7]]],"properties":{"GID_2":"UKR.9.1_1","GID_0":"UKR","COUNTRY":"Ukraine","GID_1":"UKR.9_1","NAME_1":"Kherson","NL_NAME_1":"Херсонська","NAME_2":"Beryslavs'kyi","VARNAME_2":"Beryslavskyi","NL_NAME_2":"NA","TYPE_2":"Raion","ENGTYPE_2":"District","CC_2":"NA","HASC_2":"UA.KS.BE","terra_incognita":true,"NAME_1_REGION_RU":"Херсонская область"}},{"type":"MultiPolygon","arcs":[[[8]],[[9]],[[10]],[[11]],[[12]],[[-1,13,14,15,16,17,18,19,20,21]]],"properties":{"GID_2":"UKR.9.2_1","GID_0":"UKR","COUNTRY":"Ukraine","GID_1":"UKR.9_1","NAME_1":"Kherson","NL_NAME_1":"Херсонська","NAME_2":"Bilozers'kyi","VARNAME_2":"Bilozerskyi","NL_NAME_2":"NA","TYPE_2":"Raion","ENGTYPE_2":"District","CC_2":"NA","HASC_2":"UA.KS.BI","terra_incognita":true,"NAME_1_REGION_RU":"Херсонская область"}},{"type":"MultiPolygon","arcs":[[[22]],[[23,24,25,26,27,28,29,30]]],"properties":{"GID_2":"UKR.9.3_1","GID_0":"UKR","COUNTRY":"Ukraine","GID_1":"UKR.9_1","NAME_1":"Kherson","NL_NAME_1":"Херсонська","NAME_2":"Chaplyns'kyi","VARNAME_2":"Chaplynskyi","NL_NAME_2":"NA","TYPE_2":"Raion","ENGTYPE_2":"District","CC_2":"NA","HASC_2":"UA.KS.CH","terra_incognita":true,"NAME_1_REGION_RU":"Херсонская область"}},{"type":"MultiPolygon","arcs":[[[31,32,33,34,35,36,37]]],"properties":{"GID_2":"UKR.9.4_1","GID_0":"UKR","COUNTRY":"Ukraine","GID_1":"UKR.9_1","NAME_1":"Kherson","NL_NAME_1":"Херсонська","NAME_2":"Heniches'kyi","VARNAME_2":"Genicheskyi","NL_NAME_2":"NA","TYPE_2":"Raion","ENGTYPE_2":"District","CC_2":"NA","HASC_2":"UA.KS.HE","terra_incognita":true,"NAME_1_REGION_RU":"Херсонская область"}},{"type":"MultiPolygon","arcs":[[[38]],[[39]],[[40]],[[-19,41,-17,42,43,44,45,46]],[[47]],[[48]],[[49]],[[50]],[[51]],[[52]],[[53]],[[54]],[[55]],[[56]],[[57]],[[58]],[[59]],[[60]],[[61]],[[62]],[[63]],[[64]],[[65]],[[66]],[[67]],[[68]],[[69]]],"properties":{"GID_2":"UKR.9.5_1","GID_0":"UKR","COUNTRY":"Ukraine","GID_1":"UKR.9_1","NAME_1":"Kherson","NL_NAME_1":"Херсонська","NAME_2":"Holoprystans'kyi","VARNAME_2":"Goloprystanskyi","NL_NAME_2":"NA","TYPE_2":"Raion","ENGTYPE_2":"District","CC_2":"NA","HASC_2":"UA.KS.HL","terra_incognita":true,"NAME_1_REGION_RU":"Херсонская область"}},{"type":"MultiPolygon","arcs":[[[-5,70,71,72,73,74,75]]],"properties":{"GID_2":"UKR.9.6_1","GID_0":"UKR","COUNTRY":"Ukraine","GID_1":"UKR.9_1","NAME_1":"Kherson","NL_NAME_1":"Херсонська","NAME_2":"Hornosta‹vs'kyi","VARNAME_2":"Gornostaivskyi","NL_NAME_2":"NA","TYPE_2":"Raion","ENGTYPE_2":"District","CC_2":"NA","HASC_2":"UA.KS.HR","terra_incognita":true,"NAME_1_REGION_RU":"Херсонская область"}},{"type":"MultiPolygon","arcs":[[[-37,76,77,78,79,80]]],"properties":{"GID_2":"UKR.9.7_1","GID_0":"UKR","COUNTRY":"Ukraine","GID_1":"UKR.9_1","NAME_1":"Kherson","NL_NAME_1":"Херсонська","NAME_2":"Ivanivs'kyi","VARNAME_2":"Ivanivskyi-Her","NL_NAME_2":"NA","TYPE_2":"Raion","ENGTYPE_2":"District","CC_2":"NA","HASC_2":"UA.KS.IV","terra_incognita":true,"NAME_1_REGION_RU":"Херсонская область"}},{"type":"MultiPolygon","arcs":[[[-6,-76,81,82,83,84,-28,85,86,87,88]]],"properties":{"GID_2":"UKR.9.8_1","GID_0":"UKR","COUNTRY":"Ukraine","GID_1":"UKR.9_1","NAME_1":"Kherson","NL_NAME_1":"Херсонська","NAME_2":"Kakhovs'kyi","VARNAME_2":"Kahovskyi","NL_NAME_2":"NA","TYPE_2":"Raion","ENGTYPE_2":"District","CC_2":"NA","HASC_2":"UA.KS.KR","terra_incognita":true,"NAME_1_REGION_RU":"Херсонская область"}},{"type":"MultiPolygon","arcs":[[[89]],[[90]],[[91]],[[92,93,-25,94]]],"properties":{"GID_2":"UKR.9.9_1","GID_0":"UKR","COUNTRY":"Ukraine","GID_1":"UKR.9_1","NAME_1":"Kherson","NL_NAME_1":"Херсонська","NAME_2":"Kalanchats'kyi","VARNAME_2":"Kalanchatskyi","NL_NAME_2":"NA","TYPE_2":"Raion","ENGTYPE_2":"District","CC_2":"NA","HASC_2":"UA.KS.KC","terra_incognita":true,"NAME_1_REGION_RU":"Херсонская область"}},{"type":"MultiPolygon","arcs":[[[-21,95]]],"properties":{"GID_2":"UKR.9.10_1","GID_0":"UKR","COUNTRY":"Ukraine","GID_1":"UKR.9_1","NAME_1":"Kherson","NL_NAME_1":"Херсонська","NAME_2":"Khersons'ka","VARNAME_2":"Kherson","NL_NAME_2":"NA","TYPE_2":"Mis'kaRada","ENGTYPE_2":"CityofRegionalSignificance","CC_2":"NA","HASC_2":"UA.KS.KH","terra_incognita":true,"NAME_1_REGION_RU":"Херсонская область"}},{"type":"MultiPolygon","arcs":[[[96,-7,-89,97,-87,98,99,100]]],"properties":{"GID_2":"UKR.9.11_1","GID_0":"UKR","COUNTRY":"Ukraine","GID_1":"UKR.9_1","NAME_1":"Kherson","NL_NAME_1":"Херсонська","NAME_2":"Novokahovs'ka","VARNAME_2":"NovaKakhovka","NL_NAME_2":"NA","TYPE_2":"Mis'kaRada","ENGTYPE_2":"CityofRegionalSignificance","CC_2":"NA","HASC_2":"UA.KS.NK","terra_incognita":true,"NAME_1_REGION_RU":"Херсонская область"}},{"type":"MultiPolygon","arcs":[[[-30,101,-84,102,103,104,-79,105,-34,106,-32,107]]],"properties":{"GID_2":"UKR.9.12_1","GID_0":"UKR","COUNTRY":"Ukraine","GID_1":"UKR.9_1","NAME_1":"Kherson","NL_NAME_1":"Херсонська","NAME_2":"Novotro‹ts'kyi","VARNAME_2":"Novotroitskyi","NL_NAME_2":"NA","TYPE_2":"Raion","ENGTYPE_2":"District","CC_2":"NA","HASC_2":"UA.KS.NT","terra_incognita":true,"NAME_1_REGION_RU":"Херсонская область"}},{"type":"MultiPolygon","arcs":[[[108,109,110,111,112,113,114]]],"properties":{"GID_2":"UKR.9.13_1","GID_0":"UKR","COUNTRY":"Ukraine","GID_1":"UKR.9_1","NAME_1":"Kherson","NL_NAME_1":"Херсонська","NAME_2":"Novovorontsovs'kyi","VARNAME_2":"Novovorontsovskyi","NL_NAME_2":"NA","TYPE_2":"Raion","ENGTYPE_2":"District","CC_2":"NA","HASC_2":"UA.KS.NV","terra_incognita":true,"NAME_1_REGION_RU":"Херсонская область"}},{"type":"MultiPolygon","arcs":[[[-74,115,116,117,118,-80,-105,119,120,121]]],"properties":{"GID_2":"UKR.9.14_1","GID_0":"UKR","COUNTRY":"Ukraine","GID_1":"UKR.9_1","NAME_1":"Kherson","NL_NAME_1":"Херсонська","NAME_2":"Nyzhn'osirohoz'kyi","VARNAME_2":"Nyzhnyosirogizkyi","NL_NAME_2":"NA","TYPE_2":"Raion","ENGTYPE_2":"District","CC_2":"NA","HASC_2":"UA.KS.NY","terra_incognita":true,"NAME_1_REGION_RU":"Херсонская область"}},{"type":"MultiPolygon","arcs":[[[122]],[[123]],[[-46,124,125,126,127,128,129,130]]],"properties":{"GID_2":"UKR.9.15_1","GID_0":"UKR","COUNTRY":"Ukraine","GID_1":"UKR.9_1","NAME_1":"Kherson","NL_NAME_1":"Херсонська","NAME_2":"Skadovs'kyi","VARNAME_2":"Skadovskyi","NL_NAME_2":"NA","TYPE_2":"Raion","ENGTYPE_2":"District","CC_2":"NA","HASC_2":"UA.KS.SK","terra_incognita":true,"NAME_1_REGION_RU":"Херсонская область"}},{"type":"MultiPolygon","arcs":[[[131,-101,132,-99,-86,-27,133,-128,134,-126,135,-44,136,137,-14]]],"properties":{"GID_2":"UKR.9.16_1","GID_0":"UKR","COUNTRY":"Ukraine","GID_1":"UKR.9_1","NAME_1":"Kherson","NL_NAME_1":"Херсонська","NAME_2":"Tsiurupyns'kyi","VARNAME_2":"Tsyurupinskyi","NL_NAME_2":"NA","TYPE_2":"Raion","ENGTYPE_2":"District","CC_2":"NA","HASC_2":"UA.KS.TS","terra_incognita":true,"NAME_1_REGION_RU":"Херсонская область"}},{"type":"MultiPolygon","arcs":[[[138,-72,139,-110,140,141,142,143,144,-117]]],"properties":{"GID_2":"UKR.9.17_1","GID_0":"UKR","COUNTRY":"Ukraine","GID_1":"UKR.9_1","NAME_1":"Kherson","NL_NAME_1":"Херсонська","NAME_2":"Velykolepetys'kyi","VARNAME_2":"Velykolepetynskyi","NL_NAME_2":"NA","TYPE_2":"Raion","ENGTYPE_2":"District","CC_2":"NA","HASC_2":"UA.KS.VL","terra_incognita":true,"NAME_1_REGION_RU":"Херсонская область"}},{"type":"MultiPolygon","arcs":[[[145,-3,146,147,148,149,-113]]],"properties":{"GID_2":"UKR.9.18_1","GID_0":"UKR","COUNTRY":"Ukraine","GID_1":"UKR.9_1","NAME_1":"Kherson","NL_NAME_1":"Херсонська","NAME_2":"Velykooleksandrivs'kyi","VARNAME_2":"Velykooleksandriv","NL_NAME_2":"NA","TYPE_2":"Raion","ENGTYPE_2":"District","CC_2":"NA","HASC_2":"UA.KS.VO","terra_incognita":true,"NAME_1_REGION_RU":"Херсонская область"}},{"type":"MultiPolygon","arcs":[[[150,-143,151,-141,-109]]],"properties":{"GID_2":"UKR.9.19_1","GID_0":"UKR","COUNTRY":"Ukraine","GID_1":"UKR.9_1","NAME_1":"Kherson","NL_NAME_1":"Херсонська","NAME_2":"Verkhn'orohachyts'kyi","VARNAME_2":"Verhnyerogachytsk","NL_NAME_2":"NA","TYPE_2":"Raion","ENGTYPE_2":"District","CC_2":"NA","HASC_2":"UA.KS.VR","terra_incognita":true,"NAME_1_REGION_RU":"Херсонская область"}},{"type":"MultiPolygon","arcs":[[[-114,-150,152,-148,153]]],"properties":{"GID_2":"UKR.9.20_1","GID_0":"UKR","COUNTRY":"Ukraine","GID_1":"UKR.9_1","NAME_1":"Kherson","NL_NAME_1":"Херсонська","NAME_2":"Vysokopil's'kyi","VARNAME_2":"Vysokopilskyi","NL_NAME_2":"NA","TYPE_2":"Raion","ENGTYPE_2":"District","CC_2":"NA","HASC_2":"UA.KS.VY","terra_incognita":true,"NAME_1_REGION_RU":"Херсонская область"}}]}},"arcs":[[[436583,489437],[-8088,60031],[-12215,-6206],[-2231,7161]],[[414049,550423],[-4796,298],[307,13964],[-9705,-2864],[474,21005],[-19327,-2268],[224,10443],[21668,-1373],[140,6982],[2482,3342],[9733,2864],[2705,13844],[-12215,-6206],[-1841,28166],[2510,3341],[14474,-954],[7028,-10980],[7474,10025],[5131,13725],[21473,-15456],[4686,-7339]],[[466674,630982],[14669,6027],[16760,-8235],[14753,9488],[5243,17185],[-21474,15575],[2873,20886],[5075,10144],[2259,-7161],[12048,-4356],[7864,27569],[19075,-15455],[12661,23690],[4769,-3879],[2593,6863],[4769,-3879],[2650,10383],[16649,-15396],[5187,13725],[-7112,7579],[4992,6683]],[[592977,748418],[56891,-53885]],[[649868,694533],[-7697,-17066],[-20023,-26674],[-7697,-16947],[-391,-14083],[-13107,-37654],[-558,-21064]],[[600395,561045],[-2733,-10324],[-4992,-6623],[-39070,-14322],[-17681,-26614]],[[535919,503162],[-24625,-15634],[-35613,20169],[-14445,1015]],[[461236,508712],[-24653,-19275]],[[211696,356904],[2705,-3998],[-6330,3341],[3625,657]],[[217831,366332],[391,-1134],[-2259,478],[1868,656]],[[190557,400525],[474,-657],[-5661,-716],[5187,1373]],[[220062,362215],[391,-1313],[-1172,656],[781,657]],[[217831,396049],[697,-1372],[-1394,1492],[697,-120]],[[436583,489437],[-7418,-6504],[-21613,1432],[-17068,-9368],[-12438,-16649],[-12131,-6206],[-7753,-20408]],[[358162,431734],[-9509,596],[-21669,-9189],[-12215,-13367]],[[314769,409774],[-2705,-13904]],[[312064,395870],[-4713,239],[-4992,-10264]],[[302359,385845],[-11267,-6504],[-5438,298]],[[285654,379639],[-4573,7221],[-11797,596],[-21864,-23451],[-4713,239],[-2538,-6922],[-4713,298],[-2565,-6922]],[[232891,350698],[-7168,-3163],[-9677,3103],[9873,-835],[-3152,3640],[2371,1969],[-530,3819],[-9956,0],[9510,1134],[-7976,2327],[7585,2506],[-4936,478],[2622,2148],[-4964,3998],[864,8116],[4685,-2328],[-5298,5132],[4490,716],[976,5908],[-5020,14142],[-13386,8295],[-28446,-20408],[-8896,31149],[-5578,4655],[-10234,-1313],[-13888,15395],[27720,17902],[2482,6863],[363,20885],[-4518,14083],[14195,2864],[9398,-3878],[14473,20229],[112,6981],[9593,10085],[-6888,17663],[4741,-179],[9315,-14321],[18768,-14739],[7111,-299],[2427,3342],[167,10502],[-2343,3581],[2482,6922],[23844,2327],[-111,-6982],[2315,-3580],[9593,2984],[7083,-3879],[-2091,17603],[4824,3223],[196,10502],[4601,-10741],[11936,-716],[11824,-7638]],[[320374,552870],[-2509,-6863],[-502,-24406],[2314,-3640],[2454,3342],[-195,-10503],[-9565,597],[-196,-10502],[-2398,119],[-613,-27927],[-7028,3879],[-251,-10443],[4434,-14262],[-4741,239],[-4880,-6743],[-9259,10980],[139,6981],[-2286,3640],[-9482,478],[-4462,14202],[-7084,358],[-139,-6982],[-4797,-3282],[2231,-7161],[-307,-13963],[4518,-10741],[7028,-3879],[1980,-17603],[4713,-239],[-2203,7101],[7167,3163],[14111,-4177],[-418,-17544],[4741,-179],[9621,6504],[22227,33715],[21529,2149],[-2008,14142],[-6888,10920],[-1646,31507],[-7167,478],[-2147,10622],[5299,24107]],[[341709,541054],[28836,1671],[14641,9548],[24234,5430],[809,-7041],[3820,-239]],[[709911,66297],[-140,-3223],[-2315,3581],[2455,-358]],[[709911,66297],[2844,9249],[-2175,6922],[-19271,9488],[-5856,-2984],[1004,22736],[-33716,36699],[-8813,3640],[-20553,-7698],[-29896,28285]],[[593479,172634],[-2287,7161],[837,34610],[-4880,537],[502,17365],[-17263,-5192],[-307,-10383],[-4964,-2984],[-19605,-1670],[-1087,38310],[-2315,3699],[-22003,-5072],[-1534,24466]],[[518573,273481],[-38876,-3998]],[[479697,269483],[-1338,27987],[16983,2267],[-1115,35028],[48552,6505],[1199,34908]],[[543978,376178],[7251,-597],[6861,-11158],[1840,-17664],[7474,6326],[33940,298],[26911,7758],[14530,-1552],[2314,-3759],[-418,-14023]],[[644681,341807],[78142,8413]],[[722823,350220],[9565,-8294],[4100,-32582],[-474,-21303],[-47047,-22079],[2091,-14381],[-2705,-101384],[9231,-18559],[8729,-31925]],[[706313,99713],[11350,-20109],[-306,-11278],[-7446,-2029]],[[857883,151510],[84,3520],[14752,1074],[140,7221],[7306,-1134],[251,14680],[4825,-478],[195,19215],[-2287,11636],[12048,7340]],[[895197,214584],[223,18976],[2510,11338],[-2175,15097]],[[895755,259995],[-38318,1551],[334,22437],[-2286,7579],[-16872,1193],[-2482,-3520]],[[836131,289235],[557,33238]],[[836688,322473],[31458,9249]],[[868146,331722],[9788,10681],[9649,3282],[-2342,3819],[139,7340]],[[885380,356844],[24067,6504],[4435,-18498],[24039,10443],[11908,-179],[2036,-18320],[-4769,60],[4350,-21960],[14363,7220],[18629,-18080],[9537,3699],[6024,-53705],[-251,-14202],[-4769,-3820],[2677,-5549],[-15645,-16112],[-38262,-13068],[-18573,-23571],[-5661,-30493],[2231,-298],[3096,-11636],[3262,-44755],[-29282,21780],[-9844,1791],[-10040,-5013],[-2565,-2984],[-391,-10025],[3179,-30850],[-5438,-8235],[-6498,-22855],[-15003,-8116],[-781,-11994],[-4434,6325],[-7390,-2506],[-8283,-17842],[-976,24705],[-14167,7578],[-167,-3043],[-1925,9428],[7809,8295],[7111,-3819],[-5215,-5550],[4853,-477],[5410,8473],[-11992,4356],[2956,8832],[-2287,3342],[447,9488],[9705,10383],[-1674,4714],[4630,-7280],[-614,-12711],[2287,-3341],[2594,2745],[-2120,6564],[2426,-358],[3040,12471],[7474,2148],[6888,-10681],[-2928,-8891],[4713,-3402],[5689,14382],[1255,29478],[-2231,7220],[-5020,-2566],[-9370,15575],[-5103,-6087],[4043,-24704],[-4880,776],[-5159,-5848],[-26103,28285],[45150,31030]],[[145463,163802],[1952,-1850],[-2399,537],[447,1313]],[[145016,189521],[1004,-716],[-1952,358],[948,358]],[[159016,204738],[251,-836],[-1088,1015],[837,-179]],[[285654,379639],[7084,-358],[9621,6564]],[[312064,395870],[2538,6922]],[[314602,402792],[4462,-10801],[2008,-14142],[4545,-7220],[9343,-4058],[2259,-3640],[-168,-6982],[9343,-4058],[9649,6505],[4629,-3819],[-808,-28047],[15672,-29060]],[[375536,297470],[-3653,-45829]],[[371883,251641],[-18908,-2507],[279,10563],[-9314,4057],[-474,-17663],[-7140,-3162],[-195,-7042],[-28557,-9130],[-446,-17723],[4239,-21482],[1868,-28345],[-9482,-3043],[-111,-14083],[-21306,-2208],[-112,-14023],[-14223,-2625]],[[268001,123225],[-3960,-15933],[-13776,5430],[-99922,47739],[48803,-22199],[3570,8653],[-2175,12770],[1868,3282],[1785,-2506],[-1255,-2447],[2482,1134],[-2231,8652],[-5828,4476],[-7279,-4476],[1785,-5132],[-9677,16709],[-14809,4654],[-3709,5132],[921,2626],[-2008,-1969],[-2566,4833],[167,9249],[-2649,3640],[-2538,179],[530,-4117],[-6191,8951],[-4657,-6146],[-1701,6146],[-2232,-1850],[1841,-3640],[-3402,1015],[-3403,1969],[921,6802],[-2008,-5668],[-6498,1193],[-3347,4654],[2092,2984],[-3932,298],[-697,2984],[2537,-1313],[-2705,1671],[-1004,8772],[-4350,3163],[2872,-358],[-12772,3162],[613,8951],[-5494,-1671],[530,-11934],[3486,3640],[1172,-4953],[-6108,-15575],[-1785,6445],[-4880,-4296],[-1869,3998],[-3960,-1194],[2092,2328],[-1534,2327],[-4350,-9130],[-1227,7161],[-3654,-2507],[-1924,4476],[781,-3461],[-4044,-5968],[1311,6445],[-2482,10920],[-5104,1194],[1395,7280],[7446,6982],[-1562,1491],[12020,6624],[27190,2148],[-9454,-1850],[4016,-298],[20609,8593],[7976,6624],[4881,14620],[2956,-3521],[5270,2983],[1618,9130],[-5968,10622],[-2928,16231],[-4128,5311],[-5326,358],[-6582,-7638],[-4657,1969],[5354,-298],[-5187,5251],[-3569,716],[6191,-4475],[-9928,2983],[8450,-6504],[-1841,179],[-18071,13426],[-33521,15277],[-16510,-6803],[-3653,-18439],[4490,-4475],[-3932,2327],[2537,-4953],[-18740,33178],[-24932,30135],[-10318,22855],[7278,-15038],[11797,-9488],[48859,6146],[13024,-11576],[19689,-8175],[7278,2327],[-3486,7996],[7195,-4296],[-2258,-1492],[948,-6325],[23147,-12114],[7446,-1492],[864,5013],[-1171,-3700],[1924,-2626],[23705,9130],[14418,-4475],[-4407,8414],[2008,1193],[11685,-13426],[-8115,1313],[9454,-5490],[11685,537],[32852,-11100],[13637,5789],[6023,10622],[-6023,3282],[-11406,-5132],[-11853,-11756],[-2705,1134],[2705,5012],[-7641,3939],[9566,3163],[4713,-239]],[[149339,296753],[-1088,-2028],[-1004,358],[2092,1670]],[[216353,345805],[-3960,-2805],[697,3282],[3263,-477]],[[217971,344611],[390,-776],[-1534,1313],[1144,-537]],[[208991,353443],[5968,-6147],[-8227,5311],[2259,836]],[[145769,290130],[-2175,-1015],[2649,4953],[-474,-3938]],[[134865,358873],[614,-1969],[-2092,-2984],[1478,4953]],[[131072,358575],[-1868,-2328],[139,2626],[1729,-298]],[[123403,360723],[-1394,-2984],[3012,4655],[-1618,-1671]],[[169781,366869],[-6191,-9786],[-4881,1492],[11072,8294]],[[128423,179019],[-697,-1611],[-84,3162],[781,-1551]],[[134168,210884],[446,-477],[-2147,955],[1701,-478]],[[107284,228607],[-864,-1313],[223,2327],[641,-1014]],[[106280,242869],[-2565,-657],[1701,1791],[864,-1134]],[[89073,218821],[391,-836],[-1394,2029],[1003,-1193]],[[99141,220671],[474,-657],[-1004,955],[530,-298]],[[6582,278494],[1450,-43920],[6832,-16052],[9454,-10144],[8283,-3282],[13637,2804],[781,-3341],[-10765,-5132],[56835,-22198],[51593,-13427],[-56138,13904],[-62218,26733],[-12773,14083],[-10764,22676],[-2789,23869],[2928,13248],[3654,179]],[[61967,222819],[1701,-2148],[-2650,835],[949,1313]],[[68464,240900],[698,1312],[-530,-2506],[-168,1194]],[[72508,247344],[-1729,-1133],[2426,2923],[-697,-1790]],[[61660,311493],[10067,-22557],[-3095,1015],[2091,-5788],[1534,1969],[1478,-4476],[-5103,3342],[-6972,26495]],[[59094,314775],[1088,-1790],[-1785,2327],[697,-537]],[[110157,373314],[139,-1015],[-697,1373],[558,-358]],[[13553,402017],[614,-3163],[-1088,1014],[474,2149]],[[649868,694533],[4295,-21601],[35111,-41891]],[[689274,631041],[15310,30791],[18852,-15813],[2315,-3759],[-15394,-34372],[-168,-7101]],[[710189,600787],[47075,-43382]],[[757264,557405],[3737,-43323],[-26716,-4714],[278,10682],[-7223,716],[-17067,-5550],[-390,-14202],[-4825,477],[-390,-14202]],[[704668,487289],[-72983,-13784]],[[631685,473505],[-5995,42905],[-9622,895],[-4016,28583],[4825,-418],[84,3521],[-14362,4774],[-2204,7280]],[[868146,331722],[-24235,-9787],[-7223,538]],[[836688,322473],[279,14739]],[[836967,337212],[-2370,3819],[-14474,1134],[2287,-7519],[-19466,-1611],[-279,-14501],[-12159,1492],[-1840,29180],[-7223,4416],[-2594,-6863],[-9733,1194],[-1617,36162],[-9705,1133],[167,7102],[-7279,835],[-6274,40100],[558,21423]],[[744966,454708],[36672,14441],[-1980,18140],[50783,7400],[-4573,11099],[4824,-239],[251,10801],[-2258,7399],[26521,2149],[-502,-21662],[2398,-119],[26577,5967],[168,7221],[26549,6086]],[[910396,523391],[3988,-36341],[-4881,-3461],[2231,-7339],[-12215,-10383],[-16844,-2924],[2231,-7400],[-7278,-3282],[-224,-10920],[4574,-11159],[9677,3282],[-2538,-7220],[19215,2924],[2315,-3760],[1589,-40160],[-12019,-3282],[2035,-18379],[-16872,-6743]],[[631685,473505],[80206,13068]],[[711891,486573],[3095,-64387]],[[714986,422186],[4657,-7578],[-24401,-4357],[2231,-7339],[-4936,-2924],[2314,-3819],[1729,-25003],[2538,3282],[2315,-3819],[-3096,-24407]],[[698337,346222],[-53656,-4415]],[[543978,376178],[-3876,28404],[-36366,-4057],[-1701,21184],[-4378,14321]],[[497657,436030],[2621,6803],[12159,2566],[224,6982],[14892,12829],[4796,-358],[-195,-6982]],[[532154,457870],[9844,6206]],[[541998,464076],[-1980,14203],[2510,3282],[2315,-3700],[5131,10085],[-7250,596],[-2092,10741],[-4825,358],[112,3521]],[[506079,104308],[-1701,-656],[139,656],[1562,0]],[[468737,111409],[5411,-8772],[-5020,5610],[-391,3162]],[[568659,135458],[-1227,-1313],[307,1492],[920,-179]],[[470606,171261],[-3096,95537]],[[467510,266798],[51063,6683]],[[593479,172634],[-2538,-3163],[-2426,239],[2092,-13904],[-1506,-31030],[-3319,18618],[-6581,10622],[-4267,-2984],[-1618,-9607],[-6051,-1134],[-1618,-10144],[-8227,1312],[1785,-13903],[14028,-13606],[-14809,3998],[-5326,-5132],[-781,-12292],[6442,-14262],[-7446,1671],[-6665,11099],[-10765,-5609],[-920,-3819],[2538,-2686],[-2873,179],[-15338,26674],[1478,8653],[-7502,4117],[-3737,10980],[-5103,-6325],[-1478,-14560],[2259,-2208],[-6498,-1433],[-2873,3103],[-557,10264],[6442,-2267],[2705,10263],[-2092,7937],[-6051,6325],[-9510,3282],[-7976,-3461],[-3402,-3341],[753,-13069],[-3710,4297],[3180,18916],[5103,5967],[-6358,11577],[5438,24883],[-7195,-16410]],[[320374,552870],[12048,2745],[9287,-14561]],[[448881,499045],[12355,9667]],[[541998,464076],[-2509,-3341],[-7335,-2865]],[[497657,436030],[-9844,-6266],[-1980,14143],[-12132,-2566],[2064,-10681],[-4908,-3163],[2175,-7101],[-9733,-2805],[-9175,14620],[7558,9965],[-2315,3700],[5020,6624],[2203,-7161],[7530,9965],[-2176,7161]],[[471944,462465],[-9537,4177],[-1785,21125]],[[460622,487767],[-4797,298],[-6944,10980]],[[722823,350220],[-24486,-3998]],[[714986,422186],[307,10681]],[[715293,432867],[14613,1970]],[[729906,434837],[-1952,18021],[4908,3103],[279,10681],[9677,-1014],[2148,-10920]],[[836967,337212],[-836,-47977]],[[895755,259995],[2231,-11338],[-2789,-34073]],[[857883,151510],[-44843,-31508],[-27414,-44396],[-32712,596],[-39266,11935],[-7335,11576]],[[700987,911027],[-1897,-81633],[-5159,-13904]],[[693931,815490],[-2928,-21064],[-7753,-20826],[-15171,-27271],[-12410,-13247]],[[655669,733082],[-5801,-38549]],[[649868,694533],[-52122,50006]],[[597746,744539],[17765,33954],[-16817,8295],[2510,3341],[-16705,15336],[84,3521],[-2649,-10383],[-14446,8115],[-7558,-13545],[-4657,10860],[5159,13725]],[[560432,817758],[7223,-3998],[10151,20408],[-7167,7578],[10319,27510],[-7112,11039],[5020,6743],[12159,-835],[4936,3222],[168,7041],[2482,3342],[4880,-298]],[[603491,899510],[-6749,28702],[34218,4894],[41693,15157],[9398,-14799],[4629,-10920],[-167,-7102],[4713,-7399],[9761,2984]],[[757264,557405],[-2315,3819]],[[754949,561224],[38067,76262],[-2231,7340],[2677,10621]],[[793462,655447],[17346,20528],[-2119,10860]],[[808689,686835],[36087,1671],[2482,3461],[2314,-3699],[4156,-25361],[-279,-10742],[4434,-14619],[4880,3341],[-446,-17961],[7195,-358],[2315,-3700],[-251,-10741],[11992,-597],[2314,-3700],[-195,-7160],[16984,6444],[6414,-32700],[-363,-14441],[16621,-7877],[1897,-21781],[-167,-7220],[-9650,-3222],[-4796,179],[-2231,7339]],[[729906,434837],[-9788,-2507],[-4825,537]],[[715293,432867],[-3402,53706]],[[711891,486573],[-7223,716]],[[289335,100131],[65369,-23213],[8450,-119],[-1394,3819],[3319,4774],[12549,9786],[3793,-4833],[-3235,-4953],[1701,-4117],[4016,2983],[-1869,4297],[9008,-7937],[6024,1134],[2091,5132],[8311,-9608],[16956,-1312],[13386,-9130],[-17876,-3819],[-39210,5131],[-91389,31985]],[[426209,126686],[306,-836],[-1171,-179],[865,1015]],[[371883,251641],[3793,-35506]],[[375676,216135],[11824,2865],[-334,-14083],[2259,-3700]],[[389425,201217],[11712,-597],[84,3521],[11741,-597]],[[412962,203544],[83,3521],[11825,2924],[-3207,49409]],[[421663,259398],[45847,7400]],[[467510,266798],[3709,-84199],[-613,-11338]],[[470606,171261],[-3124,3998],[-753,-5012],[3180,-7459],[-3347,-10920],[-13470,-18559],[-14641,6147],[-4490,11397],[-10235,1194],[-2621,-2328],[2315,-7996],[-4183,-9905],[697,-4297],[4713,-835],[-1924,-1492],[-33075,-3998],[-9371,7936],[-13246,-4296],[-16287,7161],[-9984,-8832],[-16202,-4953],[-8283,4177],[-13330,-5490],[-14390,-9488],[-2008,-5907],[1310,-3521],[-23621,9309],[1311,2088],[2454,13845]],[[436583,489437],[12298,9608]],[[460622,487767],[-307,-10503],[4406,-14321],[7223,-478]],[[479697,269483],[-58034,-10085]],[[412962,203544],[-23537,-2327]],[[375676,216135],[-1645,28345],[-2231,3640],[3736,49350]],[[314602,402792],[167,6982]],[[314769,409774],[17039,16589],[26354,5371]],[[754949,561224],[-44760,39563]],[[689274,631041],[-32796,38191],[-4546,10980],[-1980,17842],[5717,35028]],[[693931,815490],[7000,-11099],[9649,-656],[-251,-10682],[14529,2626],[2343,-3760],[167,7161],[19354,2327],[1228,-46485],[2314,-3699],[-5075,-10384],[11740,-11457]],[[756929,729382],[-5075,-10443],[32852,-30731]],[[784706,688208],[-112,-3580]],[[784594,684628],[24095,2207]],[[808689,686835],[2231,-7280],[-17458,-24108]],[[597746,744539],[-4769,3879]],[[466674,630982],[-54688,49110],[-16566,22079],[224,14024],[20107,40816],[4880,-299],[-195,-10502],[4796,-3819],[9956,13426],[5104,13725],[12075,-4296],[-2175,14142],[17179,9488],[-14279,18439],[-9314,25182],[2538,6862],[7362,3044],[335,21064],[-2204,14143],[-24485,-5550],[-4323,38788],[7419,6623],[223,14023],[4880,-298],[1813,-42189],[24541,9071]],[[461877,898078],[2231,-14143],[39126,4595],[-251,-14083]],[[502983,874447],[7335,-477],[7362,3043]],[[517680,877013],[2622,10383],[2454,-119],[-140,-7042],[2371,-3699],[26326,-26435],[-5131,-13725],[-140,-7042],[7307,-477],[7083,-11099]],[[700987,911027],[34190,12173],[14083,-18618],[7139,-3938],[6972,-11100],[2148,-10800],[4741,-3819],[-2873,-17664],[12884,-61403],[7502,10323],[4797,-298],[4601,-7399],[7502,10323],[4797,-239],[474,17842],[4880,3282],[4713,-3819],[12104,2984],[2203,-7280],[-4797,239],[1813,-21542],[2314,-3700],[4909,3342],[2287,-3700],[1924,-18021],[2398,-120],[-84,-3580],[-14390,716],[6359,-32522],[1645,-28762],[4434,-14560],[-279,-10741],[-57783,-3998]],[[784706,688208],[-30565,27032],[-2204,7280],[4992,6862]],[[517680,877013],[-14697,-2566]],[[461877,898078],[-7362,-3044],[306,21065],[-4601,17782],[139,10563],[7446,6564],[-2175,17722],[-2398,3640],[-9928,-10025],[-2259,14143],[195,14023],[26772,-11935],[14725,2626],[-5048,-10264],[-167,-10502],[17179,2506],[2147,-17723],[9538,-14679],[4880,-299],[7697,20647],[19605,2268],[5076,10263],[4880,-358],[2566,6923],[-4574,17901],[2510,3402],[29533,8712],[7000,-18081],[-5020,-6743],[-530,-28225],[2371,-3700],[12271,2745],[8840,-46485]]],"bbox":[31.5113,45.9012,35.0971,47.577],"transform":{"scale":[0.000003585803585803585,0.0000016758016758016709],"translate":[31.5113,45.9012]}}