{"type":"Topology","objects":{"muni":{"type":"GeometryCollection","geometries":[{"type":"MultiPolygon","arcs":[[[0,1,2]]],"properties":{"GID_2":"RUS.31.1_1","GID_0":"RUS","COUNTRY":"Russia","GID_1":"RUS.31_1","NAME_1":"Kirov","NL_NAME_1":"Кировскаяобласть","NAME_2":"Afanas'evskiyrayon","VARNAME_2":"NA","NL_NAME_2":"Афанасьевскийрайон","TYPE_2":"Raion","ENGTYPE_2":"District","CC_2":"R24000","HASC_2":"RU.KV.AF"}},{"type":"MultiPolygon","arcs":[[[3,4,5,6,7,8,9]]],"properties":{"GID_2":"RUS.31.2_1","GID_0":"RUS","COUNTRY":"Russia","GID_1":"RUS.31_1","NAME_1":"Kirov","NL_NAME_1":"Кировскаяобласть","NAME_2":"Arbazhskiyrayon","VARNAME_2":"NA","NL_NAME_2":"Арбажскийрайон","TYPE_2":"Raion","ENGTYPE_2":"District","CC_2":"R24000","HASC_2":"RU.KV.AR"}},{"type":"MultiPolygon","arcs":[[[10,11,12,13,14,15,16,17,18,19,20,21,22,23,24,25,26]]],"properties":{"GID_2":"RUS.31.3_1","GID_0":"RUS","COUNTRY":"Russia","GID_1":"RUS.31_1","NAME_1":"Kirov","NL_NAME_1":"Кировскаяобласть","NAME_2":"Belokholunitskiyrayon","VARNAME_2":"NA","NL_NAME_2":"Белохолуницкийрайон","TYPE_2":"Raion","ENGTYPE_2":"District","CC_2":"R24000","HASC_2":"RU.KV.BE"}},{"type":"MultiPolygon","arcs":[[[27,28,29,30,31,32,33,34,35]]],"properties":{"GID_2":"RUS.31.4_1","GID_0":"RUS","COUNTRY":"Russia","GID_1":"RUS.31_1","NAME_1":"Kirov","NL_NAME_1":"Кировскаяобласть","NAME_2":"Bogorodskiyrayon","VARNAME_2":"NA","NL_NAME_2":"Богородскийрайон","TYPE_2":"Raion","ENGTYPE_2":"District","CC_2":"R24000","HASC_2":"RU.KV.BO"}},{"type":"MultiPolygon","arcs":[[[36,37,38,39,40,41,42,43,44,45,46]]],"properties":{"GID_2":"RUS.31.5_1","GID_0":"RUS","COUNTRY":"Russia","GID_1":"RUS.31_1","NAME_1":"Kirov","NL_NAME_1":"Кировскаяобласть","NAME_2":"Darovskiyrayon","VARNAME_2":"NA","NL_NAME_2":"Даровскийрайон","TYPE_2":"Raion","ENGTYPE_2":"District","CC_2":"R24000","HASC_2":"RU.KV.DA"}},{"type":"MultiPolygon","arcs":[[[47,-11,48,49,50,51,52,-34,53]]],"properties":{"GID_2":"RUS.31.6_1","GID_0":"RUS","COUNTRY":"Russia","GID_1":"RUS.31_1","NAME_1":"Kirov","NL_NAME_1":"Кировскаяобласть","NAME_2":"Falenskiyrayon","VARNAME_2":"NA","NL_NAME_2":"Фаленскийрайон","TYPE_2":"Raion","ENGTYPE_2":"District","CC_2":"R24003","HASC_2":"RU.KV.FA"}},{"type":"MultiPolygon","arcs":[[[54,55,56,57]]],"properties":{"GID_2":"RUS.31.7_1","GID_0":"RUS","COUNTRY":"Russia","GID_1":"RUS.31_1","NAME_1":"Kirov","NL_NAME_1":"Кировскаяобласть","NAME_2":"Kiknurskiyrayon","VARNAME_2":"NA","NL_NAME_2":"Кикнурскийрайон","TYPE_2":"Raion","ENGTYPE_2":"District","CC_2":"R24001","HASC_2":"RU.KV.KK"}},{"type":"MultiPolygon","arcs":[[[58,59,60,61,62,63,64,65]]],"properties":{"GID_2":"RUS.31.8_1","GID_0":"RUS","COUNTRY":"Russia","GID_1":"RUS.31_1","NAME_1":"Kirov","NL_NAME_1":"Кировскаяобласть","NAME_2":"Kil'mezskiyrayon","VARNAME_2":"NA","NL_NAME_2":"Кильмезскийрайон","TYPE_2":"Raion","ENGTYPE_2":"District","CC_2":"R24001","HASC_2":"RU.KV.KZ"}},{"type":"MultiPolygon","arcs":[[[66,67,68,69,70]]],"properties":{"GID_2":"RUS.31.9_1","GID_0":"RUS","COUNTRY":"Russia","GID_1":"RUS.31_1","NAME_1":"Kirov","NL_NAME_1":"Кировскаяобласть","NAME_2":"Kirovgorsovet","VARNAME_2":"NA","NL_NAME_2":"Киров(горсовет)","TYPE_2":"Gorsovet","ENGTYPE_2":"District","CC_2":"R24000","HASC_2":"RU.KV.KV"}},{"type":"MultiPolygon","arcs":[[[71]]],"properties":{"GID_2":"RUS.31.10_1","GID_0":"RUS","COUNTRY":"Russia","GID_1":"RUS.31_1","NAME_1":"Kirov","NL_NAME_1":"Кировскаяобласть","NAME_2":"Kirovo-Chepetsk","VARNAME_2":"NA","NL_NAME_2":"Кирово-Чепецк","TYPE_2":"Gorod","ENGTYPE_2":"City","CC_2":"NA","HASC_2":"RU.KV.KI"}},{"type":"MultiPolygon","arcs":[[[72,-67,73,74,75,76,77,78,79,80,81,82,83,84,85],[-72]]],"properties":{"GID_2":"RUS.31.11_1","GID_0":"RUS","COUNTRY":"Russia","GID_1":"RUS.31_1","NAME_1":"Kirov","NL_NAME_1":"Кировскаяобласть","NAME_2":"Kirovo-Chepetskiyrayon","VARNAME_2":"NA","NL_NAME_2":"Кирово-Чепецкийрайон","TYPE_2":"Raion","ENGTYPE_2":"District","CC_2":"R24001","HASC_2":"RU.KV.KC"}},{"type":"MultiPolygon","arcs":[[[86]]],"properties":{"GID_2":"RUS.31.12_1","GID_0":"RUS","COUNTRY":"Russia","GID_1":"RUS.31_1","NAME_1":"Kirov","NL_NAME_1":"Кировскаяобласть","NAME_2":"Kotel'nich","VARNAME_2":"NA","NL_NAME_2":"Котельнич","TYPE_2":"Gorod","ENGTYPE_2":"City","CC_2":"NA","HASC_2":"RU.KV.KT"}},{"type":"MultiPolygon","arcs":[[[-5,87,88,89,-39,90,-37,91,92,93,94],[-87]]],"properties":{"GID_2":"RUS.31.13_1","GID_0":"RUS","COUNTRY":"Russia","GID_1":"RUS.31_1","NAME_1":"Kirov","NL_NAME_1":"Кировскаяобласть","NAME_2":"Kotel'nichskiyrayon","VARNAME_2":"NA","NL_NAME_2":"Котельничскийрайон","TYPE_2":"Raion","ENGTYPE_2":"District","CC_2":"R24001","HASC_2":"RU.KV.KO"}},{"type":"MultiPolygon","arcs":[[[-31,95,96,97,98,99,-79,100,101]]],"properties":{"GID_2":"RUS.31.14_1","GID_0":"RUS","COUNTRY":"Russia","GID_1":"RUS.31_1","NAME_1":"Kirov","NL_NAME_1":"Кировскаяобласть","NAME_2":"Kumenskiyrayon","VARNAME_2":"NA","NL_NAME_2":"Куменскийрайон","TYPE_2":"Raion","ENGTYPE_2":"District","CC_2":"R24001","HASC_2":"RU.KV.KU"}},{"type":"MultiPolygon","arcs":[[[102,103,104,105,106,107,108]]],"properties":{"GID_2":"RUS.31.15_1","GID_0":"RUS","COUNTRY":"Russia","GID_1":"RUS.31_1","NAME_1":"Kirov","NL_NAME_1":"Кировскаяобласть","NAME_2":"Lebyazhskiyrayon","VARNAME_2":"NA","NL_NAME_2":"Лебяжскийрайон","TYPE_2":"Raion","ENGTYPE_2":"District","CC_2":"R24001","HASC_2":"RU.KV.LE"}},{"type":"MultiPolygon","arcs":[[[109,110,111,112]]],"properties":{"GID_2":"RUS.31.16_1","GID_0":"RUS","COUNTRY":"Russia","GID_1":"RUS.31_1","NAME_1":"Kirov","NL_NAME_1":"Кировскаяобласть","NAME_2":"Luzskiyrayon","VARNAME_2":"NA","NL_NAME_2":"Лузскийрайон","TYPE_2":"Raion","ENGTYPE_2":"District","CC_2":"R24001","HASC_2":"RU.KV.LU"}},{"type":"MultiPolygon","arcs":[[[-66,113,114,115,116,117,118]]],"properties":{"GID_2":"RUS.31.17_1","GID_0":"RUS","COUNTRY":"Russia","GID_1":"RUS.31_1","NAME_1":"Kirov","NL_NAME_1":"Кировскаяобласть","NAME_2":"Malmyzhskiyrayon","VARNAME_2":"NA","NL_NAME_2":"Малмыжскийрайон","TYPE_2":"Raion","ENGTYPE_2":"District","CC_2":"R24001","HASC_2":"RU.KV.MA"}},{"type":"MultiPolygon","arcs":[[[119,-45,120,121,122,123,124]]],"properties":{"GID_2":"RUS.31.18_1","GID_0":"RUS","COUNTRY":"Russia","GID_1":"RUS.31_1","NAME_1":"Kirov","NL_NAME_1":"Кировскаяобласть","NAME_2":"Murashinskiyrayon","VARNAME_2":"NA","NL_NAME_2":"Мурашинскийрайон","TYPE_2":"Raion","ENGTYPE_2":"District","CC_2":"R24001","HASC_2":"RU.KV.MU"}},{"type":"MultiPolygon","arcs":[[[-18,125,126,127,128,129,130]]],"properties":{"GID_2":"RUS.31.19_1","GID_0":"RUS","COUNTRY":"Russia","GID_1":"RUS.31_1","NAME_1":"Kirov","NL_NAME_1":"Кировскаяобласть","NAME_2":"Nagorskiyrayon","VARNAME_2":"NA","NL_NAME_2":"Нагорскийрайон","TYPE_2":"Raion","ENGTYPE_2":"District","CC_2":"R24002","HASC_2":"RU.KV.NA"}},{"type":"MultiPolygon","arcs":[[[-28,131,132,-62,133,134,135,136,137]]],"properties":{"GID_2":"RUS.31.20_1","GID_0":"RUS","COUNTRY":"Russia","GID_1":"RUS.31_1","NAME_1":"Kirov","NL_NAME_1":"Кировскаяобласть","NAME_2":"Nemskiyrayon","VARNAME_2":"NA","NL_NAME_2":"Немскийрайон","TYPE_2":"Raion","ENGTYPE_2":"District","CC_2":"R24002","HASC_2":"RU.KV.NE"}},{"type":"MultiPolygon","arcs":[[[-105,138,-103,139,140,141,142,143,144,-137,145,146]]],"properties":{"GID_2":"RUS.31.21_1","GID_0":"RUS","COUNTRY":"Russia","GID_1":"RUS.31_1","NAME_1":"Kirov","NL_NAME_1":"Кировскаяобласть","NAME_2":"Nolinskiyrayon","VARNAME_2":"NA","NL_NAME_2":"Нолинскийрайон","TYPE_2":"Raion","ENGTYPE_2":"District","CC_2":"R24002","HASC_2":"RU.KV.NO"}},{"type":"MultiPolygon","arcs":[[[-1,147,-50,148,-26,149,-24,150,-22,151,152,153]]],"properties":{"GID_2":"RUS.31.22_1","GID_0":"RUS","COUNTRY":"Russia","GID_1":"RUS.31_1","NAME_1":"Kirov","NL_NAME_1":"Кировскаяобласть","NAME_2":"Omutninskiyrayon","VARNAME_2":"NA","NL_NAME_2":"Омутнинскийрайон","TYPE_2":"Raion","ENGTYPE_2":"District","CC_2":"R24002","HASC_2":"RU.KV.OM"}},{"type":"MultiPolygon","arcs":[[[-44,154,155,156,157,-110,158,-121]]],"properties":{"GID_2":"RUS.31.23_1","GID_0":"RUS","COUNTRY":"Russia","GID_1":"RUS.31_1","NAME_1":"Kirov","NL_NAME_1":"Кировскаяобласть","NAME_2":"Oparinskiyrayon","VARNAME_2":"NA","NL_NAME_2":"Опаринскийрайон","TYPE_2":"Raion","ENGTYPE_2":"District","CC_2":"R24002","HASC_2":"RU.KV.OP"}},{"type":"MultiPolygon","arcs":[[[-81,159,160,161,162,-94,163,164,165,166,167]]],"properties":{"GID_2":"RUS.31.24_1","GID_0":"RUS","COUNTRY":"Russia","GID_1":"RUS.31_1","NAME_1":"Kirov","NL_NAME_1":"Кировскаяобласть","NAME_2":"Orichevskiyrayon","VARNAME_2":"NA","NL_NAME_2":"Оричевскийрайон","TYPE_2":"Raion","ENGTYPE_2":"District","CC_2":"R24002","HASC_2":"RU.KV.OR"}},{"type":"MultiPolygon","arcs":[[[-47,168,-125,169,170,171,-82,-168,172,173,-165,174,-92]]],"properties":{"GID_2":"RUS.31.25_1","GID_0":"RUS","COUNTRY":"Russia","GID_1":"RUS.31_1","NAME_1":"Kirov","NL_NAME_1":"Кировскаяобласть","NAME_2":"Orlovskiyrayon","VARNAME_2":"Khalturinskiy","NL_NAME_2":"Орловскийрайон","TYPE_2":"Raion","ENGTYPE_2":"District","CC_2":"R24003","HASC_2":"RU.KV.OL"}},{"type":"MultiPolygon","arcs":[[[-8,175,176,177,178,179,180]]],"properties":{"GID_2":"RUS.31.26_1","GID_0":"RUS","COUNTRY":"Russia","GID_1":"RUS.31_1","NAME_1":"Kirov","NL_NAME_1":"Кировскаяобласть","NAME_2":"Pizhanskiyrayon","VARNAME_2":"NA","NL_NAME_2":"Пижанскийрайон","TYPE_2":"Raion","ENGTYPE_2":"District","CC_2":"R24002","HASC_2":"RU.KV.PI"}},{"type":"MultiPolygon","arcs":[[[-112,181,-158,182,-156,183]]],"properties":{"GID_2":"RUS.31.27_1","GID_0":"RUS","COUNTRY":"Russia","GID_1":"RUS.31_1","NAME_1":"Kirov","NL_NAME_1":"Кировскаяобласть","NAME_2":"Podosinovskiyrayon","VARNAME_2":"NA","NL_NAME_2":"Подосиновскийрайон","TYPE_2":"Raion","ENGTYPE_2":"District","CC_2":"R24002","HASC_2":"RU.KV.PO"}},{"type":"MultiPolygon","arcs":[[[-55,184,185]]],"properties":{"GID_2":"RUS.31.28_1","GID_0":"RUS","COUNTRY":"Russia","GID_1":"RUS.31_1","NAME_1":"Kirov","NL_NAME_1":"Кировскаяобласть","NAME_2":"Sanchurskiyrayon","VARNAME_2":"NA","NL_NAME_2":"Санчурскийрайон","TYPE_2":"Raion","ENGTYPE_2":"District","CC_2":"R24002","HASC_2":"RU.KV.SA"}},{"type":"MultiPolygon","arcs":[[[-42,186,187,188]]],"properties":{"GID_2":"RUS.31.29_1","GID_0":"RUS","COUNTRY":"Russia","GID_1":"RUS.31_1","NAME_1":"Kirov","NL_NAME_1":"Кировскаяобласть","NAME_2":"Shabalinskiyrayon","VARNAME_2":"NA","NL_NAME_2":"Шабалинскийрайон","TYPE_2":"Raion","ENGTYPE_2":"District","CC_2":"R24003","HASC_2":"RU.KV.SH"}},{"type":"MultiPolygon","arcs":[[[-16,189,-14,190,191,-76,192,-74,-71,193,-69,194,-86,195,196,-127,197]]],"properties":{"GID_2":"RUS.31.30_1","GID_0":"RUS","COUNTRY":"Russia","GID_1":"RUS.31_1","NAME_1":"Kirov","NL_NAME_1":"Кировскаяобласть","NAME_2":"Slobodskoyrayon","VARNAME_2":"NA","NL_NAME_2":"Слободскойрайон","TYPE_2":"Raion","ENGTYPE_2":"District","CC_2":"R24003","HASC_2":"RU.KV.SG"}},{"type":"MultiPolygon","arcs":[[[-7,198,199,-141,200,-108,201,-176]]],"properties":{"GID_2":"RUS.31.31_1","GID_0":"RUS","COUNTRY":"Russia","GID_1":"RUS.31_1","NAME_1":"Kirov","NL_NAME_1":"Кировскаяобласть","NAME_2":"Sovetskiyrayon","VARNAME_2":"NA","NL_NAME_2":"Советскийрайон","TYPE_2":"Raion","ENGTYPE_2":"District","CC_2":"R24003","HASC_2":"RU.KV.SO"}},{"type":"MultiPolygon","arcs":[[[-30,202,-145,203,-143,-98,204,-96]]],"properties":{"GID_2":"RUS.31.32_1","GID_0":"RUS","COUNTRY":"Russia","GID_1":"RUS.31_1","NAME_1":"Kirov","NL_NAME_1":"Кировскаяобласть","NAME_2":"Sunskiyrayon","VARNAME_2":"NA","NL_NAME_2":"Сунскийрайон","TYPE_2":"Raion","ENGTYPE_2":"District","CC_2":"R24003","HASC_2":"RU.KV.SU"}},{"type":"MultiPolygon","arcs":[[[-40,-90,205,-188,206]]],"properties":{"GID_2":"RUS.31.33_1","GID_0":"RUS","COUNTRY":"Russia","GID_1":"RUS.31_1","NAME_1":"Kirov","NL_NAME_1":"Кировскаяобласть","NAME_2":"Svechinskiyrayon","VARNAME_2":"NA","NL_NAME_2":"Свечинскийрайон","TYPE_2":"Raion","ENGTYPE_2":"District","CC_2":"R24002","HASC_2":"RU.KV.SV"}},{"type":"MultiPolygon","arcs":[[[-10,207,-180,208,209,-57,210]]],"properties":{"GID_2":"RUS.31.34_1","GID_0":"RUS","COUNTRY":"Russia","GID_1":"RUS.31_1","NAME_1":"Kirov","NL_NAME_1":"Кировскаяобласть","NAME_2":"Tuzhinskiyrayon","VARNAME_2":"NA","NL_NAME_2":"Тужинскийрайон","TYPE_2":"Raion","ENGTYPE_2":"District","CC_2":"R24003","HASC_2":"RU.KV.TU"}},{"type":"MultiPolygon","arcs":[[[-36,211,-52,212,-64,213,-132]]],"properties":{"GID_2":"RUS.31.35_1","GID_0":"RUS","COUNTRY":"Russia","GID_1":"RUS.31_1","NAME_1":"Kirov","NL_NAME_1":"Кировскаяобласть","NAME_2":"Uninskiyrayon","VARNAME_2":"NA","NL_NAME_2":"Унинскийрайон","TYPE_2":"Raion","ENGTYPE_2":"District","CC_2":"R24003","HASC_2":"RU.KV.UN"}},{"type":"MultiPolygon","arcs":[[[214,-60,215,-118,216,-106,-147,217,-135]]],"properties":{"GID_2":"RUS.31.36_1","GID_0":"RUS","COUNTRY":"Russia","GID_1":"RUS.31_1","NAME_1":"Kirov","NL_NAME_1":"Кировскаяобласть","NAME_2":"Urzhumskiyrayon","VARNAME_2":"NA","NL_NAME_2":"Уржумскийрайон","TYPE_2":"Raion","ENGTYPE_2":"District","CC_2":"R24003","HASC_2":"RU.KV.UR"}},{"type":"MultiPolygon","arcs":[[[-2,-154,218,-152,-21,219,-19,-131,220,-129,221]]],"properties":{"GID_2":"RUS.31.37_1","GID_0":"RUS","COUNTRY":"Russia","GID_1":"RUS.31_1","NAME_1":"Kirov","NL_NAME_1":"Кировскаяобласть","NAME_2":"Verkhnekamskiyrayon","VARNAME_2":"NA","NL_NAME_2":"Верхнекамскийрайон","TYPE_2":"Raion","ENGTYPE_2":"District","CC_2":"R24000","HASC_2":"RU.KV.VK"}},{"type":"MultiPolygon","arcs":[[[-6,-95,-163,222,-161,-99,-142,-200,223]]],"properties":{"GID_2":"RUS.31.38_1","GID_0":"RUS","COUNTRY":"Russia","GID_1":"RUS.31_1","NAME_1":"Kirov","NL_NAME_1":"Кировскаяобласть","NAME_2":"Verkhoshizhemskiyrayon","VARNAME_2":"NA","NL_NAME_2":"Верхошижемскийрайон","TYPE_2":"Raion","ENGTYPE_2":"District","CC_2":"R24000","HASC_2":"RU.KV.VS"}},{"type":"MultiPolygon","arcs":[[[224]]],"properties":{"GID_2":"RUS.31.39_1","GID_0":"RUS","COUNTRY":"Russia","GID_1":"RUS.31_1","NAME_1":"Kirov","NL_NAME_1":"Кировскаяобласть","NAME_2":"VyatskiePolyany","VARNAME_2":"VyatskiyePolyany","NL_NAME_2":"ВятскиеПоляны","TYPE_2":"Gorod","ENGTYPE_2":"City","CC_2":"NA","HASC_2":"RU.KV.VG"}},{"type":"MultiPolygon","arcs":[[[225,-115,226],[-225]]],"properties":{"GID_2":"RUS.31.40_1","GID_0":"RUS","COUNTRY":"Russia","GID_1":"RUS.31_1","NAME_1":"Kirov","NL_NAME_1":"Кировскаяобласть","NAME_2":"Vyatsko-Polyanskiyrayon","VARNAME_2":"NA","NL_NAME_2":"Вятско-Полянскийрайон","TYPE_2":"Raion","ENGTYPE_2":"District","CC_2":"R24000","HASC_2":"RU.KV.VR"}},{"type":"MultiPolygon","arcs":[[[-58,-210,227,-178,228,-185]]],"properties":{"GID_2":"RUS.31.41_1","GID_0":"RUS","COUNTRY":"Russia","GID_1":"RUS.31_1","NAME_1":"Kirov","NL_NAME_1":"Кировскаяобласть","NAME_2":"Yaranskiyrayon","VARNAME_2":"NA","NL_NAME_2":"Яранскийрайон","TYPE_2":"Raion","ENGTYPE_2":"District","CC_2":"R24004","HASC_2":"RU.KV.YA"}},{"type":"MultiPolygon","arcs":[[[-85,229,-83,230,-171,231,-123,232,-196]]],"properties":{"GID_2":"RUS.31.42_1","GID_0":"RUS","COUNTRY":"Russia","GID_1":"RUS.31_1","NAME_1":"Kirov","NL_NAME_1":"Кировскаяобласть","NAME_2":"Yur'yanovskiyrayon","VARNAME_2":"NA","NL_NAME_2":"Юрьяновскийрайон","TYPE_2":"Raion","ENGTYPE_2":"District","CC_2":"R24003","HASC_2":"RU.KV.YU"}},{"type":"MultiPolygon","arcs":[[[-13,233,-54,-33,234,-101,-78,-191]]],"properties":{"GID_2":"RUS.31.43_1","GID_0":"RUS","COUNTRY":"Russia","GID_1":"RUS.31_1","NAME_1":"Kirov","NL_NAME_1":"Кировскаяобласть","NAME_2":"Zuevskiyrayon","VARNAME_2":"NA","NL_NAME_2":"Зуевскийрайон","TYPE_2":"Raion","ENGTYPE_2":"District","CC_2":"R24001","HASC_2":"RU.KV.ZU"}}]}},"arcs":[[[881244,487981],[-16957,1768],[-6225,4603],[-7495,8341],[-6687,11938],[-4679,15757],[4784,17847],[3807,8803],[6516,5165],[3793,6592],[12636,12883],[964,5849],[-3026,9526],[1956,7637],[-27,7095],[2274,2733],[18319,2432],[145,2914],[-3450,4321],[-9119,4121],[-21267,2029],[-19204,-482],[-9675,4000]],[[828627,633853],[3186,12279],[118,9607],[-4388,12542],[-370,6049],[8816,2512],[61829,-6190],[22535,1005]],[[920353,671657],[-3383,-6974],[-7693,-8723],[17500,-35272],[6053,-5607],[15993,-161],[20935,-9345],[8420,3477],[4560,-885],[8036,-5286],[700,-5205],[-9622,-8019],[-1930,-5004],[5763,-29364],[12596,-10812],[1718,-3900],[-18914,-8320],[-3753,-9044],[5670,-7718],[-4097,-6431],[779,-9929],[4362,-18510],[-13957,-1387],[-6675,-6190],[-8829,2834],[-10428,-4844],[-4692,4542],[-5432,-1628],[-1586,-7657],[-20156,1126],[-15557,24037],[-15490,-3477]],[[204983,355273],[18186,-2673]],[[223169,352600],[4415,2171],[6820,9205],[6013,5527],[7164,1145],[12464,-6732],[19019,-2432],[6661,944],[2948,3698],[2762,12702]],[[291435,378828],[7217,-9225],[18940,-13305]],[[317592,356298],[2048,-7054],[-370,-19957],[-4943,-1930],[-10864,16119],[-2353,-442],[-2604,-4824],[6648,-26529],[3913,-11356]],[[309067,300325],[-19284,6633],[-4864,3758],[-11525,-3075],[-3648,-2673],[-8062,-1387]],[[261684,303581],[-42837,15978]],[[218847,319559],[-5987,4402],[-3066,4160],[1440,4200],[463,7778],[-820,6552],[-2617,5849],[-3277,2773]],[[687641,520881],[-1863,-5386],[-6939,-7396]],[[678839,508099],[-11618,2874]],[[667221,510973],[-6133,-4281],[-4943,3537],[-8485,-120],[-2683,-11577],[-2696,-4019],[-3780,-1769],[-27571,5869],[-20209,-483]],[[590721,498130],[3423,6633]],[[594144,504763],[3450,3718],[11327,8481]],[[608921,516962],[-317,5045],[-11050,1648],[-22469,-1065],[-15160,5245],[-2392,5628],[5868,6130],[4560,3517],[14751,5366],[422,3517],[-1149,4462],[-16019,1748],[-18967,-3075],[-5895,3558],[-687,5848],[8248,8321],[1321,5426],[-3568,5206],[-1679,5848],[13561,6050],[10322,2572]],[[568622,597957],[8155,-1386]],[[576777,596571],[7203,2130],[6027,5185],[410,6030],[-5749,13787],[330,5004],[4679,3558],[12596,5527],[6053,8662],[26672,-3356],[24174,2331],[7996,3417],[5855,8541],[2921,9587],[926,19616],[-1058,16340],[11314,-201],[19416,-5809],[9119,804]],[[715661,697724],[3318,-3155],[740,-4482],[-2709,-4402],[-40,-4260],[3225,-2834],[11935,1065],[2564,-3356],[-12067,-7417],[-10309,-10370],[4057,-5326],[8816,2452]],[[725191,655639],[-9490,-24058],[-3833,-14631]],[[711868,616950],[4454,-4482],[17975,985],[7798,-2432]],[[742095,611021],[-1731,-17867],[-2881,-10129]],[[737483,583025],[-4666,-2191],[-12530,-2352]],[[720287,578482],[-11644,1789],[-15609,-1507],[-7322,-6653],[-5974,-11355]],[[679738,560756],[-53,-12421],[1308,-14068]],[[680993,534267],[4428,-12521]],[[685421,521746],[2220,-865]],[[599444,306817],[-10692,-5728],[-7402,-1889],[-5987,3336],[-7084,15857],[-8340,2714],[-4018,5105],[-2921,6572],[-5340,4321],[-18306,7175]],[[529354,344280],[13112,21063]],[[542466,365343],[-238,6752],[-1890,2452],[-6001,2392]],[[534337,376939],[1626,4924],[9767,8381],[8486,-1769],[5657,2452],[1969,3980],[5789,3718],[6886,60],[13508,-7677]],[[588025,391008],[4269,-18189]],[[592294,372819],[23777,2774],[3437,2472],[2260,9807],[2670,443],[8194,-1930],[10468,-7014],[3463,-5025]],[[646563,374346],[-555,-5145],[-7825,-4904],[1084,-9928],[-793,-9527],[-6344,-11656]],[[632130,333186],[-14948,-8421]],[[617182,324765],[-7349,-12160],[-8036,-5627],[-2353,-161]],[[269561,504843],[-3516,40],[-11644,13466]],[[254401,518349],[-5406,2814],[-32117,10350]],[[216878,531513],[-18451,-4622],[-7230,-5487],[-10520,-3176]],[[180677,518228],[-12491,2292]],[[168186,520520],[-1890,8079]],[[166296,528599],[3239,13506],[-4045,2150],[-4560,201],[-7467,-804],[-8182,-3014],[-8802,2110]],[[136479,542748],[-7917,9707],[6172,4543],[-7084,8099],[4071,2291],[9608,-442],[9543,-3698],[8142,-462],[6833,3256],[4639,-1769],[2022,6833],[-6238,9728],[-886,8019],[-4269,8522],[-8736,6813],[648,6572],[-3767,5808],[-4454,-7356],[-12742,4824],[-8630,13687],[4837,2673],[-5617,7155],[1559,7456]],[[124213,645007],[11208,5547],[4283,7678],[19772,7496],[4177,-1286],[5776,-6552],[23658,-8361],[5869,2311],[6661,6874],[5723,784],[22006,-9547]],[[233346,649951],[3291,-7898],[582,-8643],[2194,-9124],[-172,-24439],[7996,-11778],[16707,-18771]],[[263944,569298],[15992,-14250]],[[279936,555048],[5221,-9426],[-1242,-13787],[-3886,-15596],[-5406,-9044],[-5062,-2352]],[[675072,508782],[3767,-683]],[[687641,520881],[14737,-6833]],[[702378,514048],[2049,-5246],[3806,-3758],[17592,3517],[3595,-2150],[688,-5608],[-793,-5446],[5551,-1387],[14578,4402],[8816,-9366],[1507,-5025],[6952,-6672]],[[766719,477309],[-18729,-4321],[-7586,-4181],[-4639,-7979],[-13231,-9024],[-2207,-10209],[-4110,-9567],[-9437,-11335],[-952,-3558],[5987,-5527],[6371,-1427],[8869,-9345],[2616,-6894],[-1837,-6090],[5459,-3959],[6516,623],[2974,-2773],[-8327,-13446],[-1705,-11798],[4097,-4602]],[[736848,351897],[-18847,4080],[-11182,-2673],[-10230,6230],[-6939,-563],[-11194,-7717],[-8631,-2854],[-13310,-1628],[-10877,-8542]],[[645638,338230],[-13508,-5044]],[[646563,374346],[4375,13406],[-2511,5326],[6066,9345],[13508,10331],[79,4401],[-8710,6753],[-1982,7256],[6820,14289],[-1824,17164],[16376,8944],[3925,6974],[-3265,6431],[27,6231],[1520,4642],[-6067,8944],[172,3999]],[[141766,224958],[-5340,-4824],[-5644,-1226],[-9952,-12702],[-5287,-3336],[-10798,20],[-11195,3698],[-26302,12521],[-8208,804]],[[59040,219913],[8274,4623],[-6608,14028],[-8353,6371],[-2036,7115],[2432,6652],[-2749,7658],[7957,9486],[1691,7476],[7217,3779],[25139,-3960],[10904,3156],[18966,12682],[5763,-442],[15226,-11115],[8088,2955],[-5379,-9044]],[[145572,281333],[-1520,-5226],[2326,-4944]],[[146378,271163],[8869,-11436],[-515,-4703],[-6979,-3637],[-6397,-6030],[-2260,-6853],[1559,-6713],[2961,-3779],[-1850,-3054]],[[549788,157408],[8300,5145]],[[558088,162553],[11777,11235],[1057,4120],[-344,14993],[1190,15335]],[[571768,208236],[-3238,26168]],[[568530,234404],[3952,15535],[3885,5025],[4375,1447],[1599,3618],[-3158,10109],[-4362,8924],[11605,201],[4427,-3015],[4996,-11577]],[[595849,264671],[3833,-4019],[18293,-9527],[9304,-3738]],[[627279,247387],[6609,-543]],[[633888,246844],[-1692,-6371],[14486,-22087],[5670,-12260],[396,-6693],[12094,-16862],[6305,-14451],[2921,-4160],[12265,-7497],[1216,-2592],[-1877,-9848],[-11961,-6874],[-5538,-10250],[-503,-5868]],[[667670,121031],[-15833,8702],[-10455,2171],[-17605,-1749],[-18834,3738],[-10957,503],[-8816,-1709],[-2855,905],[-2234,3577],[7798,6231],[-39,2311],[-3093,2954],[-16336,5186],[-18623,3557]],[[453608,493126],[-11975,-7698],[-4269,-1165],[-19627,10310],[-1309,2894]],[[416428,497467],[4481,6592],[27227,17305]],[[448136,521364],[9662,120]],[[457798,521484],[15609,-8963],[2392,-4161]],[[475799,508360],[-22191,-15234]],[[495162,482554],[-2511,-824],[-1824,2211],[2564,1648],[1388,-764],[383,-2271]],[[431311,511013],[-12847,-9868],[-2036,-3678]],[[453608,493126],[5776,-8522],[22389,9065]],[[481773,493669],[28483,7476],[6661,2754]],[[516917,503899],[7666,8843],[3846,2170],[2882,-864],[1824,-5567],[-807,-4120],[-1824,-2191],[397,-2010],[10547,-5406],[3714,-3216],[1573,-3296],[-1163,-2090],[-9186,-1407],[-7877,-5105],[3938,-3517]],[[532447,476123],[5274,-1125],[11115,663]],[[548836,475661],[2115,-6130],[3331,-2593],[11525,-1226],[2353,-4763],[132,-6472],[-8644,-13666],[18438,-16662],[3912,-8521]],[[581998,415628],[-9160,-3377],[-6344,5608],[-6384,-201],[-8604,-6331],[-6185,-2432],[-4811,1105],[-11460,15818],[-17909,9566],[-4176,5427],[-5023,3818],[-8234,3156],[-21464,3296],[-9530,-2070],[-9304,-4080]],[[453410,444931],[-18055,-11959]],[[435355,432972],[1322,9869],[-1282,4904],[-5472,3577],[-18768,7195],[-7693,5005],[-5075,6069],[-5260,11798],[-12768,18249],[-3820,9707]],[[376539,509345],[939,2492]],[[377478,511837],[7481,5366],[11327,1025],[6939,-1045],[4520,5628]],[[407745,522811],[10507,3075]],[[418252,525886],[8472,-1709]],[[426724,524177],[-52,-5768],[4639,-7396]],[[268940,433013],[-2697,-61],[-1123,1950],[4520,241],[-700,-2130]],[[223169,352600],[-5789,101],[-12397,2572]],[[204983,355273],[-7666,4924],[-8776,7115],[2960,3718],[-44554,12401]],[[146947,383431],[4018,21887],[4890,3878],[8234,3578],[12636,321],[12714,5527],[19786,11557],[4071,6311],[872,7878],[-872,8863],[-3225,10130],[-5088,7516],[-7257,17566],[1058,6813],[-331,6532],[-1876,5949],[-5406,6371],[-10494,4120]],[[216878,531513],[22733,-6532],[14790,-6632]],[[269561,504843],[20116,-15958]],[[289677,488885],[12662,-7336]],[[302339,481549],[7719,-10189],[-10627,-10893],[-502,-7216],[-4361,-9968],[-6688,-7939],[-4811,-2090],[-5010,-12019],[1150,-5748],[7243,-9506],[2697,-8803],[3634,-6854]],[[292783,390324],[-1348,-11496]],[[534337,376939],[-3806,-723],[-39004,10290]],[[491527,386506],[-16547,-1849]],[[474980,384657],[-4758,-3437],[-6027,-8542],[-25536,-8260]],[[438659,364418],[-9912,8642],[-2802,17847],[-4468,6592],[-5353,4342],[-4322,1025],[-1506,4140],[-437,8722]],[[409859,415728],[5208,4603],[38343,24600]],[[581998,415628],[7785,-9828],[343,-5728]],[[590126,400072],[-2101,-9064]],[[405366,293150],[-2181,-6150],[4930,-5004]],[[408115,281996],[9371,-603],[26302,-5929],[12490,-4321]],[[456278,271143],[18477,-11376]],[[474755,259767],[4137,-9727],[846,-4803],[-5763,-6512],[-8432,-6090],[-10666,-4944],[-24584,1970],[-7349,-242],[-2868,-1527],[740,-6472],[5604,-3637],[3595,-8783],[-211,-5206],[-3344,-5667]],[[426460,198127],[-11538,-322],[-12966,-8421],[-6635,623],[-6212,4060],[-3648,6351],[-1573,8642],[-6027,10592],[1626,5547],[-1930,6089],[7507,7216],[648,15656]],[[385712,254160],[5498,29564]],[[391210,283724],[14156,9426]],[[276685,818514],[-6569,5868],[-11882,3799]],[[258234,828181],[-47555,22550],[-26592,14611]],[[184087,865342],[-2247,5648],[2934,4481],[-5194,10150],[2656,4502],[-3000,6291],[-4758,3597],[-10362,603],[-9953,-5487],[4838,-9948],[-2710,-3618],[-49246,16380],[-9252,5246]],[[97793,903187],[-8790,21565],[-145,12099],[9186,20158],[8630,24439],[8235,7678],[-1573,7858],[26302,-3095],[12741,6110],[9106,-281],[26990,-9487],[18424,-1206],[7005,-4843],[1454,-7637],[211,-13989],[49141,-6451],[8737,-5226],[5141,-18771],[10415,-28419],[-3582,-19173],[2234,-7919],[6106,-6512],[15834,-8361],[2736,-3818],[1467,-5547],[-6450,-7095],[-24160,-15315],[-3728,-4301],[-2775,-7134]],[[667670,121031],[-2339,-5668],[-3555,-1246],[-5393,2894],[-6873,1125],[-6608,-1969],[-3780,-3759],[-806,-6873],[3172,-7336],[845,-6150],[-3383,-4542],[-1388,-4703],[4626,-6331]],[[642188,76473],[-6278,-6512]],[[635910,69961],[-28073,-12501]],[[607837,57460],[-119,7175],[-4467,4723],[-3912,2895],[-4706,-1005],[-3582,-1427],[-1229,-1990],[2564,-5748],[1230,-7436],[-16482,1969],[-5406,3517],[-2749,3960],[1454,2773],[-2154,3718],[-6397,5708],[-2432,4301],[2180,8783],[-7573,6894],[-4983,7275],[-5895,4341],[-3410,10451],[-4546,3518],[-3172,623],[-3371,-4121],[-1176,-3637],[-3027,-2392],[-10111,4603],[-7890,-6331],[-7983,502],[-3701,3578],[3370,8280],[1904,9627],[3555,7798],[-4626,8783]],[[498995,149168],[15490,-1910],[12874,1206],[13666,4020]],[[541025,152484],[8763,4924]],[[272350,562384],[-8406,6914]],[[233346,649951],[9702,4241],[3053,7135],[5049,5888],[6410,4382],[6701,-1246],[5366,2391],[5512,4804],[2471,7838],[-952,10230],[5591,32599]],[[282249,728213],[75337,-9868],[2247,-5708],[-5802,-21927],[-198,-7296],[5974,-2311],[8815,6773],[24452,-7295],[2842,-6854],[-793,-4844],[26619,-1607],[3938,-1528],[1943,-3617],[-5895,-17586]],[[421728,644545],[-9476,-1307],[-18901,1749],[-11683,-3316],[-7494,-5467],[-10667,-5105],[-18609,-6090],[-46299,-7617],[-3093,-4100],[8948,-11476],[-15953,-10009],[-1348,-4220],[6807,-8522],[3000,-6049]],[[296960,573016],[-7732,-5145]],[[289228,567871],[-16878,-5487]],[[576777,596571],[-15794,3738],[-12437,5989]],[[548546,606298],[-11922,2934],[-33902,4462],[-6978,4361],[-859,3719],[4771,23997],[-674,5808],[-8961,1608],[-25747,442]],[[464274,653629],[251,5004],[-4348,6271],[2339,17224],[-5207,5447],[4176,30609],[17301,2151],[10759,4120],[-7679,10410],[-965,3357],[2630,3899],[3899,2231],[7336,1105],[6714,-502],[6622,-2915],[3819,583],[10997,9286],[20658,6652],[35118,6090],[5709,-1668],[12266,502],[3423,3196],[-595,3939],[16297,19736],[13666,11697],[19522,-844],[8895,-2552],[6793,-8180],[4904,-12139],[4745,-4824]],[[674319,773514],[9489,-4080],[7323,-6833],[8247,-11034]],[[699378,751567],[13772,-28821],[4137,-12601]],[[717287,710145],[595,-9205],[-2221,-3216]],[[599444,306817],[5525,-11396],[12384,-2009],[3424,-2673],[1268,-3658],[-12212,-23214],[-5379,-6170]],[[604454,257697],[-8605,6974]],[[568530,234404],[1493,-9346]],[[570023,225058],[-28059,1889],[-7323,3256]],[[534641,230203],[238,14511]],[[534879,244714],[-2088,8863],[-3595,2131],[-10071,743],[-2287,4241],[1903,2954],[8287,5487],[2961,4763],[-753,5728],[-3212,8019],[-9715,19777],[2036,16742]],[[518345,324162],[11009,20118]],[[456278,271143],[-26712,7919],[-21451,2934]],[[405366,293150],[3582,2834]],[[408948,295984],[-5182,10471],[15041,6070],[-634,9546],[-11248,6191]],[[406925,328262],[6450,10752],[2644,9366],[3608,4321],[6225,1005],[7124,7537],[5683,3175]],[[438659,364418],[16971,-11576],[14711,-18109],[10216,-8361],[12385,-5105]],[[492942,321267],[11366,-1004],[6503,482]],[[510811,320745],[7534,3417]],[[534879,244714],[-608,-6452]],[[534271,238262],[-24940,5065],[-8287,5025],[-26289,11415]],[[881244,487981],[-10983,-4341],[-3014,-15315],[-6476,-5205],[-17935,3396],[-11909,-1206],[-24055,1166],[-32276,10994],[-7877,-161]],[[702378,514048],[-16957,7698]],[[680993,534267],[-1255,26489]],[[720287,578482],[17196,4543]],[[742095,611021],[-1995,9708],[-278,7396],[2617,4642],[11750,1347],[10323,-1930],[21583,-13264],[7758,-684]],[[793853,618236],[21544,5769],[8710,4019]],[[824107,628024],[4520,5829]],[[124213,645007],[1401,6733],[-27821,3638],[8948,61178],[224,9768],[-4150,7456],[-22389,4402],[-6913,4723],[5353,6672],[3331,11476],[6859,15978],[674,4904]],[[89730,781935],[61036,-5165],[13971,-81],[11499,1809],[7467,2834],[10693,7155],[5815,-20],[3476,-2975],[4732,684],[6635,4602],[3423,9386],[7402,4542],[8287,764],[12027,-4663],[6781,2955]],[[252974,803762],[4374,7315],[2485,10029]],[[259833,821106],[-1599,7075]],[[276685,818514],[2538,-19194],[3317,-7396],[634,-11758],[-1691,-12541],[766,-39412]],[[435355,432972],[-25496,-17244]],[[409859,415728],[-9093,7497],[-6965,3336],[-14935,3216],[-4983,-663],[-4164,-2935],[-3251,-2833],[-2101,-5507],[-3331,-1709],[-7653,4100],[-6331,-703]],[[347052,419527],[-6978,-6210]],[[340074,413317],[-3767,-9869],[-5036,-8159],[-13904,2190],[-2855,-6110],[-2683,-2652],[-11301,-865],[-7745,2472]],[[302339,481549],[22681,-10169]],[[325020,471380],[8736,-101]],[[333756,471279],[18358,7537]],[[352114,478816],[15094,16280],[5842,7355]],[[373050,502451],[3489,6894]],[[279936,555048],[-7586,7336]],[[289228,567871],[19482,11697]],[[308710,579568],[2537,-1005],[2313,-3879],[3450,-14913],[3489,-1909],[7270,241],[12067,6592],[6820,1668],[6106,-1748],[8446,-10391],[13878,-5547],[-3410,-9185],[1242,-9245],[2286,-3577]],[[375204,526670],[1772,-8844],[502,-5989]],[[373050,502451],[-13653,-16962],[-7283,-6673]],[[352114,478816],[-8340,-3577],[-10018,-3960]],[[325020,471380],[-8671,2854],[-26672,14651]],[[309067,300325],[5709,-14410],[3714,-15877],[119,-8060],[-1890,-13425],[1177,-3116],[10837,-10290],[-9199,-4482],[-2537,-4100],[2617,-5486]],[[319614,221079],[-9900,-6492],[-5472,924],[-2736,3678],[-8049,1005]],[[293457,220194],[-7058,9929],[-11935,4884],[-6370,5245],[-2908,5688],[1018,4643],[-1560,4421],[-6595,7497],[-1652,3758],[1480,5829]],[[257877,272088],[-1705,6391],[2366,7074]],[[258538,285553],[10243,4844],[3291,3276],[397,4964]],[[272469,298637],[-10785,4944]],[[184087,865342],[15913,-9446],[58234,-27715]],[[259833,821106],[-3925,-13506],[-2934,-3838]],[[89730,781935],[4547,33122],[-11935,-5367],[-8578,-10430],[-12543,-6412],[-8578,-522],[-11987,2211],[-28985,13304],[-3794,5829],[-185,4602],[-3198,6412],[-3912,4924],[-582,2351],[5393,3236],[20037,-764],[18146,2955],[12041,-2312],[6635,4241],[3027,8984],[383,6954],[4679,10813],[119,10551],[3397,7798],[8419,8984],[11935,4160],[3582,5628]],[[141766,224958],[8287,-11698],[8683,-3356],[12927,1347],[2920,-3437],[1098,-5326],[-714,-6291],[1057,-4160],[5657,-3658]],[[181681,188379],[-6199,-7095],[-17261,-14510],[1229,-9828],[-3463,-2673],[-7824,5145],[-8235,-563],[-11234,-1266],[-13111,-6974],[-6318,301],[-1190,2492],[4296,6774],[-7547,8320],[-11459,2934],[-17737,-2733],[-7957,663],[-5921,945],[-4732,2653],[2419,8743],[-3622,5949],[3450,8159],[2458,10451],[-4731,3055],[-2472,6311],[4520,4281]],[[166296,528599],[2842,-10994]],[[169138,517605],[-8882,-4381],[-9476,-8522],[-1652,-7838],[-20421,-17083],[3159,-7517],[11671,-14671],[-542,-5829],[-3820,-5889],[-22350,-19294],[-2577,-4100],[1044,-4924],[13666,-16279],[1349,-4663],[-714,-10612]],[[129593,386003],[-29553,3136],[-63614,1306],[-10521,2472],[-6780,-502],[-9014,-4683],[-2075,10471],[-5736,4743],[-2234,5507],[7653,13164],[7890,603],[5115,7336],[-3608,1366],[1031,6191],[-3820,7979],[9609,9767],[-3040,3136],[-7005,1688],[11248,7014],[13190,2070],[701,7356],[-4534,7698],[2485,8220],[9662,12581],[3383,-3196],[16389,2352],[7613,5728],[5578,-2934],[15808,2853],[-3463,14672],[17948,13888],[10534,-2332],[16046,7095]],[[608921,516962],[-14777,-12199]],[[590721,498130],[-4745,-3939],[-4917,-7597],[-2894,-1487],[-9226,2894],[-11115,-121],[-2577,-2833],[-1031,-4060],[-5380,-5326]],[[548836,475661],[-6093,-1045],[-10296,1507]],[[516917,503899],[-35144,-10230]],[[475799,508360],[-859,2432],[-17142,10692]],[[448136,521364],[-16825,-10351]],[[426724,524177],[5737,61],[6066,7114],[12768,7437],[2392,7657],[-462,5386],[5366,9728],[-1097,3155],[-9226,4763],[-4243,3638],[-726,2533],[2828,4321],[7626,6793],[740,4180],[-4692,5407],[-1678,6491],[938,4422],[6582,10350],[-2749,12923]],[[452894,630536],[5829,5367],[4639,11576],[912,6150]],[[548546,606298],[20076,-8341]],[[317592,356298],[5841,1488],[11142,-342]],[[334575,357444],[32739,-20862],[17327,-8119],[7825,-1327],[14459,1126]],[[408948,295984],[-17738,-12260]],[[385712,254160],[-410,-8381],[-4771,3799],[-4454,60],[-4785,-201],[-4480,-2874],[-6886,-1749],[-3027,-4743],[-66,-6150],[2445,-6411],[4137,-3678],[-10653,-7496],[-2062,-4121],[846,-5225],[-1229,-3879],[-5498,-2392],[-10957,623],[-3582,4020],[-780,3397],[4335,3497],[1481,4080],[-4402,3858],[-11300,885]],[[542466,365343],[-1494,-3658],[-8538,-11778],[-14089,-25745]],[[510811,320745],[-17869,522]],[[474980,384657],[8075,1427],[8472,422]],[[146947,383431],[-17354,2572]],[[169138,517605],[-952,2915]],[[218847,319559],[50569,-18671],[3053,-2251]],[[258538,285553],[-2154,-4743]],[[256384,280810],[-5195,-5828],[-6542,-3276],[-6305,-221],[-32936,7737],[-6622,-20],[-5049,-1085],[-2035,-4301],[-8103,-4261],[-13600,-3617],[-15358,2170],[-8261,3055]],[[145572,281333],[10323,19796],[4956,5306],[2102,22731],[1823,10531],[3344,9808],[8010,8321],[8261,4321],[2524,6492],[18068,-13366]],[[617182,324765],[6317,4160],[22139,9305]],[[736848,351897],[1732,-1970],[872,-18691],[-4877,-4341],[-1652,-4020],[-833,-9265],[-14472,-12019],[-2089,-9184],[-7454,-5226],[-10481,-3497],[568,-8300],[-3278,-1347],[-8445,-2090],[-9966,3919],[-19958,-2050],[-10719,-6291],[-6212,-6733],[-4414,-8260],[-1282,-5688]],[[627279,247387],[-22825,10310]],[[570023,225058],[1745,-16822]],[[558088,162553],[-17063,-10069]],[[498995,149168],[-938,4803],[-5367,4402],[-5987,1648],[-7996,-2653],[-4388,2974],[-15081,905],[-6595,2472],[2472,2592],[-688,5507],[3582,6814],[-5498,7657],[1916,7115],[-8062,3738],[-2961,-784],[-7692,5507],[-9252,-3738]],[[534271,238262],[370,-8059]],[[824107,628024],[-18557,-7577],[-11697,-2211]],[[711868,616950],[740,4060],[12583,34629]],[[717287,710145],[-9410,25203],[-8499,16219]],[[674319,773514],[11578,583],[7428,6853],[2128,7356],[2432,3618],[23447,26891],[22297,30629],[5604,3236],[10719,141],[39479,-21103],[11261,-4221],[17552,-3075],[99009,-11456],[3066,14129],[10045,3397],[8564,-8803],[3344,-6391],[10508,-9466],[5181,-8080],[1943,-11938],[-2392,-19334],[-12411,-40739],[-16508,-1869],[-4653,-28479],[-4467,-9466],[-9120,-14270]],[[340074,413317],[3185,3818],[3793,2392]],[[334575,357444],[-6093,924],[-10890,-2070]],[[628548,24218],[-1837,-1949],[-2419,2070],[2419,1407],[1837,-1528]],[[607837,57460],[5802,3558],[15081,4944],[7190,3999]],[[642188,76473],[6172,-5306],[9252,-4924],[542,-4904],[2882,-6351],[8406,-6712],[13547,-6070],[-11723,-9607],[-1283,-3256],[13323,-8421],[-5630,-8280],[-4600,-2171],[635,-945],[-1494,-4582],[-2894,-4542],[-9173,-402],[-8446,3738],[-6608,6331],[-9715,-2733],[-3211,985],[-3476,3959],[-7177,3316],[-2961,8803],[-11168,9145],[-952,3939],[5908,14430],[-4507,5547]],[[256384,280810],[1493,-8722]],[[293457,220194],[-9727,-11234],[-4018,-1588],[-5512,2391],[-2947,6130],[-12940,20],[-661,-6511],[-3965,-5990],[-10084,-3014],[1044,-5447],[-1507,-4843],[-30822,-6974],[-14023,5104],[-4362,8281],[-4864,723],[-3687,-2572],[-3701,-6291]],[[418252,525886],[-6119,-1126],[-4388,-1949]],[[377478,511837],[-2274,14833]],[[308710,579568],[-11750,-6552]],[[421728,644545],[-2339,-9406],[11036,-5085],[12279,-1909],[10190,2391]],[[667221,510973],[7851,-2191]],[[592294,372819],[-4150,15174],[1982,12079]]],"bbox":[46.3295,56.0987,53.8955,61.0743],"transform":{"scale":[0.00000756600756600756,0.000004975604975604976],"translate":[46.3295,56.0987]}}