{"type":"Topology","objects":{"muni":{"type":"GeometryCollection","geometries":[{"type":"MultiPolygon","arcs":[[[0,1,2,3,4]]],"properties":{"GID_2":"RUS.32.1_1","GID_0":"RUS","COUNTRY":"Russia","GID_1":"RUS.32_1","NAME_1":"Komi","NL_NAME_1":"РеспубликаКоми","NAME_2":"Intagorsovet","VARNAME_2":"Inta","NL_NAME_2":"Инта(горсовет)","TYPE_2":"Gorsovet","ENGTYPE_2":"District","CC_2":"R02001","HASC_2":"RU.KO.IN"}},{"type":"MultiPolygon","arcs":[[[5,6,7,8,9,10,11,12]]],"properties":{"GID_2":"RUS.32.2_1","GID_0":"RUS","COUNTRY":"Russia","GID_1":"RUS.32_1","NAME_1":"Komi","NL_NAME_1":"РеспубликаКоми","NAME_2":"Izhemskiyrayon","VARNAME_2":"NA","NL_NAME_2":"Ижемскийрайон","TYPE_2":"Raion","ENGTYPE_2":"District","CC_2":"R02000","HASC_2":"RU.KO.IZ"}},{"type":"MultiPolygon","arcs":[[[13,14,15,16,17,18,19]]],"properties":{"GID_2":"RUS.32.3_1","GID_0":"RUS","COUNTRY":"Russia","GID_1":"RUS.32_1","NAME_1":"Komi","NL_NAME_1":"РеспубликаКоми","NAME_2":"Knyazhpogostskiyrayon","VARNAME_2":"Knyazhpogostski","NL_NAME_2":"Княжпогостскийрайон","TYPE_2":"Raion","ENGTYPE_2":"District","CC_2":"R02000","HASC_2":"RU.KO.KN"}},{"type":"MultiPolygon","arcs":[[[-20,20,21,22,23,24,25,26]]],"properties":{"GID_2":"RUS.32.4_1","GID_0":"RUS","COUNTRY":"Russia","GID_1":"RUS.32_1","NAME_1":"Komi","NL_NAME_1":"РеспубликаКоми","NAME_2":"Kortkerosskiyrayon","VARNAME_2":"NA","NL_NAME_2":"Корткеросскийрайон","TYPE_2":"Raion","ENGTYPE_2":"District","CC_2":"R02000","HASC_2":"RU.KO.KR"}},{"type":"MultiPolygon","arcs":[[[27,28,29,30,31,32]]],"properties":{"GID_2":"RUS.32.5_1","GID_0":"RUS","COUNTRY":"Russia","GID_1":"RUS.32_1","NAME_1":"Komi","NL_NAME_1":"РеспубликаКоми","NAME_2":"Koygorodskiyrayon","VARNAME_2":"NA","NL_NAME_2":"Койгородскийрайон","TYPE_2":"Raion","ENGTYPE_2":"District","CC_2":"R02000","HASC_2":"RU.KO.KY"}},{"type":"MultiPolygon","arcs":[[[33]]],"properties":{"GID_2":"RUS.32.6_1","GID_0":"RUS","COUNTRY":"Russia","GID_1":"RUS.32_1","NAME_1":"Komi","NL_NAME_1":"РеспубликаКоми","NAME_2":"Pechora","VARNAME_2":"NA","NL_NAME_2":"Печора","TYPE_2":"Gorsovet","ENGTYPE_2":"District","CC_2":"NA","HASC_2":"RU.KO.PE"}},{"type":"MultiPolygon","arcs":[[[34,35,36,37,38,-6,39,-1],[-34]]],"properties":{"GID_2":"RUS.32.7_1","GID_0":"RUS","COUNTRY":"Russia","GID_1":"RUS.32_1","NAME_1":"Komi","NL_NAME_1":"РеспубликаКоми","NAME_2":"Pechorskiyrayon","VARNAME_2":"NA","NL_NAME_2":"Печорскийрайон","TYPE_2":"Raion","ENGTYPE_2":"District","CC_2":"R02000","HASC_2":"RU.KO.PE"}},{"type":"MultiPolygon","arcs":[[[40,41,-28,42]]],"properties":{"GID_2":"RUS.32.8_1","GID_0":"RUS","COUNTRY":"Russia","GID_1":"RUS.32_1","NAME_1":"Komi","NL_NAME_1":"РеспубликаКоми","NAME_2":"Priluzskiyrayon","VARNAME_2":"NA","NL_NAME_2":"Прилузскийрайон","TYPE_2":"Raion","ENGTYPE_2":"District","CC_2":"R02000","HASC_2":"RU.KO.PR"}},{"type":"MultiPolygon","arcs":[[[43,-8,44,-38,45,46,47,48,49,50]]],"properties":{"GID_2":"RUS.32.9_1","GID_0":"RUS","COUNTRY":"Russia","GID_1":"RUS.32_1","NAME_1":"Komi","NL_NAME_1":"РеспубликаКоми","NAME_2":"Sosnogorskiyrayon","VARNAME_2":"NA","NL_NAME_2":"Сосногорскийрайон","TYPE_2":"Raion","ENGTYPE_2":"District","CC_2":"R02000","HASC_2":"RU.KO.SO"}},{"type":"MultiPolygon","arcs":[[[51,52,-14,-27,53,-25,54,-31,55,56,57]]],"properties":{"GID_2":"RUS.32.10_1","GID_0":"RUS","COUNTRY":"Russia","GID_1":"RUS.32_1","NAME_1":"Komi","NL_NAME_1":"РеспубликаКоми","NAME_2":"Syktyvdinskiyrayon","VARNAME_2":"NA","NL_NAME_2":"Сыктывдинскийрайон","TYPE_2":"Raion","ENGTYPE_2":"District","CC_2":"R02000","HASC_2":"RU.KO.SK"}},{"type":"MultiPolygon","arcs":[[[-26,-54]]],"properties":{"GID_2":"RUS.32.11_1","GID_0":"RUS","COUNTRY":"Russia","GID_1":"RUS.32_1","NAME_1":"Komi","NL_NAME_1":"РеспубликаКоми","NAME_2":"Syktyvkargorsovet","VARNAME_2":"Syktyvkar","NL_NAME_2":"Сыктывкар(горсовет)","TYPE_2":"Gorsovet","ENGTYPE_2":"District","CC_2":"R02002","HASC_2":"RU.KO.SY"}},{"type":"MultiPolygon","arcs":[[[-58,58,-56,-30,59,-41,60]]],"properties":{"GID_2":"RUS.32.12_1","GID_0":"RUS","COUNTRY":"Russia","GID_1":"RUS.32_1","NAME_1":"Komi","NL_NAME_1":"РеспубликаКоми","NAME_2":"Sysol'skiyrayon","VARNAME_2":"NA","NL_NAME_2":"Сысольскийрайон","TYPE_2":"Raion","ENGTYPE_2":"District","CC_2":"R02001","HASC_2":"RU.KO.SS"}},{"type":"MultiPolygon","arcs":[[[61,62,63,-49,64,65]]],"properties":{"GID_2":"RUS.32.13_1","GID_0":"RUS","COUNTRY":"Russia","GID_1":"RUS.32_1","NAME_1":"Komi","NL_NAME_1":"РеспубликаКоми","NAME_2":"Troitsko-Pechorskiyrayon","VARNAME_2":"NA","NL_NAME_2":"Троицко-Печорскийрайон","TYPE_2":"Raion","ENGTYPE_2":"District","CC_2":"R02001","HASC_2":"RU.KO.TR"}},{"type":"MultiPolygon","arcs":[[[66,-16,67,68]]],"properties":{"GID_2":"RUS.32.14_1","GID_0":"RUS","COUNTRY":"Russia","GID_1":"RUS.32_1","NAME_1":"Komi","NL_NAME_1":"РеспубликаКоми","NAME_2":"Udorskiyrayon","VARNAME_2":"NA","NL_NAME_2":"Удорскийрайон","TYPE_2":"Raion","ENGTYPE_2":"District","CC_2":"R02001","HASC_2":"RU.KO.UD"}},{"type":"MultiPolygon","arcs":[[[-10,69,-51,70,71,72,-18]]],"properties":{"GID_2":"RUS.32.15_1","GID_0":"RUS","COUNTRY":"Russia","GID_1":"RUS.32_1","NAME_1":"Komi","NL_NAME_1":"РеспубликаКоми","NAME_2":"Ukhtagorsovet","VARNAME_2":"Ukhta","NL_NAME_2":"Ухта(горсовет)","TYPE_2":"Gorsovet","ENGTYPE_2":"District","CC_2":"R02001","HASC_2":"RU.KO.UA"}},{"type":"MultiPolygon","arcs":[[[73]]],"properties":{"GID_2":"RUS.32.16_1","GID_0":"RUS","COUNTRY":"Russia","GID_1":"RUS.32_1","NAME_1":"Komi","NL_NAME_1":"РеспубликаКоми","NAME_2":"Usinsk","VARNAME_2":"NA","NL_NAME_2":"Усинск","TYPE_2":"Gorsovet","ENGTYPE_2":"District","CC_2":"NA","HASC_2":"RU.KO.US"}},{"type":"MultiPolygon","arcs":[[[-2,-40,-13,74,75,76],[-74]]],"properties":{"GID_2":"RUS.32.17_1","GID_0":"RUS","COUNTRY":"Russia","GID_1":"RUS.32_1","NAME_1":"Komi","NL_NAME_1":"РеспубликаКоми","NAME_2":"Usinskiyrayon","VARNAME_2":"NA","NL_NAME_2":"Усинскийрайон","TYPE_2":"Raion","ENGTYPE_2":"District","CC_2":"R02001","HASC_2":"RU.KO.US"}},{"type":"MultiPolygon","arcs":[[[-22,77,-72,78,-63,79]]],"properties":{"GID_2":"RUS.32.18_1","GID_0":"RUS","COUNTRY":"Russia","GID_1":"RUS.32_1","NAME_1":"Komi","NL_NAME_1":"РеспубликаКоми","NAME_2":"Ust'-Kulomskiyrayon","VARNAME_2":"NA","NL_NAME_2":"Усть-Куломскийрайон","TYPE_2":"Raion","ENGTYPE_2":"District","CC_2":"R02001","HASC_2":"RU.KO.UK"}},{"type":"MultiPolygon","arcs":[[[80,-76,81,-11,-17,-67]]],"properties":{"GID_2":"RUS.32.19_1","GID_0":"RUS","COUNTRY":"Russia","GID_1":"RUS.32_1","NAME_1":"Komi","NL_NAME_1":"РеспубликаКоми","NAME_2":"Ust'-Tsilemskiyrayon","VARNAME_2":"NA","NL_NAME_2":"Усть-Цилемскийрайон","TYPE_2":"Raion","ENGTYPE_2":"District","CC_2":"R02001","HASC_2":"RU.KO.UT"}},{"type":"MultiPolygon","arcs":[[[82,-68,-15,-53]]],"properties":{"GID_2":"RUS.32.20_1","GID_0":"RUS","COUNTRY":"Russia","GID_1":"RUS.32_1","NAME_1":"Komi","NL_NAME_1":"РеспубликаКоми","NAME_2":"Ust'-Vymskiyrayon","VARNAME_2":"NA","NL_NAME_2":"Усть-Вымскийрайон","TYPE_2":"Raion","ENGTYPE_2":"District","CC_2":"R02001","HASC_2":"RU.KO.UV"}},{"type":"MultiPolygon","arcs":[[[-4,83]]],"properties":{"GID_2":"RUS.32.21_1","GID_0":"RUS","COUNTRY":"Russia","GID_1":"RUS.32_1","NAME_1":"Komi","NL_NAME_1":"РеспубликаКоми","NAME_2":"Vorkutagorsovet","VARNAME_2":"Vorkuta","NL_NAME_2":"Воркута(горсовет)","TYPE_2":"Gorsovet","ENGTYPE_2":"District","CC_2":"R02001","HASC_2":"RU.KO.VO"}},{"type":"MultiPolygon","arcs":[[[84]]],"properties":{"GID_2":"RUS.32.22_1","GID_0":"RUS","COUNTRY":"Russia","GID_1":"RUS.32_1","NAME_1":"Komi","NL_NAME_1":"РеспубликаКоми","NAME_2":"Vuktyl","VARNAME_2":"NA","NL_NAME_2":"Вуктыл","TYPE_2":"Gorsovet","ENGTYPE_2":"District","CC_2":"NA","HASC_2":"RU.KO.VU"}},{"type":"MultiPolygon","arcs":[[[85,-66,86,-47,87,-36],[-85]]],"properties":{"GID_2":"RUS.32.23_1","GID_0":"RUS","COUNTRY":"Russia","GID_1":"RUS.32_1","NAME_1":"Komi","NL_NAME_1":"РеспубликаКоми","NAME_2":"Vuktyl'skiyrayon","VARNAME_2":"NA","NL_NAME_2":"Вуктыльскийрайон","TYPE_2":"Raion","ENGTYPE_2":"District","CC_2":"R02000","HASC_2":"RU.KO.VU"}}]}},"arcs":[[[705192,634987],[-2351,4212],[-532,2983],[2931,11658],[-2591,4561],[-3814,522],[-7216,-3908],[-30741,-2830],[-9596,5889],[-4879,5519],[-3047,7130],[667,4702],[7653,11897],[9130,24133],[-3301,3200],[-8943,-3113],[-4827,348],[-2725,3081]],[[641010,714971],[-274,7445],[1248,10276],[-1497,38065],[1482,18462],[-1410,19549],[-303,15925],[1430,12213],[-2063,8382]],[[639623,845288],[104289,348],[16447,980],[3095,-152],[2250,-1426],[3440,1056],[1627,2155],[2883,1088],[5125,-1393],[2356,337],[2163,2210],[696,3473]],[[783994,853964],[15973,-6706],[7316,-3951],[1138,-1709],[455,-2972],[-11380,-6052],[-1123,-5214],[-1022,-8392],[-3004,-3919],[-1036,-3799],[3790,-4887],[4285,-1840],[3383,-490],[5258,2820],[9745,-8632],[-1353,-2558],[3646,-6347],[3949,-2960],[5388,-9100],[4908,-610],[5043,-2384],[2346,-2895],[3839,-2101],[5268,-5943]],[[850806,763323],[-4443,-5552],[-1319,-5747],[-989,-2362],[-3641,-2852],[-1373,-4866],[-3694,-1981],[2173,-3429],[787,-2797],[-3402,-3211],[-1708,-2754],[-700,-5900],[-34205,-16785],[-7662,-3940],[-3373,-4670],[-4462,-2983],[-336,-2514],[-5115,-1959],[-7921,-11963],[-3532,-4354],[-2874,-9100],[1181,-6314],[1046,-3124],[-3632,-4898],[-3445,-2928],[-2774,-218],[-2245,-1785],[-1622,-4224],[-441,-3047],[-4688,-3233],[-9183,-4507],[-1305,-1709],[120,-4604],[-8003,-4790],[-480,4398],[-753,1894],[-4309,2101],[-864,2765],[-72,2307],[-2255,1938],[-7782,1415],[-2965,1502],[-3354,-1556]],[[469520,693658],[514,-4561],[-4760,-7783],[-23673,-32231],[-1641,-14107],[-4054,-16883],[1218,-27953],[-1928,-12388],[1391,-6923],[873,-6890]],[[437460,563939],[-16749,-9013]],[[420711,554926],[-6108,-631]],[[414603,554295],[-23611,6542]],[[390992,560837],[-15243,2329],[-5600,-1339],[-3982,2961],[-4673,1916],[-16246,3962],[-16755,1959],[-11016,4975],[-5772,1491]],[[311705,579091],[3546,8491],[3171,3058],[40731,15784],[3972,9644],[-22718,36705],[3949,12170],[6112,15304],[6334,21966],[9749,21880],[8094,22020],[10239,20954]],[[384884,767067],[2399,8469]],[[387283,775536],[31393,-26146],[26571,-14967],[4918,-5944],[16294,-4931],[11909,-5540],[-2970,-5486],[-4409,870],[-2539,-2743],[-1329,-6836],[2399,-10155]],[[264455,320732],[-8205,370],[-6040,4931]],[[250210,326033],[-346,2819],[-1334,4017],[-5892,3505],[-1314,4560],[-2231,2678],[-6986,3571],[91,5856],[-20794,6139],[7067,24949],[-15003,2068]],[[203468,386195],[3910,7304],[3229,9296],[5806,20573],[5609,16099],[5604,1861],[13381,-1230],[1291,11082],[-2889,2166],[2126,7108],[-3958,2808],[1909,7957],[-3939,3353],[-1185,7347],[-3766,1938],[-8800,1709],[-9682,5649],[2783,4572],[-519,5334],[-13041,1643],[5489,12780],[389,11407],[3004,3168],[3468,1458],[5984,1013],[24013,-3875],[4088,21748],[4947,1589],[8032,23393],[5172,163]],[[265923,575608],[3901,-1426],[835,6912],[3248,1132],[1367,2678],[13852,533],[10872,-4016],[11707,-2330]],[[311705,579091],[-5940,-19691],[6646,-2286],[-2395,-13759],[12346,-4811],[1823,-7729],[-130,-10330],[12211,-2351],[1636,-6324],[451,-24111],[-456,-16186],[3417,762],[1631,-3244],[-4294,-12714],[1218,-4604],[10858,-2275],[-1214,-6586],[677,-7064],[816,-2896],[3896,-2383],[4711,315],[1684,-7750],[538,-8175],[5613,-3995],[5302,-1730],[1151,-4616],[-206,-10972]],[[373695,393586],[-6467,1959]],[[367228,395545],[-25886,2874],[-2907,-10602],[-3378,-9993],[-2260,-3951],[-21653,9154],[-10349,-685],[-3680,-5258],[-6957,4267],[-6857,2286],[-4615,-14412],[-3536,-533],[-5096,-14369],[3450,-4201],[-9049,-29390]],[[367228,395545],[22967,-6574]],[[390195,388971],[-2519,-13487],[4693,-4213],[-4409,-13160],[5081,-348],[-2630,-16731],[3292,-1806],[-1838,-7043],[-3819,-3157],[-1296,-7097],[2519,-1437],[-1353,-7652],[-4323,-577],[-110,-6139],[-2740,-784],[-3430,-4887],[-7547,-3854],[-3772,-675],[-4658,1100],[-2706,-3320],[2581,-3364],[2082,-16426],[-115,-17274],[-19125,-360],[-1732,-13192],[6866,-4659],[1799,-2983],[-24,-3069],[-1180,-1535],[3618,-2917],[-336,-11941],[-3527,-10200],[7716,-2601]],[[357253,203183],[-4323,-13171],[-14721,1295],[-6026,-13334],[-21077,4452],[-499,-2286]],[[310607,180139],[-19120,6237]],[[291487,186376],[-423,8599],[-1501,7369],[-4707,2373],[1228,2678],[1511,6542],[1488,9623],[-2111,6313],[-4707,2928],[206,2765],[-748,3962],[-1905,2395],[-12873,5268],[3877,14445]],[[270822,261636],[10661,2993],[259,10570],[-3124,3897]],[[278618,279096],[-67,9764],[-4270,2874],[-3143,7521],[-3944,11484],[-2739,9993]],[[218956,61730],[196,5225],[1675,8512],[4884,35856],[8920,3004],[163,11680],[-14505,5725],[-475,5312],[-6290,4866],[-91,3059],[-1017,4800]],[[212416,149769],[-1790,1372]],[[210626,151141],[4659,391],[3911,6989],[5249,-1187],[4572,251],[2428,7064],[2149,2079],[10009,1785],[3205,6727],[2639,1470],[8180,479],[3393,16719]],[[261020,193908],[22200,-4648]],[[283220,189260],[27387,-9121]],[[310607,180139],[-6247,-29064],[18414,-7783],[-854,-5475],[10047,-3864],[-940,-6575],[2001,-3766],[350,-2242],[-4165,-7947],[-9912,8262],[-3892,-76],[-2034,-1752],[-8094,-16589],[-8512,-14565],[-883,-1959],[-772,-3984],[-2697,-3712],[-4203,-316],[-1722,2613],[-1780,6575],[-2466,4430],[-3229,1382],[-7087,457],[-4961,-6335],[-5916,-10689],[216,-2134],[-1243,-1730],[-4452,-272],[-2073,903],[-12748,-3298],[-7499,-3603],[-3992,-5029],[-1387,-316],[-2404,1579],[-2437,272],[-2663,-599],[-1415,-1208]],[[571017,644010],[-1598,-43],[-792,1284],[2467,1426],[1007,-1426],[-1084,-1241]],[[705192,634987],[-4083,-4844],[110,-8883],[-4918,-653],[-729,-3276],[-6755,-2275],[-1080,-6335],[-5705,-1644],[-388,-7348]],[[681644,599729],[-2726,-272],[-5215,1938],[-5450,-577],[-6473,-2656],[-3512,-5541],[-2941,22],[-9812,-7696],[-4846,-2166],[-5892,2874],[-10181,-8523],[-5926,-3396],[-11515,2471],[-12273,21],[-17849,6346],[-13616,2384],[-4827,-860],[-22435,-12050],[-9620,-3788],[-20296,-3711]],[[506239,564549],[437,947]],[[506676,565496],[-13564,6030],[-6410,-6074],[-20742,8643],[3129,7717]],[[469089,581812],[-31629,-17873]],[[469520,693658],[76010,10166],[31523,6129],[63957,5018]],[[164743,208625],[3863,-5758],[6136,-6150],[5974,-9492],[6252,-13977],[5661,-9219],[5455,-2537],[4036,-5529],[3972,-1350]],[[206092,154613],[6324,-4844]],[[218956,61730],[-955,-2112],[350,-1818],[2788,-5638],[-3906,-2232],[-6280,-1164],[-1517,-16579],[1891,-2949],[-849,-9329],[1578,-3396],[-422,-6041],[-1684,-6270],[-2116,-2907],[-3699,-1295],[-4458,1034],[-4006,2754],[2989,14619],[-705,1959],[-1430,827],[-9663,871],[288,2624],[-1032,3711],[-8876,3952],[-3200,-3669],[-2169,1252],[72,3952],[2106,11875],[-815,3092],[-27349,5344],[-278,21346],[614,6792],[-230,6368],[-1204,4006],[-922,10395],[1008,3865],[1353,2329],[8771,8295],[2341,3842],[-533,3004],[-993,2068],[-5748,4529],[-2216,3526],[-811,4289],[1300,10385],[-3781,15391],[-1866,10167],[-3172,2830],[931,8632],[1214,6074],[2150,3266],[4495,4561],[7327,4702],[4788,4800],[4318,-1034]],[[400271,558507],[14332,-4212]],[[420711,554926],[28192,15087],[20186,11799]],[[506676,565496],[-12067,-26310]],[[494609,539186],[6233,-4343],[-7831,-19909],[-4548,-7750],[5383,-3919],[-3901,-9252],[-10339,-13052],[7312,-7859],[5278,5367],[5575,-4246],[-4525,-13639],[13593,-4680],[1310,-2460],[-1353,-3440],[4347,-2678],[2725,-446],[1219,-3015],[10690,-4866]],[[525777,438999],[14801,-76]],[[540578,438923],[-2639,-7631],[-20708,969],[-12402,2591],[-1526,4735],[-19988,4267],[-3076,-25940],[-8507,2417],[-3805,-26081],[-4145,-23936]],[[463782,370314],[-4572,1567]],[[459210,371881],[-4429,9720],[-8967,15305],[-5072,11930],[6103,4757],[-20742,26135],[-7288,10777],[-6899,12115],[-4923,3157],[-4582,1415],[-3402,4354],[447,3864],[-24,7021],[-5820,5475],[-5158,6509],[-1229,4071],[456,11441],[-10253,17177],[16299,8174],[24,7566],[6520,15663]],[[191905,244165],[4265,15490],[-11601,3701]],[[184569,263356],[6083,16970],[3244,2046],[8492,2297],[2644,10439],[1382,1306],[3425,65],[672,2754],[2471,1796],[1545,-664],[4544,5846],[2135,413],[10210,7391],[7413,33],[2639,3995],[2245,2068],[5566,-141],[931,6063]],[[278618,279096],[-9816,-5301],[-16620,18058],[-13751,-5388],[-1761,-11582],[6319,-7717],[10435,-229],[11088,-5900],[6310,599]],[[291487,186376],[-8267,2884]],[[261020,193908],[-835,2852],[-5595,4616],[379,1915],[-5273,1807]],[[249696,205098],[-12038,8959]],[[237658,214057],[-3838,4735],[2384,5399],[-182,5584],[-3023,1328],[-153,6139],[-6852,2428],[-1430,11244],[-9106,4496],[-8564,261],[-6161,-13846],[-8828,2340]],[[237658,214057],[5873,-4888],[6165,-4071]],[[210626,151141],[-4534,3472]],[[164743,208625],[3114,969],[6617,4975],[6050,-2548],[2850,697],[7082,26135],[1449,5312]],[[663872,416717],[-1286,-3690],[10,-4245],[3737,-6477],[7034,-5214],[1267,-3396],[624,-5236],[-754,-3799],[-5417,-6444],[2841,-10809],[206,-4572],[734,-3265],[1886,-2961],[3474,-490],[3440,-7554],[-1080,-6825],[1233,-6226],[-7120,-4333],[91,-7935],[-1991,-3222],[-326,-11516],[1175,-12083],[-2547,-2732],[-269,-3048],[-1799,-4147],[-547,-4681],[1324,-6194],[499,-6302],[-2836,-2515],[-8842,-4974],[-1138,-5127],[-2605,-2863],[-2025,-990],[-5824,32],[-2894,-3091],[-39079,-1252],[-19211,392],[-12048,2406],[-7370,152],[-5767,-3505],[-13899,4278],[-3680,2003],[-2136,-4137],[-2581,414],[-2931,-8218],[-6175,979],[-2846,-8457]],[[526424,234848],[-4639,3276],[3507,14815],[3517,11440],[-2629,9144],[-9140,13911],[-11041,6629],[-3963,-3549],[-11453,1862],[-7081,10645],[5752,6934],[1948,4441],[-15780,14249],[-2274,5116],[16980,31262]],[[490128,365023],[-26346,5291]],[[540578,438923],[3863,-22]],[[544441,438901],[45499,-13095],[1497,24557],[3867,17068],[-537,9721],[460,4147],[1560,3951],[2096,-969],[1632,-5116],[4553,1666],[2447,4060],[2821,1426],[5115,-19964],[2864,-18112],[1924,-6325],[10306,5563],[11295,-5715],[3320,4125],[4548,-1230],[10076,-17438],[4088,-10504]],[[240211,612868],[7753,-817],[8397,-7565],[4088,-10624],[5474,-18254]],[[203468,386195],[-3795,-327]],[[199673,385868],[-41234,7217],[-5312,-11484],[-13468,-544],[-6784,-26549],[4059,-6302],[-81,-10330],[-5091,555],[-11314,1154],[-13837,-1230],[-2423,-12790],[-10565,283],[-1300,14009],[-8752,-76],[1751,23152],[-62,10907],[-8161,24775],[11486,7554],[8032,8458],[2245,3287],[2874,6629],[-1031,2254],[-2654,2873],[-7005,3527],[-7772,6618],[-6770,3212],[-231,2525],[-7681,16055],[1430,3593],[3373,4397],[2514,1905],[614,3331],[197,6575],[-2486,5399],[-5992,4637],[-5983,7892],[-16525,13018],[-8622,1470],[-2490,2514],[-5556,2819],[-9202,-250],[-3345,1121],[-3622,2504],[-5868,6379],[-4769,8577],[-2260,7195],[4769,1959],[8440,6118],[11280,2754],[14063,-3941],[3392,1078],[3090,-849],[8842,7946],[31998,2515],[11285,-1372],[6856,2047],[10206,261],[13808,-2395],[-201,-5551],[930,-5595],[13996,-3309],[2188,5203],[-542,7532],[18458,599],[4654,14249],[12028,1077],[5931,-1143],[5297,-2231],[7686,14608],[14744,-2537],[8612,-4147],[10417,-2634],[7984,35943]],[[390992,560837],[9279,-2330]],[[459210,371881],[-13540,4594]],[[445670,376475],[-20301,5344]],[[425369,381819],[-40187,8240],[-11487,3527]],[[579903,743087],[-639,-522],[-671,707],[964,1034],[557,-696],[-211,-523]],[[387283,775536],[1516,5323]],[[388799,780859],[-254,14782],[5618,54208]],[[394163,849849],[45831,-4158],[66058,-1655],[133571,1252]],[[390195,388971],[35174,-7152]],[[445670,376475],[21629,-7370],[22829,-4082]],[[526424,234848],[-4817,-14423],[-18664,5083],[-6444,-16665],[-21850,1731],[-4323,-13095],[-5311,1012],[-6084,-15675],[-53166,9068],[-2519,-13857],[-23347,4408],[4467,16720],[-27113,4028]],[[240211,612868],[-6338,424],[-9265,4213],[-5638,6738],[-13713,26603],[-1501,8687],[-2678,4016],[-19782,-2612],[-7158,-2439],[-1632,18592],[629,22043],[-2658,16088],[1497,15903],[-374,9089],[-3369,9188],[86249,51378],[25650,14618],[13986,7032],[-1627,5356],[567,8501],[5330,457],[3152,3353],[3205,871],[5825,4811],[3215,860],[9668,8098],[70712,-4887]],[[388799,780859],[-3915,-13792]],[[184569,263356],[-10724,3363],[9073,50312],[3215,936],[13540,67901]],[[783994,853964],[2884,3385],[32453,18896],[21284,14108],[1627,5388],[-946,4539],[461,4789],[4947,7500],[1324,4311],[1617,3080],[6256,4017],[2030,3276],[3675,3179],[7663,1948],[10085,-4136],[-787,2787],[240,2830],[1718,2198],[7264,5770],[2974,4332],[-33,5649],[-2625,6412],[10628,6411],[13007,5225],[1363,1981],[504,2482],[6971,2351],[878,3538],[-561,3331],[-1454,4702],[-1123,1720],[965,1796],[8737,6248],[9015,87],[5172,1905],[7893,-4017],[4405,-250],[8055,4049],[-72,-4931],[-3200,-4996],[-4064,-3603],[-278,-4583],[796,-12137],[5,-6694],[1771,-10352],[9289,-7391],[3061,936],[4946,-446],[6713,3462],[9054,478],[2792,-5442],[-729,-4768],[-4199,-5007],[4189,-4365],[4342,-2068],[2131,-4398],[892,-4060],[-3008,-2678],[-10652,2352],[-3229,-1459],[-739,-3015],[-3574,-3418],[3094,-1720],[5700,-98],[2683,-1916],[4207,-7032],[-705,-4778],[-4342,-4648],[-6180,-3266],[-8013,-1894],[-1890,-4452],[-3973,-1839],[-2082,-4115],[-6669,-4898],[-6103,-3320],[-4592,-5769],[-326,-1960],[-1507,-2503],[-6266,-2994],[3181,-15152],[-77,-3189],[-11323,-8632],[-5916,-164],[-7552,-3232],[-777,-4463],[-1070,-2341],[-5043,-1578],[-4395,-2623],[-3857,-5106],[-3872,-1023],[-8694,1089],[-3387,-2613],[-6914,-8969],[-5307,-2710],[-4270,-3560],[-6972,-849],[-3401,-1752],[-2673,-3680],[-1089,-4234],[-182,-2928],[-3440,-3527],[3104,-5715],[892,-4560],[-4793,2068],[-3200,-1230]],[[574874,499357],[-2101,-849],[-931,2711],[1627,707],[1789,-1894],[-384,-675]],[[681644,599729],[3718,-3352],[1790,-2656],[-3296,-1579],[-2419,-5769],[-810,-3820],[-5451,-7685],[662,-2417],[3253,-1262],[2797,-3440],[1301,-6270],[-984,-12899],[-158,-7652],[1857,-4964],[4778,-751],[3009,479],[2701,-7718],[-5148,-5137],[-1579,-3364],[-134,-3385],[-4213,-2210],[-3224,-3004],[-2912,-9895],[-2980,-1916],[1622,-7467],[-811,-10907],[-1118,-8283],[-2413,-7707],[-240,-8186],[-2068,-4659],[859,-5573],[-3685,-2895],[2048,-6684],[-1295,-3679],[-2696,-2253],[-322,-4474],[1612,-3178],[969,-3603],[-2792,-2798]],[[544441,438901],[-18664,98]],[[494609,539186],[11630,25363]]],"bbox":[45.4244,59.2241,66.2665,68.4109],"transform":{"scale":[0.000020842120842120837,0.000009186809186809184],"translate":[45.4244,59.2241]}}