{"type":"Topology","objects":{"muni":{"type":"GeometryCollection","geometries":[{"type":"MultiPolygon","arcs":[[[0,1,2,3,4,5,6,7]]],"properties":{"GID_2":"RUS.33.1_1","GID_0":"RUS","COUNTRY":"Russia","GID_1":"RUS.33_1","NAME_1":"Kostroma","NL_NAME_1":"Костромскаяобласть","NAME_2":"Antropovskiyrayon","VARNAME_2":"NA","NL_NAME_2":"Антроповскийрайон","TYPE_2":"Raion","ENGTYPE_2":"District","CC_2":"R13000","HASC_2":"RU.KT.AN"}},{"type":"MultiPolygon","arcs":[[[8]]],"properties":{"GID_2":"RUS.33.2_1","GID_0":"RUS","COUNTRY":"Russia","GID_1":"RUS.33_1","NAME_1":"Kostroma","NL_NAME_1":"Костромскаяобласть","NAME_2":"Buy","VARNAME_2":"NA","NL_NAME_2":"Буй","TYPE_2":"Gorod","ENGTYPE_2":"City","CC_2":"NA","HASC_2":"RU.KT.BG"}},{"type":"MultiPolygon","arcs":[[[9,10,11,12,13,14],[-9]]],"properties":{"GID_2":"RUS.33.3_1","GID_0":"RUS","COUNTRY":"Russia","GID_1":"RUS.33_1","NAME_1":"Kostroma","NL_NAME_1":"Костромскаяобласть","NAME_2":"Buyskiyrayon","VARNAME_2":"NA","NL_NAME_2":"Буйскийрайон","TYPE_2":"Raion","ENGTYPE_2":"District","CC_2":"R13000","HASC_2":"RU.KT.BR"}},{"type":"MultiPolygon","arcs":[[[15,-2,16,17,18,19,20]]],"properties":{"GID_2":"RUS.33.4_1","GID_0":"RUS","COUNTRY":"Russia","GID_1":"RUS.33_1","NAME_1":"Kostroma","NL_NAME_1":"Костромскаяобласть","NAME_2":"Chukhlomskiyrayon","VARNAME_2":"NA","NL_NAME_2":"Чухломскийрайон","TYPE_2":"Raion","ENGTYPE_2":"District","CC_2":"R13002","HASC_2":"RU.KT.CH"}},{"type":"MultiPolygon","arcs":[[[21]]],"properties":{"GID_2":"RUS.33.5_1","GID_0":"RUS","COUNTRY":"Russia","GID_1":"RUS.33_1","NAME_1":"Kostroma","NL_NAME_1":"Костромскаяобласть","NAME_2":"Galich","VARNAME_2":"NA","NL_NAME_2":"Галич","TYPE_2":"Gorod","ENGTYPE_2":"City","CC_2":"NA","HASC_2":"RU.KT.GG"}},{"type":"MultiPolygon","arcs":[[[-1,22,23,24,25,-10,-17],[-22]]],"properties":{"GID_2":"RUS.33.6_1","GID_0":"RUS","COUNTRY":"Russia","GID_1":"RUS.33_1","NAME_1":"Kostroma","NL_NAME_1":"Костромскаяобласть","NAME_2":"Galichskiyrayon","VARNAME_2":"NA","NL_NAME_2":"Галичскийрайон","TYPE_2":"Raion","ENGTYPE_2":"District","CC_2":"R13000","HASC_2":"RU.KT.GR"}},{"type":"MultiPolygon","arcs":[[[26,-7,27,28]]],"properties":{"GID_2":"RUS.33.7_1","GID_0":"RUS","COUNTRY":"Russia","GID_1":"RUS.33_1","NAME_1":"Kostroma","NL_NAME_1":"Костромскаяобласть","NAME_2":"Kadyyskiyrayon","VARNAME_2":"NA","NL_NAME_2":"Кадыйскийрайон","TYPE_2":"Raion","ENGTYPE_2":"District","CC_2":"R13000","HASC_2":"RU.KT.KA"}},{"type":"MultiPolygon","arcs":[[[-20,29,30,31,32,33,34,35]]],"properties":{"GID_2":"RUS.33.8_1","GID_0":"RUS","COUNTRY":"Russia","GID_1":"RUS.33_1","NAME_1":"Kostroma","NL_NAME_1":"Костромскаяобласть","NAME_2":"Kologrivskiyrayon","VARNAME_2":"NA","NL_NAME_2":"Кологривскийрайон","TYPE_2":"Raion","ENGTYPE_2":"District","CC_2":"R13000","HASC_2":"RU.KT.KO"}},{"type":"MultiPolygon","arcs":[[[36]]],"properties":{"GID_2":"RUS.33.9_1","GID_0":"RUS","COUNTRY":"Russia","GID_1":"RUS.33_1","NAME_1":"Kostroma","NL_NAME_1":"Костромскаяобласть","NAME_2":"Kostroma","VARNAME_2":"NA","NL_NAME_2":"Кострома","TYPE_2":"Gorsovet","ENGTYPE_2":"District","CC_2":"NA","HASC_2":"RU.KT.KG"}},{"type":"MultiPolygon","arcs":[[[-13,37,38,39,40,41],[-37]]],"properties":{"GID_2":"RUS.33.10_1","GID_0":"RUS","COUNTRY":"Russia","GID_1":"RUS.33_1","NAME_1":"Kostroma","NL_NAME_1":"Костромскаяобласть","NAME_2":"Kostromskoyrayon","VARNAME_2":"NA","NL_NAME_2":"Костромскойрайон","TYPE_2":"Raion","ENGTYPE_2":"District","CC_2":"R13000","HASC_2":"RU.KT.KR"}},{"type":"MultiPolygon","arcs":[[[42,-40,43,44]]],"properties":{"GID_2":"RUS.33.11_1","GID_0":"RUS","COUNTRY":"Russia","GID_1":"RUS.33_1","NAME_1":"Kostroma","NL_NAME_1":"Костромскаяобласть","NAME_2":"Krasnosel'skiyrayon","VARNAME_2":"NA","NL_NAME_2":"Красносельскийрайон","TYPE_2":"Raion","ENGTYPE_2":"District","CC_2":"R13000","HASC_2":"RU.KT.KS"}},{"type":"MultiPolygon","arcs":[[[-28,-6,45,46,47]]],"properties":{"GID_2":"RUS.33.12_1","GID_0":"RUS","COUNTRY":"Russia","GID_1":"RUS.33_1","NAME_1":"Kostroma","NL_NAME_1":"Костромскаяобласть","NAME_2":"Makar'evskiyrayon","VARNAME_2":"NA","NL_NAME_2":"Макарьевскийрайон","TYPE_2":"Raion","ENGTYPE_2":"District","CC_2":"R13000","HASC_2":"RU.KT.MA"}},{"type":"MultiPolygon","arcs":[[[48]]],"properties":{"GID_2":"RUS.33.13_1","GID_0":"RUS","COUNTRY":"Russia","GID_1":"RUS.33_1","NAME_1":"Kostroma","NL_NAME_1":"Костромскаяобласть","NAME_2":"Manturovo","VARNAME_2":"NA","NL_NAME_2":"Мантурово","TYPE_2":"Gorod","ENGTYPE_2":"City","CC_2":"NA","HASC_2":"RU.KT.MG"}},{"type":"MultiPolygon","arcs":[[[-33,49,50,51,52,-47,53],[-49]]],"properties":{"GID_2":"RUS.33.14_1","GID_0":"RUS","COUNTRY":"Russia","GID_1":"RUS.33_1","NAME_1":"Kostroma","NL_NAME_1":"Костромскаяобласть","NAME_2":"Manturovskiyrayon","VARNAME_2":"NA","NL_NAME_2":"Мантуровскийрайон","TYPE_2":"Raion","ENGTYPE_2":"District","CC_2":"R13001","HASC_2":"RU.KT.MR"}},{"type":"MultiPolygon","arcs":[[[-31,54,55,56,-51,57]]],"properties":{"GID_2":"RUS.33.15_1","GID_0":"RUS","COUNTRY":"Russia","GID_1":"RUS.33_1","NAME_1":"Kostroma","NL_NAME_1":"Костромскаяобласть","NAME_2":"Mezhevskiyrayon","VARNAME_2":"NA","NL_NAME_2":"Межевскийрайон","TYPE_2":"Raion","ENGTYPE_2":"District","CC_2":"R13001","HASC_2":"RU.KT.ME"}},{"type":"MultiPolygon","arcs":[[[58]]],"properties":{"GID_2":"RUS.33.16_1","GID_0":"RUS","COUNTRY":"Russia","GID_1":"RUS.33_1","NAME_1":"Kostroma","NL_NAME_1":"Костромскаяобласть","NAME_2":"Nerekhta","VARNAME_2":"NA","NL_NAME_2":"Нерехта","TYPE_2":"Gorod","ENGTYPE_2":"City","CC_2":"NA","HASC_2":"RU.KT.NT"}},{"type":"MultiPolygon","arcs":[[[-41,-43,59],[-59]]],"properties":{"GID_2":"RUS.33.17_1","GID_0":"RUS","COUNTRY":"Russia","GID_1":"RUS.33_1","NAME_1":"Kostroma","NL_NAME_1":"Костромскаяобласть","NAME_2":"Nerekhtskiyrayon","VARNAME_2":"NA","NL_NAME_2":"Нерехтскийрайон","TYPE_2":"Raion","ENGTYPE_2":"District","CC_2":"R13001","HASC_2":"RU.KT.NK"}},{"type":"MultiPolygon","arcs":[[[60]]],"properties":{"GID_2":"RUS.33.18_1","GID_0":"RUS","COUNTRY":"Russia","GID_1":"RUS.33_1","NAME_1":"Kostroma","NL_NAME_1":"Костромскаяобласть","NAME_2":"Neya","VARNAME_2":"NA","NL_NAME_2":"Нея","TYPE_2":"Gorod","ENGTYPE_2":"City","CC_2":"NA","HASC_2":"RU.KT.NG"}},{"type":"MultiPolygon","arcs":[[[-5,61,-35,62,-54,-46],[-61]]],"properties":{"GID_2":"RUS.33.19_1","GID_0":"RUS","COUNTRY":"Russia","GID_1":"RUS.33_1","NAME_1":"Kostroma","NL_NAME_1":"Костромскаяобласть","NAME_2":"Neyskiyrayon","VARNAME_2":"NA","NL_NAME_2":"Нейскийрайон","TYPE_2":"Raion","ENGTYPE_2":"District","CC_2":"R13001","HASC_2":"RU.KT.NR"}},{"type":"MultiPolygon","arcs":[[[63,64,65]]],"properties":{"GID_2":"RUS.33.20_1","GID_0":"RUS","COUNTRY":"Russia","GID_1":"RUS.33_1","NAME_1":"Kostroma","NL_NAME_1":"Костромскаяобласть","NAME_2":"Oktyabr'skiy","VARNAME_2":"NA","NL_NAME_2":"Октябрьскийрайон","TYPE_2":"Raion","ENGTYPE_2":"District","CC_2":"R13001","HASC_2":"RU.KT.OK"}},{"type":"MultiPolygon","arcs":[[[66,67,-23,-8,-27]]],"properties":{"GID_2":"RUS.33.21_1","GID_0":"RUS","COUNTRY":"Russia","GID_1":"RUS.33_1","NAME_1":"Kostroma","NL_NAME_1":"Костромскаяобласть","NAME_2":"Ostrovskiyrayon","VARNAME_2":"NA","NL_NAME_2":"Островскийрайон","TYPE_2":"Raion","ENGTYPE_2":"District","CC_2":"R13001","HASC_2":"RU.KT.OS"}},{"type":"MultiPolygon","arcs":[[[-4,68,-21,-36,-62]]],"properties":{"GID_2":"RUS.33.22_1","GID_0":"RUS","COUNTRY":"Russia","GID_1":"RUS.33_1","NAME_1":"Kostroma","NL_NAME_1":"Костромскаяобласть","NAME_2":"Parfen'evskiyrayon","VARNAME_2":"NA","NL_NAME_2":"Парфеньевскийрайон","TYPE_2":"Raion","ENGTYPE_2":"District","CC_2":"R13001","HASC_2":"RU.KT.PF"}},{"type":"MultiPolygon","arcs":[[[69,70,71]]],"properties":{"GID_2":"RUS.33.23_1","GID_0":"RUS","COUNTRY":"Russia","GID_1":"RUS.33_1","NAME_1":"Kostroma","NL_NAME_1":"Костромскаяобласть","NAME_2":"Pavinskiyrayon","VARNAME_2":"NA","NL_NAME_2":"Павинскийрайон","TYPE_2":"Raion","ENGTYPE_2":"District","CC_2":"R13001","HASC_2":"RU.KT.PV"}},{"type":"MultiPolygon","arcs":[[[72,73,74,-64]]],"properties":{"GID_2":"RUS.33.24_1","GID_0":"RUS","COUNTRY":"Russia","GID_1":"RUS.33_1","NAME_1":"Kostroma","NL_NAME_1":"Костромскаяобласть","NAME_2":"Ponazyrevskiyrayon","VARNAME_2":"NA","NL_NAME_2":"Поназыревскийрайон","TYPE_2":"Raion","ENGTYPE_2":"District","CC_2":"R13001","HASC_2":"RU.KT.PO"}},{"type":"MultiPolygon","arcs":[[[-56,75,-70,76,77,78]]],"properties":{"GID_2":"RUS.33.25_1","GID_0":"RUS","COUNTRY":"Russia","GID_1":"RUS.33_1","NAME_1":"Kostroma","NL_NAME_1":"Костромскаяобласть","NAME_2":"Pyshchugskiyrayon","VARNAME_2":"NA","NL_NAME_2":"Пыщугскийрайон","TYPE_2":"Raion","ENGTYPE_2":"District","CC_2":"R13001","HASC_2":"RU.KT.PY"}},{"type":"MultiPolygon","arcs":[[[-52,-57,-79,79,80,-74,81],[82]]],"properties":{"GID_2":"RUS.33.26_1","GID_0":"RUS","COUNTRY":"Russia","GID_1":"RUS.33_1","NAME_1":"Kostroma","NL_NAME_1":"Костромскаяобласть","NAME_2":"Shar'inskiyrayon","VARNAME_2":"NA","NL_NAME_2":"Шарьинскийрайон","TYPE_2":"Raion","ENGTYPE_2":"District","CC_2":"R13002","HASC_2":"RU.KT.SR"}},{"type":"MultiPolygon","arcs":[[[-83]]],"properties":{"GID_2":"RUS.33.27_1","GID_0":"RUS","COUNTRY":"Russia","GID_1":"RUS.33_1","NAME_1":"Kostroma","NL_NAME_1":"Костромскаяобласть","NAME_2":"Shar'ya","VARNAME_2":"Sharya","NL_NAME_2":"Шарья","TYPE_2":"Gorsovet","ENGTYPE_2":"District","CC_2":"NA","HASC_2":"RU.KT.SG"}},{"type":"MultiPolygon","arcs":[[[-15,83,-18]]],"properties":{"GID_2":"RUS.33.28_1","GID_0":"RUS","COUNTRY":"Russia","GID_1":"RUS.33_1","NAME_1":"Kostroma","NL_NAME_1":"Костромскаяобласть","NAME_2":"Soligalichskiyrayon","VARNAME_2":"NA","NL_NAME_2":"Солигаличскийрайон","TYPE_2":"Raion","ENGTYPE_2":"District","CC_2":"R13002","HASC_2":"RU.KT.SO"}},{"type":"MultiPolygon","arcs":[[[84,-44,-39,85,-24,-68]]],"properties":{"GID_2":"RUS.33.29_1","GID_0":"RUS","COUNTRY":"Russia","GID_1":"RUS.33_1","NAME_1":"Kostroma","NL_NAME_1":"Костромскаяобласть","NAME_2":"Sudislavskiyrayon","VARNAME_2":"NA","NL_NAME_2":"Судиславскийрайон","TYPE_2":"Raion","ENGTYPE_2":"District","CC_2":"R13002","HASC_2":"RU.KT.SD"}},{"type":"MultiPolygon","arcs":[[[-12,86,-25,-86,-38]]],"properties":{"GID_2":"RUS.33.30_1","GID_0":"RUS","COUNTRY":"Russia","GID_1":"RUS.33_1","NAME_1":"Kostroma","NL_NAME_1":"Костромскаяобласть","NAME_2":"Susaninskiyrayon","VARNAME_2":"NA","NL_NAME_2":"Сусанинскийрайон","TYPE_2":"Raion","ENGTYPE_2":"District","CC_2":"R13002","HASC_2":"RU.KT.SS"}},{"type":"MultiPolygon","arcs":[[[-65,-75,-81,87,-77,-72,88]]],"properties":{"GID_2":"RUS.33.31_1","GID_0":"RUS","COUNTRY":"Russia","GID_1":"RUS.33_1","NAME_1":"Kostroma","NL_NAME_1":"Костромскаяобласть","NAME_2":"Vokhomskiyrayon","VARNAME_2":"NA","NL_NAME_2":"Вохомскийрайон","TYPE_2":"Raion","ENGTYPE_2":"District","CC_2":"R13000","HASC_2":"RU.KT.VK"}}]}},"arcs":[[[288661,375997],[11758,16342],[11191,37917],[11357,8193],[1038,85999],[-4496,8107]],[[319509,532555],[9822,19902],[11910,-8664]],[[341241,543793],[30240,-1201]],[[371481,542592],[5505,-10166],[2573,-12481],[-1203,-20117],[13294,-32084],[1549,-19645],[-1591,-42163],[3929,-14798],[7055,-11624]],[[402592,379514],[2213,-14283],[9338,-10552],[8936,-4675],[7692,-28138]],[[430771,321866],[996,-11581],[-2726,-10894]],[[429041,299391],[-39273,-6048],[-12602,7763],[-9102,-2616],[-25149,16685],[-4288,-5061],[-1453,-13554],[844,-48769],[-14497,-4247]],[[323521,243544],[-7968,6306],[650,13039],[4579,8278],[-31817,48984],[-9670,21789],[13599,26508],[-4233,7549]],[[160204,510465],[-2919,43],[2961,1330],[-42,-1373]],[[247520,614737],[-8563,-14540],[-2490,-11195],[-2656,-24578],[-3237,-6348],[-17333,-6305],[-36050,-83641],[18565,-56832]],[[195756,411298],[-28303,13168]],[[167453,424466],[-7221,-3818],[-12298,3045],[-8632,-14712],[-12506,5491],[-7373,-13040],[-10084,-643]],[[109339,400789],[-16324,17114],[-10859,-2531]],[[82156,415372],[6115,12268],[13985,7377],[10043,21489],[-8618,15184],[-5741,14627],[-3735,34829],[-15452,12224],[6889,10552],[5174,-4504],[2172,4932],[-5644,13683],[4413,601],[9351,21875],[10195,3131],[10596,32599],[-14898,28437],[5685,13126],[2712,13811],[5948,-5061],[-387,23376],[-7747,5619],[-1632,4890],[4869,14412],[6267,2659],[-346,11624],[6903,6648],[5588,-24749],[7373,18787],[5174,1716],[7028,11452]],[[154436,742986],[332,-31183],[11274,-8063],[6640,-26422],[10679,858],[6087,-25779],[36783,-17329],[21289,-20331]],[[350924,542592],[-9683,1201]],[[319509,532555],[-6294,2445],[-9836,-4890],[-10679,2059],[-6460,36759],[-4662,11838],[-8771,3904],[-25287,30067]],[[247520,614737],[3445,19559],[72002,81882],[2048,10423],[-1481,38861],[2864,6906],[13252,18186]],[[339650,790554],[-3209,8493],[7235,4161],[650,22475],[2905,-257],[2808,-7807],[19989,9180],[-650,10251],[11911,13940],[13349,-18787],[3901,5362],[4620,-11581],[5838,3517],[-913,22476],[11191,3259],[10832,11496],[-1176,-18230],[6059,-14583],[-4289,-10552],[4386,-8407]],[[435087,814960],[-2698,-19645],[-11482,-20159],[3389,-31569],[28483,-5405],[1508,-56146]],[[454287,682036],[-33905,-12997],[-11814,7206],[-10154,-16728],[-23143,-23076],[-1383,-38775],[-16656,-19602],[-6308,-35472]],[[270304,457450],[-1564,-300],[415,1630],[1149,-1330]],[[288661,375997],[-9048,4847],[-11177,-22733],[-3763,-11796],[-17706,-24749]],[[246967,321566],[-15466,19259],[-8314,18830]],[[223187,359655],[-4855,26336],[-11551,8235],[1466,10466]],[[208247,404692],[-12491,6606]],[[320823,173501],[5713,28052],[-3015,41991]],[[429041,299391],[222,-18230],[-3334,-19430],[5879,-52115],[747,-38989],[-4662,-6906],[-16448,-8793],[-23821,-6391]],[[387624,148537],[-5436,-9436],[-4745,-21189],[5589,-43751],[-3998,-15269],[-6834,-12740],[-8065,-3474],[-21663,3818],[-9600,10380],[-5284,14883],[11799,19517],[-636,9994],[-6114,9908],[-484,13425],[3333,20674],[1494,18744],[-16157,9480]],[[435087,814960],[10803,8622],[-1867,12610],[25398,20074],[3057,-6649],[-2684,-18100],[13612,1887],[15660,-12696],[21718,11195],[3099,-18487],[16254,-6262],[775,-12611],[26670,10123],[6225,-6005],[18952,686]],[[592759,799347],[2061,-38903],[8881,-9823],[7097,-40962],[-12589,-22862],[9545,-120228]],[[607754,566569],[-5325,-12911]],[[602429,553658],[-20695,-8836],[-2006,-13897],[-6806,-5233]],[[572922,525692],[-38872,85871]],[[534050,611563],[-9296,11453],[-19366,7892]],[[505388,630908],[-6073,24920],[-10887,5491],[-2642,20460],[-5312,4289],[-14069,-5791],[-12118,1759]],[[85379,187570],[-10914,-12825],[-6612,429],[-9006,10637],[9960,1287],[97,28781],[16462,-2745],[2932,-16857],[-927,-7635],[-1992,-1072]],[[109339,400789],[-1771,-20331],[-55,-26165],[10223,-19387],[3001,-16686],[-110,-9779],[6156,-19087]],[[126783,289354],[-12796,-36502],[-996,-19731],[-8411,-29381]],[[104580,203740],[-22825,-46110],[2379,-22390],[5935,-25092],[-2158,-20717]],[[87911,89431],[-14636,9565],[-12865,14755],[-15203,12353]],[[45207,126104],[-16918,52115],[2407,15956],[9822,24106],[-8189,26250],[-2573,16943],[20805,25821],[2241,19044],[-3486,15999],[-318,11495],[12948,12997],[9351,13339],[-5685,23420],[9697,8836],[7110,13897],[-263,9050]],[[103930,60607],[-16019,28824]],[[104580,203740],[13612,-19044],[8438,-1244],[10043,-16814],[10970,12010],[17071,-729]],[[164714,177919],[7608,-43922],[-526,-30583],[-5367,-23891],[-10361,-2831],[-26505,-11881],[-15562,-12696],[-10071,8492]],[[430771,321866],[10914,258],[10804,-22133],[11080,40877],[11261,5018],[16683,-11281],[14359,21361],[-982,12482],[21151,643]],[[526041,369091],[9199,-20503],[13529,-38303],[48929,-23333],[19546,-17415]],[[617244,269537],[1300,-19044],[-1922,-10080],[-5257,-2488],[3071,-21231],[-9739,-11110],[-180,-25178],[-2711,-4546],[-20017,4075],[-14428,-30497],[-5464,-31011],[-10832,-18316],[-17208,-1629],[-7055,-13898],[-13516,-3903],[-5159,-13125],[-12769,2402],[-5699,-7378],[-30060,8193],[-2407,20417],[-8701,12953],[-7262,7292],[-7180,-3732],[-10057,4890],[-14414,-10165],[-12768,-20846],[-5202,-17071],[-2504,76863],[-1480,7163]],[[604766,433773],[-2614,2274],[1273,3088],[2213,-2059],[-872,-3303]],[[602429,553658],[9918,20288]],[[612347,573946],[5603,3174],[8327,-6691],[17624,-33628],[11357,-15570],[16033,-31569]],[[671291,489662],[-25647,-42978],[-5298,-18144],[-554,-67813],[3998,-21618]],[[643790,339109],[-5879,-7463],[-17969,4118],[-6350,-14841],[3652,-51386]],[[526041,369091],[-2476,17114],[11523,6048],[-152,47397],[2351,42420],[8466,10509],[14581,3260],[8770,8192],[3818,21661]],[[592759,799347],[42510,-11624],[9393,29553],[29631,-1201]],[[674293,816075],[6750,-115424],[12284,-16857],[692,-30925],[-8134,-9565],[-3693,-37102]],[[682192,606202],[-6018,-6306],[-2227,-11838],[13225,-13897],[-1024,-27323],[-14207,-33885],[-650,-23291]],[[612347,573946],[-4593,-7377]],[[19657,69057],[-1715,2316],[3223,1158],[-1508,-3474]],[[103930,60607],[0,-17671],[-8840,-19431],[-7981,515],[-56,-13426],[-15839,15785],[-18592,-8321],[-7719,2488],[-4593,-12482],[-13695,5662],[-7055,-12782],[-6598,-944],[-1563,7378],[-7747,12310],[1895,14240],[-5547,14541],[5644,1072],[-4385,34185],[8341,8021],[-2822,18659],[11067,4804],[-1549,20545],[6280,-9779],[3389,13082],[9836,-8750],[4094,12825],[5312,-17029]],[[481774,416402],[-2905,2144],[733,2703],[2601,-901],[-429,-3946]],[[402592,379514],[16586,20975],[-387,5447],[7124,7635],[10195,2359],[-2006,34228],[2726,16042],[5284,11624],[15438,10466],[11980,-11195],[6183,-10509],[11136,10294],[539,8236],[-14760,33542],[1301,10937],[13376,25865],[-3845,10894],[-19450,23548],[-6751,12825],[1868,8879],[7193,-2359],[11191,-10208],[13834,19773],[14041,12096]],[[534050,611563],[8867,-17800],[30005,-68071]],[[923542,622801],[-36008,-4675],[-2255,12353],[-5312,1544]],[[879967,632023],[22382,43279],[6585,21403],[2061,27451],[-1411,28996],[-3306,25864],[-5049,18229],[3389,8793],[6944,3303],[12008,21575],[1355,30626],[-3126,29038]],[[921799,890580],[29119,-7764],[-1466,-14369],[-1632,-15913],[5879,-15270],[-5063,-5704],[9033,-29210],[13335,-10295],[4662,15699],[3943,-12396],[-678,-14026],[9144,-14540],[4468,-18187],[927,-17114],[6529,-20760],[-2117,-14583],[-4855,3774],[-7152,-6949],[-8521,987],[-9988,7892],[-10057,944],[-4260,-4890],[7414,-17286],[-6460,-9693],[8286,-20717],[-16793,-15142],[-11026,4976],[-10928,-17243]],[[320823,173501],[-5755,-22562],[-23323,-5533],[-5588,8879],[-12091,-8750],[-4039,-15999],[-16240,-4847],[-7512,7849],[-7193,-9651],[-10652,8751],[-4371,9307],[-7263,4247],[-2531,15484],[-19810,14969],[-15742,-128]],[[178713,175517],[623,31697],[13072,4590],[25412,55632],[6986,8192],[22161,45938]],[[371481,542592],[-20557,0]],[[797506,690958],[-23516,-1159],[-11648,15785],[-4081,12482],[-1729,19988],[-7428,12481],[-734,15785],[5354,12224],[-5201,14026]],[[748523,792570],[-5852,26379],[22355,-3131],[16890,61723],[10970,-2874],[5298,14712],[29991,5576]],[[828175,894955],[15120,-12182],[12408,-99425],[-18606,-18272],[-9558,-35043],[-10666,-6906],[-19367,-32169]],[[923542,622801],[-7857,-12396],[3624,-31311],[-16545,-6091],[-5837,6262],[-7968,-12224],[-17154,-5019],[-3541,6820],[-10112,-26851],[-2601,-17543],[4745,-16428],[-733,-15698],[-13806,-4418],[-11772,-14970],[7332,-3603],[3181,-6691],[-10057,-20846],[3998,-17028],[-1079,-13211],[3777,-2917],[-5354,-15656],[-8258,-1286],[-8010,-28095],[2338,-11753],[6004,-10122],[-9614,-6220],[-10555,472]],[[807688,335978],[-11662,99940],[-19380,-2702],[-2532,9222],[-10209,2487],[-180,34357],[-3652,21575],[29258,4933],[13238,12182],[7387,22389],[4731,26122]],[[814687,566483],[10002,300],[3306,31312],[5506,8107],[9752,-2874],[2656,17843],[11925,-4847],[22133,15699]],[[674293,816075],[6377,15527],[48486,-11881],[3693,12353],[8937,-5790],[6737,-33714]],[[797506,690958],[-2476,-26980],[-7124,-2788],[-3444,-11409],[6432,-14284]],[[790894,635497],[10375,-5619]],[[801269,629878],[-6944,-19087],[-35953,-12353],[-5478,-12996],[-7733,11538],[-7401,1372],[-4897,-18229],[-6322,-3131],[-10043,15698],[-10997,8021],[-23309,5491]],[[801269,629878],[8978,-3345]],[[810247,626533],[3361,-7335],[2905,-23505],[-1826,-29210]],[[807688,335978],[-10237,-1673],[-6474,-4632],[-12464,1201],[-13197,-8879],[-10112,4590],[-4316,-12268],[-5810,1287],[-3790,-10938],[-1079,-19988],[-7982,-11366],[-9324,643],[-4551,7592],[-2296,10080],[-4967,2316],[-2573,19474],[-8424,8492],[-16946,-7678],[-4689,11110],[-9435,3388],[-2490,10895],[-22742,-515]],[[711449,453161],[208,4804],[-2961,-987],[180,-3260],[2573,-557]],[[154436,742986],[12685,9179],[6280,10638],[10679,6133],[11745,5147],[10942,-1243],[2020,-5062],[6031,1587],[4648,2960],[-3514,7978],[5492,7506],[4455,-8064],[7719,3560],[2227,53788],[-15881,11538],[-3251,9007],[3943,4719],[3928,27065],[6322,29167],[15397,-8965],[4067,515],[-1093,-17071],[5077,-21747],[10568,-21532],[8494,15055],[14498,1888],[18260,9479],[8507,-19173],[-954,-7850],[2171,-11194],[6862,-215],[16890,-47225]],[[178713,175517],[-10997,8535],[-3002,-6133]],[[126783,289354],[7663,-2188],[5990,2445],[20653,26336],[8729,-7206],[24762,34100],[-7387,13897],[9711,9008],[26283,-6091]],[[167453,424466],[40794,-19774]],[[810247,626533],[-19353,8964]],[[828175,894955],[4523,41906],[-5976,12782],[6378,40534],[29257,3817],[2615,-12996],[11620,3388],[512,6477],[5906,1930],[1370,7206],[44861,-2616],[-7442,-106803]]],"bbox":[40.4058,57.2833,47.6347,59.6147],"transform":{"scale":[0.000007228907228907232,0.0000023314023314023338],"translate":[40.4058,57.2833]}}