{"type":"Topology","objects":{"muni":{"type":"GeometryCollection","geometries":[{"type":"MultiPolygon","arcs":[[[0,1,2,3,4,5,6,7,8,9],[10]]],"properties":{"GID_2":"RUS.34.1_1","GID_0":"RUS","COUNTRY":"Russia","GID_1":"RUS.34_1","NAME_1":"Krasnodar","NL_NAME_1":"Краснодарскийкрай","NAME_2":"Abinskiyrayon","VARNAME_2":"NA","NL_NAME_2":"Абинскийрайон","TYPE_2":"Raion","ENGTYPE_2":"District","CC_2":"R43090","HASC_2":"RU.KD.AB"}},{"type":"MultiPolygon","arcs":[[[11]]],"properties":{"GID_2":"RUS.34.2_1","GID_0":"RUS","COUNTRY":"Russia","GID_1":"RUS.34_1","NAME_1":"Krasnodar","NL_NAME_1":"Краснодарскийкрай","NAME_2":"Anapa","VARNAME_2":"NA","NL_NAME_2":"Ана́па","TYPE_2":"Gorsovet","ENGTYPE_2":"District","CC_2":"NA","HASC_2":"RU.KD.AG"}},{"type":"MultiPolygon","arcs":[[[12,13,14,15,16,17],[-12]]],"properties":{"GID_2":"RUS.34.3_1","GID_0":"RUS","COUNTRY":"Russia","GID_1":"RUS.34_1","NAME_1":"Krasnodar","NL_NAME_1":"Краснодарскийкрай","NAME_2":"Anapskiyrayon","VARNAME_2":"NA","NL_NAME_2":"Анапскийрайон","TYPE_2":"Raion","ENGTYPE_2":"District","CC_2":"R43090","HASC_2":"RU.KD.AR"}},{"type":"MultiPolygon","arcs":[[[18,19,20,21,22,23,24]]],"properties":{"GID_2":"RUS.34.4_1","GID_0":"RUS","COUNTRY":"Russia","GID_1":"RUS.34_1","NAME_1":"Krasnodar","NL_NAME_1":"Краснодарскийкрай","NAME_2":"Apsheronskiyrayon","VARNAME_2":"NA","NL_NAME_2":"Апшеронскийрайон","TYPE_2":"Raion","ENGTYPE_2":"District","CC_2":"R43090","HASC_2":"RU.KD.AP"}},{"type":"MultiPolygon","arcs":[[[25]]],"properties":{"GID_2":"RUS.34.5_1","GID_0":"RUS","COUNTRY":"Russia","GID_1":"RUS.34_1","NAME_1":"Krasnodar","NL_NAME_1":"Краснодарскийкрай","NAME_2":"Armavir","VARNAME_2":"NA","NL_NAME_2":"Армавир","TYPE_2":"Gorsovet","ENGTYPE_2":"District","CC_2":"NA","HASC_2":"RU.KD.AM"}},{"type":"MultiPolygon","arcs":[[[26,27,28,29,30]]],"properties":{"GID_2":"RUS.34.6_1","GID_0":"RUS","COUNTRY":"Russia","GID_1":"RUS.34_1","NAME_1":"Krasnodar","NL_NAME_1":"Краснодарскийкрай","NAME_2":"Beloglinskiyrayon","VARNAME_2":"NA","NL_NAME_2":"Белоглинскийрайон","TYPE_2":"Raion","ENGTYPE_2":"District","CC_2":"R43090","HASC_2":"RU.KD.BE"}},{"type":"MultiPolygon","arcs":[[[31]]],"properties":{"GID_2":"RUS.34.7_1","GID_0":"RUS","COUNTRY":"Russia","GID_1":"RUS.34_1","NAME_1":"Krasnodar","NL_NAME_1":"Краснодарскийкрай","NAME_2":"Belorechensk","VARNAME_2":"NA","NL_NAME_2":"Белореченск","TYPE_2":"Gorsovet","ENGTYPE_2":"District","CC_2":"NA","HASC_2":"RU.KD.BG"}},{"type":"MultiPolygon","arcs":[[[-25,32,33],[-32]]],"properties":{"GID_2":"RUS.34.8_1","GID_0":"RUS","COUNTRY":"Russia","GID_1":"RUS.34_1","NAME_1":"Krasnodar","NL_NAME_1":"Краснодарскийкрай","NAME_2":"Belorechenskiyrayon","VARNAME_2":"NA","NL_NAME_2":"Белореченскийрайон","TYPE_2":"Raion","ENGTYPE_2":"District","CC_2":"R43090","HASC_2":"RU.KD.BR"}},{"type":"MultiPolygon","arcs":[[[34,35,36,37,38,39,40]]],"properties":{"GID_2":"RUS.34.9_1","GID_0":"RUS","COUNTRY":"Russia","GID_1":"RUS.34_1","NAME_1":"Krasnodar","NL_NAME_1":"Краснодарскийкрай","NAME_2":"Bryukhovetskiyrayon","VARNAME_2":"NA","NL_NAME_2":"Брюковецкийрайон","TYPE_2":"Raion","ENGTYPE_2":"District","CC_2":"R43090","HASC_2":"RU.KD.BK"}},{"type":"MultiPolygon","arcs":[[[41,42,43,44,45,46,47,48,49,50,51,52]]],"properties":{"GID_2":"RUS.34.10_1","GID_0":"RUS","COUNTRY":"Russia","GID_1":"RUS.34_1","NAME_1":"Krasnodar","NL_NAME_1":"Краснодарскийкрай","NAME_2":"Dinskiyrayon","VARNAME_2":"NA","NL_NAME_2":"Динскийрайон","TYPE_2":"Raion","ENGTYPE_2":"District","CC_2":"R43091","HASC_2":"RU.KD.DI"}},{"type":"MultiPolygon","arcs":[[[53]],[[54,55]]],"properties":{"GID_2":"RUS.34.11_1","GID_0":"RUS","COUNTRY":"Russia","GID_1":"RUS.34_1","NAME_1":"Krasnodar","NL_NAME_1":"Краснодарскийкрай","NAME_2":"Eysk","VARNAME_2":"Yeysk","NL_NAME_2":"NA","TYPE_2":"Gorsovet","ENGTYPE_2":"District","CC_2":"NA","HASC_2":"RU.KD.EG"}},{"type":"MultiPolygon","arcs":[[[-55,56,57,58,59,60]]],"properties":{"GID_2":"RUS.34.12_1","GID_0":"RUS","COUNTRY":"Russia","GID_1":"RUS.34_1","NAME_1":"Krasnodar","NL_NAME_1":"Краснодарскийкрай","NAME_2":"Eyskiyrayon","VARNAME_2":"NA","NL_NAME_2":"Ейскийрайон","TYPE_2":"Raion","ENGTYPE_2":"District","CC_2":"R43091","HASC_2":"RU.KD.ER"}},{"type":"MultiPolygon","arcs":[[[-1,61,62,63,64,65,66]]],"properties":{"GID_2":"RUS.34.13_1","GID_0":"RUS","COUNTRY":"Russia","GID_1":"RUS.34_1","NAME_1":"Krasnodar","NL_NAME_1":"Краснодарскийкрай","NAME_2":"Gelendzhikgorsovet","VARNAME_2":"Gelendzhik","NL_NAME_2":"Геленджик(горсовет)","TYPE_2":"Gorsovet","ENGTYPE_2":"District","CC_2":"R43094","HASC_2":"RU.KD.GE"}},{"type":"MultiPolygon","arcs":[[[67,-33,-24,68,69]]],"properties":{"GID_2":"RUS.34.14_1","GID_0":"RUS","COUNTRY":"Russia","GID_1":"RUS.34_1","NAME_1":"Krasnodar","NL_NAME_1":"Краснодарскийкрай","NAME_2":"GoryachiyKlyuchgorsovet","VARNAME_2":"GoryachiyKlyuc","NL_NAME_2":"ГорячийКлюч(горсовет)","TYPE_2":"Gorsovet","ENGTYPE_2":"District","CC_2":"R43094","HASC_2":"RU.KD.GO"}},{"type":"MultiPolygon","arcs":[[[70,71,72,73,74,75]]],"properties":{"GID_2":"RUS.34.15_1","GID_0":"RUS","COUNTRY":"Russia","GID_1":"RUS.34_1","NAME_1":"Krasnodar","NL_NAME_1":"Краснодарскийкрай","NAME_2":"Gul'kevichskiyrayon","VARNAME_2":"NA","NL_NAME_2":"Гулькевичскийрайон","TYPE_2":"Raion","ENGTYPE_2":"District","CC_2":"R43090","HASC_2":"RU.KD.GU"}},{"type":"MultiPolygon","arcs":[[[-48,76,77,78,79,80]]],"properties":{"GID_2":"RUS.34.16_1","GID_0":"RUS","COUNTRY":"Russia","GID_1":"RUS.34_1","NAME_1":"Krasnodar","NL_NAME_1":"Краснодарскийкрай","NAME_2":"Kalininskiyrayon","VARNAME_2":"NA","NL_NAME_2":"Калининскийрайон","TYPE_2":"Raion","ENGTYPE_2":"District","CC_2":"R43091","HASC_2":"RU.KD.KI"}},{"type":"MultiPolygon","arcs":[[[-35,81,-60,82,83,84,85,86,87,88]]],"properties":{"GID_2":"RUS.34.17_1","GID_0":"RUS","COUNTRY":"Russia","GID_1":"RUS.34_1","NAME_1":"Krasnodar","NL_NAME_1":"Краснодарскийкрай","NAME_2":"Kanevskiyrayon","VARNAME_2":"NA","NL_NAME_2":"Каневскийрайон","TYPE_2":"Raion","ENGTYPE_2":"District","CC_2":"R43091","HASC_2":"RU.KD.KN"}},{"type":"MultiPolygon","arcs":[[[-71,89,90,91,92,93],[94]]],"properties":{"GID_2":"RUS.34.18_1","GID_0":"RUS","COUNTRY":"Russia","GID_1":"RUS.34_1","NAME_1":"Krasnodar","NL_NAME_1":"Краснодарскийкрай","NAME_2":"Kavkazskiyrayon","VARNAME_2":"NA","NL_NAME_2":"Кавказскийрайон","TYPE_2":"Raion","ENGTYPE_2":"District","CC_2":"R43091","HASC_2":"RU.KD.KV"}},{"type":"MultiPolygon","arcs":[[[-38,95,96,97,98,99,100,-52,101,-50,102]]],"properties":{"GID_2":"RUS.34.19_1","GID_0":"RUS","COUNTRY":"Russia","GID_1":"RUS.34_1","NAME_1":"Krasnodar","NL_NAME_1":"Краснодарскийкрай","NAME_2":"Korenovskiyrayon","VARNAME_2":"NA","NL_NAME_2":"Кореновскийрайон","TYPE_2":"Raion","ENGTYPE_2":"District","CC_2":"R43091","HASC_2":"RU.KD.KO"}},{"type":"MultiPolygon","arcs":[[[-6,103,104,-78,105,-46,106,107,108,109,110,111]]],"properties":{"GID_2":"RUS.34.20_1","GID_0":"RUS","COUNTRY":"Russia","GID_1":"RUS.34_1","NAME_1":"Krasnodar","NL_NAME_1":"Краснодарскийкрай","NAME_2":"Krasnoarmeyskiyrayon","VARNAME_2":"NA","NL_NAME_2":"Красноармейскийрайон","TYPE_2":"Raion","ENGTYPE_2":"District","CC_2":"R43091","HASC_2":"RU.KD.KA"}},{"type":"MultiPolygon","arcs":[[[-111,112,-109,113,-43,114]]],"properties":{"GID_2":"RUS.34.21_1","GID_0":"RUS","COUNTRY":"Russia","GID_1":"RUS.34_1","NAME_1":"Krasnodar","NL_NAME_1":"Краснодарскийкрай","NAME_2":"Krasnodargorsovet","VARNAME_2":"Krasnodar","NL_NAME_2":"Краснодар(горсовет)","TYPE_2":"Gorsovet","ENGTYPE_2":"District","CC_2":"R43090","HASC_2":"RU.KD.KL"}},{"type":"MultiPolygon","arcs":[[[-95]]],"properties":{"GID_2":"RUS.34.22_1","GID_0":"RUS","COUNTRY":"Russia","GID_1":"RUS.34_1","NAME_1":"Krasnodar","NL_NAME_1":"Краснодарскийкрай","NAME_2":"Kropotkin","VARNAME_2":"NA","NL_NAME_2":"Кропоткин","TYPE_2":"Gorod","ENGTYPE_2":"City","CC_2":"NA","HASC_2":"RU.KD.KP"}},{"type":"MultiPolygon","arcs":[[[115,116,117,118,119,120,121,122,123,124]]],"properties":{"GID_2":"RUS.34.23_1","GID_0":"RUS","COUNTRY":"Russia","GID_1":"RUS.34_1","NAME_1":"Krasnodar","NL_NAME_1":"Краснодарскийкрай","NAME_2":"Krylovskiyrayon","VARNAME_2":"NA","NL_NAME_2":"Крыловскийрайон","TYPE_2":"Raion","ENGTYPE_2":"District","CC_2":"R43091","HASC_2":"RU.KD.KY"}},{"type":"MultiPolygon","arcs":[[[-11]]],"properties":{"GID_2":"RUS.34.24_1","GID_0":"RUS","COUNTRY":"Russia","GID_1":"RUS.34_1","NAME_1":"Krasnodar","NL_NAME_1":"Краснодарскийкрай","NAME_2":"Krymsk","VARNAME_2":"NA","NL_NAME_2":"Крымск","TYPE_2":"Gorod","ENGTYPE_2":"City","CC_2":"NA","HASC_2":"RU.KD.KG"}},{"type":"MultiPolygon","arcs":[[[-4,125,126,-18,127,128]]],"properties":{"GID_2":"RUS.34.25_1","GID_0":"RUS","COUNTRY":"Russia","GID_1":"RUS.34_1","NAME_1":"Krasnodar","NL_NAME_1":"Краснодарскийкрай","NAME_2":"Krymskiyrayon","VARNAME_2":"NA","NL_NAME_2":"Крымскийрайон","TYPE_2":"Raion","ENGTYPE_2":"District","CC_2":"R43091","HASC_2":"RU.KD.KR"}},{"type":"MultiPolygon","arcs":[[[129,130,-75,131,132,133,134,135]]],"properties":{"GID_2":"RUS.34.26_1","GID_0":"RUS","COUNTRY":"Russia","GID_1":"RUS.34_1","NAME_1":"Krasnodar","NL_NAME_1":"Краснодарскийкрай","NAME_2":"Kurganinskiyrayon","VARNAME_2":"NA","NL_NAME_2":"Курганинскийрайон","TYPE_2":"Raion","ENGTYPE_2":"District","CC_2":"R43091","HASC_2":"RU.KD.KU"}},{"type":"MultiPolygon","arcs":[[[-121,136,-119,137,138,139,140]]],"properties":{"GID_2":"RUS.34.27_1","GID_0":"RUS","COUNTRY":"Russia","GID_1":"RUS.34_1","NAME_1":"Krasnodar","NL_NAME_1":"Краснодарскийкрай","NAME_2":"Kushchevskiyrayon","VARNAME_2":"NA","NL_NAME_2":"Кущевскийрайон","TYPE_2":"Raion","ENGTYPE_2":"District","CC_2":"R43092","HASC_2":"RU.KD.KS"}},{"type":"MultiPolygon","arcs":[[[141]]],"properties":{"GID_2":"RUS.34.28_1","GID_0":"RUS","COUNTRY":"Russia","GID_1":"RUS.34_1","NAME_1":"Krasnodar","NL_NAME_1":"Краснодарскийкрай","NAME_2":"Labinsk","VARNAME_2":"NA","NL_NAME_2":"Лабинск","TYPE_2":"Gorsovet","ENGTYPE_2":"District","CC_2":"NA","HASC_2":"RU.KD.LG"}},{"type":"MultiPolygon","arcs":[[[-135,142,143,144,145,146,147]]],"properties":{"GID_2":"RUS.34.29_1","GID_0":"RUS","COUNTRY":"Russia","GID_1":"RUS.34_1","NAME_1":"Krasnodar","NL_NAME_1":"Краснодарскийкрай","NAME_2":"Labinskiyrayon","VARNAME_2":"NA","NL_NAME_2":"Лабинскийрайон","TYPE_2":"Raion","ENGTYPE_2":"District","CC_2":"R43092","HASC_2":"RU.KD.LR"}},{"type":"MultiPolygon","arcs":[[[-88,148,149,-139,150,151,-116,152,153]]],"properties":{"GID_2":"RUS.34.30_1","GID_0":"RUS","COUNTRY":"Russia","GID_1":"RUS.34_1","NAME_1":"Krasnodar","NL_NAME_1":"Краснодарскийкрай","NAME_2":"Leningradskiyrayon","VARNAME_2":"NA","NL_NAME_2":"Ленинградскийрайон","TYPE_2":"Raion","ENGTYPE_2":"District","CC_2":"R43092","HASC_2":"RU.KD.LE"}},{"type":"MultiPolygon","arcs":[[[154,155,156,157,-147,158]]],"properties":{"GID_2":"RUS.34.31_1","GID_0":"RUS","COUNTRY":"Russia","GID_1":"RUS.34_1","NAME_1":"Krasnodar","NL_NAME_1":"Краснодарскийкрай","NAME_2":"Mostovskiyrayon","VARNAME_2":"NA","NL_NAME_2":"Мостовскийрайон","TYPE_2":"Raion","ENGTYPE_2":"District","CC_2":"R43092","HASC_2":"RU.KD.MO"}},{"type":"MultiPolygon","arcs":[[[-73,159,160,-133,161],[-26]]],"properties":{"GID_2":"RUS.34.32_1","GID_0":"RUS","COUNTRY":"Russia","GID_1":"RUS.34_1","NAME_1":"Krasnodar","NL_NAME_1":"Краснодарскийкрай","NAME_2":"Novokubanskiyrayon","VARNAME_2":"NA","NL_NAME_2":"Новокубанскийрайон","TYPE_2":"Raion","ENGTYPE_2":"District","CC_2":"R43092","HASC_2":"RU.KD.NK"}},{"type":"MultiPolygon","arcs":[[[-31,162,163,-28,164,-93,165,166,-123,167]]],"properties":{"GID_2":"RUS.34.33_1","GID_0":"RUS","COUNTRY":"Russia","GID_1":"RUS.34_1","NAME_1":"Krasnodar","NL_NAME_1":"Краснодарскийкрай","NAME_2":"Novopokrovskiyrayon","VARNAME_2":"NA","NL_NAME_2":"Новопокровскийрайон","TYPE_2":"Raion","ENGTYPE_2":"District","CC_2":"R43092","HASC_2":"RU.KD.NP"}},{"type":"MultiPolygon","arcs":[[[-2,-67,168,-13,-127,169]]],"properties":{"GID_2":"RUS.34.34_1","GID_0":"RUS","COUNTRY":"Russia","GID_1":"RUS.34_1","NAME_1":"Krasnodar","NL_NAME_1":"Краснодарскийкрай","NAME_2":"Novorossiyskgorsovet","VARNAME_2":"Novorossiysk","NL_NAME_2":"Новороссийск(горсовет)","TYPE_2":"Gorsovet","ENGTYPE_2":"District","CC_2":"R43094","HASC_2":"RU.KD.NR"}},{"type":"MultiPolygon","arcs":[[[-145,170,171,172]]],"properties":{"GID_2":"RUS.34.35_1","GID_0":"RUS","COUNTRY":"Russia","GID_1":"RUS.34_1","NAME_1":"Krasnodar","NL_NAME_1":"Краснодарскийкрай","NAME_2":"Otradnenskiyrayon","VARNAME_2":"NA","NL_NAME_2":"Отрадненскийрайон","TYPE_2":"Raion","ENGTYPE_2":"District","CC_2":"R43092","HASC_2":"RU.KD.OT"}},{"type":"MultiPolygon","arcs":[[[173,-154,174,-124,-167,175,176,177]]],"properties":{"GID_2":"RUS.34.36_1","GID_0":"RUS","COUNTRY":"Russia","GID_1":"RUS.34_1","NAME_1":"Krasnodar","NL_NAME_1":"Краснодарскийкрай","NAME_2":"Pavlovskiyrayon","VARNAME_2":"NA","NL_NAME_2":"Павловскийрайон","TYPE_2":"Raion","ENGTYPE_2":"District","CC_2":"R43092","HASC_2":"RU.KD.PA"}},{"type":"MultiPolygon","arcs":[[[-40,-80,178]],[[179]]],"properties":{"GID_2":"RUS.34.37_1","GID_0":"RUS","COUNTRY":"Russia","GID_1":"RUS.34_1","NAME_1":"Krasnodar","NL_NAME_1":"Краснодарскийкрай","NAME_2":"Primorsko-Akhtarskiyrayon","VARNAME_2":"NA","NL_NAME_2":"Приморско-Ахтарскийрайон","TYPE_2":"Raion","ENGTYPE_2":"District","CC_2":"R43092","HASC_2":"RU.KD.PR"}},{"type":"MultiPolygon","arcs":[[[180,-70,181,-63,182,-10,183,-8,184]]],"properties":{"GID_2":"RUS.34.38_1","GID_0":"RUS","COUNTRY":"Russia","GID_1":"RUS.34_1","NAME_1":"Krasnodar","NL_NAME_1":"Краснодарскийкрай","NAME_2":"Severskiyrayon","VARNAME_2":"NA","NL_NAME_2":"Северскийрайон","TYPE_2":"Raion","ENGTYPE_2":"District","CC_2":"R43092","HASC_2":"RU.KD.SE"}},{"type":"MultiPolygon","arcs":[[[-58,185,186,187,188,189]],[[190]],[[191]],[[192]],[[193]],[[194]]],"properties":{"GID_2":"RUS.34.39_1","GID_0":"RUS","COUNTRY":"Russia","GID_1":"RUS.34_1","NAME_1":"Krasnodar","NL_NAME_1":"Краснодарскийкрай","NAME_2":"Shcherbinovskiyrayon","VARNAME_2":"NA","NL_NAME_2":"Щербиновскийрайон","TYPE_2":"Raion","ENGTYPE_2":"District","CC_2":"R43093","HASC_2":"RU.KD.SH"}},{"type":"MultiPolygon","arcs":[[[195,196]]],"properties":{"GID_2":"RUS.34.40_1","GID_0":"RUS","COUNTRY":"Russia","GID_1":"RUS.34_1","NAME_1":"Krasnodar","NL_NAME_1":"Краснодарскийкрай","NAME_2":"Slavyansk-na-Kubani","VARNAME_2":"NA","NL_NAME_2":"Славянск-на-Кубани","TYPE_2":"Gorod","ENGTYPE_2":"City","CC_2":"NA","HASC_2":"RU.KD.SG"}},{"type":"MultiPolygon","arcs":[[[197,198,199,-79,-105,200,-128,201],[-196,202]],[[203]]],"properties":{"GID_2":"RUS.34.41_1","GID_0":"RUS","COUNTRY":"Russia","GID_1":"RUS.34_1","NAME_1":"Krasnodar","NL_NAME_1":"Краснодарскийкрай","NAME_2":"Slavyanskiyrayon","VARNAME_2":"NA","NL_NAME_2":"Славянскийрайон","TYPE_2":"Raion","ENGTYPE_2":"District","CC_2":"R43093","HASC_2":"RU.KD.SR"}},{"type":"MultiPolygon","arcs":[[[204,205,206,207,208,-20,209,-157,210,-155,211]]],"properties":{"GID_2":"RUS.34.42_1","GID_0":"RUS","COUNTRY":"Russia","GID_1":"RUS.34_1","NAME_1":"Krasnodar","NL_NAME_1":"Краснодарскийкрай","NAME_2":"Sochigorsovet","VARNAME_2":"Sochi","NL_NAME_2":"Сочи(горсовет)","TYPE_2":"Gorsovet","ENGTYPE_2":"District","CC_2":"R43094","HASC_2":"RU.KD.SO"}},{"type":"MultiPolygon","arcs":[[[212,-86,213,-187,214,-140,-150]]],"properties":{"GID_2":"RUS.34.43_1","GID_0":"RUS","COUNTRY":"Russia","GID_1":"RUS.34_1","NAME_1":"Krasnodar","NL_NAME_1":"Краснодарскийкрай","NAME_2":"Starominskiyrayon","VARNAME_2":"NA","NL_NAME_2":"Староминскийрайон","TYPE_2":"Raion","ENGTYPE_2":"District","CC_2":"R43093","HASC_2":"RU.KD.ST"}},{"type":"MultiPolygon","arcs":[[[-76,-131,215,216,217,-90]]],"properties":{"GID_2":"RUS.34.44_1","GID_0":"RUS","COUNTRY":"Russia","GID_1":"RUS.34_1","NAME_1":"Krasnodar","NL_NAME_1":"Краснодарскийкрай","NAME_2":"Tbilisskiyrayon","VARNAME_2":"NA","NL_NAME_2":"Тбилисскийрайон","TYPE_2":"Raion","ENGTYPE_2":"District","CC_2":"R43093","HASC_2":"RU.KD.TB"}},{"type":"MultiPolygon","arcs":[[[-15,218,-199,219]],[[220]],[[221]],[[222]]],"properties":{"GID_2":"RUS.34.45_1","GID_0":"RUS","COUNTRY":"Russia","GID_1":"RUS.34_1","NAME_1":"Krasnodar","NL_NAME_1":"Краснодарскийкрай","NAME_2":"Temryukskiyrayon","VARNAME_2":"NA","NL_NAME_2":"Темрюкскийрайон","TYPE_2":"Raion","ENGTYPE_2":"District","CC_2":"R43093","HASC_2":"RU.KD.TE"}},{"type":"MultiPolygon","arcs":[[[223]]],"properties":{"GID_2":"RUS.34.46_1","GID_0":"RUS","COUNTRY":"Russia","GID_1":"RUS.34_1","NAME_1":"Krasnodar","NL_NAME_1":"Краснодарскийкрай","NAME_2":"Tikhoretsk","VARNAME_2":"NA","NL_NAME_2":"Тихорецк","TYPE_2":"Gorsovet","ENGTYPE_2":"District","CC_2":"NA","HASC_2":"RU.KD.TG"}},{"type":"MultiPolygon","arcs":[[[-92,224,225,226,-176,-166],[-224]]],"properties":{"GID_2":"RUS.34.47_1","GID_0":"RUS","COUNTRY":"Russia","GID_1":"RUS.34_1","NAME_1":"Krasnodar","NL_NAME_1":"Краснодарскийкрай","NAME_2":"Tikhoretskiyrayon","VARNAME_2":"NA","NL_NAME_2":"Тихорецкийрайон","TYPE_2":"Raion","ENGTYPE_2":"District","CC_2":"R43093","HASC_2":"RU.KD.TR"}},{"type":"MultiPolygon","arcs":[[[-39,-103,-49,-81]]],"properties":{"GID_2":"RUS.34.48_1","GID_0":"RUS","COUNTRY":"Russia","GID_1":"RUS.34_1","NAME_1":"Krasnodar","NL_NAME_1":"Краснодарскийкрай","NAME_2":"Timashevskiyrayon","VARNAME_2":"NA","NL_NAME_2":"Тимашевскийрайон","TYPE_2":"Raion","ENGTYPE_2":"District","CC_2":"R43093","HASC_2":"RU.KD.TI"}},{"type":"MultiPolygon","arcs":[[[227]]],"properties":{"GID_2":"RUS.34.49_1","GID_0":"RUS","COUNTRY":"Russia","GID_1":"RUS.34_1","NAME_1":"Krasnodar","NL_NAME_1":"Краснодарскийкрай","NAME_2":"Tuapse","VARNAME_2":"NA","NL_NAME_2":"Туапсе","TYPE_2":"Gorod","ENGTYPE_2":"City","CC_2":"NA","HASC_2":"RU.KD.TP"}},{"type":"MultiPolygon","arcs":[[[-23,228,-207,229,-205,230,-65,231,232,-69],[-228]]],"properties":{"GID_2":"RUS.34.50_1","GID_0":"RUS","COUNTRY":"Russia","GID_1":"RUS.34_1","NAME_1":"Krasnodar","NL_NAME_1":"Краснодарскийкрай","NAME_2":"Tuapsinskiyrayon","VARNAME_2":"NA","NL_NAME_2":"Туапсинскийрайон","TYPE_2":"Raion","ENGTYPE_2":"District","CC_2":"R43093","HASC_2":"RU.KD.TU"}},{"type":"MultiPolygon","arcs":[[[-134,-161,233,-172,234,-143]]],"properties":{"GID_2":"RUS.34.51_1","GID_0":"RUS","COUNTRY":"Russia","GID_1":"RUS.34_1","NAME_1":"Krasnodar","NL_NAME_1":"Краснодарскийкрай","NAME_2":"Uspenskiyrayon","VARNAME_2":"NA","NL_NAME_2":"Успенскийрайон","TYPE_2":"Raion","ENGTYPE_2":"District","CC_2":"R43093","HASC_2":"RU.KD.US"}},{"type":"MultiPolygon","arcs":[[[-53,-101,235,236,-216,-130,237]]],"properties":{"GID_2":"RUS.34.52_1","GID_0":"RUS","COUNTRY":"Russia","GID_1":"RUS.34_1","NAME_1":"Krasnodar","NL_NAME_1":"Краснодарскийкрай","NAME_2":"Ust'-Labinskiyrayon","VARNAME_2":"NA","NL_NAME_2":"Усt.-Лабинскийрайон","TYPE_2":"Raion","ENGTYPE_2":"District","CC_2":"R43093","HASC_2":"RU.KD.UL"}},{"type":"MultiPolygon","arcs":[[[238,-178,239,-226,240,-217,-237,241,-99,242,-97]]],"properties":{"GID_2":"RUS.34.53_1","GID_0":"RUS","COUNTRY":"Russia","GID_1":"RUS.34_1","NAME_1":"Krasnodar","NL_NAME_1":"Краснодарскийкрай","NAME_2":"Vyselkovskiyrayon","VARNAME_2":"NA","NL_NAME_2":"Выселковскийрайон","TYPE_2":"Raion","ENGTYPE_2":"District","CC_2":"R43090","HASC_2":"RU.KD.VY"}}]}},"arcs":[[[326113,380944],[-4173,-2661],[-9198,4177],[-6468,315],[-8402,-2003],[-10887,-7267],[-9408,2203],[-17715,10958],[-7093,12218],[-247,2975],[-4210,2232],[-16084,-4835],[-6069,6695]],[[226159,405951],[7643,15622]],[[233802,421573],[7132,1831]],[[240934,423404],[14092,19485],[-8914,4693],[1972,5779],[10223,11073],[6866,11531],[12897,-915],[4097,3490],[11551,22089],[5500,29127]],[[299218,529756],[10622,-3204]],[[309840,526552],[11816,-18713],[8402,-4692],[12158,2117],[2959,-2890],[929,-6352],[20958,-8154]],[[367062,487868],[-14282,-5236],[-10204,-6695]],[[342576,475937],[-2485,-4836],[7530,-11216],[1043,-8841],[-7510,-9270],[-8061,-2175]],[[333093,439599],[-4097,-9413],[-588,-4922]],[[328408,425264],[8288,-11445],[114,-5493],[-10697,-27382]],[[264775,438140],[-1005,6752],[-3851,-4234],[1195,-5208],[3661,2690]],[[165958,438054],[-7738,-17225],[-4495,10358],[-8251,4778],[4420,6524],[16064,-4435]],[[191146,452246],[-21205,-14135],[-4646,-5837],[-3376,-13362],[-5406,-5150],[-6411,-2031],[721,3519],[-1271,2403]],[[149552,417653],[-7530,-6638],[-1194,7897],[-8289,11846],[4381,4778],[-3053,9929],[-9597,11359],[-14643,10758]],[[109627,467582],[3433,1430],[11570,13992]],[[124630,483004],[23879,42117]],[[148509,525121],[22514,-11988]],[[171023,513133],[1175,-12847],[-1384,-15937],[1119,-4206],[6847,-8870],[-2086,-6352],[1138,-4034],[6031,515],[11171,5436],[1309,-2976],[-5197,-11616]],[[617403,334363],[2561,-13619],[5633,-15422],[-740,-9843],[-5917,-13019],[1688,-3805],[8060,-6981],[4439,-1889],[8762,2547],[2826,-3548],[-1005,-5866],[7056,-8583],[11721,85],[2712,-4320],[-3812,-17568],[2655,-9070],[-588,-4778],[-14623,-14507],[-13618,-2460],[-5918,4578],[-3641,14649],[-4666,8641],[-12575,12303],[-6600,-486],[-11058,-8212],[4552,-16338],[7321,-4463],[3566,-8097],[-8137,-2375],[-6240,-4607],[-1896,-4578],[6372,-10872],[-25529,-13248]],[[570764,168612],[-9711,2604],[-4590,4864],[4913,14020],[-475,4750],[-7150,9928]],[[553751,204778],[-21110,16309]],[[532641,221087],[-133,2289],[3547,5179]],[[536055,228555],[-607,3147],[5709,6982],[892,18540],[-4002,7382],[-25985,15508],[-2541,7125],[-778,25407]],[[508743,312646],[11323,3749],[11608,7496],[3679,6323],[-10223,9643],[-2465,4692],[34481,21717]],[[557146,366266],[7037,-3777],[929,-4492],[2523,-1889],[7302,5780],[3566,-143],[1517,-11245],[4950,-1745],[11210,9413],[4552,-686],[1555,-2518],[-3718,-7439],[1556,-3806],[17278,-9356]],[[851357,440143],[0,-1460],[-15515,6324],[-11759,16538],[30631,15736],[14396,-27725],[-17753,-9413]],[[758193,835335],[17753,-3261],[1100,-5122],[13144,-9070],[8288,57],[27141,13934],[5008,-4664],[512,-6924],[-3623,-16938],[3357,-8612],[20750,-14564],[4684,-7239],[2409,-10844],[10982,-18197],[-4059,-20515],[2561,-6267],[15325,-8412],[1422,-7324],[7302,-11216],[-3490,-8813],[-14642,-29],[-3622,-5264],[1138,-11130],[-10451,-9471],[-6202,-515],[-9882,9328],[-3964,858],[-20655,-2804]],[[820479,662317],[-7453,8841],[-7189,2375],[247,8584],[23424,4206],[2826,12646],[-9104,4178],[-2826,17425],[7510,743],[-1100,7640],[-3774,6895]],[[823040,735850],[-9199,8584],[-22456,15708]],[[791385,760142],[-9655,9185],[-2503,4549]],[[779227,773876],[2105,9557],[-2390,17053],[-7264,-1202],[-4760,-3405],[-6487,2060],[-11209,-5579],[-13410,629],[-2428,7869],[2428,6037],[26800,6180],[3680,9127],[-8099,13133]],[[620229,407410],[2162,-17768],[-20825,2947],[1707,12504],[16956,2317]],[[557146,366266],[13732,16108],[4514,9986],[-3717,4120],[-14775,3720],[-4002,4091],[-3642,11903]],[[549256,416194],[16653,5780],[2333,3376],[113,12074],[3927,19857],[6884,16681],[3566,4264],[3547,1745],[3452,-2890],[10261,-14850],[12651,4178],[19346,-6438],[1858,-5208],[-8743,-7954],[929,-3033],[4647,-3261],[11551,-2862],[2902,-3261],[1422,-12504],[-9768,-11187],[1745,-4121],[16065,-9356],[-5633,-8727],[-6942,-1459],[-12442,-7582],[-2162,-4235],[2788,-16709],[-3073,-3663],[-7150,-1259],[-4818,-10472],[2238,-8755]],[[387243,759999],[7245,19542],[8857,5208],[7227,200],[9274,-6495],[1233,-7468],[4154,-3347],[10488,-2490],[5273,-9871],[4894,1631],[8269,-1974],[4988,-10701],[25093,-6495],[4306,-5665],[-740,-11073],[11968,-5351],[7719,-572],[8080,14363],[16577,1917]],[[532148,731358],[3585,-11588]],[[535733,719770],[-4894,-15422],[-777,-12560]],[[530062,691788],[-15951,-11474]],[[514111,680314],[-7283,-1030],[-16672,7096],[-8592,-2003],[-1935,-3977],[2713,-6037],[-2864,-5151],[-17260,4893],[-16767,1459],[-1631,4063],[4059,11216],[-2560,5151],[-6525,3891],[-17620,-143],[-12385,-9528],[-21072,1001]],[[387717,691215],[152,7010],[-5539,19800],[4230,4578],[13845,6409],[949,8126],[-3243,8040],[-9029,8956]],[[389082,754134],[-12556,5694],[10717,171]],[[563519,506294],[-19327,-16538],[-41423,-22804]],[[502769,466952],[-7985,8813],[-18398,10787],[4211,8326],[-2068,4606],[-6942,5752],[-23556,3462],[-4268,3261],[2333,6896],[-4059,1917]],[[442037,520772],[-26079,-1030],[-14377,3033],[-16254,13591]],[[385327,536366],[-6069,18254],[-3566,3491]],[[375692,558111],[-171,3863]],[[375521,561974],[-4116,3290]],[[371405,565264],[7454,-2718],[4287,4177],[7511,1488],[4040,-4349],[7169,8527],[5140,1802],[2997,-4149],[2579,-28],[3869,3834],[4116,10014],[-531,5894]],[[420036,589756],[6999,5522],[2598,-1573],[721,-4750],[21622,-3119],[22551,-28]],[[474527,585808],[14832,-18169],[4628,-2289],[8459,1230]],[[502446,566580],[26307,-5293]],[[528753,561287],[1669,-2833],[-2295,-5407]],[[528127,553047],[-10413,-6753],[-3281,-4749],[3016,-7239],[15287,-3577],[2143,-3376],[-1441,-5322],[7890,-9843],[11304,-114],[10887,-5780]],[[265268,860028],[265,-1431],[-588,1116],[323,315]],[[325032,937453],[5899,-4979],[6505,-16881],[-19422,1058],[-3376,5351],[-27255,20744]],[[287383,942746],[5956,3920],[14699,1573],[13333,12161],[-891,-8327],[2086,-7753],[2466,-6867]],[[325032,937453],[-2485,8326],[4097,-5866],[6676,-2632]],[[333320,937281],[3832,-5923],[14813,-1688],[6410,-3891],[873,-7211],[-5178,-36881],[2560,-5951]],[[356630,875736],[11911,-143]],[[368541,875593],[3661,-3176]],[[372202,872417],[-8687,-84406],[-6581,2317],[-26231,18741],[-9123,8670],[-2200,8583],[-11228,14392],[-21186,19714],[-23803,4378],[-2599,-3033],[2807,801],[2106,-7010],[360,2318],[2541,-2632],[-4058,-2862],[-13391,11531],[-12120,18827],[-10374,26323],[-8801,28212],[-5311,7697],[14908,-10730],[24334,-4835],[21072,2460],[12746,10873]],[[326113,380944],[6847,-2747],[10318,-6295]],[[343278,371902],[-8839,-10243],[5918,-5980],[35676,-21001]],[[376033,334678],[-18796,-24206]],[[357237,310472],[-12328,-27153]],[[344909,283319],[-7776,-1746],[-17393,11846],[-12745,572],[-12234,12876],[-5007,12932],[-14642,13677],[5121,2060],[-1859,5408],[-3262,2461],[-4154,-716],[-588,-1573],[2105,-3033],[-948,-1889],[-8421,2203],[-15117,17883],[5045,4378],[-3376,6037],[-6372,3748],[-5634,7239],[-2257,143],[740,2461],[-2162,1831],[-2105,1202],[-2485,-2060],[1897,1831],[-2940,-487],[986,1030],[-948,2289],[-3206,-686],[-1327,-2547],[1593,57],[626,-7525],[4059,-4950],[-3319,-4434],[-5747,-2862],[-7208,-1287],[-11816,5322],[-12746,343],[15515,25808]],[[204802,393161],[6582,5093],[10488,2604],[4287,5093]],[[455902,419141],[8573,-686],[12973,4520],[7852,-543],[19688,-6581],[13807,-372],[7360,-3405],[9123,-572],[13978,4692]],[[508743,312646],[-3243,5465],[-12272,6037],[-20313,-1144],[-9882,-3605],[-9369,-7067],[-171,-7382],[-3641,-5980],[-7796,-2690],[-13580,6638],[-18360,4435],[-663,5179],[24960,14993],[493,5035],[-2826,6038],[-5501,3290],[-8914,1373]],[[417665,343261],[5519,5666],[2523,18111],[2807,10873],[2769,4235],[6335,1287],[8080,-5236],[8383,7239],[-10773,12675],[4609,11102],[7985,9928]],[[701198,563376],[19384,9156],[16179,-8842],[14357,11960],[11456,1688],[13675,-5093],[15780,2604],[27085,10959],[13770,3319]],[[832884,589127],[9445,-7897],[3376,-8498],[3699,-22575],[284,-21288]],[[849688,528869],[-9483,-3204],[-7359,3748],[-11608,-6781],[-1574,5694],[-5216,-887],[-7719,-11388],[891,-8898],[-26003,-17740]],[[781617,489413],[-13334,12074]],[[768283,501487],[-18151,4607],[-12442,5837],[-13485,-10129],[-7966,3634],[-5140,5293]],[[711099,510729],[8155,1373],[6354,6152],[873,11245],[-1821,4664],[-13106,9527],[1631,7897],[-6221,2947],[-8345,-3032],[-2485,6208],[5064,5666]],[[371405,565264],[-2864,2661]],[[368541,567925],[3813,5722],[1157,6295],[-26497,34793],[3585,12761],[-19043,-5351],[-7017,458],[-5614,4492],[-949,5980],[-5329,3462],[-28887,4149]],[[283760,640686],[-4229,2604],[-2200,4063],[2295,20457],[-3092,3777],[-33002,-1945]],[[243532,669642],[17639,10443],[9370,3090],[9654,-1488],[13049,-8726],[6050,-315],[17336,14363],[16785,-944],[11323,-6695],[9958,486],[13637,7268],[19384,4091]],[[387717,691215],[1024,-8326],[2997,-5980],[13997,-10758],[-1043,-11903],[-9142,-7267],[-1669,-5236],[8838,-13706],[17222,-3404],[3566,-6495],[-645,-9528],[-8725,-15422],[5899,-3434]],[[387243,759999],[-11817,-28],[2011,5007],[-2371,13991],[-11513,9127],[8213,75566],[436,8755]],[[368541,875593],[8649,-1402]],[[377190,874191],[15003,2546],[11114,2003]],[[403307,878740],[550,3062]],[[403857,881802],[15724,-7583],[28222,-2889],[17905,-8842]],[[465708,862488],[12518,-20400]],[[478226,842088],[2124,-13677],[9294,-6666],[2977,-4464],[1442,-9642],[-3168,-22718],[1025,-13477],[6998,-6266],[27483,-4235]],[[526401,760943],[5747,-29585]],[[701198,563376],[3395,18741],[-3300,15565],[379,9270],[6695,3748],[-1498,5151],[-4647,3948],[-13675,-1917],[-7264,15193]],[[681283,633075],[30100,0]],[[711383,633075],[1404,-6352],[24258,-4807],[4438,13019]],[[741483,634935],[23633,2632],[626,10930],[13940,-171],[1859,11788],[15704,0],[8858,-8641]],[[806103,651473],[-1423,-5179],[2352,-14192],[-1385,-8698],[8839,-7010],[4836,-686],[4913,-5008],[5235,-18025],[3414,-3548]],[[757908,580715],[-5500,30701],[-6221,973],[-10451,-19829],[2769,-19742],[19403,7897]],[[530062,691788],[2446,17682]],[[532508,709470],[10375,-4549]],[[542883,704921],[5956,-14364]],[[548839,690557],[1820,-38226],[3528,-5322],[4761,-1259],[4438,-4377],[-1859,-22003],[7834,-7067]],[[569361,612303],[-5235,-27182]],[[564126,585121],[-6316,-9242],[-9958,-4292],[57,-7610],[-4476,-6553],[-15306,-4377]],[[528753,561287],[-4780,1917],[-21527,3376]],[[474527,585808],[4742,17224],[-9521,13534],[-1575,6667],[1100,6208],[29854,31846],[8251,3376],[4476,-7210],[5291,-2833],[5027,2289],[5121,6123],[-3471,6781],[-9711,10501]],[[309840,526552],[-5349,2947],[-12499,86]],[[291992,529585],[-2864,10701],[-20313,37310],[12537,47067],[2408,16023]],[[368541,567925],[6980,-5951]],[[375692,558111],[5197,-7124],[4438,-14621]],[[385327,536366],[19479,-15365]],[[404806,521001],[6752,-11559],[-4590,-6839]],[[406968,502603],[-14073,-11674]],[[392895,490929],[-3547,744],[-3471,-4005]],[[385877,487668],[-18815,200]],[[392895,490929],[3774,2347],[10299,9327]],[[404806,521001],[37231,-229]],[[502769,466952],[-35468,-6581],[-8744,-1316],[-11493,2261],[-27218,18111],[-12138,-1430],[-4913,-4264],[-10868,7068],[-6050,6867]],[[560219,807610],[-3187,6552],[3566,7239],[5424,1574],[5994,10844]],[[572016,833819],[3016,9900],[4381,1716]],[[579413,845435],[3016,-1402]],[[582429,844033],[5595,3205],[8857,11159],[5899,2489],[4419,-3290],[2731,5465],[854,7496]],[[610784,870557],[-3775,4034],[-13068,8412]],[[593941,883003],[-25055,7382],[-3641,4349],[5367,11159],[14169,7954],[6941,-5865],[6202,-1030],[-1422,-7439],[14509,-8012],[8460,5093],[4741,15451],[3566,4578],[9464,-286]],[[637242,916337],[8725,-8727],[12423,-858],[10754,-3691],[7758,-5093],[113,-9557],[9863,-9099],[1385,-8269],[-6923,-9442],[284,-5522],[12158,-13448],[5235,-9070],[16861,115]],[[715878,833676],[-21280,-19972]],[[694598,813704],[-18664,8098],[-5955,-1002],[-12272,-15736],[-9635,-573],[-11418,4492],[-37876,2404]],[[598778,811387],[-38559,-3777]],[[240934,423404],[-5861,-2489],[-14092,10901]],[[220981,431816],[-10091,-2546],[-4874,1717],[-1783,10672],[-13087,10587]],[[171023,513133],[10792,-515],[17733,8755],[9029,1745],[3812,-2661],[360,-5493],[6658,-1145],[11417,11245],[10451,3634],[5045,-3634],[7663,-1717]],[[253983,523347],[45235,6409]],[[660192,484206],[-6714,6695],[-1442,5636],[5216,7125],[1574,7267]],[[658826,510929],[12006,1717],[40267,-1917]],[[768283,501487],[19650,-15708]],[[787933,485779],[303,-9127],[-8307,-11044],[-1688,-5065],[11816,-7811],[12992,7239],[4400,-258],[4173,-3462],[-1574,-7124],[246,-8641],[2504,-7811],[10735,-9843],[22589,-11473]],[[846122,411359],[6089,-5751],[2617,-5980],[-6278,-8269],[854,-6066]],[[849404,385293],[-4932,-2375],[-5500,7353],[-10678,-3290],[-4970,801],[-6278,8240],[-4665,2347],[-5728,-1316],[-3983,-6295],[-6164,-4836],[-12594,4521],[-3433,-1917],[-4344,-11931]],[[776135,376595],[-9559,14706],[-14908,40000],[-3376,5208],[-758,6152],[-7151,12818],[-21224,13963],[-10640,15050],[-6164,4864],[-30138,2003],[-12025,-7153]],[[593941,883003],[16843,-12446]],[[582429,844033],[-16786,10043]],[[565643,854076],[-14623,1889],[-3168,3233],[911,10730],[-2314,22546],[-5197,4177],[-11228,-5064],[-3566,-8984],[-17980,5751]],[[508478,888354],[682,35393],[-1953,16653],[-3016,11187],[-14585,7983]],[[489606,959570],[1289,5980],[-1024,5493],[1726,6953],[5387,4921],[15552,4292],[6753,8498],[9179,3806],[8213,-3291],[-265,-3891],[6221,-4006],[78408,-5608],[10469,-4063],[18815,-14678],[-8231,-30844],[-4913,-9213],[57,-7582]],[[781124,369241],[-4913,-10758],[10204,-15708],[-1365,-25751],[-17639,45551],[6922,9785],[6791,-3119]],[[849404,385293],[1308,-7353],[17867,-16653],[20996,-9814],[-569,-4492],[-8763,-9671],[-1839,-5923],[8971,-13648]],[[887375,317739],[-4419,-11960]],[[882956,305779],[341,-5121],[6449,-6152],[-133,-4893],[-10982,-7811],[2788,-7353],[-3414,-5236],[-7378,-2632],[-11664,-9586],[436,-7839],[14149,-11731],[4704,-13534],[10394,-3920],[3129,-6495],[-4950,-7353],[-11797,-5808]],[[875028,200315],[-9503,-2633],[-7378,1173],[-10033,7325],[-8990,3376]],[[839124,209556],[-2864,14564],[-15496,10243],[-341,10243],[4419,5437],[1915,5951],[-2655,7010],[-9957,11989],[-2125,9527],[-6790,9671],[-11133,10358]],[[794097,304549],[5898,7268],[-7453,26609],[-11684,31330],[-4723,6839]],[[478226,842088],[-7606,14449]],[[470620,856537],[5880,-3576],[9749,16795],[8629,8898],[7758,3491],[5842,6209]],[[565643,854076],[13770,-8641]],[[579413,845435],[-5823,-3662],[-1574,-7954]],[[560219,807610],[-15496,-4463],[-2655,-22633]],[[542068,780514],[-12443,-6924],[-3224,-12647]],[[771830,64664],[-20162,13247],[-16159,7640],[-9066,7324],[5974,8012]],[[732417,100887],[-7624,3662],[-11096,-4063]],[[713697,100486],[-4552,4950],[7947,10902],[-4590,4949]],[[712502,121287],[17203,25866],[664,16051],[5216,5837],[1194,7897],[-12195,43777],[-266,9099],[1840,17539],[12841,20887],[1270,10501],[-3148,12389],[-10716,21802],[-2314,10730],[-11115,20601],[778,7468],[7397,23662],[5842,12818],[4950,3491],[13675,-1745],[12840,-12990],[7416,-20830],[10622,-19285],[-1575,-21173],[8004,-11187],[11172,57]],[[839124,209556],[-9749,-1917],[-5425,-4549],[-3622,-7039],[5386,-8984],[1745,-9156],[-1460,-8641],[-6771,-15336],[-12461,-458],[-6051,-2832],[-1840,-13935],[-7871,-9785],[1650,-10329],[-2769,-9299],[-7245,-8326],[1347,-16509],[-2789,-40687],[-4267,1202],[-5842,6924],[-8895,-3834],[7719,9814],[1916,8784]],[[849688,528869],[26421,-7124],[10412,429],[17279,4979],[10887,-6667],[-1328,-16767],[854,-8441],[23518,-34649]],[[937731,460629],[-5272,-5837],[-6297,1288],[-3623,8412],[-5785,3176],[-10204,-7182],[-6202,1545],[-1517,7296],[-22381,-16023],[-24808,-13476],[455,-10157],[-5975,-18312]],[[787933,485779],[-6316,3634]],[[779227,773876],[12158,-13734]],[[791385,760142],[31655,-24292]],[[820479,662317],[-8914,-3462],[-5462,-7382]],[[741483,634935],[6847,9299],[-815,6180],[-15382,12933],[-569,13505],[-4951,34449],[-5159,21030],[-3717,5322],[-22248,2032],[-10659,9041],[2579,18827]],[[687409,767553],[13713,7210],[-3774,9013],[-2750,29928]],[[715878,833676],[20276,-4921],[22039,6580]],[[204802,393161],[-15571,-26066],[-26497,10959],[-3793,5980],[-5159,3576],[-1328,3663],[-4628,1745],[1783,944],[-891,6438],[-6733,10415],[7567,6838]],[[220981,431816],[12821,-10243]],[[882956,305779],[1877,4550]],[[884833,310329],[9863,-2747],[11190,3319],[5197,11817],[17620,15765],[9199,15079]],[[937902,353562],[8061,-10301],[27672,-26781],[26364,-14249],[-3281,-8755],[-14567,-6066],[-14471,-11330],[1802,-6810],[9805,-6781],[7037,-8212],[2826,-7353],[588,-8412],[-1404,-8956],[-6296,-18970],[-9673,-18741],[-4951,86],[-4893,3891],[-7283,-4005],[-2314,-11617],[-6487,-12389],[-6031,-7067],[-21129,4463],[-6354,6724],[-759,8870],[-5291,8669],[-10887,-1144],[-8516,2461],[-4666,6666],[-7776,2862]],[[535733,719770],[-2428,5666],[-6904,35507]],[[542068,780514],[1782,19829],[3358,4806],[51570,6238]],[[687409,767553],[-15837,3891],[-7511,-28],[-4703,-3205],[-1499,-8984],[-2181,-4750],[-5633,-3977],[-1271,-7239],[9806,-11559],[-3964,-3377],[-21546,5008],[-12670,-5179],[-6885,3462]],[[613515,731616],[-28602,-7926]],[[584913,723690],[-8686,-10357],[-5994,4091],[-834,8813],[-9711,1831],[-4666,-9156],[-5823,-2489],[-13466,3347]],[[243532,669642],[-10394,6437],[7265,17683],[10678,43634],[6126,15507],[4002,5380],[7473,3519],[15078,3319],[3794,-1030],[626,-6581],[-8422,-6524],[1366,-715],[-1214,-401],[114,-3891],[2617,-2632],[-3945,-3977],[4951,-1259],[474,-4864],[-1840,-2289],[4116,3090],[3205,10100],[5538,4921],[-1157,9299],[778,-1030],[-474,1746],[5330,10329],[1631,11931],[11019,11931],[1669,21202],[4856,8755],[1631,-572],[-474,-5465],[-1366,-4063],[-3053,-315],[57,-3662],[-1537,-544],[-114,-4692],[1802,-400],[835,-3405],[-2409,-3033],[2143,-2146],[949,2232],[-2580,-4865],[3528,659],[588,-2719],[1309,716],[7909,-7325],[6316,-8727],[3015,-543],[4420,-6066],[11114,-7525],[4476,-1059],[8440,3891],[23291,-9470]],[[319152,812903],[171,-1430],[-1688,57],[1517,1373]],[[385877,487668],[-11721,-16252],[2427,-8298],[8289,-6838],[12613,830],[4665,-2118],[7246,-11616],[10185,-8069],[13220,-1230],[16083,-11960],[7018,-2976]],[[417665,343261],[-41632,-8583]],[[343278,371902],[-17165,9042]],[[328408,425264],[4685,14335]],[[342576,475937],[16577,10128],[26724,1603]],[[333320,937281],[28830,-5236],[8383,5865],[8364,1030],[911,8126],[-4268,8985],[-13447,7153],[-18436,772],[-1896,-3090],[56,-6438],[-1005,7153],[3528,17654],[3224,7382],[3528,5322],[9692,8040],[9275,-6924],[21394,4778],[2940,-11531],[17317,773],[5841,4463],[17146,-4492],[-208,-3290],[-7094,-6152],[76,-15593],[-9654,-15051],[-1954,-10786],[1973,-8126]],[[417836,928068],[-3111,-16481],[-2257,-1459],[-5045,3147],[-3262,-1831]],[[404161,911444],[-854,-32704]],[[403307,878740],[-26117,-4549]],[[377190,874191],[-12138,543],[-8422,1002]],[[347659,951272],[114,-314],[-1062,85],[948,229]],[[345554,952531],[853,-458],[-1384,544],[531,-86]],[[344814,952789],[-152,-344],[-474,86],[626,258]],[[330437,966752],[-113,-372],[-361,543],[474,-171]],[[330381,968926],[4001,-887],[-4419,-86],[1043,-2375],[-4039,-228],[3414,3576]],[[254059,524606],[-17013,20315],[18416,31015],[17715,-6523],[15704,-33419]],[[288881,535994],[-8383,-2747],[-26439,-8641]],[[148509,525121],[15742,34592]],[[164251,559713],[-569,2661]],[[163682,562374],[16236,11216],[8592,13276],[3053,13820],[-1688,-2060],[531,42203],[1670,9299],[2276,3891],[6315,5236],[18910,7554],[5861,8498],[7530,1373],[10564,-7038]],[[291992,529585],[-38009,-6238]],[[171023,513133],[-10280,5007],[-12234,6981]],[[254059,524606],[34822,11388]],[[189553,595536],[417,-801],[-948,-315],[531,1116]],[[489397,210644],[16975,1774],[1537,2002],[-531,4493],[2541,4463]],[[509919,223376],[16956,6094]],[[526875,229470],[6885,-4177]],[[533760,225293],[-1119,-4206]],[[532641,221087],[2200,-2976],[10261,-5550],[8649,-7783]],[[570764,168612],[10090,6695],[-2332,-2432],[15894,-15021],[39166,2918],[19042,-18912],[7966,-4292],[16027,400],[3850,-2632],[11134,-15765],[8800,-3663],[12101,5379]],[[713697,100486],[14263,3462],[4457,-3061]],[[771830,64664],[-4590,-13877],[-10527,-11474],[-4381,-1631],[-10792,3663],[-12139,7439],[-3622,-2775],[-16824,2002],[-4191,4121],[-12272,4978],[-6904,-2718],[-20901,-2089],[-1593,-3090],[379,-8011],[-9369,-13505],[-1366,-7211],[-4173,-8183],[-929,-12303],[-11418,3891],[-6524,6495],[-7075,22261],[-10166,8898],[-18113,11044],[-3111,4063],[-4476,13992],[-15761,10186],[-5102,10558],[-22134,23462],[-12063,19771],[-9635,11216],[-3850,1974],[-6582,11845],[-27407,22347],[-14699,20572],[19877,8069]],[[470620,856537],[-4912,5951]],[[403857,881802],[304,29642]],[[417836,928068],[4931,3262],[8156,12961],[28127,-5036],[11456,1631],[7644,10415],[11456,8269]],[[658826,510929],[-7662,6953],[3186,14507],[4154,10043],[-1669,12789],[-7378,10072],[-1593,17196],[-3737,4978],[-6410,-86]],[[637717,587381],[-3339,4807],[-8307,3148],[-6980,13390],[1138,4664],[5064,2976],[6885,-3176],[10565,-1116],[720,6037],[7701,5093],[8364,-401],[4818,10816]],[[664346,633619],[16937,-544]],[[109627,467582],[-14585,8498],[-40418,17138],[-12746,2804],[-15761,-2718],[-3262,3119],[-16122,5780],[-3262,7410],[-266,4693],[-3205,3891],[1783,4921],[740,-1345],[13485,5093],[10071,-2145],[3888,2374],[1631,3892],[2485,-401],[-1631,86],[1005,-1431],[7416,3176],[16293,2318],[2579,4835],[14794,4607],[-569,6352],[2409,3433],[-721,1574],[-13542,715],[-23917,-7382],[-6335,20744],[1005,-1974],[2257,1888],[3756,-6037],[10318,7067],[-7739,716],[778,1745],[-5899,1288],[-4685,6437],[-5633,-12246],[-2105,-1516],[303,-2289],[-4627,-3577],[-626,-2775],[-3642,-401],[-3793,-4864],[1271,3176],[-8118,-6752],[6638,6352],[1517,4148],[702,-1516],[9313,8498],[12802,21717],[13543,2517],[12802,-5150],[21963,-16624],[30139,-11359],[20237,-1659],[10375,1974],[2902,-3491],[-740,-944],[2105,-658],[-3205,4550],[5159,858],[-1745,3033],[1005,944],[13485,-315]],[[164251,559713],[-11152,-26151],[-13087,-24206],[-15382,-26352]],[[9844,552131],[-323,-973],[-95,744],[418,229]],[[13372,553075],[853,-543],[-740,-172],[-113,715]],[[20750,557138],[265,-257],[-1328,86],[1063,171]],[[682611,706695],[-13580,-11302],[-7416,11159],[9104,5121],[11892,-4978]],[[711383,633075],[-58759,1803]],[[652624,634878],[285,16652],[13864,3176],[1594,8527],[-12955,6008],[475,4950],[-14074,12046],[-3300,6523],[-6145,-2031],[-6259,-6495],[-20370,14421],[3509,8640],[-10679,20716]],[[598569,728011],[14946,3605]],[[468477,209728],[-5330,-486],[-246,3147],[3281,2604],[2504,-1803],[-209,-3462]],[[536055,228555],[-2295,-3262]],[[526875,229470],[-4153,-429],[-12803,-5665]],[[489397,210644],[-22134,-8699],[303,1832],[-5215,0],[-1992,11044],[-4950,7382],[-25131,10100],[-5538,11617],[-3471,2374],[-2276,6753],[-5785,5494],[-5690,3662],[-5956,-258],[-2845,2633],[-12707,3405],[-12329,8125],[-28772,7211]],[[357237,310472],[9654,12732],[9142,11474]],[[376033,334678],[10735,3576],[30897,5007]],[[937731,460629],[6772,-6524],[9160,-3862],[10394,-1002],[10659,-9900],[1840,-9814],[266,-18569],[-6582,-9556],[-7226,-5637],[-3357,-7725],[-7207,-9557],[-20636,-8440],[6088,-16481]],[[884833,310329],[2542,7410]],[[564126,585121],[1290,7239]],[[565416,592360],[10071,-2747],[5899,-7439],[13447,-200],[76,-5751],[4021,-3062],[4002,1259],[1384,7611],[4552,2604],[21148,-1431],[7701,4177]],[[660192,484206],[-3509,-4035],[-5785,-171],[-29322,11387],[-17696,17110],[-6316,1774],[-12897,-3633],[-11779,7525],[-6221,-2375],[-3148,-5494]],[[532508,709470],[3225,10300]],[[584913,723690],[13656,4321]],[[652624,634878],[11722,-1259]],[[565416,592360],[3945,19943]],[[548839,690557],[-2106,7439],[-3850,6925]]],"bbox":[36.5974,43.3849,41.8698,46.8799],"transform":{"scale":[0.00000527240527240527,0.000003495003495003493],"translate":[36.5974,43.3849]}}