{"type":"Topology","objects":{"muni":{"type":"GeometryCollection","geometries":[{"type":"MultiPolygon","arcs":[[[0,1,2,3,4,5,6,7,8,9]]],"properties":{"GID_2":"RUS.36.1_1","GID_0":"RUS","COUNTRY":"Russia","GID_1":"RUS.36_1","NAME_1":"Kurgan","NL_NAME_1":"Курганскаяобласть","NAME_2":"Al'menevskiyrayon","VARNAME_2":"NA","NL_NAME_2":"Альменевскийрайон","TYPE_2":"Raion","ENGTYPE_2":"District","CC_2":"R48000","HASC_2":"RU.KU.AL"}},{"type":"MultiPolygon","arcs":[[[10,11,12,13,14,15]]],"properties":{"GID_2":"RUS.36.2_1","GID_0":"RUS","COUNTRY":"Russia","GID_1":"RUS.36_1","NAME_1":"Kurgan","NL_NAME_1":"Курганскаяобласть","NAME_2":"Belozerskiyrayon","VARNAME_2":"NA","NL_NAME_2":"Белозерскийрайон","TYPE_2":"Raion","ENGTYPE_2":"District","CC_2":"R48000","HASC_2":"RU.KU.BE"}},{"type":"MultiPolygon","arcs":[[[16,17,18,19,20]]],"properties":{"GID_2":"RUS.36.3_1","GID_0":"RUS","COUNTRY":"Russia","GID_1":"RUS.36_1","NAME_1":"Kurgan","NL_NAME_1":"Курганскаяобласть","NAME_2":"Chastoozerskiyrayon","VARNAME_2":"NA","NL_NAME_2":"Частоозерскийрайон","TYPE_2":"Raion","ENGTYPE_2":"District","CC_2":"R48001","HASC_2":"RU.KU.CH"}},{"type":"MultiPolygon","arcs":[[[21,22,23,24,25,26,27]]],"properties":{"GID_2":"RUS.36.4_1","GID_0":"RUS","COUNTRY":"Russia","GID_1":"RUS.36_1","NAME_1":"Kurgan","NL_NAME_1":"Курганскаяобласть","NAME_2":"Dalmatovskiyrayon","VARNAME_2":"NA","NL_NAME_2":"Далматовскийрайон","TYPE_2":"Raion","ENGTYPE_2":"District","CC_2":"R48000","HASC_2":"RU.KU.DA"}},{"type":"MultiPolygon","arcs":[[[-11,28,29,30,31,32,33,34]]],"properties":{"GID_2":"RUS.36.5_1","GID_0":"RUS","COUNTRY":"Russia","GID_1":"RUS.36_1","NAME_1":"Kurgan","NL_NAME_1":"Курганскаяобласть","NAME_2":"Kargapol'skiyrayon","VARNAME_2":"NA","NL_NAME_2":"Каргапольскийрайон","TYPE_2":"Raion","ENGTYPE_2":"District","CC_2":"R48000","HASC_2":"RU.KU.KP"}},{"type":"MultiPolygon","arcs":[[[35,-23,36,37]]],"properties":{"GID_2":"RUS.36.6_1","GID_0":"RUS","COUNTRY":"Russia","GID_1":"RUS.36_1","NAME_1":"Kurgan","NL_NAME_1":"Курганскаяобласть","NAME_2":"Katayskiyrayon","VARNAME_2":"NA","NL_NAME_2":"Катайскийрайон","TYPE_2":"Raion","ENGTYPE_2":"District","CC_2":"R48000","HASC_2":"RU.KU.KT"}},{"type":"MultiPolygon","arcs":[[[-16,38,39,40,41,42,43,44,45,46,-29],[47]]],"properties":{"GID_2":"RUS.36.7_1","GID_0":"RUS","COUNTRY":"Russia","GID_1":"RUS.36_1","NAME_1":"Kurgan","NL_NAME_1":"Курганскаяобласть","NAME_2":"Ketovskiyrayon","VARNAME_2":"NA","NL_NAME_2":"Кетовскийрайон","TYPE_2":"Raion","ENGTYPE_2":"District","CC_2":"R48000","HASC_2":"RU.KU.KE"}},{"type":"MultiPolygon","arcs":[[[-48]]],"properties":{"GID_2":"RUS.36.8_1","GID_0":"RUS","COUNTRY":"Russia","GID_1":"RUS.36_1","NAME_1":"Kurgan","NL_NAME_1":"Курганскаяобласть","NAME_2":"Kurgan","VARNAME_2":"NA","NL_NAME_2":"Курган","TYPE_2":"Gorsovet","ENGTYPE_2":"District","CC_2":"NA","HASC_2":"RU.KU.KG"}},{"type":"MultiPolygon","arcs":[[[48,49,-8,50,51,52,53,-44,54,55,56,57]]],"properties":{"GID_2":"RUS.36.9_1","GID_0":"RUS","COUNTRY":"Russia","GID_1":"RUS.36_1","NAME_1":"Kurgan","NL_NAME_1":"Курганскаяобласть","NAME_2":"Kurtamyshskiyrayon","VARNAME_2":"NA","NL_NAME_2":"Куртамышскийрайон","TYPE_2":"Raion","ENGTYPE_2":"District","CC_2":"R48000","HASC_2":"RU.KU.KU"}},{"type":"MultiPolygon","arcs":[[[58,59,60,61,62,63,64,65,66,67,68]]],"properties":{"GID_2":"RUS.36.10_1","GID_0":"RUS","COUNTRY":"Russia","GID_1":"RUS.36_1","NAME_1":"Kurgan","NL_NAME_1":"Курганскаяобласть","NAME_2":"Lebyazh'evskiyrayon","VARNAME_2":"NA","NL_NAME_2":"Лебяжьевскийрайон","TYPE_2":"Raion","ENGTYPE_2":"District","CC_2":"R48000","HASC_2":"RU.KU.LE"}},{"type":"MultiPolygon","arcs":[[[69,70,-62,71,-60,72,73,74,75,-21,76]]],"properties":{"GID_2":"RUS.36.11_1","GID_0":"RUS","COUNTRY":"Russia","GID_1":"RUS.36_1","NAME_1":"Kurgan","NL_NAME_1":"Курганскаяобласть","NAME_2":"Makushinskiyrayon","VARNAME_2":"NA","NL_NAME_2":"Макушинскийрайон","TYPE_2":"Raion","ENGTYPE_2":"District","CC_2":"R48001","HASC_2":"RU.KU.MA"}},{"type":"MultiPolygon","arcs":[[[-7,77,78,79,80,81,82,-31,83,-51]]],"properties":{"GID_2":"RUS.36.12_1","GID_0":"RUS","COUNTRY":"Russia","GID_1":"RUS.36_1","NAME_1":"Kurgan","NL_NAME_1":"Курганскаяобласть","NAME_2":"Mishkinskiyrayon","VARNAME_2":"NA","NL_NAME_2":"Мишкинскийрайон","TYPE_2":"Raion","ENGTYPE_2":"District","CC_2":"R48001","HASC_2":"RU.KU.MI"}},{"type":"MultiPolygon","arcs":[[[-17,-76,84,-74,85,-69,86,87,88]]],"properties":{"GID_2":"RUS.36.13_1","GID_0":"RUS","COUNTRY":"Russia","GID_1":"RUS.36_1","NAME_1":"Kurgan","NL_NAME_1":"Курганскаяобласть","NAME_2":"Mokroysovskiyrayon","VARNAME_2":"NA","NL_NAME_2":"Мокройсовскийрайон","TYPE_2":"Raion","ENGTYPE_2":"District","CC_2":"R48001","HASC_2":"RU.KU.MO"}},{"type":"MultiPolygon","arcs":[[[-77,89,-19,90]]],"properties":{"GID_2":"RUS.36.14_1","GID_0":"RUS","COUNTRY":"Russia","GID_1":"RUS.36_1","NAME_1":"Kurgan","NL_NAME_1":"Курганскаяобласть","NAME_2":"Petukhovskiyrayon","VARNAME_2":"NA","NL_NAME_2":"Петуховскийрайон","TYPE_2":"Raion","ENGTYPE_2":"District","CC_2":"R48001","HASC_2":"RU.KU.PE"}},{"type":"MultiPolygon","arcs":[[[91,92,-41,93,94,95,96,97,-63,-71]]],"properties":{"GID_2":"RUS.36.15_1","GID_0":"RUS","COUNTRY":"Russia","GID_1":"RUS.36_1","NAME_1":"Kurgan","NL_NAME_1":"Курганскаяобласть","NAME_2":"Polovinskiyrayon","VARNAME_2":"NA","NL_NAME_2":"Половинскийрайон","TYPE_2":"Raion","ENGTYPE_2":"District","CC_2":"R48001","HASC_2":"RU.KU.PO"}},{"type":"MultiPolygon","arcs":[[[98,99,100,-56,101,-42,-93]]],"properties":{"GID_2":"RUS.36.16_1","GID_0":"RUS","COUNTRY":"Russia","GID_1":"RUS.36_1","NAME_1":"Kurgan","NL_NAME_1":"Курганскаяобласть","NAME_2":"Pritobol'nyrayon","VARNAME_2":"NA","NL_NAME_2":"Притобольныйрайон","TYPE_2":"Raion","ENGTYPE_2":"District","CC_2":"R48000","HASC_2":"RU.KU.PR"}},{"type":"MultiPolygon","arcs":[[[102,-4,103,-2,104]]],"properties":{"GID_2":"RUS.36.17_1","GID_0":"RUS","COUNTRY":"Russia","GID_1":"RUS.36_1","NAME_1":"Kurgan","NL_NAME_1":"Курганскаяобласть","NAME_2":"Safakulevskiyrayon","VARNAME_2":"NA","NL_NAME_2":"Сафакулевскийрайон","TYPE_2":"Raion","ENGTYPE_2":"District","CC_2":"R48001","HASC_2":"RU.KU.SA"}},{"type":"MultiPolygon","arcs":[[[105]]],"properties":{"GID_2":"RUS.36.18_1","GID_0":"RUS","COUNTRY":"Russia","GID_1":"RUS.36_1","NAME_1":"Kurgan","NL_NAME_1":"Курганскаяобласть","NAME_2":"Shadrinsk","VARNAME_2":"NA","NL_NAME_2":"Шадринск","TYPE_2":"Gorod","ENGTYPE_2":"City","CC_2":"NA","HASC_2":"RU.KU.SG"}},{"type":"MultiPolygon","arcs":[[[-27,106,-25,107,108,109,-33,110,-82,111,-80,112,113,114],[-106]]],"properties":{"GID_2":"RUS.36.19_1","GID_0":"RUS","COUNTRY":"Russia","GID_1":"RUS.36_1","NAME_1":"Kurgan","NL_NAME_1":"Курганскаяобласть","NAME_2":"Shadrinskiyrayon","VARNAME_2":"NA","NL_NAME_2":"Шадринскийрайон","TYPE_2":"Raion","ENGTYPE_2":"District","CC_2":"R48001","HASC_2":"RU.KU.SR"}},{"type":"MultiPolygon","arcs":[[[-13,115,-34,-110,116,117]]],"properties":{"GID_2":"RUS.36.20_1","GID_0":"RUS","COUNTRY":"Russia","GID_1":"RUS.36_1","NAME_1":"Kurgan","NL_NAME_1":"Курганскаяобласть","NAME_2":"Shatrovskiyrayon","VARNAME_2":"NA","NL_NAME_2":"Шатровскийрайон","TYPE_2":"Raion","ENGTYPE_2":"District","CC_2":"R48002","HASC_2":"RU.KU.SH"}},{"type":"MultiPolygon","arcs":[[[118,-38,119,-22,120,121,-103]]],"properties":{"GID_2":"RUS.36.21_1","GID_0":"RUS","COUNTRY":"Russia","GID_1":"RUS.36_1","NAME_1":"Kurgan","NL_NAME_1":"Курганскаяобласть","NAME_2":"Shchuchanskiyrayon","VARNAME_2":"NA","NL_NAME_2":"Щучанскийрайон","TYPE_2":"Raion","ENGTYPE_2":"District","CC_2":"R48002","HASC_2":"RU.KU.SC"}},{"type":"MultiPolygon","arcs":[[[-6,-121,-28,122,-114,123,-78]]],"properties":{"GID_2":"RUS.36.22_1","GID_0":"RUS","COUNTRY":"Russia","GID_1":"RUS.36_1","NAME_1":"Kurgan","NL_NAME_1":"Курганскаяобласть","NAME_2":"Shumikhinskiyrayon","VARNAME_2":"NA","NL_NAME_2":"Шумихинскийрайон","TYPE_2":"Raion","ENGTYPE_2":"District","CC_2":"R48002","HASC_2":"RU.KU.SM"}},{"type":"MultiPolygon","arcs":[[[-10,124,-49,125]]],"properties":{"GID_2":"RUS.36.23_1","GID_0":"RUS","COUNTRY":"Russia","GID_1":"RUS.36_1","NAME_1":"Kurgan","NL_NAME_1":"Курганскаяобласть","NAME_2":"Tselinnyyrayon","VARNAME_2":"NA","NL_NAME_2":"Целинныйрайон","TYPE_2":"Raion","ENGTYPE_2":"District","CC_2":"R48001","HASC_2":"RU.KU.TS"}},{"type":"MultiPolygon","arcs":[[[-15,126,-88,127,-67,128,-65,129,130,131,-95,132,-39]]],"properties":{"GID_2":"RUS.36.24_1","GID_0":"RUS","COUNTRY":"Russia","GID_1":"RUS.36_1","NAME_1":"Kurgan","NL_NAME_1":"Курганскаяобласть","NAME_2":"Vargashinskiyrayon","VARNAME_2":"NA","NL_NAME_2":"Варгашинскийрайон","TYPE_2":"Raion","ENGTYPE_2":"District","CC_2":"R48000","HASC_2":"RU.KU.VA"}},{"type":"MultiPolygon","arcs":[[[-30,-47,133,-45,-54,134,-52,-84]]],"properties":{"GID_2":"RUS.36.25_1","GID_0":"RUS","COUNTRY":"Russia","GID_1":"RUS.36_1","NAME_1":"Kurgan","NL_NAME_1":"Курганскаяобласть","NAME_2":"Yurgam'shskiyrayon","VARNAME_2":"NA","NL_NAME_2":"Юргамьшскийрайон","TYPE_2":"Raion","ENGTYPE_2":"District","CC_2":"R48002","HASC_2":"RU.KU.YU"}},{"type":"MultiPolygon","arcs":[[[135,136,-100]]],"properties":{"GID_2":"RUS.36.26_1","GID_0":"RUS","COUNTRY":"Russia","GID_1":"RUS.36_1","NAME_1":"Kurgan","NL_NAME_1":"Курганскаяобласть","NAME_2":"Zverinogolovskiyrayon","VARNAME_2":"NA","NL_NAME_2":"Звериноголовскийрайон","TYPE_2":"Raion","ENGTYPE_2":"District","CC_2":"R48000","HASC_2":"RU.KU.ZV"}}]}},"arcs":[[[191270,178073],[475,6735],[-4832,11637],[-8667,5201],[-22970,-2357],[-13961,-5725],[-18079,-14107],[-9143,-1609]],[[114093,177848],[-208,10926]],[[113885,188774],[17395,26156]],[[131280,214930],[133,4901],[-5501,7896],[-4386,10477],[-1813,9504],[11254,9729],[7375,11113],[4014,11337],[1427,12311],[7582,8045],[-1471,11412]],[[149894,311655],[8727,18485]],[[158621,330140],[26047,-28326],[14258,10515],[21558,8756],[34299,25594]],[[254783,346679],[-1338,-7409],[1844,-20430],[2869,-6997],[8995,-11338],[9025,-3443],[8355,-7146],[13500,9653]],[[298033,299569],[11938,-2619],[3182,-5201],[-9530,-40786]],[[303623,250963],[-104,-34537]],[[303519,216426],[-3107,-5687],[-6750,598],[-4936,6848],[-3004,10028],[-5560,11038],[-15328,-5014],[-11820,-16239],[-13708,-11600],[-31682,-20617],[-7538,-150],[-8816,-7558]],[[478375,603292],[4876,9991],[-3746,9467],[-6453,-375],[-11403,-7371],[-3747,9467],[0,13957],[2617,12872],[6765,19195],[-3450,28288],[-5530,25145],[-3568,31319]],[[454736,755247],[15625,-7558]],[[470361,747689],[9382,598],[16175,12461],[3063,6847],[1427,9018],[30,26267]],[[500438,802880],[33630,-636],[14154,-7745],[7166,-26941],[40618,-67802],[6616,-5762]],[[602622,693994],[-6021,-8681],[-3420,-8756],[-2542,-14182],[1085,-12198],[6051,-12049],[15879,-15565],[-655,-9729],[-5040,-6885],[-8533,-3405],[-8014,-7633],[5040,-13059],[-178,-10889],[-14035,-6099],[4579,-11862],[5337,-8194],[164,-6025],[-5233,-14742]],[[587086,524041],[-4803,3966],[-14599,1085],[-26182,16726],[-6884,823],[-13901,-9205],[-12444,15005],[-2869,10103],[-8564,13396],[-5843,23274],[-12622,4078]],[[833974,513526],[-74,9018],[-6690,39027],[3761,16389]],[[830971,577960],[9902,-3405],[20145,13022],[4743,-1123],[15566,-25108],[9872,-449],[8162,1310],[17618,17063],[6438,-2956],[3880,-7783],[416,-7222],[-3865,-7296],[7285,-20393],[7716,-3555],[9396,-14406],[2543,-16239],[10675,-5987],[10615,-21029],[6393,-2994],[9753,-12610]],[[988224,456800],[-19224,-15117],[-6348,12012],[-6809,4190],[-7672,-5463],[-6408,-21141],[-48096,6137],[-33199,-2919]],[[860468,434499],[-8861,2395],[-2661,2806]],[[848946,439700],[-2171,9018],[-1383,15603],[-5248,20393],[-505,13246],[-3524,12573],[-2141,2993]],[[122939,596557],[-11180,7933]],[[111759,604490],[2468,9953],[12563,15304],[4311,16239],[-14496,36670],[-5738,26717],[-3643,11150],[-15432,12273],[-1338,8345],[11998,11599],[-2632,24621],[3182,13695],[15581,27128],[14763,10665],[-461,9055],[-8519,11824],[1561,12310],[-4460,18335],[-7374,6474]],[[114093,886847],[4906,7184],[9917,3517],[19610,20805],[7909,224],[18540,-19382],[26241,2544],[5293,-9804],[7567,17101],[16250,9990],[14169,-12086],[18183,-24471]],[[262678,882469],[8920,-24135],[-3137,-8756]],[[268461,849578],[-7136,-7296],[-22940,-15379]],[[238385,826903],[10823,-17849],[-39830,-26080],[-15655,-19083],[-3316,-21553],[5055,-14705],[1264,-8345],[-550,-6735],[-11180,-10776],[-2216,-8120],[10482,-46324],[728,-15117],[-10853,-24696],[-372,-9766],[-2527,-9953]],[[180238,587801],[-10586,-11936],[-1828,-6287],[-4951,-4116],[-3940,1422],[-7865,10739],[-1784,9542],[-5560,15790],[-4446,2582],[-16339,-8980]],[[478375,603292],[-6259,-6436],[-15686,-7633],[-10808,-11562],[-4758,898],[-2884,-3817],[-1056,-19457],[-1471,-7372],[-4907,-6959]],[[430546,540954],[-11641,1609],[-7612,-2919],[-4862,3891],[-5070,9954],[-6541,2582],[-5189,12946],[-12503,936],[-10482,-6848],[-21186,14182],[-5456,-24659],[8920,-8419],[-9143,-7371],[-4862,3854],[-14154,-487],[-1754,-9242],[-5323,-5875]],[[313688,525088],[-12444,30496],[-2780,14930],[-520,12086],[3850,31282]],[[301794,613882],[2438,34761]],[[304232,648643],[12058,33115],[6467,11450],[24874,18297],[16755,16427]],[[364386,727932],[5665,-187],[17038,21216],[6779,5351],[5665,-225],[25081,18073],[5858,-6286],[6051,-12348],[9441,4228]],[[445964,757754],[8772,-2507]],[[88372,591019],[-7924,10627],[-6274,4191],[-18540,30046],[6720,18373],[-18673,1496],[-6037,21740],[283,17624],[-9367,18896],[-2854,11787],[-13202,17250],[2304,5089],[-669,40598],[17781,16689],[35355,78690],[16622,17025],[7062,-411],[8519,-27577],[5010,-3705],[9605,17400]],[[111759,604490],[-3970,-6511],[-4445,-5351]],[[103344,592628],[-14972,-1609]],[[587086,524041],[-1457,-10328],[-8638,-14331],[-6037,-15416],[-16279,-14144],[-3182,-8644],[342,-12048],[9470,-35697],[5249,-5164],[5545,-17212],[1398,-20431],[-7033,-7034]],[[566464,363592],[-22925,-13321]],[[543539,350271],[-4788,-9916],[-773,-17586]],[[537978,322769],[-8147,18260],[-21216,29560],[-16488,11674],[-9203,-4228],[-4044,-6286],[-6452,2619],[-4579,-2133],[1070,-19270],[-3925,-9317]],[[464994,343648],[-5055,-936]],[[459939,342712],[-6185,7447],[-7255,1945],[-12563,-3891],[-12548,6997],[-4906,6885],[-8237,-6623]],[[408245,355472],[-3851,23312],[1413,7371],[11359,26193],[4846,6997],[10764,8606],[-1576,20468],[6676,16164],[-669,7222],[-3271,8232],[-11924,10702],[-5887,9279],[-3866,12460]],[[412259,512478],[6200,6474],[4267,262],[9322,15191]],[[432048,534405],[-1502,6549]],[[524033,453246],[-1160,20954],[-10363,9616],[-23490,-6735],[-1918,-32778],[2438,-6062],[21469,-12385],[13024,27390]],[[352210,51450],[-10675,35547],[-7018,17587],[-13752,18222],[-2631,11899],[3018,16614],[921,16426],[-743,26006],[-2156,10702],[-6140,15229],[-9218,17362]],[[303816,237044],[-193,13919]],[[298033,299569],[461,17624],[4906,22825],[11775,11263],[8311,3705],[8028,-9018]],[[331514,345968],[1546,-6511],[11880,-10589],[11700,14256],[6185,3517],[5412,-8045]],[[368237,338596],[29898,4042],[5397,2806]],[[403532,345444],[4713,10028]],[[459939,342712],[3420,637]],[[463359,343349],[-2067,-157344]],[[461292,186005],[-45093,-108250]],[[416199,77755],[-17276,-2395],[-4296,-3442],[-1383,-4827],[-9337,-6249],[-7895,2544],[-2720,-10177],[-3450,-2582],[-17632,823]],[[761451,490589],[1487,-15641]],[[762938,474948],[-2795,-15753],[-3792,-4340],[1011,-11413]],[[757362,443442],[-4430,-20019]],[[752932,423423],[-12266,-4602],[-4163,-6174],[-267,-10851],[4951,-19121],[-8802,-8120],[-1189,-5500],[535,-7184],[11671,-17101],[-10080,-4565],[-8757,-8119],[-45,-22900],[-9128,-9991],[-1071,-11487]],[[714321,287708],[-14079,-13770],[-6423,5762],[-9188,-4003],[-6809,3966],[-3108,8307],[-13782,-6025],[-9173,15866],[-10155,1347],[-4148,-3181],[-4802,6997],[-5382,14257]],[[627272,317231],[-1457,26454]],[[625815,343685],[-10912,14556],[-1428,6586],[-877,19232],[11299,7185],[6988,9990],[3211,8607],[-8311,10439],[-1427,6586],[11285,10140]],[[635643,437006],[-9560,27951],[-595,7222]],[[625488,472179],[1502,10328],[3226,8568],[7850,33527],[9679,8905],[4951,9841]],[[652696,543348],[18049,-24583]],[[670745,518765],[25096,-14706],[7954,10552],[2304,8195],[12534,1347],[5768,-12423],[5576,-449],[10199,4565],[5382,-7745],[2646,-10253],[13247,-7259]],[[804626,248119],[-6661,3817],[-1843,-2844],[-1472,-11899],[-1680,-2469],[-28412,-8008],[-6081,-9429],[-14347,1684],[-15060,-2507]],[[729070,216464],[2780,786],[-7553,26230],[-7285,8157],[-2379,17998],[-3092,8344],[2780,9729]],[[752932,423423],[2854,9729],[1576,10290]],[[762938,474948],[-1651,21515],[818,7896]],[[762105,504359],[2542,6810]],[[764647,511169],[13619,7034]],[[778266,518203],[6988,-13059],[16636,4640],[4356,-8943],[23045,7746],[4683,4939]],[[848946,439700],[178,-27090],[3881,-10777],[3850,-4752],[877,-5388],[-802,-6661],[-9753,412],[-5918,-4303],[-5010,-9766],[-3717,-13321],[164,-21066],[-1621,-7260],[4698,-7146],[5055,710],[3420,-6548],[-2483,-7857],[-6319,-150],[-13633,17137],[-5858,-7334],[-9054,-21927],[-4907,-15790],[-1174,-8457],[3806,-24247]],[[254783,346679],[298,20617],[-4267,18410],[-10824,12984],[-9931,29411],[-6170,4303],[-1071,13246],[2007,11075],[-921,10253],[-4832,11674],[-7018,3593],[-4207,7483],[6274,11525],[8236,6810],[2513,9953],[-4371,10515],[-5516,7970],[-7850,2918],[-4386,10515],[-7344,9616]],[[195403,559550],[-4282,-411]],[[191121,559139],[3687,12460],[10110,13134],[4683,10140],[4966,4116],[13158,-4864],[5114,1085],[7672,11001],[10020,-2769],[13768,-9093]],[[264299,594349],[5946,1721],[24755,15417]],[[295000,611487],[7359,20018]],[[302359,631505],[-565,-17623]],[[313688,525088],[-2111,-11075],[-17930,-20917],[2394,-5837],[7686,0],[3226,-5164],[2037,-7708],[8296,-4191],[5784,4715],[5456,-8045],[6779,-19458],[8163,-1160],[12518,-14780],[1903,-4714],[-2587,-9879],[-11373,-23274],[-2558,-9916],[536,-22974],[-2677,-6848],[-7716,-7895]],[[778266,518203],[-5977,-1384],[-7642,-5650]],[[762105,504359],[-654,-13770]],[[670745,518765],[-21603,31057],[-6274,13620]],[[642868,563442],[-134,6024],[4223,3218],[-2706,7110],[-6557,5762],[-3256,11338],[5828,10514],[-2393,11974],[10779,486],[8489,-16576],[27698,19196],[699,9691],[5040,9878],[-4981,13097],[-9485,-973],[-3167,8344],[758,6698]],[[673703,669223],[12415,7708],[10095,19719],[7285,6885],[5679,-3405],[1576,-18671],[4401,-5912],[14332,-3144],[11537,13059],[4743,1946],[8905,-20879],[21692,-5426],[12503,4565],[4847,-10140],[1517,-24696],[8474,-34799],[6126,-10701],[21141,-7372]],[[848946,439700],[11522,-5201]],[[988224,456800],[8445,-15079],[3330,-15641],[-2409,-27091],[-2274,-6959],[-1056,-13059],[-2512,-6474],[-5739,4865],[-14347,-4453],[-13976,2320],[-6675,-6923],[-7716,7372],[-5546,-3517],[-11359,-375],[3658,-10552],[-1071,-8531],[1160,-3480],[12622,-21553],[-10199,-17399],[-2007,-13134],[1546,-6398],[-936,-3929],[-27788,-6324],[-16948,12273],[-6170,412],[-3806,-2170],[-7196,-10852],[-2245,-15603],[-2305,-6548],[-31281,-16689],[-9812,5276],[-11790,-1422],[-7196,2956]],[[729070,216464],[-10244,-4341],[-6913,-13208],[-11612,3105],[-46476,-16613],[-48229,-26530],[-5323,-785],[-4743,5612],[-163,10028],[2884,12872],[-520,5463],[-9783,1310],[-10244,-8195],[-4371,-22189],[-3836,-7109],[-7062,-1796],[-10451,9803]],[[551984,163891],[-4743,29037],[2408,32741],[-2899,13096],[-10214,18148],[2572,12834],[12162,1871],[4118,3255],[-17410,47896]],[[543539,350271],[5798,4565]],[[549337,354836],[12221,-28887],[6586,-8718],[6245,3367],[8578,11301],[8073,-1385],[6022,-4527],[4534,-11825],[5486,-336]],[[607082,313826],[9426,11936],[4163,3218]],[[620671,328980],[3866,-823],[2527,-1908]],[[627064,326249],[208,-9018]],[[551984,163891],[-23521,7372],[-3211,-1572]],[[525252,169691],[-3018,7596],[-60050,10851]],[[462184,188138],[-892,-2133]],[[463359,343349],[1635,299]],[[45465,345070],[9292,-6212],[8370,8868],[5010,1160],[8192,-16688],[9189,9542],[6645,2581],[4237,-7446],[357,-6024],[-4192,-8344],[3627,-11151],[357,-6024],[11270,9728],[4177,8345],[15849,12048],[8906,-299],[7805,-18597],[5338,-4902]],[[131280,214930],[-15180,-21067],[-2215,-5089]],[[114093,177848],[-27133,4865],[5233,10926],[119,4864],[-4728,8606],[-7731,2769],[-10244,-4228],[-5694,-9766],[-4802,-4228],[-23818,-8270],[-11879,14967],[-9024,15941],[2601,11898],[3301,7671],[-12949,50702],[-5962,13882],[-1383,8344],[2126,13022],[9322,6623],[6809,-412],[6378,-7109],[3955,-9280],[7597,299],[2587,19757],[4342,5351],[2349,10028]],[[260849,703722],[-6422,-1272],[-5219,14743],[5427,3592],[9381,-3480],[1710,-4527],[-4877,-9056]],[[238385,826903],[30076,22675]],[[262678,882469],[10957,-9991],[26464,-3854],[14808,2395],[7270,-6698],[15923,7933],[1487,7371]],[[339587,879625],[5234,1010],[8846,-2357]],[[353667,878278],[3375,-8232],[-1963,-6249],[-10467,-12909],[-5144,-14967],[-3077,-22713],[20011,-57362],[7984,-27914]],[[304232,648643],[-1873,-17138]],[[295000,611487],[-30701,-17138]],[[191121,559139],[-11061,-3106],[-1279,674]],[[178781,556707],[-223,4452],[5308,8644],[1977,7446],[-1100,5837]],[[184743,583086],[-4505,4715]],[[470361,747689],[-24397,10065]],[[353667,878278],[-14080,1347]],[[339587,879625],[-4906,25744],[5754,10739],[16146,15790],[-4892,25706],[9605,15304],[10258,-2881],[9144,16427],[11492,13545],[21781,-3330],[17187,2320],[7939,-14032],[10050,-10889],[-2423,-8045],[10065,-27914],[357,-12123],[-6066,-18597],[2260,-16838],[3880,-12535],[19179,-42544],[-3731,-7484],[-1918,-9242],[4698,-11862],[7567,-5014],[17425,1010]],[[45465,345070],[-1502,10814],[-6036,14892],[-21157,37044],[-1234,4565],[788,5762],[2320,5351],[20561,8232],[1086,5650],[-4773,8569],[-4579,17736],[981,7821],[6319,3517],[6244,-711],[7211,-6436],[9486,-1347],[14510,7708],[13440,11338],[4475,11936],[-14,12797],[-7152,6286],[-7077,-748],[327,3517],[5189,3892],[6007,12498],[669,13732],[-2602,11001],[-5323,7521],[-594,11674],[5337,11338]],[[103344,592628],[8415,11862]],[[122939,596557],[-149,-4864],[15433,-23274],[8192,-16764],[-2974,-8793],[-7404,-6249],[-5575,38],[-3613,3255],[-5902,-1834],[-2141,-8119],[4267,-15304],[5560,-7933],[2305,-10702],[312,-6024],[-4401,-21104],[1308,-8344],[10452,-11674],[9441,-25108],[16443,-20804],[3896,-9317],[-179,-4865],[-9753,-8269],[2766,-11862],[490,-9055],[-3092,-29448]],[[158621,330140],[-4520,-10178],[-4207,-8307]],[[180238,587801],[1992,-861],[2513,-3854]],[[178781,556707],[16622,2843]],[[303519,216426],[297,20618]],[[352210,51450],[-8326,-3817],[-6111,1123],[-5010,-6174],[-15745,3929],[-2795,-8045],[-4386,-5538],[-3062,2507],[1293,6922],[-3375,1684],[-2483,-5500],[-654,-6736],[-2126,-1234],[-2483,2469],[-5441,-3704],[-4029,5238],[-5382,-3966],[-4906,1235],[-1175,-3031],[-9902,-3368],[-22791,-15079],[-6022,-3592],[-2393,1758],[-1532,-4041],[-3538,2694],[-1279,-2956],[-10749,-4228],[-5010,1459],[-2097,24359],[-7954,1011],[-11150,21927],[-11478,4303],[-7359,12610],[6497,18297],[-4847,19532],[19610,15342],[5427,7858],[-149,10888],[-7701,18672],[-2899,14892],[2572,6923]],[[602622,693994],[8207,1609],[17885,16538],[12028,5950],[6572,-2769],[15759,-32629],[10630,-13470]],[[642868,563442],[9828,-20094]],[[625488,472179],[3375,-17362],[6780,-17811]],[[625815,343685],[1249,-17436]],[[627064,326249],[-6393,2731]],[[620671,328980],[-13589,-15154]],[[549337,354836],[17127,8756]],[[432048,534405],[-4787,-10028],[-15002,-11899]],[[403532,345444],[-19223,-6249],[-16072,-599]],[[525252,169691],[-3955,-5276],[-535,-6211],[5203,-10402],[-401,-5913],[-3226,-1347],[-15210,4416],[-10199,-6099],[-13142,-14968],[1278,-13320],[-2958,-14070],[3419,-7633],[4118,-23760],[-74,-4827],[-2557,-4865],[-16458,-636],[-12742,22077],[-9693,8344],[-22495,-20355],[-9619,-2470],[193,15379]],[[416199,77755],[45985,110383]]],"bbox":[61.9468,54.1935,68.6729,56.866],"transform":{"scale":[0.000006726106726106722,0.000002672502672502672],"translate":[61.9468,54.1935]}}