{"type":"Topology","objects":{"muni":{"type":"GeometryCollection","geometries":[{"type":"MultiPolygon","arcs":[[[0,1,2,3,4]]],"properties":{"GID_2":"RUS.37.1_1","GID_0":"RUS","COUNTRY":"Russia","GID_1":"RUS.37_1","NAME_1":"Kursk","NL_NAME_1":"Курскаяобласть","NAME_2":"Belovskiyrayon","VARNAME_2":"NA","NL_NAME_2":"Беловскийрайон","TYPE_2":"Raion","ENGTYPE_2":"District","CC_2":"R28000","HASC_2":"RU.KS.BE"}},{"type":"MultiPolygon","arcs":[[[-4,5,6,7,8,9,10,11,12,13,14,15,16,17]]],"properties":{"GID_2":"RUS.37.2_1","GID_0":"RUS","COUNTRY":"Russia","GID_1":"RUS.37_1","NAME_1":"Kursk","NL_NAME_1":"Курскаяобласть","NAME_2":"Bol'shesoldatskiyrayon","VARNAME_2":"NA","NL_NAME_2":"Большесолдатскийрайон","TYPE_2":"Raion","ENGTYPE_2":"District","CC_2":"R28000","HASC_2":"RU.KS.BO"}},{"type":"MultiPolygon","arcs":[[[18,19,20,21,22,23]]],"properties":{"GID_2":"RUS.37.3_1","GID_0":"RUS","COUNTRY":"Russia","GID_1":"RUS.37_1","NAME_1":"Kursk","NL_NAME_1":"Курскаяобласть","NAME_2":"Cheremisinovskiyrayon","VARNAME_2":"NA","NL_NAME_2":"Черемисиновскийрайон","TYPE_2":"Raion","ENGTYPE_2":"District","CC_2":"R28002","HASC_2":"RU.KS.CH"}},{"type":"MultiPolygon","arcs":[[[24,25,26,27,28]]],"properties":{"GID_2":"RUS.37.4_1","GID_0":"RUS","COUNTRY":"Russia","GID_1":"RUS.37_1","NAME_1":"Kursk","NL_NAME_1":"Курскаяобласть","NAME_2":"Dmitrievskiyrayon","VARNAME_2":"NA","NL_NAME_2":"Дмитриевскийрайон","TYPE_2":"Raion","ENGTYPE_2":"District","CC_2":"R28000","HASC_2":"RU.KS.DM"}},{"type":"MultiPolygon","arcs":[[[29,30,31,32,33,34,35,36,37,38,39]]],"properties":{"GID_2":"RUS.37.5_1","GID_0":"RUS","COUNTRY":"Russia","GID_1":"RUS.37_1","NAME_1":"Kursk","NL_NAME_1":"Курскаяобласть","NAME_2":"Fatezhskiyrayon","VARNAME_2":"NA","NL_NAME_2":"Фатежскийрайон","TYPE_2":"Raion","ENGTYPE_2":"District","CC_2":"R28002","HASC_2":"RU.KS.FA"}},{"type":"MultiPolygon","arcs":[[[40,41,42,43]]],"properties":{"GID_2":"RUS.37.6_1","GID_0":"RUS","COUNTRY":"Russia","GID_1":"RUS.37_1","NAME_1":"Kursk","NL_NAME_1":"Курскаяобласть","NAME_2":"Glushkovskiyrayon","VARNAME_2":"NA","NL_NAME_2":"Глушковскийрайон","TYPE_2":"Raion","ENGTYPE_2":"District","CC_2":"R28000","HASC_2":"RU.KS.GL"}},{"type":"MultiPolygon","arcs":[[[44,45,46,47,48,49,50,51]]],"properties":{"GID_2":"RUS.37.7_1","GID_0":"RUS","COUNTRY":"Russia","GID_1":"RUS.37_1","NAME_1":"Kursk","NL_NAME_1":"Курскаяобласть","NAME_2":"Gorshechenskiyrayon","VARNAME_2":"NA","NL_NAME_2":"Горшеченскийрайон","TYPE_2":"Raion","ENGTYPE_2":"District","CC_2":"R28000","HASC_2":"RU.KS.GO"}},{"type":"MultiPolygon","arcs":[[[-51,52,53,54,55,56,57]]],"properties":{"GID_2":"RUS.37.8_1","GID_0":"RUS","COUNTRY":"Russia","GID_1":"RUS.37_1","NAME_1":"Kursk","NL_NAME_1":"Курскаяобласть","NAME_2":"Kastorenskiyrayon","VARNAME_2":"NA","NL_NAME_2":"Касторенскийрайон","TYPE_2":"Raion","ENGTYPE_2":"District","CC_2":"R28000","HASC_2":"RU.KS.KA"}},{"type":"MultiPolygon","arcs":[[[-28,58,59,60,61,62]]],"properties":{"GID_2":"RUS.37.9_1","GID_0":"RUS","COUNTRY":"Russia","GID_1":"RUS.37_1","NAME_1":"Kursk","NL_NAME_1":"Курскаяобласть","NAME_2":"Khomutovskiyrayon","VARNAME_2":"NA","NL_NAME_2":"Хомутовскийрайон","TYPE_2":"Raion","ENGTYPE_2":"District","CC_2":"R28002","HASC_2":"RU.KS.KH"}},{"type":"MultiPolygon","arcs":[[[-27,63,64,65,-30,66,67,68,69,-59]]],"properties":{"GID_2":"RUS.37.10_1","GID_0":"RUS","COUNTRY":"Russia","GID_1":"RUS.37_1","NAME_1":"Kursk","NL_NAME_1":"Курскаяобласть","NAME_2":"Konyshevskiyrayon","VARNAME_2":"NA","NL_NAME_2":"Конышевскийрайон","TYPE_2":"Raion","ENGTYPE_2":"District","CC_2":"R28000","HASC_2":"RU.KS.KN"}},{"type":"MultiPolygon","arcs":[[[-42,70,71,72,73,74,75,76]]],"properties":{"GID_2":"RUS.37.11_1","GID_0":"RUS","COUNTRY":"Russia","GID_1":"RUS.37_1","NAME_1":"Kursk","NL_NAME_1":"Курскаяобласть","NAME_2":"Korenevskiyrayon","VARNAME_2":"NA","NL_NAME_2":"Кореневскийрайон","TYPE_2":"Raion","ENGTYPE_2":"District","CC_2":"R28001","HASC_2":"RU.KS.KO"}},{"type":"MultiPolygon","arcs":[[[77]]],"properties":{"GID_2":"RUS.37.12_1","GID_0":"RUS","COUNTRY":"Russia","GID_1":"RUS.37_1","NAME_1":"Kursk","NL_NAME_1":"Курскаяобласть","NAME_2":"Kurchatov","VARNAME_2":"NA","NL_NAME_2":"Курчатов","TYPE_2":"Gorod","ENGTYPE_2":"City","CC_2":"NA","HASC_2":"RU.KS.KC"}},{"type":"MultiPolygon","arcs":[[[-14,78,79,80,81,82,-67,-40,83]]],"properties":{"GID_2":"RUS.37.13_1","GID_0":"RUS","COUNTRY":"Russia","GID_1":"RUS.37_1","NAME_1":"Kursk","NL_NAME_1":"Курскаяобласть","NAME_2":"Kurchatovskiyrayon","VARNAME_2":"NA","NL_NAME_2":"Курчатовскийрайон","TYPE_2":"Raion","ENGTYPE_2":"District","CC_2":"R28001","HASC_2":"RU.KS.KU"}},{"type":"MultiPolygon","arcs":[[[84]]],"properties":{"GID_2":"RUS.37.14_1","GID_0":"RUS","COUNTRY":"Russia","GID_1":"RUS.37_1","NAME_1":"Kursk","NL_NAME_1":"Курскаяобласть","NAME_2":"Kursk","VARNAME_2":"NA","NL_NAME_2":"Курск","TYPE_2":"Gorod","ENGTYPE_2":"City","CC_2":"NA","HASC_2":"RU.KS.KG"}},{"type":"MultiPolygon","arcs":[[[-38,85,-36,86,87,88,89,90,91,92],[-85]]],"properties":{"GID_2":"RUS.37.15_1","GID_0":"RUS","COUNTRY":"Russia","GID_1":"RUS.37_1","NAME_1":"Kursk","NL_NAME_1":"Курскаяобласть","NAME_2":"Kurskiyrayon","VARNAME_2":"NA","NL_NAME_2":"Курскийрайон","TYPE_2":"Raion","ENGTYPE_2":"District","CC_2":"R28001","HASC_2":"RU.KS.KR"}},{"type":"MultiPolygon","arcs":[[[93]]],"properties":{"GID_2":"RUS.37.16_1","GID_0":"RUS","COUNTRY":"Russia","GID_1":"RUS.37_1","NAME_1":"Kursk","NL_NAME_1":"Курскаяобласть","NAME_2":"L'gov","VARNAME_2":"Lgov","NL_NAME_2":"Льгов","TYPE_2":"Gorod","ENGTYPE_2":"City","CC_2":"NA","HASC_2":"RU.KS.LG"}},{"type":"MultiPolygon","arcs":[[[-11,94,95,96,-74,97,98,99,-60,-70,100,101,-82,102],[-94]]],"properties":{"GID_2":"RUS.37.17_1","GID_0":"RUS","COUNTRY":"Russia","GID_1":"RUS.37_1","NAME_1":"Kursk","NL_NAME_1":"Курскаяобласть","NAME_2":"L'govskiyrayon","VARNAME_2":"NA","NL_NAME_2":"Льговскийрайон","TYPE_2":"Raion","ENGTYPE_2":"District","CC_2":"R28001","HASC_2":"RU.KS.LR"}},{"type":"MultiPolygon","arcs":[[[103,104,105,106,107,108,109,-45]]],"properties":{"GID_2":"RUS.37.18_1","GID_0":"RUS","COUNTRY":"Russia","GID_1":"RUS.37_1","NAME_1":"Kursk","NL_NAME_1":"Курскаяобласть","NAME_2":"Manturovskiyrayon","VARNAME_2":"NA","NL_NAME_2":"Мантуровскийрайон","TYPE_2":"Raion","ENGTYPE_2":"District","CC_2":"R28001","HASC_2":"RU.KS.MA"}},{"type":"MultiPolygon","arcs":[[[-17,110,111,112,113,-90,114,115,116,117,118]]],"properties":{"GID_2":"RUS.37.19_1","GID_0":"RUS","COUNTRY":"Russia","GID_1":"RUS.37_1","NAME_1":"Kursk","NL_NAME_1":"Курскаяобласть","NAME_2":"Medvenskiyrayon","VARNAME_2":"NA","NL_NAME_2":"Медвенскийрайон","TYPE_2":"Raion","ENGTYPE_2":"District","CC_2":"R28001","HASC_2":"RU.KS.ME"}},{"type":"MultiPolygon","arcs":[[[119,-5,-18,120,-118,121,122,123]]],"properties":{"GID_2":"RUS.37.20_1","GID_0":"RUS","COUNTRY":"Russia","GID_1":"RUS.37_1","NAME_1":"Kursk","NL_NAME_1":"Курскаяобласть","NAME_2":"Oboyanskiyrayon","VARNAME_2":"NA","NL_NAME_2":"Обоянскийрайон","TYPE_2":"Raion","ENGTYPE_2":"District","CC_2":"R28001","HASC_2":"RU.KS.OB"}},{"type":"MultiPolygon","arcs":[[[124,-15,-84,-39,-93,125,-112],[-78]]],"properties":{"GID_2":"RUS.37.21_1","GID_0":"RUS","COUNTRY":"Russia","GID_1":"RUS.37_1","NAME_1":"Kursk","NL_NAME_1":"Курскаяобласть","NAME_2":"Oktyabr'skiy","VARNAME_2":"NA","NL_NAME_2":"Октябрьскийрайон","TYPE_2":"Raion","ENGTYPE_2":"District","CC_2":"R28001","HASC_2":"RU.KS.OK"}},{"type":"MultiPolygon","arcs":[[[-34,126,127,128,129,130,131]]],"properties":{"GID_2":"RUS.37.22_1","GID_0":"RUS","COUNTRY":"Russia","GID_1":"RUS.37_1","NAME_1":"Kursk","NL_NAME_1":"Курскаяобласть","NAME_2":"Ponyrovskiyrayon","VARNAME_2":"NA","NL_NAME_2":"Поныровскийрайон","TYPE_2":"Raion","ENGTYPE_2":"District","CC_2":"R28001","HASC_2":"RU.KS.PO"}},{"type":"MultiPolygon","arcs":[[[132,-124,133,134,135,-105]]],"properties":{"GID_2":"RUS.37.23_1","GID_0":"RUS","COUNTRY":"Russia","GID_1":"RUS.37_1","NAME_1":"Kursk","NL_NAME_1":"Курскаяобласть","NAME_2":"Pristenskiyrayon","VARNAME_2":"NA","NL_NAME_2":"Пристенскийрайон","TYPE_2":"Raion","ENGTYPE_2":"District","CC_2":"R28001","HASC_2":"RU.KS.PR"}},{"type":"MultiPolygon","arcs":[[[-44,136,-62,137,-99,138,-72,139]]],"properties":{"GID_2":"RUS.37.24_1","GID_0":"RUS","COUNTRY":"Russia","GID_1":"RUS.37_1","NAME_1":"Kursk","NL_NAME_1":"Курскаяобласть","NAME_2":"Ryl'skiyrayon","VARNAME_2":"NA","NL_NAME_2":"Рыльскийрайон","TYPE_2":"Raion","ENGTYPE_2":"District","CC_2":"R28002","HASC_2":"RU.KS.RY"}},{"type":"MultiPolygon","arcs":[[[-21,140,141,142,143,144,145,146,147,148],[149]]],"properties":{"GID_2":"RUS.37.25_1","GID_0":"RUS","COUNTRY":"Russia","GID_1":"RUS.37_1","NAME_1":"Kursk","NL_NAME_1":"Курскаяобласть","NAME_2":"Shchigrovskiyrayon","VARNAME_2":"NA","NL_NAME_2":"Щигровскийрайон","TYPE_2":"Raion","ENGTYPE_2":"District","CC_2":"R28002","HASC_2":"RU.KS.SR"}},{"type":"MultiPolygon","arcs":[[[-150]]],"properties":{"GID_2":"RUS.37.26_1","GID_0":"RUS","COUNTRY":"Russia","GID_1":"RUS.37_1","NAME_1":"Kursk","NL_NAME_1":"Курскаяобласть","NAME_2":"Shchigry","VARNAME_2":"NA","NL_NAME_2":"Щигры","TYPE_2":"Gorod","ENGTYPE_2":"City","CC_2":"NA","HASC_2":"RU.KS.SG"}},{"type":"MultiPolygon","arcs":[[[-89,-144,150,151,-107,152,-135,153,-115]]],"properties":{"GID_2":"RUS.37.27_1","GID_0":"RUS","COUNTRY":"Russia","GID_1":"RUS.37_1","NAME_1":"Kursk","NL_NAME_1":"Курскаяобласть","NAME_2":"Solntsevskiyrayon","VARNAME_2":"NA","NL_NAME_2":"Солнцевскийрайон","TYPE_2":"Raion","ENGTYPE_2":"District","CC_2":"R28002","HASC_2":"RU.KS.SL"}},{"type":"MultiPolygon","arcs":[[[-23,154,-57,155,156,-54,157,-49,158,159,160]]],"properties":{"GID_2":"RUS.37.28_1","GID_0":"RUS","COUNTRY":"Russia","GID_1":"RUS.37_1","NAME_1":"Kursk","NL_NAME_1":"Курскаяобласть","NAME_2":"Sovetskiyrayon","VARNAME_2":"NA","NL_NAME_2":"Советскийрайон","TYPE_2":"Raion","ENGTYPE_2":"District","CC_2":"R28002","HASC_2":"RU.KS.SV"}},{"type":"MultiPolygon","arcs":[[[161,-2,162,-76,163,-96,164,-9,165,-7]]],"properties":{"GID_2":"RUS.37.29_1","GID_0":"RUS","COUNTRY":"Russia","GID_1":"RUS.37_1","NAME_1":"Kursk","NL_NAME_1":"Курскаяобласть","NAME_2":"Sudzhanskiyrayon","VARNAME_2":"NA","NL_NAME_2":"Суджанскийрайон","TYPE_2":"Raion","ENGTYPE_2":"District","CC_2":"R28002","HASC_2":"RU.KS.SU"}},{"type":"MultiPolygon","arcs":[[[166,-160,167,-47,168,-109,169,-151,-143]]],"properties":{"GID_2":"RUS.37.30_1","GID_0":"RUS","COUNTRY":"Russia","GID_1":"RUS.37_1","NAME_1":"Kursk","NL_NAME_1":"Курскаяобласть","NAME_2":"Timskiyrayon","VARNAME_2":"NA","NL_NAME_2":"Тимскийрайон","TYPE_2":"Raion","ENGTYPE_2":"District","CC_2":"R28002","HASC_2":"RU.KS.TI"}},{"type":"MultiPolygon","arcs":[[[-25,170,-32,171,-65,172]]],"properties":{"GID_2":"RUS.37.31_1","GID_0":"RUS","COUNTRY":"Russia","GID_1":"RUS.37_1","NAME_1":"Kursk","NL_NAME_1":"Курскаяобласть","NAME_2":"Zheleznogorskiyrayon","VARNAME_2":"NA","NL_NAME_2":"Железногорскийрайон","TYPE_2":"Raion","ENGTYPE_2":"District","CC_2":"R28000","HASC_2":"RU.KS.ZG"}},{"type":"MultiPolygon","arcs":[[[-35,-132,173,-130,174,-128,175,-148,176,177,178,-87]]],"properties":{"GID_2":"RUS.37.32_1","GID_0":"RUS","COUNTRY":"Russia","GID_1":"RUS.37_1","NAME_1":"Kursk","NL_NAME_1":"Курскаяобласть","NAME_2":"Zolotukhinskiyrayon","VARNAME_2":"NA","NL_NAME_2":"Золотухинскийрайон","TYPE_2":"Raion","ENGTYPE_2":"District","CC_2":"R28000","HASC_2":"RU.KS.ZO"}}]}},"arcs":[[[413515,137452],[-2833,-5154],[-2526,-14417],[13397,-13699],[-5205,-29748],[-16867,-8220],[-6610,-12525],[-2987,-21854],[-5007,-12525],[-18887,16896],[-7906,-5154],[-10542,-21332],[-30658,-9720],[-8038,15983],[-2592,22702],[-20951,9068],[7555,8545],[-483,13504],[-8456,11873],[-5600,-2414]],[[278319,79261],[6149,29422],[-3184,11807],[-527,13896],[2152,20875]],[[282909,155261],[16010,34836]],[[298919,190097],[14956,20875],[5688,26682],[4392,6980],[6501,1370],[11991,-12003],[5622,-653]],[[348069,233348],[3009,-25115],[6720,-16962],[30263,-42599],[25454,-11220]],[[298919,190097],[-4216,-12134]],[[294703,177963],[-13287,14352],[-2636,42534],[-2942,14221],[-12299,29095]],[[263539,278165],[-2679,22963]],[[260860,301128],[2218,17483],[-1098,18397]],[[261980,337008],[-5710,12460]],[[256270,349468],[17042,20288]],[[273312,369756],[25431,-16113],[10981,1631]],[[309724,355274],[6962,9198],[5908,13765]],[[322594,378237],[1274,19244],[-7621,28574],[439,10764],[9993,16700],[10431,5415]],[[337110,458934],[2504,-29748]],[[339614,429186],[6457,-23159]],[[346071,406027],[-7116,-38032],[13265,-29813],[1845,-49253],[5205,-26355]],[[359270,262574],[-374,-11155],[-4656,-12460],[-6171,-5611]],[[661878,554374],[13046,45534]],[[674924,599908],[-10213,12591],[-15483,4697]],[[649228,617196],[-7862,15787],[-4129,41685],[506,33792],[-6194,53559]],[[631549,762019],[37840,-4306],[11310,-10503],[5403,-19766],[18755,-30922],[9949,-22376],[12210,-16765]],[[727016,657381],[8082,-43708],[15132,-43447],[-14605,-27138],[-16712,-57864]],[[718913,485224],[-57035,69150]],[[189550,932284],[25037,-17940],[27496,-42859],[5248,-12265],[-7093,-13112],[-6764,-26029],[307,-17418],[1779,-7828],[36786,-36467]],[[272346,758366],[-22840,-22115]],[[249506,736251],[-9224,-3197],[-19744,10895],[-15197,1957],[-7028,-9525],[-11552,-27986],[-7532,-41555]],[[179229,666840],[-12299,6067],[-4656,8872],[-1954,12395],[-7182,9524],[-7840,2544],[-20908,-8872],[-12847,2218],[-14846,26029],[3316,23550]],[[100013,749167],[10124,-6719],[12057,9133],[4524,13700],[3558,29356],[-7093,10503],[-4305,13569],[2284,13895],[11398,14482],[17328,-18722],[8104,8676],[6632,39011],[8016,10177],[11552,41751],[5358,4305]],[[316423,644921],[-7709,9328],[-7665,21267]],[[301049,675516],[-5095,22768],[-10695,73259]],[[285259,771543],[9422,12526],[3623,13699],[308,14809],[5842,20549],[8015,1435],[17152,-14026],[13331,9329],[132,12264],[-6281,13961],[-2921,19962]],[[333882,876051],[14517,1761],[15153,18005],[15395,5676],[10827,-4567],[12101,3132]],[[401875,900058],[3799,-15070],[813,-12590],[4897,-12656],[13924,-15265],[3690,-10503],[12101,-53037]],[[441099,780937],[-1889,-34118],[-10915,-36141],[-3185,-18918]],[[425110,691760],[-9531,-16766]],[[415579,674994],[-35358,-37184]],[[380221,637810],[-20380,-14417]],[[359841,623393],[-26201,2283]],[[333640,625676],[-17217,19245]],[[130803,341379],[461,-14222]],[[131264,327157],[-3755,-16504],[-9575,-11156],[-7423,-19962],[-176,-12916],[7401,-14809],[12452,-12721],[7577,-17744],[-1559,-13047],[-10674,-28247]],[[125532,180051],[88,12525],[-1888,3784],[-9707,1370],[-7533,-6002],[-29978,10372],[-3909,7111],[-12826,-22571],[-5644,-457],[-7467,11155],[-3865,-326],[-3382,10699],[3163,7763],[-440,7437],[5051,7958],[1384,7698],[-813,11416],[5118,1175],[-396,4110],[3053,4631],[-417,12069],[-11311,13243],[-1910,-4828],[-3690,2610],[-1954,7502],[-3514,-1631],[-3909,10699],[1778,9524],[6040,6785],[483,20940],[9268,18201],[2701,12395],[505,12134],[-2745,4501],[11310,-1370]],[[58176,382673],[4986,-6197],[6368,-25508],[286,-14286],[3689,-16701],[6259,-7436],[5535,782],[4348,29748],[12035,10046],[16976,-12003],[12145,261]],[[772411,281688],[-5732,24333],[1669,21267],[-10937,29486],[-5314,30335],[-9729,12395],[-3009,16178]],[[739359,415682],[20095,-391]],[[759454,415291],[5666,6915]],[[765120,422206],[26507,-35815]],[[791627,386391],[6325,522],[8192,14417]],[[806144,401330],[3448,19897],[1449,24398]],[[811041,445625],[19371,15331],[21368,-12917],[28990,-6262],[10783,1565],[13111,17483]],[[904664,460825],[197,-11807],[13990,-24398],[9487,-23485],[10344,-54994],[-1493,-25507],[10058,-53885],[-746,-19701],[-7116,-30270],[-11354,15266],[-26047,22180],[-36302,58386],[-23104,-3653],[-8235,-18006],[-11135,-12133],[-10541,-7502],[-10871,1957],[-22335,13895],[-7050,-5480]],[[811041,445625],[-197,-7306]],[[810844,438319],[-8236,22441],[-7379,11286]],[[795229,472046],[8895,22311],[15746,20223]],[[819870,514580],[20402,16113],[17394,21462]],[[857666,552155],[2328,8677],[-5205,20092],[-18733,22181],[9707,34901]],[[845763,638006],[13199,-8089],[33952,16765],[20315,-9068],[19721,22572],[6303,-14548],[20117,-8611],[6171,-16113],[9378,-42338],[-4854,-46056],[6325,-12656],[19502,-6067],[4107,-10373],[-14451,-33074],[-7401,-5871],[-17525,22245],[-55958,-25899]],[[179229,666840],[-3383,-15330],[-7401,-5545],[4041,-29291],[-88,-25899],[8983,-16113]],[[181381,574662],[-1274,-23159],[-11332,-13895],[-5051,-16961]],[[163724,520647],[-14824,22115],[-3624,13438]],[[145276,556200],[-5974,3523],[-12650,-23094],[-8169,-4370],[-26354,2283],[-25476,15656]],[[66653,550198],[4876,20158],[132,7829],[-20095,25181],[8894,22049],[8675,11025],[1493,10046],[-25497,15787],[-3404,12265],[9597,18135],[-659,23681],[27452,38032],[10871,1175],[11025,-6394]],[[249506,736251],[29274,25703]],[[278780,761954],[7907,-4763]],[[286687,757191],[14362,-81675]],[[316423,644921],[-11794,-12982]],[[304629,631939],[-4656,-14156]],[[299973,617783],[-24048,-22702],[-13352,-8481]],[[262573,586600],[-6062,2088],[-5666,13960],[-3228,-2022],[-1252,-23616],[-10212,-7176],[-38081,-8806],[-16691,13634]],[[131264,327157],[-1625,30335]],[[129639,357492],[-4458,14743],[4678,7437],[-3294,37185],[7862,19766],[5820,3784],[18030,-4828]],[[158277,435579],[47218,-42664]],[[205495,392915],[16471,-22180],[4546,-25899]],[[226512,344836],[-4063,-23028]],[[222449,321808],[-32503,-58908],[-11376,-29095],[6105,-54863]],[[184675,178942],[-22203,-14352],[-2723,-15004],[-17526,6327],[-7708,-2022],[-7357,10112],[-1626,16048]],[[352769,457498],[286,-6132],[-9005,3523],[1538,5023],[7181,-2414]],[[322594,378237],[-12870,-22963]],[[309724,355274],[-20490,2088],[-15922,12394]],[[273312,369756],[-791,13830],[-6083,23942]],[[266438,407528],[-4436,37967],[-110,17483],[2657,15070],[5447,6001],[15087,-1891],[11662,21397],[4392,14743],[-746,15200],[-9883,26160],[-1384,11220]],[[289124,570878],[5930,30009],[9575,31052]],[[333640,625676],[-7598,-11025],[-6325,-19897],[6237,-24137],[13265,-24398],[5424,-15787],[-175,-16113],[-7358,-55385]],[[473843,493378],[-14099,-47231],[-19063,5741],[967,92765],[28989,2871],[3206,-54146]],[[380221,637810],[23323,24268],[12035,12916]],[[425110,691760],[3031,-7763],[3602,-22572],[16910,-19570],[3360,-18136],[11991,-8741],[15220,20679],[8126,3327],[11551,-3588],[10344,-14612],[19524,-7372],[12277,9981]],[[541046,623393],[11859,-113315],[725,-17613]],[[553630,492465],[-3536,-44491],[-10564,-27269],[-8850,-32748],[-10871,-19897],[-7313,-20353]],[[512496,347707],[-9685,38489],[5732,16374],[-4459,23811],[-3096,4240],[-8236,-65],[-18821,-22832],[-14451,-1762],[-31668,14939]],[[427812,420901],[-18053,-6980]],[[409759,413921],[747,15983]],[[410506,429904],[-1998,13764],[2723,24464],[-198,21332],[-24048,37445],[-16010,11221],[-8148,13177],[-2262,13700],[10322,15787],[-2547,10764],[-9597,12982],[1098,18853]],[[263781,423315],[-8499,-25638],[-5491,5937],[-2613,17679],[3843,22441],[12760,-20419]],[[256270,349468],[-3953,5415]],[[252317,354883],[-16515,-18136],[-10015,1239]],[[225787,337986],[725,6850]],[[205495,392915],[-26969,24594]],[[178526,417509],[7247,24855],[-2174,25768],[-12101,39728]],[[171498,507860],[-7774,12787]],[[262573,586600],[37400,31183]],[[299973,617783],[-10849,-46905]],[[266438,407528],[4414,-12852],[2460,-24920]],[[772411,281688],[-15724,-4110],[-12299,5871],[-10915,-2022],[-14297,-21397],[-39882,-15004],[-5930,-3849],[-4853,-13569]],[[668511,227608],[-15835,13830]],[[652676,241438],[-5314,12199]],[[647362,253637],[4282,15134],[-88,13243],[-6632,24725],[-11464,18722],[-1559,11938]],[[631901,337399],[1142,13113]],[[633043,350512],[8850,10372],[3163,13700],[16691,30921],[20885,-12981],[18624,3522],[28725,18397]],[[729981,414443],[9378,1239]],[[346071,406027],[-3295,10569]],[[342776,416596],[15549,-8220],[23873,-2871],[27342,-18526]],[[409540,386979],[219,26942]],[[409759,413921],[8456,4305],[9597,2675]],[[512496,347707],[1779,-24986],[-11355,-15134],[-2042,-24007]],[[500878,283580],[3931,-28443]],[[504809,255137],[-28221,27008],[-7203,-1240]],[[469385,280905],[-11837,-11807],[-21764,10959],[-6655,-1109],[-17415,-19310],[-26947,11808]],[[384767,271446],[-25497,-8872]],[[524640,102290],[-14955,15265],[-8983,-5676],[-14341,8611],[-6522,15983],[-4964,4371],[-7642,-2088],[-13616,-18461],[-7731,717],[-12210,29748],[-6238,7893],[-13923,-21201]],[[359270,262574],[16141,8154],[9356,718]],[[469385,280905],[13726,-3262],[21698,-22506]],[[504809,255137],[6127,-19114],[3031,-14548]],[[513967,221475],[-44,-17222],[-4085,-19505],[7116,-35423],[4107,-8090],[2877,-17157],[702,-21788]],[[342776,416596],[-3162,12590]],[[410506,429904],[-966,-42925]],[[401875,900058],[19392,24072],[9993,913],[10563,-7437],[34151,28052],[18096,-5806],[8389,-20093],[12804,-47426],[-352,-33205]],[[514911,839128],[10103,-26551]],[[525014,812577],[-9444,-9329]],[[515570,803248],[-17327,15917]],[[498243,819165],[-22094,457]],[[476149,819622],[-17986,-16439],[-6611,-12134],[-3997,-14156],[-6456,4044]],[[668511,227608],[-2789,-22246],[-6567,-16504],[-15505,-21920],[-7796,-6719],[-15066,4958],[-24860,-7241],[-6918,-7894],[-26244,-52254],[-19502,-8545],[-11925,2935],[-6699,10112]],[[513967,221475],[-9158,33662]],[[504809,255137],[10520,-3196],[22115,-22963],[16757,14939],[19941,-1370],[9180,-18788],[14077,-5937],[4349,7502],[-2680,8872],[10410,16831],[9795,6915]],[[619273,257942],[23499,-587],[9904,-15917]],[[58176,382673],[-15153,326],[-4173,11677],[-1603,20093],[-6984,3197],[-2108,7893],[-4810,-652],[-2306,3783],[417,12265],[-9355,15200],[-9927,7045],[-2174,7763],[7621,11351],[4568,65],[175,-3653],[4305,7372],[20336,3327],[10037,12982],[25453,5806],[2240,16113],[-8191,20615],[109,4957]],[[145276,556200],[10629,-26877],[15593,-21463]],[[178526,417509],[-20249,18070]],[[129639,357492],[1164,-16113]],[[649228,617196],[22643,-11612],[3053,-5676]],[[674924,599908],[-2724,-13699],[-10322,-31835]],[[661878,554374],[-39970,-17614],[-5820,-20810],[2724,-10047],[-1164,-10568],[-22599,-24594],[-10168,-1239]],[[584881,469502],[-19107,10372],[-12144,12591]],[[553630,492465],[-14473,151869]],[[539157,644334],[132,20745],[1339,28181]],[[540628,693260],[5403,28313],[5315,19244]],[[551346,740817],[11090,13178],[2438,38293],[-681,23681]],[[564193,815969],[19788,-3458],[16910,-29943],[14604,-13765],[16054,-6784]],[[639500,596581],[2723,4501],[-2284,5415],[-7841,1892],[-7335,11155],[-4524,-5023],[2526,-25833],[16735,7893]],[[584881,469502],[32086,-61713],[11244,-1501],[5359,-41294]],[[633570,364994],[-1669,-27595]],[[647362,253637],[-28089,4305]],[[504809,255137],[-2855,12134],[-1076,16309]],[[727016,657381],[9422,5480],[11222,48535],[7994,3849],[11838,-8742],[14319,-32683],[7686,3914],[374,24594],[9223,21985],[9092,-3980],[8390,-12721],[7269,-49709],[21918,-19897]],[[857666,552155],[-7709,-10046],[-30087,-27529]],[[819870,514580],[-20644,-30987],[-3997,-11547]],[[810844,438319],[-4700,-36989]],[[791627,386391],[-12957,14613],[-20336,36793]],[[758334,437797],[-1933,64257],[-7006,4241],[-15944,-26812],[-6676,-979]],[[726775,478504],[-7862,6720]],[[294703,177963],[-5249,-5871],[-6545,-16831]],[[278319,79261],[-5600,11091],[-4678,782],[-6830,-12851],[-8389,848],[-4217,-10438],[-4238,457],[-10388,30335],[1669,19114],[-3756,2935],[-4194,11547],[-2702,31444],[3207,10176],[-9531,7698],[-10542,-7176],[-6171,12656],[-7906,1239],[-9378,-10176]],[[222449,321808],[3338,16178]],[[252317,354883],[9663,-17875]],[[260860,301128],[1295,-14156],[1384,-8807]],[[661878,554374],[44319,-55908],[20578,-19962]],[[758334,437797],[6786,-15591]],[[759454,415291],[-29473,-848]],[[633043,350512],[527,14482]],[[189550,932284],[11882,8155],[29231,5871],[9663,26094],[15746,-6784],[22,-11286],[17152,-2414],[2152,34640],[9927,2088],[10542,-21984],[4633,33335],[15286,-9459],[-3273,-20484],[10674,-26160],[5622,-34249],[-154,-25963],[5227,-7633]],[[285259,771543],[1428,-14352]],[[278780,761954],[-6434,-3588]],[[476149,819622],[10893,913],[11201,-1370]],[[515570,803248],[8302,5349],[1142,3980]],[[514911,839128],[-44,25050],[9883,-15135],[14451,-10111],[14604,1761],[5974,-10959],[-2987,-8677],[7401,-5088]],[[551346,740817],[-10718,-47557]],[[540628,693260],[-1471,-48926]],[[539157,644334],[1889,-20941]]],"bbox":[34.0923,50.947,38.6457,52.4799],"transform":{"scale":[0.00000455340455340455,0.0000015329015329015309],"translate":[34.0923,50.947]}}