{"type":"Topology","objects":{"muni":{"type":"GeometryCollection","geometries":[{"type":"MultiPolygon","arcs":[[[0]]],"properties":{"GID_2":"RUS.38.1_1","GID_0":"RUS","COUNTRY":"Russia","GID_1":"RUS.38_1","NAME_1":"Leningrad","NL_NAME_1":"Ленинградскаяобласть","NAME_2":"Boksitogorsk","VARNAME_2":"NA","NL_NAME_2":"Бокситогорск","TYPE_2":"Gorod","ENGTYPE_2":"City","CC_2":"NA","HASC_2":"RU.LN.BG"}},{"type":"MultiPolygon","arcs":[[[1,2,3,4],[-1],[5]]],"properties":{"GID_2":"RUS.38.2_1","GID_0":"RUS","COUNTRY":"Russia","GID_1":"RUS.38_1","NAME_1":"Leningrad","NL_NAME_1":"Ленинградскаяобласть","NAME_2":"Boksitogorskiyrayon","VARNAME_2":"NA","NL_NAME_2":"Бокситогорскийрайон","TYPE_2":"Raion","ENGTYPE_2":"District","CC_2":"R06090","HASC_2":"RU.LN.BR"}},{"type":"MultiPolygon","arcs":[[[6]]],"properties":{"GID_2":"RUS.38.3_1","GID_0":"RUS","COUNTRY":"Russia","GID_1":"RUS.38_1","NAME_1":"Leningrad","NL_NAME_1":"Ленинградскаяобласть","NAME_2":"Gatchina","VARNAME_2":"NA","NL_NAME_2":"Гатчина","TYPE_2":"Gorsovet","ENGTYPE_2":"District","CC_2":"NA","HASC_2":"RU.LN.GG"}},{"type":"MultiPolygon","arcs":[[[7,8,9,10,11,12],[-7]]],"properties":{"GID_2":"RUS.38.4_1","GID_0":"RUS","COUNTRY":"Russia","GID_1":"RUS.38_1","NAME_1":"Leningrad","NL_NAME_1":"Ленинградскаяобласть","NAME_2":"Gatchinskiyrayon","VARNAME_2":"NA","NL_NAME_2":"Гатчинскийрайон","TYPE_2":"Raion","ENGTYPE_2":"District","CC_2":"R06090","HASC_2":"RU.LN.GR"}},{"type":"MultiPolygon","arcs":[[[13]]],"properties":{"GID_2":"RUS.38.5_1","GID_0":"RUS","COUNTRY":"Russia","GID_1":"RUS.38_1","NAME_1":"Leningrad","NL_NAME_1":"Ленинградскаяобласть","NAME_2":"Ivangorod","VARNAME_2":"NA","NL_NAME_2":"Ивангород","TYPE_2":"Gorod","ENGTYPE_2":"City","CC_2":"NA","HASC_2":"RU.LN.IV"}},{"type":"MultiPolygon","arcs":[[[14,15]]],"properties":{"GID_2":"RUS.38.6_1","GID_0":"RUS","COUNTRY":"Russia","GID_1":"RUS.38_1","NAME_1":"Leningrad","NL_NAME_1":"Ленинградскаяобласть","NAME_2":"Kingisepp","VARNAME_2":"NA","NL_NAME_2":"Кингисепп","TYPE_2":"Gorod","ENGTYPE_2":"City","CC_2":"NA","HASC_2":"RU.LN.KN"}},{"type":"MultiPolygon","arcs":[[[16,17,18,19,20,21,22,23,24],[25],[26],[27],[-15,28]],[[29]],[[30]],[[31]],[[32]],[[33]],[[34]],[[35]],[[36]],[[37]],[[38]],[[39]]],"properties":{"GID_2":"RUS.38.7_1","GID_0":"RUS","COUNTRY":"Russia","GID_1":"RUS.38_1","NAME_1":"Leningrad","NL_NAME_1":"Ленинградскаяобласть","NAME_2":"Kingiseppskiyrayon","VARNAME_2":"NA","NL_NAME_2":"Кингисеппскийрайон","TYPE_2":"Raion","ENGTYPE_2":"District","CC_2":"R06090","HASC_2":"RU.LN.KP"}},{"type":"MultiPolygon","arcs":[[[40]]],"properties":{"GID_2":"RUS.38.8_1","GID_0":"RUS","COUNTRY":"Russia","GID_1":"RUS.38_1","NAME_1":"Leningrad","NL_NAME_1":"Ленинградскаяобласть","NAME_2":"Kirishi","VARNAME_2":"NA","NL_NAME_2":"Кириши","TYPE_2":"Gorod","ENGTYPE_2":"City","CC_2":"NA","HASC_2":"RU.LN.KS"}},{"type":"MultiPolygon","arcs":[[[41,42,43,44,45,46,47,48,49],[-41]]],"properties":{"GID_2":"RUS.38.9_1","GID_0":"RUS","COUNTRY":"Russia","GID_1":"RUS.38_1","NAME_1":"Leningrad","NL_NAME_1":"Ленинградскаяобласть","NAME_2":"Kirishskiyrayon","VARNAME_2":"NA","NL_NAME_2":"Киришскийрайон","TYPE_2":"Raion","ENGTYPE_2":"District","CC_2":"R06090","HASC_2":"RU.LN.KI"}},{"type":"MultiPolygon","arcs":[[[50]]],"properties":{"GID_2":"RUS.38.10_1","GID_0":"RUS","COUNTRY":"Russia","GID_1":"RUS.38_1","NAME_1":"Leningrad","NL_NAME_1":"Ленинградскаяобласть","NAME_2":"Kirovsk","VARNAME_2":"NA","NL_NAME_2":"Кировск","TYPE_2":"Gorod","ENGTYPE_2":"City","CC_2":"NA","HASC_2":"RU.LN.KG"}},{"type":"MultiPolygon","arcs":[[[-42,51,52,53,54,55,56,57,58,59,60],[-51]]],"properties":{"GID_2":"RUS.38.11_1","GID_0":"RUS","COUNTRY":"Russia","GID_1":"RUS.38_1","NAME_1":"Leningrad","NL_NAME_1":"Ленинградскаяобласть","NAME_2":"Kirovskiyrayon","VARNAME_2":"NA","NL_NAME_2":"Кировскийрайон","TYPE_2":"Raion","ENGTYPE_2":"District","CC_2":"R06090","HASC_2":"RU.LN.KR"}},{"type":"MultiPolygon","arcs":[[[61]]],"properties":{"GID_2":"RUS.38.12_1","GID_0":"RUS","COUNTRY":"Russia","GID_1":"RUS.38_1","NAME_1":"Leningrad","NL_NAME_1":"Ленинградскаяобласть","NAME_2":"LodeynopoePole","VARNAME_2":"LodeynoyePole","NL_NAME_2":"ЛодейноеПоле","TYPE_2":"Gorod","ENGTYPE_2":"City","CC_2":"NA","HASC_2":"RU.LN.LP"}},{"type":"MultiPolygon","arcs":[[[62,63,64,65,66,67,68,69,70,71,72],[-62]]],"properties":{"GID_2":"RUS.38.13_1","GID_0":"RUS","COUNTRY":"Russia","GID_1":"RUS.38_1","NAME_1":"Leningrad","NL_NAME_1":"Ленинградскаяобласть","NAME_2":"Lodeynopol'skiyrayon","VARNAME_2":"NA","NL_NAME_2":"Лодейнопольскийрайон","TYPE_2":"Raion","ENGTYPE_2":"District","CC_2":"R06091","HASC_2":"RU.LN.LD"}},{"type":"MultiPolygon","arcs":[[[-13,73,74,-17,75],[76]]],"properties":{"GID_2":"RUS.38.14_1","GID_0":"RUS","COUNTRY":"Russia","GID_1":"RUS.38_1","NAME_1":"Leningrad","NL_NAME_1":"Ленинградскаяобласть","NAME_2":"Lomonosovskiyrayon","VARNAME_2":"NA","NL_NAME_2":"Ломоносовскийрайон","TYPE_2":"Raion","ENGTYPE_2":"District","CC_2":"R06091","HASC_2":"RU.LN.LO"}},{"type":"MultiPolygon","arcs":[[[77]]],"properties":{"GID_2":"RUS.38.15_1","GID_0":"RUS","COUNTRY":"Russia","GID_1":"RUS.38_1","NAME_1":"Leningrad","NL_NAME_1":"Ленинградскаяобласть","NAME_2":"Luga","VARNAME_2":"NA","NL_NAME_2":"Луга","TYPE_2":"Gorod","ENGTYPE_2":"City","CC_2":"NA","HASC_2":"RU.LN.LG"}},{"type":"MultiPolygon","arcs":[[[-11,78,79,80,81,82,83],[-78]]],"properties":{"GID_2":"RUS.38.16_1","GID_0":"RUS","COUNTRY":"Russia","GID_1":"RUS.38_1","NAME_1":"Leningrad","NL_NAME_1":"Ленинградскаяобласть","NAME_2":"Luzhskiyrayon","VARNAME_2":"NA","NL_NAME_2":"Лужскийрайон","TYPE_2":"Raion","ENGTYPE_2":"District","CC_2":"R06091","HASC_2":"RU.LN.LR"}},{"type":"MultiPolygon","arcs":[[[-6]]],"properties":{"GID_2":"RUS.38.17_1","GID_0":"RUS","COUNTRY":"Russia","GID_1":"RUS.38_1","NAME_1":"Leningrad","NL_NAME_1":"Ленинградскаяобласть","NAME_2":"Pikalyovo","VARNAME_2":"Pikalevo","NL_NAME_2":"Пикалёво","TYPE_2":"Gorod","ENGTYPE_2":"City","CC_2":"NA","HASC_2":"RU.LN.PI"}},{"type":"MultiPolygon","arcs":[[[84]]],"properties":{"GID_2":"RUS.38.18_1","GID_0":"RUS","COUNTRY":"Russia","GID_1":"RUS.38_1","NAME_1":"Leningrad","NL_NAME_1":"Ленинградскаяобласть","NAME_2":"Podporozh'e","VARNAME_2":"NA","NL_NAME_2":"Подпорожье","TYPE_2":"Gorsovet","ENGTYPE_2":"District","CC_2":"NA","HASC_2":"RU.LN.PD"}},{"type":"MultiPolygon","arcs":[[[85,86,87,-63],[-85]]],"properties":{"GID_2":"RUS.38.19_1","GID_0":"RUS","COUNTRY":"Russia","GID_1":"RUS.38_1","NAME_1":"Leningrad","NL_NAME_1":"Ленинградскаяобласть","NAME_2":"Podporozhskiyrayon","VARNAME_2":"NA","NL_NAME_2":"Подпорожскийрайон","TYPE_2":"Raion","ENGTYPE_2":"District","CC_2":"R06091","HASC_2":"RU.LN.PP"}},{"type":"MultiPolygon","arcs":[[[88]]],"properties":{"GID_2":"RUS.38.20_1","GID_0":"RUS","COUNTRY":"Russia","GID_1":"RUS.38_1","NAME_1":"Leningrad","NL_NAME_1":"Ленинградскаяобласть","NAME_2":"Priozersk","VARNAME_2":"NA","NL_NAME_2":"Приозерск","TYPE_2":"Gorod","ENGTYPE_2":"City","CC_2":"NA","HASC_2":"RU.LN.PG"}},{"type":"MultiPolygon","arcs":[[[89,90,91,92,93],[-89]]],"properties":{"GID_2":"RUS.38.21_1","GID_0":"RUS","COUNTRY":"Russia","GID_1":"RUS.38_1","NAME_1":"Leningrad","NL_NAME_1":"Ленинградскаяобласть","NAME_2":"Priozerskiyrayon","VARNAME_2":"NA","NL_NAME_2":"Приозерскийрайон","TYPE_2":"Raion","ENGTYPE_2":"District","CC_2":"R06091","HASC_2":"RU.LN.PR"}},{"type":"MultiPolygon","arcs":[[[94]],[[95]],[[96]],[[-72,97,98,99,100,101,-57,102,103,104,-91,105]],[[-24,106,-22,107,-20,108,109,-82,110],[111],[112],[113],[114],[115],[116],[117],[118],[119],[120],[121],[122],[123],[124],[125],[126],[127],[128],[129],[130],[131],[132],[133],[134],[135],[136],[137],[138],[139],[140],[141],[142],[143],[144],[145],[146],[147],[148],[149],[150],[151],[152],[153],[154],[155],[156],[157],[158],[159],[160],[161],[162],[163],[164],[165],[166],[167],[168],[169],[170],[171],[172],[173],[174],[175],[176],[177],[178],[179],[180],[181],[182],[183],[184],[185],[186],[187],[188],[189],[190],[191]],[[192]]],"properties":{"GID_2":"RUS.38.22_1","GID_0":"RUS","COUNTRY":"Russia","GID_1":"RUS.38_1","NAME_1":"Leningrad","NL_NAME_1":"Ленинградскаяобласть","NAME_2":"Slantsevskiyrayon","VARNAME_2":"NA","NL_NAME_2":"Сланцевскийрайон","TYPE_2":"Raion","ENGTYPE_2":"District","CC_2":"NA","HASC_2":"RU.LN.SR"}},{"type":"MultiPolygon","arcs":[[[193]]],"properties":{"GID_2":"RUS.38.23_1","GID_0":"RUS","COUNTRY":"Russia","GID_1":"RUS.38_1","NAME_1":"Leningrad","NL_NAME_1":"Ленинградскаяобласть","NAME_2":"Slantsy","VARNAME_2":"NA","NL_NAME_2":"Сланцы","TYPE_2":"Gorod","ENGTYPE_2":"City","CC_2":"NA","HASC_2":"RU.LN.SG"}},{"type":"MultiPolygon","arcs":[[[-77]]],"properties":{"GID_2":"RUS.38.24_1","GID_0":"RUS","COUNTRY":"Russia","GID_1":"RUS.38_1","NAME_1":"Leningrad","NL_NAME_1":"Ленинградскаяобласть","NAME_2":"SosnovyyBor","VARNAME_2":"Sosnovyj","NL_NAME_2":"СосновыйБор","TYPE_2":"Gorsovet","ENGTYPE_2":"District","CC_2":"NA","HASC_2":"RU.LN.SB"}},{"type":"MultiPolygon","arcs":[[[194]]],"properties":{"GID_2":"RUS.38.25_1","GID_0":"RUS","COUNTRY":"Russia","GID_1":"RUS.38_1","NAME_1":"Leningrad","NL_NAME_1":"Ленинградскаяобласть","NAME_2":"Tikhvin","VARNAME_2":"NA","NL_NAME_2":"Тихвин","TYPE_2":"Gorod","ENGTYPE_2":"City","CC_2":"NA","HASC_2":"RU.LN.TI"}},{"type":"MultiPolygon","arcs":[[[-4,195,-2,196,-48,197,198,-67,199,-65,200,-87,201],[-195]]],"properties":{"GID_2":"RUS.38.26_1","GID_0":"RUS","COUNTRY":"Russia","GID_1":"RUS.38_1","NAME_1":"Leningrad","NL_NAME_1":"Ленинградскаяобласть","NAME_2":"Tikhvinskiyrayon","VARNAME_2":"NA","NL_NAME_2":"Тихвинскийрайон","TYPE_2":"Raion","ENGTYPE_2":"District","CC_2":"R06091","HASC_2":"RU.LN.TV"}},{"type":"MultiPolygon","arcs":[[[202,-52,-50,203,-80,204,-9],[205]]],"properties":{"GID_2":"RUS.38.27_1","GID_0":"RUS","COUNTRY":"Russia","GID_1":"RUS.38_1","NAME_1":"Leningrad","NL_NAME_1":"Ленинградскаяобласть","NAME_2":"Tosnenskiyrayon","VARNAME_2":"NA","NL_NAME_2":"Тосненскийрайон","TYPE_2":"Raion","ENGTYPE_2":"District","CC_2":"R06091","HASC_2":"RU.LN.TR"}},{"type":"MultiPolygon","arcs":[[[-206]]],"properties":{"GID_2":"RUS.38.28_1","GID_0":"RUS","COUNTRY":"Russia","GID_1":"RUS.38_1","NAME_1":"Leningrad","NL_NAME_1":"Ленинградскаяобласть","NAME_2":"Tosno","VARNAME_2":"NA","NL_NAME_2":"Тосно","TYPE_2":"Gorod","ENGTYPE_2":"City","CC_2":"NA","HASC_2":"RU.LN.TG"}},{"type":"MultiPolygon","arcs":[[[206]]],"properties":{"GID_2":"RUS.38.29_1","GID_0":"RUS","COUNTRY":"Russia","GID_1":"RUS.38_1","NAME_1":"Leningrad","NL_NAME_1":"Ленинградскаяобласть","NAME_2":"Volkhov","VARNAME_2":"NA","NL_NAME_2":"Волхов","TYPE_2":"Gorod","ENGTYPE_2":"City","CC_2":"NA","HASC_2":"RU.LN.VK"}},{"type":"MultiPolygon","arcs":[[[207,-46,208,-44,209,210,-59,211,-101,212,-99,213,-70,214,-68,-199],[-207]]],"properties":{"GID_2":"RUS.38.30_1","GID_0":"RUS","COUNTRY":"Russia","GID_1":"RUS.38_1","NAME_1":"Leningrad","NL_NAME_1":"Ленинградскаяобласть","NAME_2":"Volkhovskiyrayon","VARNAME_2":"NA","NL_NAME_2":"Волховскийрайон","TYPE_2":"Raion","ENGTYPE_2":"District","CC_2":"R06090","HASC_2":"RU.LN.VO"}},{"type":"MultiPolygon","arcs":[[[-12,-84,-109,-19,215,-74]]],"properties":{"GID_2":"RUS.38.31_1","GID_0":"RUS","COUNTRY":"Russia","GID_1":"RUS.38_1","NAME_1":"Leningrad","NL_NAME_1":"Ленинградскаяобласть","NAME_2":"Volosovskiyrayon","VARNAME_2":"NA","NL_NAME_2":"Волосовскийрайон","TYPE_2":"Raion","ENGTYPE_2":"District","CC_2":"R06090","HASC_2":"RU.LN.VL"}},{"type":"MultiPolygon","arcs":[[[216]]],"properties":{"GID_2":"RUS.38.32_1","GID_0":"RUS","COUNTRY":"Russia","GID_1":"RUS.38_1","NAME_1":"Leningrad","NL_NAME_1":"Ленинградскаяобласть","NAME_2":"Vsevolzhsk","VARNAME_2":"NA","NL_NAME_2":"Всеволожск","TYPE_2":"Gorsovet","ENGTYPE_2":"District","CC_2":"NA","HASC_2":"RU.LN.VS"}},{"type":"MultiPolygon","arcs":[[[217,218,219,220,-93,221,-104,222,-55,223,-53],[-217]]],"properties":{"GID_2":"RUS.38.33_1","GID_0":"RUS","COUNTRY":"Russia","GID_1":"RUS.38_1","NAME_1":"Leningrad","NL_NAME_1":"Ленинградскаяобласть","NAME_2":"Vsevolzhskiyrayon","VARNAME_2":"NA","NL_NAME_2":"Всеволжскийрайон","TYPE_2":"Raion","ENGTYPE_2":"District","CC_2":"R06090","HASC_2":"RU.LN.VV"}},{"type":"MultiPolygon","arcs":[[[224,225]]],"properties":{"GID_2":"RUS.38.34_1","GID_0":"RUS","COUNTRY":"Russia","GID_1":"RUS.38_1","NAME_1":"Leningrad","NL_NAME_1":"Ленинградскаяобласть","NAME_2":"Vyborg","VARNAME_2":"NA","NL_NAME_2":"Выборг","TYPE_2":"Gorod","ENGTYPE_2":"City","CC_2":"NA","HASC_2":"RU.LN.VG"}},{"type":"MultiPolygon","arcs":[[[226]],[[227]],[[228]],[[229]],[[230]],[[231]],[[232]],[[233]],[[234]],[[235]],[[236]],[[237]],[[238]],[[239]],[[240]],[[241]],[[242]],[[243]],[[244]],[[245]],[[246]],[[247]],[[248]],[[249]],[[250]],[[251]],[[252]],[[253]],[[254]],[[255]],[[256]],[[257]],[[258]],[[259]],[[260]],[[261]],[[262]],[[263]],[[264]],[[265]],[[266]],[[267]],[[268]],[[269]],[[270]],[[271]],[[272]],[[273]],[[274]],[[275]],[[276]],[[277]],[[278]],[[279]],[[-94,-221,280,-219,281,282,283],[284,285]],[[286]]],"properties":{"GID_2":"RUS.38.35_1","GID_0":"RUS","COUNTRY":"Russia","GID_1":"RUS.38_1","NAME_1":"Leningrad","NL_NAME_1":"Ленинградскаяобласть","NAME_2":"Vyborgskiyrayon","VARNAME_2":"NA","NL_NAME_2":"Выборгскийрайон","TYPE_2":"Raion","ENGTYPE_2":"District","CC_2":"R06090","HASC_2":"RU.LN.VR"}}]}},"arcs":[[[800672,347747],[-3110,273],[1494,3439],[1705,-1737],[-89,-1975]],[[771762,321836],[2734,20293],[9939,20838],[266,4665],[-11555,22337],[-963,17773],[2645,8036],[4494,5618],[5954,-1770],[4262,3200],[2922,7764],[-720,17161],[2114,14539],[7781,7320],[14068,-919],[2335,-5516],[1494,-12598],[4339,-6674],[40111,-7116],[9707,-9807],[5036,15152],[1118,22473],[3376,8478],[6541,9841],[7825,2485],[10603,19545],[7195,5448],[3741,8240],[3442,14947],[-100,15595],[-2324,6606],[-3442,2928],[5711,5243],[5844,-1804],[686,5788],[-9065,29998]],[[919876,597943],[5579,4801],[1782,-307]],[[927237,602437],[4438,-9091],[2158,-8546],[2601,-21281],[3885,-4801]],[[940319,558718],[13935,-6265],[2325,-5618],[14189,-3542],[6995,-6265],[-2158,-6776],[-5501,-7627],[-1970,-19204],[929,-40757],[2878,-10862],[5457,-3098],[11466,-681],[4350,-3371],[1970,-29793],[-12894,14573],[-1306,-9227],[1926,-23597],[-6066,-17603],[-9463,-12224],[5888,-12735],[3210,-3643],[-1184,-4801],[-8412,-16412],[476,-9704],[-3996,-15288],[-12429,306],[-4649,-3881],[-332,-7219],[-6010,-6946],[-9519,4597],[-5213,-13892],[-9153,16309],[-4704,-8410],[-3387,-9840],[-8467,-14846],[476,-14164],[-4162,-2963],[3243,-11168],[-6054,-5073],[-11124,3745],[-4859,7661],[-14023,6197],[-12463,10998],[-13104,-408],[-5125,-4154],[-5434,-15050],[-7770,4222],[-10626,14199],[-9740,2349],[-2523,5278],[-1008,9738],[-2789,9057],[-5722,9193],[-10316,28977],[-4615,2826]],[[827269,393850],[1760,4052],[-432,1635],[-3365,-1192],[-276,-2384],[2313,-2111]],[[375466,382478],[-1815,510],[-188,2418],[2833,-272],[-830,-2656]],[[374614,435220],[17853,-20906],[1416,-4290],[2967,-1430],[10857,-2077],[13382,6844]],[[421089,413361],[398,-14131],[-918,-13007],[-3088,-9704],[-554,-15016],[19635,-62446],[7460,-38919]],[[444022,260138],[-2977,-42630],[-2612,-14982]],[[438433,202526],[-2723,-2792],[-4903,2384],[-266,4460],[-3387,3303],[-5667,-613],[-4504,-2928],[-1506,-9194],[-4305,-5890],[-25468,10351],[-7438,29487],[-6929,22132],[-13425,4086],[-2192,21042],[-33647,2520]],[[322073,280874],[1815,14097],[13747,31019],[1505,12155],[-1970,43890],[3652,29896]],[[340822,411931],[18130,8171],[12330,9568],[3332,5550]],[[177323,329122],[2048,-340],[-1472,-1533],[-576,1873]],[[223378,340937],[-1029,-1328]],[[222349,339609],[-1074,2043],[1494,647],[609,-1362]],[[243755,452688],[1970,-7695],[642,-7900],[4394,-16786]],[[250761,420307],[3475,-6980],[5999,-3848],[12861,5550]],[[273096,415029],[1362,-11543],[-10238,-46613],[-1229,-15084],[-421,-13688],[1849,-34560],[3520,-24482],[-997,-7219],[-1040,-2894],[-4538,-1191],[-12241,4937],[-1561,-1635],[-1029,-7865],[1649,-3848]],[[248182,249344],[321,-12053]],[[248503,237291],[-3243,-7832],[-3520,-681]],[[241740,228778],[-3608,3371],[-1229,7287]],[[236903,239436],[-5656,4528],[-3862,-3847]],[[227385,240117],[-2070,-10317],[-2059,-3814],[-5866,-4596],[-4726,1396],[-3431,9295],[509,17263],[1705,15799],[-808,5823],[-3553,9602],[-13647,20566],[-18971,24209],[-5601,4596]],[[168867,329939],[-1284,6197],[-6087,7662],[-2845,8478],[-3187,2860],[-775,1226],[2313,-2043],[-2025,2179],[-366,2962],[-3320,1703],[-122,2519],[3996,15799],[1428,12905],[0,11543],[-997,5788],[-3575,6640],[753,1396],[-1151,953],[266,2792],[-2712,1226],[-310,5278],[-786,-238],[908,2962],[-1284,238],[-1240,4869],[498,4393],[1317,749],[2137,8172],[-1450,5652],[398,2111],[4881,2894],[609,2622],[-576,783],[1406,375],[1616,6231],[7825,-1158],[2446,-4461],[11,-4085],[3365,-16446],[-1085,-3610],[1140,-5448],[2978,-2826],[5722,545],[332,-3269],[2601,1362],[-321,-2009],[2501,-238],[753,-2588],[3077,375],[5811,8308],[-166,11951],[1029,11135],[-675,5720],[1229,4528],[-609,4393],[3365,10862],[8588,7593],[886,34],[564,-2860],[-1129,-273],[2258,-4733],[6154,-1804],[4793,-4665],[11,-3303],[3199,-2588],[2014,-5380],[6519,2520],[11268,-14709]],[[167063,337498],[-254,68],[785,-1157],[-531,1089]],[[164506,340359],[-55,68],[244,-409],[-189,341]],[[177323,329122],[1860,-2111],[-277,2997],[-1583,-886]],[[223378,340937],[-1871,1158],[842,-2486]],[[155541,476965],[44,-851],[-453,681],[409,170]],[[156161,478123],[-277,715],[321,-68],[-44,-647]],[[181596,547311],[863,511],[-410,-1226],[-453,715]],[[145635,424052],[531,68],[-298,-1260],[-233,1192]],[[148114,425278],[-155,919],[288,34],[-133,-953]],[[127694,530763],[-399,-170],[89,1021],[310,-851]],[[132475,543736],[1151,1430],[177,-1941],[875,3814],[1140,-2281],[-576,-8172],[-675,1259],[-277,-2553],[-852,6027],[863,306],[-1129,715],[-5833,-6878],[-3907,4699],[2070,4494],[-1040,2826],[664,2690],[2922,4257],[4427,-10692]],[[184872,547822],[354,0],[0,-341],[-354,0],[0,341]],[[190362,545507],[-11,-2452],[-2247,885],[-2535,8138],[1981,1600],[133,2963],[2302,-1464],[1417,-8138],[-1040,-1532]],[[152309,547992],[-2313,-681],[-398,1226],[2711,-545]],[[148612,550750],[-1383,-2043],[-1096,4086],[1129,3337],[5800,-7218],[-4450,1838]],[[595225,360312],[-1948,1634],[1494,2281],[863,-1975],[-409,-1940]],[[543514,369232],[16602,34765],[2170,7014],[-1218,7798],[377,4664],[1627,5653],[4449,7218],[-664,17331]],[[566857,453675],[7626,-7695],[16082,6027]],[[590565,452007],[5290,-3609],[9287,2179],[5412,-1703],[5523,-6980],[963,-3916],[-731,-12223],[543,-1941],[5224,-988],[5899,8581]],[[627975,431407],[2679,-2077],[3553,-9228],[3154,-15458]],[[637361,404644],[7969,-4461]],[[645330,400183],[24184,-2145],[9342,-6435],[2545,-4426]],[[681401,387177],[-542,-6129],[-4615,-7253],[-642,-5039],[10149,-24686],[14433,-24141]],[[700184,319929],[-3331,-6435],[-18086,-22677],[-3365,-11032],[244,-9602],[3431,-10351],[1085,-11713],[-2900,-11305],[-3929,-8308],[-4571,-5516],[-5756,-817],[-7471,5720],[-12407,16037],[-8158,2180],[-5666,8103],[-2557,9568],[33,13450],[-2369,15424],[-36569,40247],[-5811,-2486],[-1427,-4971],[-3874,-30270],[-5789,-2486],[-5711,1022],[-2336,3575],[-3054,10794],[-5291,6605],[-11433,3916]],[[543116,318601],[-1472,9602],[-919,16922],[2789,24107]],[[480448,500459],[-2181,579],[1749,2111],[432,-2690]],[[543514,369232],[-10338,1975],[-11964,6742],[-7460,-2383],[-3498,4699],[-2335,8648],[-5656,8342],[-29098,8887],[-7217,5823],[-9795,14539],[4582,12836],[432,5823],[-4516,15288],[-5036,5107]],[[451615,465558],[5755,5721],[7958,26320]],[[465328,497599],[11777,19170]],[[477105,516769],[9319,5005]],[[486424,521774],[9475,-9466]],[[495899,512308],[5700,9364],[5180,1056],[7427,-9841],[13735,3303]],[[527941,516190],[1173,3269]],[[529114,519459],[13183,-8717]],[[542297,510742],[14067,-25094]],[[556364,485648],[10493,-31973]],[[769427,777554],[-3420,1600],[2224,3677],[1915,-987],[-719,-4290]],[[784922,867342],[10493,-10419],[564,-5516],[-4283,-13994],[-454,-7321],[1007,-3439],[10404,-10862],[1417,-9976],[15285,-10045],[2269,-3507],[1793,-8478],[1937,-2043],[14179,-2043],[8721,-6912],[1572,-5039],[-11,-5857],[-2048,-11917],[5745,-6061],[8046,-2928],[-2490,-7219],[-5933,-4631],[-210,-3302],[6652,-31496],[7172,-13552],[13348,-12224]],[[880097,668561],[9110,-20123],[8766,-12768]],[[897973,635670],[-15817,-3542],[-4981,-3881],[-2745,-5039],[-531,-4870],[2159,-8342],[-565,-8682],[-3675,-6912],[-5976,-3133]],[[865842,591269],[-58883,-1975],[-20011,3201]],[[786948,592495],[-4461,7355]],[[782487,599850],[-730,14130],[-3465,18489],[-8013,7729],[-2867,8172],[-2634,17944],[-2357,5312]],[[762421,671626],[-8379,6265]],[[754042,677891],[-12861,-375],[-26088,10624],[-11788,6708],[-16945,19033]],[[686360,713881],[4228,15254]],[[690588,729135],[5910,33028],[1705,14710],[-2723,7150]],[[695480,784023],[-7006,8274],[6674,8444],[9386,-3132],[9662,8512],[3321,7219],[-321,12258],[3973,11100],[15485,25264],[6275,7355],[5767,1839],[1727,5788],[-1749,9228],[6453,1157],[8245,-3609],[3775,-6708],[9551,-9431],[6331,-3303],[1893,3064]],[[340822,411931],[-10824,15594],[-3819,988],[-22214,-16276],[-15495,9432],[-11611,-2792]],[[276859,418877],[-12318,-8615],[-7460,-136],[-6320,10181]],[[243755,452688],[-9796,12564],[-1660,5107],[985,3508],[1970,-2861],[-487,-2826],[675,-1226],[3133,-646],[3508,4222],[1539,5992],[9408,-306],[4604,6435],[1229,4733],[2512,2928],[-908,954],[3166,3813],[830,8274],[-2025,3882],[-5534,1430],[-1107,3133],[6165,2928],[1394,4256],[-66,8138],[6929,5346],[-155,2792],[1361,2077],[8224,-817],[2435,3439],[4726,-5482],[7260,408],[15319,-6503],[6121,613],[9883,-9058],[4616,-987],[1107,579],[2036,15254],[-1726,-15527],[2512,-578],[-2125,-23631],[11876,-13245],[7383,1124],[0,-7661],[10481,-12224],[13061,-27819]],[[265548,493479],[-554,2452],[-1328,-1124],[1882,-1328]],[[339804,133304],[-1527,1702],[1981,988],[-454,-2690]],[[438433,202526],[1295,7866]],[[439728,210392],[11466,-4188],[4450,14913],[7504,-3200],[-22,-12258],[13658,-17706]],[[476784,187953],[-1063,-10351],[-2269,-8410],[-9109,-13382],[-7681,-6197],[-3553,-7525],[-1306,-10385],[33,-15662],[-3475,-9568],[-6209,-4120],[-5490,6946],[-7626,204],[-4062,-1839],[-9563,-15492],[-5180,-715],[-11865,14505],[-9629,6844],[-3332,-3609],[-3420,-9909],[277,-5005],[4006,-6503],[-6474,-16821],[265,-12837],[5235,-11372],[1306,-15731],[-1560,-12360],[-6442,-12905],[-6984,-2315],[-6774,6572],[-5102,612],[-12175,-10623],[-12739,2145],[-9718,9636],[-3354,8104],[-1018,11338],[-2048,5653],[-24051,8921],[-5335,5992],[-2225,6912],[1240,11441],[-1550,11338],[-5511,9024],[-13946,15492],[-9198,20804],[-12474,-1770],[-8190,2996],[-16182,7695]],[[221264,135721],[-1483,7423],[265,14675],[2380,8274],[4129,5482],[5567,3201],[18672,-1737]],[[250794,173039],[2944,4052],[4317,10624],[2999,34526]],[[261054,222241],[37189,-21690],[3022,1873],[3763,11713],[13127,2043],[7194,11543],[7604,-2315],[5235,15322],[89,11645],[-15584,11100],[-620,17399]],[[841503,847015],[-2557,1396],[2070,2349],[487,-3745]],[[784922,867342],[5722,13450],[8943,36262],[-4991,6436],[-9408,3303],[-3476,-1090],[-9563,-10079],[-16779,19477],[-2623,7048],[-841,6844],[5700,7933],[14864,6436],[12961,12836],[39348,-7354],[8876,6197],[15939,-18966],[5168,-8240],[5014,-12598],[2989,-34],[3696,31087],[10294,15322],[11223,6810],[6552,11577],[4859,-375],[8744,-8921],[15230,-8001],[9596,-11373],[5512,-1123],[7438,9091],[6176,-1839],[7681,11884],[2889,-4529],[-3985,-24856],[753,-6878],[11378,-11883],[4328,-1465],[1571,7525],[4948,10113],[5899,5618],[9253,-14641],[3199,-8070],[-432,-13347],[-3564,-11441],[-2235,-12939],[-3066,-4324],[-4649,-1089],[-7438,-13382],[554,-11338],[8345,-9943],[-4339,-11270],[-476,-7151],[-6917,-12360],[-12751,9262],[-6707,-3439],[-12728,-24482],[10315,-35581],[4748,-28125],[299,-14097],[-1084,-17161],[-4184,-15288],[-6099,-51381],[-8478,-18182],[719,-14539]],[[939832,618679],[-24969,-2520],[-3919,6299],[-5191,239],[-5235,5992]],[[900518,628689],[-5634,12769],[-3076,2315],[-11711,24788]],[[379871,891143],[-1494,-1839],[-775,2384],[1317,1396],[952,-1941]],[[332112,947052],[13979,-783],[11046,-5959],[4394,-9431]],[[361531,930879],[13481,-12939],[5767,-2009],[8245,1668],[13559,-27682],[5313,-7525],[7991,-18659],[5744,-6503],[1406,-5619],[-1151,-9193],[-3177,-11815],[7073,-3337],[3398,-7355],[2069,-15015],[299,-10488],[-3187,1362],[-4571,-6197],[4825,-8648],[720,-13790],[3431,-11850],[15938,-15730],[8877,-16753]],[[457581,722802],[2291,-31938]],[[459872,690864],[-16979,-8274],[-19867,-27138],[-5623,-1566],[-24460,22745],[-15529,1941]],[[377414,678572],[-20266,10998],[-2380,4120],[-1284,7525],[1218,5788],[-1417,4665],[-3497,919],[-11002,-4017],[-1871,-2827],[-4228,2077],[-3497,10011],[-3321,30679],[34,18386],[-4572,21656],[2203,9568],[5988,6980],[1638,4733],[3497,31870],[-907,53117],[-3808,30611],[2170,21621]],[[136725,287003],[33,34],[-44,-68],[11,34]],[[161529,317716],[0,136],[111,-68],[-111,-68]],[[167738,323368],[67,68],[-78,-170],[11,102]],[[690588,729135],[-3044,-8955],[-2114,-15833]],[[685430,704347],[-1826,-4154],[-2512,920],[-1982,6401],[-465,12360],[-3586,4971],[-10736,4427],[-6796,6537]],[[657527,735809],[-1826,-4188],[-1660,-5822]],[[654041,725799],[3608,-9432],[919,-6844],[-908,-6538],[1096,-8478],[5645,-6946],[4117,-8444],[-44,-8887],[-2944,-4563],[-5468,817],[-6785,6572],[-1881,-4120],[5689,-15901],[-653,-8274],[5434,-9704],[-1782,-8683],[-5667,-15288],[-7947,-11611],[-10614,-4529],[-19303,2282],[-6110,5822],[-9142,14642],[3387,10078],[-5988,8649],[-2656,-15186],[-6132,5822],[-8180,-1124],[-9164,5687],[-16591,3779],[-3354,-5686],[-1350,-7559],[-5368,-12632],[-8301,-8445],[310,-6163],[1815,-4596],[-2646,-6368],[-3564,-4017],[-2446,-8002],[-343,-29827],[853,-14642]],[[531583,527460],[-3642,-11270]],[[495899,512308],[-15407,15663]],[[480492,527971],[-89,4495],[6807,14164],[-443,15016],[-5722,6742],[609,3813],[-1538,14574],[-742,21144],[-7471,2418],[-1959,9091],[-1063,19987],[-4017,10964],[-111,13245]],[[464753,663624],[-4450,23052],[-1936,17842],[-786,18284]],[[361531,930879],[13049,-1192],[17831,-13722],[37876,-18864],[99148,-56522],[129775,-77122],[16713,-1702],[8356,11985],[5590,17195],[5611,-6912]],[[227385,240117],[1981,3337],[5180,-681],[2357,-3337]],[[241740,228778],[5191,2895],[1572,5618]],[[248182,249344],[7371,-851],[10747,-7355],[-5246,-18897]],[[261054,222241],[-1439,-11543],[-664,-16922],[-2988,-12190],[-5169,-8547]],[[221264,135721],[-25579,11781],[-14112,-647],[-3940,3439],[-10802,36297],[-14466,11236],[-16426,3439],[-7116,-7899],[-5424,-13143],[-2844,-3031],[-4461,2282],[-1239,11236],[2490,8206],[542,11747],[2789,2758],[1207,15356],[2125,7662],[786,9125],[5556,9704],[2623,7899],[996,4257],[498,13041],[1461,5481],[5911,8479],[4095,1226],[697,1362],[-664,238],[266,2213],[-1041,-443],[4505,4427],[4184,1021],[-697,-1940],[2147,-886],[4283,1975],[1627,8036],[-985,987],[78,3303],[5202,2077],[3542,6912],[-211,5005]],[[151664,302995],[-52,45],[-111,0],[163,-45]],[[151664,302995],[25,-23],[56,0],[-81,23]],[[164122,318324],[8,5],[-11,0],[3,-5]],[[164122,318324],[-58,-30],[166,-136],[-108,166]],[[162005,317886],[-11,0],[0,-34],[11,0],[0,34]],[[117478,205659],[-111,-477],[199,477],[-88,0]],[[117444,205659],[277,919],[-354,-511],[77,-408]],[[119404,212264],[-454,69],[-609,-613],[1063,544]],[[120920,219823],[-33,-34],[-45,-272],[34,34],[44,272]],[[124340,236882],[830,988],[-730,2009],[-100,-2997]],[[124451,240185],[22,1362],[-288,-1294],[266,-68]],[[125425,246246],[-23,170],[-44,-306],[67,136]],[[125635,246348],[88,409],[-210,-273],[122,-136]],[[125834,246893],[-11,-375],[177,375],[-166,0]],[[126233,246995],[-11,102],[-78,-170],[89,68]],[[125989,247608],[-77,-136],[77,-34],[0,170]],[[126155,247982],[-232,-306],[110,-34],[122,340]],[[126033,248187],[-11,34],[-22,-34],[33,-34],[0,34]],[[126166,248255],[155,408],[-277,-374],[122,-34]],[[131612,257448],[-797,204],[-89,-1838],[886,1634]],[[132763,262113],[-642,-1464],[952,1804],[-310,-340]],[[133272,263611],[-11,375],[-144,-511],[155,136]],[[134766,273588],[-11,102],[-44,-205],[55,103]],[[134168,274609],[-11,-340],[178,238],[-167,102]],[[134633,275869],[111,919],[-232,-783],[121,-136]],[[134943,278354],[-199,-408],[144,68],[55,340]],[[121794,223807],[-77,579],[0,-306],[77,-273]],[[123200,225101],[-55,919],[-56,-408],[111,-511]],[[121949,223637],[1118,1294],[-288,6095],[-830,-7389]],[[150948,301883],[66,34],[-133,0],[67,-34]],[[153161,302189],[-199,-136],[67,-34],[132,170]],[[151568,302427],[-144,-102],[177,102],[-33,0]],[[153040,302359],[44,68],[-166,-102],[122,34]],[[150815,301917],[-133,544],[0,-578],[133,34]],[[153571,302393],[89,103],[-421,-307],[332,204]],[[150583,302393],[-554,-340],[587,-170],[-33,510]],[[153007,302632],[-277,-341],[420,341],[-143,0]],[[159470,302461],[-99,239],[-155,-443],[254,204]],[[151413,302598],[-609,-171],[531,-170],[78,341]],[[150671,302904],[-144,-204],[266,102],[-122,102]],[[151202,303006],[-155,-102],[255,68],[-100,34]],[[162403,315809],[67,-238],[122,170],[-189,68]],[[160721,316388],[-11,-205],[144,103],[-133,102]],[[161219,317375],[-44,-34],[99,-68],[-55,102]],[[165270,318158],[-33,68],[22,-68],[11,0]],[[166764,319895],[67,136],[-122,-136],[55,0]],[[166731,320678],[0,102],[-66,-68],[66,-34]],[[167329,319282],[11,1532],[-177,-1123],[166,-409]],[[167041,320950],[-11,0],[-11,-34],[11,0],[11,34]],[[168037,323640],[11,102],[-66,-136],[55,34]],[[167882,321836],[565,1225],[-144,852],[-421,-2077]],[[136294,285709],[11,-68],[33,136],[-44,-68]],[[136482,285947],[-233,-136],[377,34],[-144,102]],[[136825,286356],[22,102],[-188,-511],[166,409]],[[136526,286594],[-66,0],[-11,-102],[77,102]],[[146388,297116],[-45,0],[67,-34],[-22,34]],[[146310,297286],[-33,0],[0,-34],[33,0],[0,34]],[[146620,297320],[-22,0],[0,-34],[22,0],[0,34]],[[146399,297388],[-44,-34],[33,-34],[11,68]],[[147650,298750],[-1008,-1192],[819,545],[189,647]],[[146908,298920],[-66,-34],[66,0],[0,34]],[[146487,298920],[56,34],[-144,-34],[88,0]],[[146576,298920],[100,171],[-255,-273],[155,102]],[[147052,299159],[-266,-137],[354,137],[-88,0]],[[146410,299363],[-454,-443],[288,68],[166,375]],[[149022,299397],[-100,0],[-88,-170],[188,170]],[[146853,299397],[66,68],[-199,-102],[133,34]],[[146974,299499],[0,34],[-33,-68],[33,34]],[[149077,299601],[-133,-102],[34,-34],[99,136]],[[147163,299703],[-200,-136],[222,34],[-22,102]],[[149454,300827],[-200,-408],[255,170],[-55,238]],[[150671,300997],[11,-272],[144,102],[-155,170]],[[150627,300895],[-100,204],[-77,-238],[177,34]],[[150339,301236],[-808,-749],[1018,715],[-210,34]],[[148446,301746],[-476,-204],[-77,-306],[553,510]],[[148823,302019],[-56,-68],[89,68],[-33,0]],[[148413,302019],[-44,-68],[133,-34],[-89,102]],[[148668,302019],[-11,34],[-45,-34],[23,-34],[33,34]],[[149420,302461],[-586,-1021],[764,579],[-178,442]],[[149376,302700],[-77,-102],[166,34],[-89,68]],[[162459,235384],[-1904,2179],[-221,-3132],[2125,953]],[[168820,324803],[-8,-5],[14,13],[-6,-8]],[[162459,235384],[-2457,-409],[1461,2656],[996,-2247]],[[767634,421022],[-1616,-681],[-985,3915],[2412,1635],[1019,-2486],[-830,-2383]],[[927237,602437],[-7361,-4494]],[[771762,321836],[-9032,-8649],[-3907,-919],[-10016,5754],[-7195,-19306],[-4084,-2077],[-4837,2724],[-8079,14811],[-5712,6572],[-5069,1737],[-6630,16990],[-7017,-19544]],[[681401,387177],[-6541,8376],[-13758,4290]],[[661102,399843],[5302,11645],[2247,18761],[29220,25946],[19867,28159],[2657,13517],[409,27887],[-10459,66294],[4881,11305],[3962,1736],[4948,-1804],[7460,-16821],[11555,-8717],[12684,1737],[10382,-6231],[2911,1975],[13359,24618]],[[786948,592495],[8743,-2690],[70151,1464]],[[897973,635670],[2545,-6981]],[[939832,618679],[244,-4801],[-3088,-19510],[10039,-12565],[-266,-13415],[-7006,-4495],[564,-5175]],[[421089,413361],[3254,2826],[3453,16309],[2590,4938],[3586,2690],[4915,-3712],[4194,851],[7770,10147],[2147,6912],[432,5108],[-1815,6128]],[[543116,318601],[-4118,-1362],[2978,-40383],[3077,-6707],[-2380,-5210],[-5833,-4461],[2114,-6639],[-2258,-11713],[-7006,-10385],[-1860,-13654],[-4515,-9772],[-8025,-6538],[-6475,-2588],[-12927,14744],[-6165,2588],[-5922,-2111],[-4294,-7593],[-841,-10522],[-1882,-8342]],[[439728,210392],[2258,16990],[2036,32756]],[[470055,384453],[-974,3200],[-1196,-2587],[2170,-613]],[[630986,520889],[-2513,2145],[2325,1498],[188,-3643]],[[661102,399843],[-15772,340]],[[637361,404644],[-4925,21145],[-4461,5618]],[[590565,452007],[-12485,-6299],[-7858,2894],[-6044,12087],[-7814,24959]],[[556364,485648],[-6010,11440],[-8057,13654]],[[529114,519459],[2469,8001]],[[654041,725799],[3486,10010]],[[685430,704347],[930,9534]],[[754042,677891],[4217,-2418],[4162,-3847]],[[273096,415029],[3763,3848]],[[441266,542136],[-1527,2622],[1428,1259],[1239,-2553],[-1140,-1328]],[[451615,465558],[-5767,7321],[-20918,17978],[-2413,12394],[287,6674],[2679,14062],[841,9160],[-575,3745],[-16071,16208],[-3088,5890],[-377,7934],[2413,11372],[2258,5142],[-675,1838],[-28158,9705]],[[382051,594981],[6165,12121],[3144,27308],[-332,9466]],[[391028,643876],[-4250,18318]],[[386778,662194],[-5258,11202],[-4106,5176]],[[459872,690864],[4881,-27240]],[[480492,527971],[5932,-6197]],[[477105,516769],[-4062,-5380],[-7715,-13790]],[[229410,779392],[797,2112],[2059,-2009]],[[232266,779495],[-1871,-1975],[-985,1872]],[[26862,479825],[620,-4086],[3133,-3303],[-5966,2827],[-554,2485],[2767,2077]],[[57610,495897],[3387,-6640],[-3996,-3950],[-2092,3303],[177,5584],[2524,1703]],[[23299,517927],[-554,-579],[432,1430],[122,-851]],[[20598,522557],[-620,375],[553,408],[67,-783]],[[0,530695],[299,579],[0,-681],[-299,102]],[[32463,573019],[631,-886],[-631,-2656],[2413,-4630],[-576,-2486],[3343,-6027],[985,-6912],[-1439,-3371],[-3575,1430],[-122,5312],[-1261,3201],[343,3881],[-3343,13484],[2014,3030],[1218,-3370]],[[124351,693962],[-1328,-1260],[-1793,3371],[3121,-2111]],[[123189,697878],[-343,0],[0,341],[343,0],[0,-341]],[[198198,665769],[1317,511],[1151,-2826],[-343,-1771],[2656,-1770],[-575,-3916],[2191,-1770],[-1273,-4972],[111,-4596],[-4261,6401],[-1959,6708],[-1494,-1056],[-3465,7798],[4096,2689],[1848,-1430]],[[201662,676393],[388,-511],[-797,0],[409,511]],[[195364,680853],[-808,0],[-453,1771],[1261,-1771]],[[198131,695392],[465,-1770],[-808,-1430],[2192,-375],[-111,-3881],[1727,-3201],[-930,-3201],[-3796,5687],[1959,715],[-1273,1430],[575,1055],[-1328,-1260],[-2468,5142],[1029,715],[-398,3371],[3165,-2997]],[[132187,699989],[-2014,-1600],[-642,2656],[2258,3745],[863,-2656],[-1959,-715],[1494,-1430]],[[132940,705505],[631,-545],[-1041,-715],[410,1260]],[[135475,706186],[863,-1226],[-808,0],[-55,1226]],[[154324,712043],[-343,0],[0,374],[343,-374]],[[223267,631175],[-343,0],[0,375],[343,0],[0,-375]],[[208336,657972],[2247,1226],[697,-1430],[-409,-2656],[1793,2656],[7726,-14539],[4316,-886],[1328,-3337],[-2191,-1089],[-2125,-6912],[-7095,2315],[-7150,9228],[111,2451],[-1494,2486],[0,6742],[807,1430],[-1272,4971],[2711,-2656]],[[217102,656542],[166,-545],[-797,0],[631,545]],[[217047,694677],[221,715],[465,-1770],[-686,1055]],[[205282,660968],[-344,375],[178,170],[166,-545]],[[204706,663829],[-55,-2316],[-2015,1601],[-465,5311],[2535,-4596]],[[204186,673567],[1328,-3031],[-465,-1770],[-1328,2656],[-1837,-2111],[-864,3030],[2192,0],[-410,2656],[1384,-1430]],[[209775,725526],[354,341],[454,-1771],[-808,1430]],[[222459,695018],[576,-715],[-1959,715],[-1384,3916],[2767,-3916]],[[221718,705505],[166,-545],[-808,0],[642,545]],[[211336,719670],[3630,-4427],[576,-5311],[5246,-7287],[1561,545],[918,-3201],[-4095,545],[-8235,7967],[-2545,8172],[1383,4257],[1561,-1260]],[[215199,728352],[-343,0],[0,375],[343,0],[0,-375]],[[213583,728012],[0,-5312],[-1495,-2145],[-464,2486],[808,4256],[-1273,2145],[1095,1600],[1329,-3030]],[[208513,726956],[-343,0],[0,341],[343,0],[0,-341]],[[209432,728352],[-343,0],[0,375],[343,0],[0,-375]],[[214335,730327],[399,-1260],[-576,715],[177,545]],[[164473,715243],[0,-340],[-354,0],[0,340],[354,0]],[[139393,714698],[-864,1260],[1041,-715],[-177,-545]],[[165392,714903],[-343,0],[0,340],[343,0],[0,-340]],[[171845,716299],[-344,0],[0,374],[344,0],[0,-374]],[[170926,718444],[-177,-204],[-166,544],[343,-340]],[[195021,734754],[-55,-2316],[-1793,2656],[1848,-340]],[[197102,743981],[797,-2145],[-3110,2145],[-233,2486],[2546,-2486]],[[195652,751608],[410,-1260],[-2424,715],[2014,545]],[[192830,752119],[-576,-341],[177,545],[399,-204]],[[193350,753719],[398,-1226],[-575,715],[177,511]],[[200268,755864],[631,-545],[-1030,0],[399,545]],[[200212,763491],[-343,-374],[0,374],[343,0]],[[210129,732268],[-409,-1226],[-1096,2656],[1505,-1430]],[[205171,763832],[631,-885],[-864,-1941],[2015,-1601],[3398,1941],[-1727,-5311],[1096,1940],[2136,-6912],[3575,-340],[454,-1771],[-1494,-2145],[2191,-1770],[686,-3916],[-1494,-2826],[-1494,6742],[-863,170],[-177,-2656],[2423,-5312],[-2423,-2145],[1040,-3167],[-4505,3542],[-918,2111],[575,3915],[-1494,1056],[343,1771],[-1040,2145],[2424,-1090],[232,7457],[-1505,374],[-521,3337],[-1549,-2996],[575,-1771],[-1726,0],[-3000,9943],[2646,681],[-1317,3371],[1671,-1941]],[[207418,762947],[-410,544],[1041,-1089],[-631,545]],[[212952,766488],[166,-1226],[-1959,-2145],[1793,3371]],[[219161,730293],[188,-511],[-575,-715],[387,1226]],[[218541,748237],[-1151,-715],[-697,4597],[1848,-3882]],[[224252,766488],[-409,544],[409,171],[0,-715]],[[221884,778030],[697,1056],[-232,-2486],[-465,1430]],[[205282,767748],[520,885],[631,-1975],[-1151,1090]],[[214966,769144],[-343,-341],[177,545],[166,-204]],[[386778,662194],[2844,-9908],[1406,-8410]],[[382051,594981],[-26696,19135],[-7394,7866],[-20310,10283],[-6032,-68],[-4781,-3337],[-9453,-13450],[-3718,-7661],[-919,-11509],[-29619,715],[-9452,6402],[-3685,-715],[-3631,9397],[111,10283],[-2645,-374],[-808,4630],[-1273,-374],[575,4631],[-1616,2111],[-2933,885],[-863,-885],[398,-1941],[-6629,8682],[-111,3916],[-2656,4597],[-808,10283],[-1616,4256],[-1959,715],[575,-8853],[-2479,-3745],[-3918,1430],[-9453,9942],[-3862,-545],[343,3916],[-1262,-374],[-2313,4971],[575,6027],[-2180,4630],[575,2452],[-697,4256],[-2191,1805],[-3454,9193],[-2656,12428],[-2424,3916],[-1262,7423],[-2656,5345],[6807,-374],[1616,-4256],[-1041,-6027],[2878,-2486],[1738,-7457],[6796,-6741],[121,-3167],[2767,-4971],[3863,-3712],[4317,1567],[919,3200],[-1495,5312],[-110,8887],[-2192,4597],[343,1770],[-6807,5346],[-221,3541],[863,1941],[3166,-3371],[-111,4597],[1262,1089],[-808,1771],[1959,1770],[-3796,9228],[1151,6027],[4493,-2486],[-4493,12053],[1261,3201],[-3110,3201],[1151,6027],[1096,1600],[3863,-3746],[-576,-2485],[1561,-3712],[631,171],[-399,6912]],[[224252,766488],[1838,2860],[2479,-2690],[-2413,7831],[2645,4257],[-918,3881],[-6110,7797],[2479,5142],[6852,-8308],[-1495,2111],[-808,6027],[-5069,8512],[-2424,-2111],[1959,-6027],[-3110,-6061],[1727,-2451],[-3343,-4631],[410,-1941],[-875,-3371],[1273,341],[-465,-3882],[-3398,-4426],[-2014,511],[-520,-3371]],[[212952,766488],[-2712,-886],[399,-1940],[-1550,170],[-1671,5516],[-3398,170],[-67,2656],[-1782,-3745],[399,-1941],[-4084,544],[863,-4800],[-2313,2860],[-3221,-2860],[-3697,2860],[642,-1975],[-930,-2111],[-2191,-375],[232,-3166],[3110,-3201],[-1494,715],[343,-3201],[-1095,-3711],[-3686,4256],[-5479,1226],[4959,-8853],[-2712,-2315],[-1605,2826],[-3409,-170],[1505,-3542],[-464,-3915],[-1727,374],[-520,-3371],[-1616,3541],[-1782,-2315],[-698,-2111],[576,-1771],[-1262,-1089],[1030,-9568],[-1096,-1600],[-6918,6401],[-2247,-4460],[1273,-2112],[-232,-2485],[-8014,4086],[-1782,-4086],[1959,-2826],[-1737,340],[177,-1941],[-4848,7798],[-2014,-3031],[575,-1055],[-1096,-5142],[-3918,6402],[-4150,681],[-2933,-2282],[-521,-2656],[-2944,3712],[-1151,8172],[1727,1396],[-1782,3030],[-67,-3371],[-1261,1771],[-1849,-6401],[1273,-3542],[-1273,-3166],[2192,-1805],[-808,-3541],[808,-1771],[-1151,-4256],[-2480,-1600],[178,4086],[-3808,2485],[-232,4597],[918,2860],[808,0],[-166,-3371],[3166,886],[-3110,4971],[1261,1770],[-2180,1771],[4040,2656],[-2059,4052],[4250,1226],[2424,11883],[3288,8648],[11178,17979],[12220,21383],[4693,4460],[4615,13620],[5933,1634],[11134,25912],[3586,2111],[2701,6640],[15407,23766],[13204,-2588],[3996,10011],[1627,18182],[1018,-204],[443,4903],[10924,17502],[1040,9193],[6265,6299],[6752,1396],[7537,14233],[6696,4801],[15319,18455],[3553,5073],[365,3916],[8046,17365],[5468,-13177],[6552,-8479],[14876,-9193],[2789,-13790],[1671,-2826],[3874,-2792],[4295,817]],[[232266,779495],[-1251,2179],[-1605,-2282]],[[229410,779392],[2402,-1089],[454,1192]],[[224540,796451],[343,375],[233,-1056],[-576,681]]],"bbox":[26.6781,58.4093,35.713,61.3462],"transform":{"scale":[0.000009034909034909035,0.0000029369029369029382],"translate":[26.6781,58.4093]}}