{"type":"Topology","objects":{"muni":{"type":"GeometryCollection","geometries":[{"type":"MultiPolygon","arcs":[[[0,1,2,3,4]]],"properties":{"GID_2":"RUS.39.1_1","GID_0":"RUS","COUNTRY":"Russia","GID_1":"RUS.39_1","NAME_1":"Lipetsk","NL_NAME_1":"Липецкаяобласть","NAME_2":"Chaplyginskiyrayon","VARNAME_2":"NA","NL_NAME_2":"Чаплыгинскийрайон","TYPE_2":"Raion","ENGTYPE_2":"District","CC_2":"R29001","HASC_2":"RU.LP.CH"}},{"type":"MultiPolygon","arcs":[[[5]]],"properties":{"GID_2":"RUS.39.2_1","GID_0":"RUS","COUNTRY":"Russia","GID_1":"RUS.39_1","NAME_1":"Lipetsk","NL_NAME_1":"Липецкаяобласть","NAME_2":"Dankov","VARNAME_2":"NA","NL_NAME_2":"Данков","TYPE_2":"Gorod","ENGTYPE_2":"City","CC_2":"NA","HASC_2":"RU.LP.DG"}},{"type":"MultiPolygon","arcs":[[[6,7,8,9,10],[-6]]],"properties":{"GID_2":"RUS.39.3_1","GID_0":"RUS","COUNTRY":"Russia","GID_1":"RUS.39_1","NAME_1":"Lipetsk","NL_NAME_1":"Липецкаяобласть","NAME_2":"Dankovskiyrayon","VARNAME_2":"NA","NL_NAME_2":"Данковскийрайон","TYPE_2":"Raion","ENGTYPE_2":"District","CC_2":"R29000","HASC_2":"RU.LP.DR"}},{"type":"MultiPolygon","arcs":[[[11,12,13]]],"properties":{"GID_2":"RUS.39.4_1","GID_0":"RUS","COUNTRY":"Russia","GID_1":"RUS.39_1","NAME_1":"Lipetsk","NL_NAME_1":"Липецкаяобласть","NAME_2":"Dobrinskiyrayon","VARNAME_2":"NA","NL_NAME_2":"Добринскийрайон","TYPE_2":"Raion","ENGTYPE_2":"District","CC_2":"R29000","HASC_2":"RU.LP.DB"}},{"type":"MultiPolygon","arcs":[[[-1,14,15,16,17,18,19,20,21]]],"properties":{"GID_2":"RUS.39.5_1","GID_0":"RUS","COUNTRY":"Russia","GID_1":"RUS.39_1","NAME_1":"Lipetsk","NL_NAME_1":"Липецкаяобласть","NAME_2":"Dobrovskiyrayon","VARNAME_2":"NA","NL_NAME_2":"Добровскийрайон","TYPE_2":"Raion","ENGTYPE_2":"District","CC_2":"R29000","HASC_2":"RU.LP.DV"}},{"type":"MultiPolygon","arcs":[[[22,23,24,25,26]]],"properties":{"GID_2":"RUS.39.6_1","GID_0":"RUS","COUNTRY":"Russia","GID_1":"RUS.39_1","NAME_1":"Lipetsk","NL_NAME_1":"Липецкаяобласть","NAME_2":"Dolgorukovskiyrayon","VARNAME_2":"NA","NL_NAME_2":"Долгоруковскийрайон","TYPE_2":"Raion","ENGTYPE_2":"District","CC_2":"R29000","HASC_2":"RU.LP.DL"}},{"type":"MultiPolygon","arcs":[[[27]]],"properties":{"GID_2":"RUS.39.7_1","GID_0":"RUS","COUNTRY":"Russia","GID_1":"RUS.39_1","NAME_1":"Lipetsk","NL_NAME_1":"Липецкаяобласть","NAME_2":"Elets","VARNAME_2":"Yelets","NL_NAME_2":"NA","TYPE_2":"Gorod","ENGTYPE_2":"City","CC_2":"NA","HASC_2":"RU.LP.EG"}},{"type":"MultiPolygon","arcs":[[[-23,28,29,30,31,32,33,34,35,36,37,38],[-28]]],"properties":{"GID_2":"RUS.39.8_1","GID_0":"RUS","COUNTRY":"Russia","GID_1":"RUS.39_1","NAME_1":"Lipetsk","NL_NAME_1":"Липецкаяобласть","NAME_2":"Eletskiyrayon","VARNAME_2":"NA","NL_NAME_2":"Елецкийрайон","TYPE_2":"Raion","ENGTYPE_2":"District","CC_2":"R29000","HASC_2":"RU.LP.ER"}},{"type":"MultiPolygon","arcs":[[[39]]],"properties":{"GID_2":"RUS.39.9_1","GID_0":"RUS","COUNTRY":"Russia","GID_1":"RUS.39_1","NAME_1":"Lipetsk","NL_NAME_1":"Липецкаяобласть","NAME_2":"Gryazi","VARNAME_2":"NA","NL_NAME_2":"Грязи","TYPE_2":"Gorod","ENGTYPE_2":"City","CC_2":"NA","HASC_2":"RU.LP.GG"}},{"type":"MultiPolygon","arcs":[[[-12,40,41,42,43,-16,44],[-40]]],"properties":{"GID_2":"RUS.39.10_1","GID_0":"RUS","COUNTRY":"Russia","GID_1":"RUS.39_1","NAME_1":"Lipetsk","NL_NAME_1":"Липецкаяобласть","NAME_2":"Gryazinskiyrayon","VARNAME_2":"NA","NL_NAME_2":"Грязинскийрайон","TYPE_2":"Raion","ENGTYPE_2":"District","CC_2":"R29000","HASC_2":"RU.LP.GR"}},{"type":"MultiPolygon","arcs":[[[-27,45,46,47,48,-29]]],"properties":{"GID_2":"RUS.39.11_1","GID_0":"RUS","COUNTRY":"Russia","GID_1":"RUS.39_1","NAME_1":"Lipetsk","NL_NAME_1":"Липецкаяобласть","NAME_2":"Izmalkovskiyrayon","VARNAME_2":"NA","NL_NAME_2":"Измалковскийрайон","TYPE_2":"Raion","ENGTYPE_2":"District","CC_2":"R29000","HASC_2":"RU.LP.IZ"}},{"type":"MultiPolygon","arcs":[[[49,50,51,52,53,54,55]]],"properties":{"GID_2":"RUS.39.12_1","GID_0":"RUS","COUNTRY":"Russia","GID_1":"RUS.39_1","NAME_1":"Lipetsk","NL_NAME_1":"Липецкаяобласть","NAME_2":"Khlevenskiyrayon","VARNAME_2":"NA","NL_NAME_2":"Хлевенскийрайон","TYPE_2":"Raion","ENGTYPE_2":"District","CC_2":"R29001","HASC_2":"RU.LP.KH"}},{"type":"MultiPolygon","arcs":[[[-35,56,57,58,59,60,61,62]]],"properties":{"GID_2":"RUS.39.13_1","GID_0":"RUS","COUNTRY":"Russia","GID_1":"RUS.39_1","NAME_1":"Lipetsk","NL_NAME_1":"Липецкаяобласть","NAME_2":"Krasninskiyrayon","VARNAME_2":"NA","NL_NAME_2":"Краснинскийрайон","TYPE_2":"Raion","ENGTYPE_2":"District","CC_2":"R29001","HASC_2":"RU.LP.KR"}},{"type":"MultiPolygon","arcs":[[[-9,63,-7,64,65,66,67,-21,68,69,70,71,-60,72]]],"properties":{"GID_2":"RUS.39.14_1","GID_0":"RUS","COUNTRY":"Russia","GID_1":"RUS.39_1","NAME_1":"Lipetsk","NL_NAME_1":"Липецкаяобласть","NAME_2":"Lebedyanskiyrayon","VARNAME_2":"NA","NL_NAME_2":"Лебедянскийрайон","TYPE_2":"Raion","ENGTYPE_2":"District","CC_2":"R29001","HASC_2":"RU.LP.LE"}},{"type":"MultiPolygon","arcs":[[[-4,73,-2,74,-67,75,-65,-11,76]]],"properties":{"GID_2":"RUS.39.15_1","GID_0":"RUS","COUNTRY":"Russia","GID_1":"RUS.39_1","NAME_1":"Lipetsk","NL_NAME_1":"Липецкаяобласть","NAME_2":"Lev-Tolstovskiyrayon","VARNAME_2":"NA","NL_NAME_2":"Лев-Толстовскийрайон","TYPE_2":"Raion","ENGTYPE_2":"District","CC_2":"R29001","HASC_2":"RU.LP.LT"}},{"type":"MultiPolygon","arcs":[[[77]]],"properties":{"GID_2":"RUS.39.16_1","GID_0":"RUS","COUNTRY":"Russia","GID_1":"RUS.39_1","NAME_1":"Lipetsk","NL_NAME_1":"Липецкаяобласть","NAME_2":"Lipetsk","VARNAME_2":"NA","NL_NAME_2":"Липецк","TYPE_2":"Gorsovet","ENGTYPE_2":"District","CC_2":"NA","HASC_2":"RU.LP.LG"}},{"type":"MultiPolygon","arcs":[[[-20,78,-18,79,-43,80,-53,81,82,-69],[-78]]],"properties":{"GID_2":"RUS.39.17_1","GID_0":"RUS","COUNTRY":"Russia","GID_1":"RUS.39_1","NAME_1":"Lipetsk","NL_NAME_1":"Липецкаяобласть","NAME_2":"Lipetskiyrayon","VARNAME_2":"NA","NL_NAME_2":"Липецкийрайон","TYPE_2":"Raion","ENGTYPE_2":"District","CC_2":"R29001","HASC_2":"RU.LP.LR"}},{"type":"MultiPolygon","arcs":[[[-33,83,84,-47,85,-58]]],"properties":{"GID_2":"RUS.39.18_1","GID_0":"RUS","COUNTRY":"Russia","GID_1":"RUS.39_1","NAME_1":"Lipetsk","NL_NAME_1":"Липецкаяобласть","NAME_2":"Stanovlyanskiyrayon","VARNAME_2":"NA","NL_NAME_2":"Становлянскийрайон","TYPE_2":"Raion","ENGTYPE_2":"District","CC_2":"R29001","HASC_2":"RU.LP.ST"}},{"type":"MultiPolygon","arcs":[[[86,87,88,-25,89,90,-50,91]]],"properties":{"GID_2":"RUS.39.19_1","GID_0":"RUS","COUNTRY":"Russia","GID_1":"RUS.39_1","NAME_1":"Lipetsk","NL_NAME_1":"Липецкаяобласть","NAME_2":"Terbunskiyrayon","VARNAME_2":"NA","NL_NAME_2":"Тербунскийрайон","TYPE_2":"Raion","ENGTYPE_2":"District","CC_2":"R29001","HASC_2":"RU.LP.TE"}},{"type":"MultiPolygon","arcs":[[[-14,92,-55,93,-41]]],"properties":{"GID_2":"RUS.39.20_1","GID_0":"RUS","COUNTRY":"Russia","GID_1":"RUS.39_1","NAME_1":"Lipetsk","NL_NAME_1":"Липецкаяобласть","NAME_2":"Usmanskiyrayon","VARNAME_2":"NA","NL_NAME_2":"Усманскийрайон","TYPE_2":"Raion","ENGTYPE_2":"District","CC_2":"R29001","HASC_2":"RU.LP.US"}},{"type":"MultiPolygon","arcs":[[[94,95,-87]]],"properties":{"GID_2":"RUS.39.21_1","GID_0":"RUS","COUNTRY":"Russia","GID_1":"RUS.39_1","NAME_1":"Lipetsk","NL_NAME_1":"Липецкаяобласть","NAME_2":"Volovskiyrayon","VARNAME_2":"NA","NL_NAME_2":"Воловскийрайон","TYPE_2":"Raion","ENGTYPE_2":"District","CC_2":"R29000","HASC_2":"RU.LP.VO"}},{"type":"MultiPolygon","arcs":[[[-24,96,-38,97,98,-62,99,-71,100,-82,-52,101,-90]]],"properties":{"GID_2":"RUS.39.22_1","GID_0":"RUS","COUNTRY":"Russia","GID_1":"RUS.39_1","NAME_1":"Lipetsk","NL_NAME_1":"Липецкаяобласть","NAME_2":"Zadonskiyrayon","VARNAME_2":"NA","NL_NAME_2":"Задонскийрайон","TYPE_2":"Raion","ENGTYPE_2":"District","CC_2":"R29000","HASC_2":"RU.LP.ZA"}}]}},"arcs":[[[789903,659372],[-18098,4006],[-30270,30852],[-33826,3766],[-32224,12975],[-20436,-10822],[-9930,-10404]],[[645119,689745],[-27995,29716],[-3972,11121],[1537,8730],[11884,3288],[15888,-6995],[10570,3826],[6054,9627],[4004,41016],[-11884,34559]],[[651205,824633],[9258,17877]],[[660463,842510],[11018,5621],[19924,-8491],[16048,10284],[1089,6518],[-12364,18176],[-10090,7294],[-35395,-4185],[-53557,33602]],[[597136,911329],[8040,49268],[57753,39402],[7367,-19910],[17233,13991],[20757,-20389],[16432,-4424],[-5573,-22063],[5765,-21405],[-12876,-3408],[21877,-17698],[3972,-14709],[14511,3588],[5829,-16263],[16048,4364],[1986,-13273],[17297,-3408],[6727,-17878],[-8360,-20329],[-1346,-25112],[-12300,-29118],[7752,-35396],[-2979,-37249],[10442,-23139],[-3587,-17399]],[[468592,799760],[-4132,2571],[2883,1256],[1249,-3827]],[[484800,745709],[-26266,-6397],[-10986,-8790]],[[447548,730522],[-3844,-20747],[4804,-33363]],[[448508,676412],[-3939,-6577],[-9930,6099],[-11820,16442],[-29213,11659],[-20532,20628],[-11147,-299],[-27355,18356],[-15408,-7355]],[[319164,735365],[-9257,17818],[-24216,12975],[23768,7533],[-9578,35516],[-14094,7534],[-16752,32466],[24504,11540],[29277,-2631],[11275,11181],[26394,9447],[-20788,53452],[12044,6398],[-21782,13752],[12236,19791],[26554,12855],[19187,-14350],[1730,22780],[15536,-9806],[22486,11062],[15119,-13752],[512,-22840],[19380,-20269],[768,-23797],[18707,-27803],[18546,13752],[22551,5322],[22582,-11600],[25145,10344]],[[570998,904035],[705,-18236],[-22743,-53333],[-24921,-40718],[-5926,-15187],[-23607,-26009],[-9706,-4843]],[[781959,188520],[10474,9746],[1185,12496],[10347,19910],[15471,8491],[10378,39043],[11308,15725],[5381,22003],[-8521,20149]],[[837982,336083],[27452,-10822],[865,-9746],[-10859,-19013],[4132,-12795],[24280,-19612],[45965,-8849],[12044,-9686],[7143,-12436],[38471,-31749],[7591,-10164],[4933,-13872],[-6502,-19492],[-5766,-6278],[-19507,120],[-6567,-11958],[-9706,-62362],[-9513,-19850],[-10506,-35994],[-13198,-2272],[-41256,7055],[-28605,-2511],[-56664,7713]],[[792209,31510],[11660,15366],[-4741,41375],[3267,13632],[-352,49088],[-20084,37549]],[[789903,659372],[-4677,-8610],[20372,-13812],[-4132,-13034],[-6214,-8371],[-18098,-9447],[-2883,-13812],[21494,-53692],[-3524,-9506],[-7816,-6757],[-28444,3827],[-14831,-20269],[-544,-10942]],[[740606,494947],[-20596,-21046],[-9546,-3229],[-12909,6936],[-22198,-21405],[-11659,-4963]],[[663698,451240],[6118,28999]],[[669816,480239],[-1057,9327],[-18194,12975],[-8136,13273],[-6150,25770],[-5702,9925]],[[630577,551509],[-25497,10464],[-15760,-9089],[-21173,-27743]],[[568147,525141],[-14542,-7174]],[[553605,517967],[13901,21285],[6343,23498],[34818,43647]],[[608667,606397],[14222,47892],[22230,35456]],[[155995,349237],[36452,-3527],[15439,8610],[10282,-15128],[6022,-27384],[25946,-19252],[10602,-2930],[16080,16622],[33570,-10105],[12876,-8131]],[[323264,288012],[9930,-24455],[1986,-73781],[-3171,-16981],[-13261,-5262]],[[318748,167533],[-27740,2153],[-24664,15844],[-20148,-6038],[-9962,10224],[929,21644],[-7944,9985],[-23351,-4903],[-32897,3229],[-4900,-7534],[1153,-11300],[-4421,-9985],[-9353,2690],[-15856,30195],[-4836,-897],[-11083,-15665],[-22070,478]],[[101605,207653],[15631,12915],[-833,24155],[9738,7534],[-1217,14230],[-23736,21345],[8713,10763],[-6150,9267],[30750,-2690]],[[134501,305172],[11179,7294],[2499,31510],[7816,5261]],[[302476,428998],[-40136,-26308],[-7175,15486],[10731,19910],[31455,5142],[5125,-14230]],[[155995,349237],[6438,18535],[30879,22960],[3907,13274],[-4292,10104],[-7207,3827],[-31327,-7055],[-8937,4125],[-5926,9806],[-1601,9865],[8680,8490]],[[146609,443168],[21205,5441],[8457,8192]],[[176271,456801],[-1282,9267]],[[174989,466068],[39656,-21943]],[[214645,444125],[10474,7295],[6374,10583],[22230,12376],[21302,18535],[21173,33304],[640,11719]],[[296838,537937],[22006,-6458],[19443,-12018],[19636,-26248]],[[357923,493213],[16624,-14589],[13389,-5142],[18355,-20926]],[[406291,452556],[4100,-15307]],[[410391,437249],[-5606,-9626],[-7367,-5620]],[[397418,422003],[-31295,-1077],[-6118,-11300],[7463,-18774],[3428,-25172],[7239,-13334],[961,-11539],[-21398,10344],[-6694,-4544],[-15504,-17878]],[[335500,328729],[-12236,-40717]],[[725103,345052],[-2851,4185],[4997,1555],[-2146,-5740]],[[781959,188520],[-2402,17040],[-9290,7773],[-35843,5381],[-9930,7952],[-12140,11959],[-8905,22720],[-30911,239],[-67875,-14409],[-19507,3886]],[[585156,251061],[15663,15306]],[[600819,266367],[5574,29896],[16881,19073],[2466,23498],[24633,50583]],[[650373,389417],[13325,61823]],[[740606,494947],[-673,-8131],[9418,-17579],[1986,-12974],[-1634,-14769],[8649,-31749],[8168,-14947],[21589,-27205],[49873,-31510]],[[134501,305172],[-50962,1913],[-7656,20687],[15888,17280],[-8104,11121],[-6695,-7653],[-7591,13273],[-15023,-3228],[-5221,14768],[18642,12915],[-14863,11898],[-4932,13692],[-11180,-2989],[-8104,16263],[-27162,-2930],[-1538,21465],[25049,1554],[8264,11181],[-673,23139],[21814,25471],[6374,15605],[-14478,35396],[3620,21047],[6438,9746],[2819,11719],[-3236,4484]],[[55991,602989],[17041,7593],[16849,1256],[12941,-7414],[18450,-25471],[19956,-6936],[2082,-7055],[-3684,-10105],[-21909,-20807],[7719,-26188],[19091,-23677],[12525,-6936],[14958,-299]],[[172010,476950],[4261,-20149]],[[176271,456801],[-19508,-13573],[-10154,-60]],[[379768,129806],[-3331,10044]],[[376437,139850],[-8616,4903]],[[367821,144753],[17425,8909],[15503,18774],[26234,718],[6214,8849],[769,11958],[12685,22900],[26266,6935],[27131,22243]],[[500048,246039],[11435,3826],[25625,-4903],[7496,-10044],[20628,-12437],[3267,-13692],[9866,-12317]],[[578365,196472],[-7784,-65351]],[[570581,131121],[-160,-26667]],[[570421,104454],[-31455,6159],[-14350,239],[-7912,-5082],[-28220,7653],[-9513,-4544],[-5830,-9387],[-2146,-44604],[-6887,-10344],[-13485,0],[-18130,7474],[-13197,14708],[-19284,42811],[-24920,10523],[4676,9746]],[[357923,493213],[-10218,15905],[-18707,17458],[-32160,11361]],[[296838,537937],[-9737,12137],[-15151,-6039],[-7304,1017],[-6598,7593],[5733,22481],[10891,18775],[-3299,20030],[-24184,42810]],[[247189,656741],[11948,14828],[640,27025],[12973,1794],[4132,-33842],[22967,3110],[-1441,25351],[12140,-3887]],[[310548,691120],[46029,897],[12429,-8251],[6470,-13453],[10378,-6935],[5446,-23379],[-417,-17399],[27484,-30971]],[[418367,591629],[4612,-25890],[-5894,-43946]],[[417085,521793],[-9705,-25949],[-3300,-33483]],[[404080,462361],[2211,-9805]],[[448508,676412],[-4484,44006],[3524,10104]],[[484800,745709],[16497,-8430],[20404,-32825],[21173,-13274],[10346,3229],[3460,31091],[7527,6278]],[[564207,731778],[10827,538],[16048,-13154]],[[591082,719162],[27579,-75934]],[[618661,643228],[-9994,-36831]],[[553605,517967],[-10507,-2811],[-15215,-18953],[-26586,-7653],[-19924,5560]],[[481373,494110],[-42602,32586]],[[438771,526696],[-16112,29058]],[[422659,555754],[-4292,35875]],[[310548,691120],[-1121,17399],[15599,15546],[-5862,11300]],[[660463,842510],[-6343,-10403],[-2915,-7474]],[[645119,689745],[-16784,-25112],[-9674,-21405]],[[591082,719162],[-7752,9387],[-19123,3229]],[[570998,904035],[25177,1435],[961,5859]],[[630000,387982],[-23895,-12497],[-4581,16204],[-44364,34977],[36965,60688],[10218,-23438],[36804,-18894],[2147,-19013],[-13294,-38027]],[[568147,525141],[28092,32885],[18770,2452],[15568,-8969]],[[669816,480239],[-19443,-90822]],[[600819,266367],[-19827,-23437],[-2627,-46458]],[[500048,246039],[-2851,14110],[-13998,22661],[5990,16383],[961,11778],[-4741,22183],[-6214,7653],[-10699,3946],[-14382,23378],[5253,9387],[8905,6159],[18739,-4664],[5958,2272],[1889,7892],[-10698,13872],[-18483,3169],[-5861,7832],[-193,17938],[-3587,12316],[-9129,5740],[-5413,18476],[16368,24275],[3683,13811]],[[461545,506606],[19828,-12496]],[[214645,444125],[-9193,1973],[-11532,11958],[-18931,8012]],[[174989,466068],[-2979,10882]],[[55991,602989],[-14958,20688],[8584,11240],[-5477,14171],[7303,19133],[19155,597],[-2979,28999],[29277,-718],[4645,-13991],[29501,10942],[22134,-12675],[14286,11898],[18578,-2990],[9610,-28998],[5541,-31749],[27035,11540],[833,18893],[15375,-6756],[2755,3528]],[[147602,22960],[10635,37728],[-6599,10642],[1666,17878],[10250,22242],[-17297,7952],[-4485,-6577],[-5253,837],[-11307,18535],[-14190,-1016],[-7175,5441],[7175,33961]],[[111022,170583],[192,14350],[-1730,15067]],[[109484,200000],[-7879,7653]],[[318748,167533],[15407,-16322]],[[334155,151211],[23511,-1675],[18771,-9686]],[[379768,129806],[-9705,-17160],[-11564,-7893],[-27611,15725],[-4741,-7653],[2178,-14529],[-3779,-14649],[-12845,-12317],[-37189,12915],[-15439,-6099],[-53077,-42810],[-28764,-20687],[-29630,8311]],[[792209,31510],[-28284,-8969],[-13934,658],[-10122,9267],[-9225,-4125],[-10795,-24514],[-10186,-3827],[-19955,9327],[-18675,-6039],[-8777,2093],[-54838,25591],[-7592,11300],[-128,45381],[-29277,16801]],[[570581,131121],[9898,78864],[-993,22661],[5670,18415]],[[147602,22960],[-49521,-15367],[-51219,25651],[-10602,45560],[-12236,11659],[2082,37908],[-6823,24454],[4485,9268],[13677,9267],[9898,14230],[14030,-1554],[6502,9686],[-833,11480],[18291,11838],[24151,-17040]],[[109484,200000],[1538,-29417]],[[323264,288012],[2819,13333],[9417,27384]],[[397418,422003],[12973,15246]],[[410391,437249],[-6311,25112]],[[417085,521793],[5574,33961]],[[438771,526696],[22774,-20090]],[[367821,144753],[-33666,6458]]],"bbox":[37.6973,51.8999,40.8192,53.5724],"transform":{"scale":[0.000003121903121903126,0.000001672501672501672],"translate":[37.6973,51.8999]}}