{"type":"Topology","objects":{"muni":{"type":"GeometryCollection","geometries":[{"type":"MultiPolygon","arcs":[[[0,1,2,3]]],"properties":{"GID_2":"UKR.15.1_1","GID_0":"UKR","COUNTRY":"Ukraine","GID_1":"UKR.15_1","NAME_1":"Luhans'k","NL_NAME_1":"Луганська","NAME_2":"Alchevs'ka","VARNAME_2":"Alchevsk","NL_NAME_2":"NA","TYPE_2":"Misto","ENGTYPE_2":"City","CC_2":"NA","HASC_2":"UA.LH.AL","terra_incognita":true,"NAME_1_REGION_RU":"Луганская область"}},{"type":"MultiPolygon","arcs":[[[4,5,6,7,8]],[[9,10,11]],[[12,13]]],"properties":{"GID_2":"UKR.15.2_1","GID_0":"UKR","COUNTRY":"Ukraine","GID_1":"UKR.15_1","NAME_1":"Luhans'k","NL_NAME_1":"Луганська","NAME_2":"Antratsitivs'ka","VARNAME_2":"Antratsyt","NL_NAME_2":"NA","TYPE_2":"Mis'kaRada","ENGTYPE_2":"CityofRegionalSignificance","CC_2":"NA","HASC_2":"UA.LH.AM","terra_incognita":true,"NAME_1_REGION_RU":"Луганская область"}},{"type":"MultiPolygon","arcs":[[[14,15,16,17,18,19,20,21,22,23,24,25],[-8,26,27,-5,28],[29,-10,30],[-13,31],[32,33]]],"properties":{"GID_2":"UKR.15.3_1","GID_0":"UKR","COUNTRY":"Ukraine","GID_1":"UKR.15_1","NAME_1":"Luhans'k","NL_NAME_1":"Луганська","NAME_2":"Antratsytivs'kyi","VARNAME_2":"Antratsytovskyi","NL_NAME_2":"NA","TYPE_2":"Raion","ENGTYPE_2":"District","CC_2":"NA","HASC_2":"UA.LH.AR","terra_incognita":true,"NAME_1_REGION_RU":"Луганская область"}},{"type":"MultiPolygon","arcs":[[[34,35,36,37,38,39,40,41,42,43,44,45,46,47,48,49]],[[50,51]]],"properties":{"GID_2":"UKR.15.4_1","GID_0":"UKR","COUNTRY":"Ukraine","GID_1":"UKR.15_1","NAME_1":"Luhans'k","NL_NAME_1":"Луганська","NAME_2":"Bilokurakyns'kyi","VARNAME_2":"Bilokurakinskyi","NL_NAME_2":"NA","TYPE_2":"Raion","ENGTYPE_2":"District","CC_2":"NA","HASC_2":"UA.LH.BK","terra_incognita":true,"NAME_1_REGION_RU":"Луганская область"}},{"type":"MultiPolygon","arcs":[[[52,53,54,55,56,57,58,59,60,61,62,63,64,65,66,67,68]]],"properties":{"GID_2":"UKR.15.5_1","GID_0":"UKR","COUNTRY":"Ukraine","GID_1":"UKR.15_1","NAME_1":"Luhans'k","NL_NAME_1":"Луганська","NAME_2":"Bilovods'kyi","VARNAME_2":"Bilovodskyi","NL_NAME_2":"NA","TYPE_2":"Raion","ENGTYPE_2":"District","CC_2":"NA","HASC_2":"UA.LH.BV","terra_incognita":true,"NAME_1_REGION_RU":"Луганская область"}},{"type":"MultiPolygon","arcs":[[[-16,69,70]],[[-33,71]]],"properties":{"GID_2":"UKR.15.6_1","GID_0":"UKR","COUNTRY":"Ukraine","GID_1":"UKR.15_1","NAME_1":"Luhans'k","NL_NAME_1":"Луганська","NAME_2":"Briankivs'ka","VARNAME_2":"Brianka","NL_NAME_2":"NA","TYPE_2":"Mis'kaRada","ENGTYPE_2":"CityofRegionalSignificance","CC_2":"NA","HASC_2":"UA.LH.BR","terra_incognita":true,"NAME_1_REGION_RU":"Луганская область"}},{"type":"MultiPolygon","arcs":[[[72,73,74,75]],[[76,77,78,79]]],"properties":{"GID_2":"UKR.15.7_1","GID_0":"UKR","COUNTRY":"Ukraine","GID_1":"UKR.15_1","NAME_1":"Luhans'k","NL_NAME_1":"Луганська","NAME_2":"Kirovs'ka","VARNAME_2":"Kirovsk","NL_NAME_2":"NA","TYPE_2":"Mis'kaRada","ENGTYPE_2":"CityofRegionalSignificance","CC_2":"NA","HASC_2":"UA.LH.KI","terra_incognita":true,"NAME_1_REGION_RU":"Луганская область"}},{"type":"MultiPolygon","arcs":[[[80,81,82,83]],[[84,85]],[[86,87]],[[88,89,90,91]]],"properties":{"GID_2":"UKR.15.8_1","GID_0":"UKR","COUNTRY":"Ukraine","GID_1":"UKR.15_1","NAME_1":"Luhans'k","NL_NAME_1":"Луганська","NAME_2":"Krasnodons'ka","VARNAME_2":"Krasnodons'ka","NL_NAME_2":"NA","TYPE_2":"Mis'kaRada","ENGTYPE_2":"CityofRegionalSignificance","CC_2":"NA","HASC_2":"UA.LH.KM","terra_incognita":true,"NAME_1_REGION_RU":"Луганская область"}},{"type":"MultiPolygon","arcs":[[[92,93,94,95,96,97,98,99,100,101,102,103,104,105,106,107,108,109],[-87,110],[-85,111],[-83,112,-81,113],[114,-90,115,116]]],"properties":{"GID_2":"UKR.15.9_1","GID_0":"UKR","COUNTRY":"Ukraine","GID_1":"UKR.15_1","NAME_1":"Luhans'k","NL_NAME_1":"Луганська","NAME_2":"Krasnodons'kyi","VARNAME_2":"Krasnodonskyi","NL_NAME_2":"NA","TYPE_2":"Raion","ENGTYPE_2":"District","CC_2":"NA","HASC_2":"UA.LH.KR","terra_incognita":true,"NAME_1_REGION_RU":"Луганская область"}},{"type":"MultiPolygon","arcs":[[[117,118,119,120,121,122,123,124,125,126]]],"properties":{"GID_2":"UKR.15.10_1","GID_0":"UKR","COUNTRY":"Ukraine","GID_1":"UKR.15_1","NAME_1":"Luhans'k","NL_NAME_1":"Луганська","NAME_2":"Krasnoluts'ka","VARNAME_2":"NA","NL_NAME_2":"NA","TYPE_2":"Mis'kaRada","ENGTYPE_2":"CityofRegionalSignificance","CC_2":"NA","HASC_2":"UA.LH.KL","terra_incognita":true,"NAME_1_REGION_RU":"Луганская область"}},{"type":"MultiPolygon","arcs":[[[127,128,129]],[[130,131,132,133,134,135,136,137,138,139,140,141,142,143,144,145,146,147]]],"properties":{"GID_2":"UKR.15.11_1","GID_0":"UKR","COUNTRY":"Ukraine","GID_1":"UKR.15_1","NAME_1":"Luhans'k","NL_NAME_1":"Луганська","NAME_2":"Kremins'kyi","VARNAME_2":"Kreminskyi","NL_NAME_2":"NA","TYPE_2":"Raion","ENGTYPE_2":"District","CC_2":"NA","HASC_2":"UA.LH.KN","terra_incognita":true,"NAME_1_REGION_RU":"Луганская область"}},{"type":"MultiPolygon","arcs":[[[-107,148,-105,149,150,151,152,153,154,155,156,157,158,159]]],"properties":{"GID_2":"UKR.15.12_1","GID_0":"UKR","COUNTRY":"Ukraine","GID_1":"UKR.15_1","NAME_1":"Luhans'k","NL_NAME_1":"Луганська","NAME_2":"Luhans'ka","VARNAME_2":"Lugansk","NL_NAME_2":"NA","TYPE_2":"Mis'kaRada","ENGTYPE_2":"CityofRegionalSignificance","CC_2":"NA","HASC_2":"UA.LH.LH","terra_incognita":true,"NAME_1_REGION_RU":"Луганская область"}},{"type":"MultiPolygon","arcs":[[[-20,160,161,162,163,164,165,166,167,-153,168,-151,169,-103,170,-101,171,-99,172,-97,173,174,175]]],"properties":{"GID_2":"UKR.15.13_1","GID_0":"UKR","COUNTRY":"Ukraine","GID_1":"UKR.15_1","NAME_1":"Luhans'k","NL_NAME_1":"Луганська","NAME_2":"Lutuhyns'kyi","VARNAME_2":"Lutuginskyi","NL_NAME_2":"NA","TYPE_2":"Raion","ENGTYPE_2":"District","CC_2":"NA","HASC_2":"UA.LH.LT","terra_incognita":true,"NAME_1_REGION_RU":"Луганская область"}},{"type":"MultiPolygon","arcs":[[[176,177]]],"properties":{"GID_2":"UKR.15.14_1","GID_0":"UKR","COUNTRY":"Ukraine","GID_1":"UKR.15_1","NAME_1":"Luhans'k","NL_NAME_1":"Луганська","NAME_2":"Lysychans'ka","VARNAME_2":"Lisychansk","NL_NAME_2":"NA","TYPE_2":"Mis'kaRada","ENGTYPE_2":"CityofRegionalSignificance","CC_2":"NA","HASC_2":"UA.LH.LY","terra_incognita":true,"NAME_1_REGION_RU":"Луганская область"}},{"type":"MultiPolygon","arcs":[[[178,179,180,-67,181,182,-64,183,184,185,186,187,188,189,190,191]]],"properties":{"GID_2":"UKR.15.15_1","GID_0":"UKR","COUNTRY":"Ukraine","GID_1":"UKR.15_1","NAME_1":"Luhans'k","NL_NAME_1":"Луганська","NAME_2":"Markivs'kyi","VARNAME_2":"Markivskyi-Lug","NL_NAME_2":"NA","TYPE_2":"Raion","ENGTYPE_2":"District","CC_2":"NA","HASC_2":"UA.LH.MA","terra_incognita":true,"NAME_1_REGION_RU":"Луганская область"}},{"type":"MultiPolygon","arcs":[[[-69,192,-180,193]]],"properties":{"GID_2":"UKR.15.16_1","GID_0":"UKR","COUNTRY":"Ukraine","GID_1":"UKR.15_1","NAME_1":"Luhans'k","NL_NAME_1":"Луганська","NAME_2":"Milovs'kyi","VARNAME_2":"Milovskyi","NL_NAME_2":"NA","TYPE_2":"Raion","ENGTYPE_2":"District","CC_2":"NA","HASC_2":"UA.LH.MI","terra_incognita":true,"NAME_1_REGION_RU":"Луганская область"}},{"type":"MultiPolygon","arcs":[[[194,195]],[[196,197]]],"properties":{"GID_2":"UKR.15.17_1","GID_0":"UKR","COUNTRY":"Ukraine","GID_1":"UKR.15_1","NAME_1":"Luhans'k","NL_NAME_1":"Луганська","NAME_2":"n.a.(182)","VARNAME_2":"NA","NL_NAME_2":"NA","TYPE_2":"Misto","ENGTYPE_2":"City","CC_2":"NA","HASC_2":"NA","terra_incognita":true,"NAME_1_REGION_RU":"Луганская область"}},{"type":"MultiPolygon","arcs":[[[-59,198,199,200,201,202,203,-138,204,205,206]]],"properties":{"GID_2":"UKR.15.18_1","GID_0":"UKR","COUNTRY":"Ukraine","GID_1":"UKR.15_1","NAME_1":"Luhans'k","NL_NAME_1":"Луганська","NAME_2":"Novoaidars'kyi","VARNAME_2":"Novoaydarskyi","NL_NAME_2":"NA","TYPE_2":"Raion","ENGTYPE_2":"District","CC_2":"NA","HASC_2":"UA.LH.NA","terra_incognita":true,"NAME_1_REGION_RU":"Луганская область"}},{"type":"MultiPolygon","arcs":[[[207,-192,208,209,-189,210,211,212,213,-38,214,-36,-35],[-51,215]]],"properties":{"GID_2":"UKR.15.19_1","GID_0":"UKR","COUNTRY":"Ukraine","GID_1":"UKR.15_1","NAME_1":"Luhans'k","NL_NAME_1":"Луганська","NAME_2":"Novopskovs'kyi","VARNAME_2":"Novopskovskyi","NL_NAME_2":"NA","TYPE_2":"Raion","ENGTYPE_2":"District","CC_2":"NA","HASC_2":"UA.LH.NP","terra_incognita":true,"NAME_1_REGION_RU":"Луганская область"}},{"type":"MultiPolygon","arcs":[[[216,217,218,219,-124,220,-122,221,-120,222,223,-4,224,-2,225,-127,226,227,228,229,230,231,232,-162,233,-18,234]]],"properties":{"GID_2":"UKR.15.20_1","GID_0":"UKR","COUNTRY":"Ukraine","GID_1":"UKR.15_1","NAME_1":"Luhans'k","NL_NAME_1":"Луганська","NAME_2":"Pereval's'kyi","VARNAME_2":"Perevalskyi","NL_NAME_2":"NA","TYPE_2":"Raion","ENGTYPE_2":"District","CC_2":"NA","HASC_2":"UA.LH.PL","terra_incognita":true,"NAME_1_REGION_RU":"Луганская область"}},{"type":"MultiPolygon","arcs":[[[-147,235,-145,236,237,238,239,-177,240,241,-140,242,-203,243,244,-79,245,-77,246,247,248,-74,249,250,251,-217,252],[-195,253],[-197,254]]],"properties":{"GID_2":"UKR.15.21_1","GID_0":"UKR","COUNTRY":"Ukraine","GID_1":"UKR.15_1","NAME_1":"Luhans'k","NL_NAME_1":"Луганська","NAME_2":"Popasnians'kyi","VARNAME_2":"Popasnyanskyi","NL_NAME_2":"NA","TYPE_2":"Raion","ENGTYPE_2":"District","CC_2":"NA","HASC_2":"UA.LH.PO","terra_incognita":true,"NAME_1_REGION_RU":"Луганская область"}},{"type":"MultiPolygon","arcs":[[[255,-23,256,257,258,259]]],"properties":{"GID_2":"UKR.15.22_1","GID_0":"UKR","COUNTRY":"Ukraine","GID_1":"UKR.15_1","NAME_1":"Luhans'k","NL_NAME_1":"Луганська","NAME_2":"Roven'kivs'ka","VARNAME_2":"Rovenki","NL_NAME_2":"NA","TYPE_2":"Mis'kaRada","ENGTYPE_2":"CityofRegionalSignificance","CC_2":"NA","HASC_2":"UA.LH.RO","terra_incognita":true,"NAME_1_REGION_RU":"Луганская область"}},{"type":"MultiPolygon","arcs":[[[-128,260,-144,261,-142,262,-238,263]]],"properties":{"GID_2":"UKR.15.23_1","GID_0":"UKR","COUNTRY":"Ukraine","GID_1":"UKR.15_1","NAME_1":"Luhans'k","NL_NAME_1":"Луганська","NAME_2":"Rubezhans'ka","VARNAME_2":"Rubizhne","NL_NAME_2":"NA","TYPE_2":"Misto","ENGTYPE_2":"City","CC_2":"NA","HASC_2":"UA.LH.RU","terra_incognita":true,"NAME_1_REGION_RU":"Луганская область"}},{"type":"MultiPolygon","arcs":[[[264,-241,-178,-240]]],"properties":{"GID_2":"UKR.15.24_1","GID_0":"UKR","COUNTRY":"Ukraine","GID_1":"UKR.15_1","NAME_1":"Luhans'k","NL_NAME_1":"Луганська","NAME_2":"Sieverodonets'ka","VARNAME_2":"Severodonetsk","NL_NAME_2":"NA","TYPE_2":"Mis'kaRada","ENGTYPE_2":"CityofRegionalSignificance","CC_2":"NA","HASC_2":"UA.LH.SI","terra_incognita":true,"NAME_1_REGION_RU":"Луганская область"}},{"type":"MultiPolygon","arcs":[[[265,266,267,-248,268,-244,-202,269,270,271,272,273,-157,274,-155,275,-167,276,-165,277,-231,278,-229,279,-227,280]]],"properties":{"GID_2":"UKR.15.25_1","GID_0":"UKR","COUNTRY":"Ukraine","GID_1":"UKR.15_1","NAME_1":"Luhans'k","NL_NAME_1":"Луганська","NAME_2":"Slovianoserbs'kyi","VARNAME_2":"Slovyanoserbskyi","NL_NAME_2":"NA","TYPE_2":"Raion","ENGTYPE_2":"District","CC_2":"NA","HASC_2":"UA.LH.SS","terra_incognita":true,"NAME_1_REGION_RU":"Луганская область"}},{"type":"MultiPolygon","arcs":[[[281,-281,-126,282,-219,283,-251]]],"properties":{"GID_2":"UKR.15.26_1","GID_0":"UKR","COUNTRY":"Ukraine","GID_1":"UKR.15_1","NAME_1":"Luhans'k","NL_NAME_1":"Луганська","NAME_2":"Stakhanivs'ka","VARNAME_2":"Stahanov","NL_NAME_2":"NA","TYPE_2":"Mis'kaRada","ENGTYPE_2":"CityofRegionalSignificance","CC_2":"NA","HASC_2":"UA.LH.SK","terra_incognita":true,"NAME_1_REGION_RU":"Луганская область"}},{"type":"MultiPolygon","arcs":[[[284,-109,285,-159,286,-273,287,-271,288,-200,289,-57,290,291,-54]]],"properties":{"GID_2":"UKR.15.27_1","GID_0":"UKR","COUNTRY":"Ukraine","GID_1":"UKR.15_1","NAME_1":"Luhans'k","NL_NAME_1":"Луганська","NAME_2":"Stanychno-Luhans'kyi","VARNAME_2":"StanichnoLugansky","NL_NAME_2":"NA","TYPE_2":"Raion","ENGTYPE_2":"District","CC_2":"NA","HASC_2":"UA.LH.SL","terra_incognita":true,"NAME_1_REGION_RU":"Луганская область"}},{"type":"MultiPolygon","arcs":[[[-43,292,-41,293,-39,-214,294,-212,295,-187,296,-185,297,-62,298,-60,-207,299,-135,300,301]]],"properties":{"GID_2":"UKR.15.28_1","GID_0":"UKR","COUNTRY":"Ukraine","GID_1":"UKR.15_1","NAME_1":"Luhans'k","NL_NAME_1":"Луганська","NAME_2":"Starobil's'kyi","VARNAME_2":"Starobilskyi","NL_NAME_2":"NA","TYPE_2":"Raion","ENGTYPE_2":"District","CC_2":"NA","HASC_2":"UA.LH.SB","terra_incognita":true,"NAME_1_REGION_RU":"Луганская область"}},{"type":"MultiPolygon","arcs":[[[302,303,304,305,306,-46,307,-44,-302,308,-133,309,-131]]],"properties":{"GID_2":"UKR.15.29_1","GID_0":"UKR","COUNTRY":"Ukraine","GID_1":"UKR.15_1","NAME_1":"Luhans'k","NL_NAME_1":"Луганська","NAME_2":"Svativs'kyi","VARNAME_2":"Svatovskyi","NL_NAME_2":"NA","TYPE_2":"Raion","ENGTYPE_2":"District","CC_2":"NA","HASC_2":"UA.LH.SV","terra_incognita":true,"NAME_1_REGION_RU":"Луганская область"}},{"type":"MultiPolygon","arcs":[[[310,311]],[[312,313]],[[314,315,316,317,318,319]]],"properties":{"GID_2":"UKR.15.30_1","GID_0":"UKR","COUNTRY":"Ukraine","GID_1":"UKR.15_1","NAME_1":"Luhans'k","NL_NAME_1":"Луганська","NAME_2":"Sverdlovs'ka","VARNAME_2":"Sverdlovs'ka","NL_NAME_2":"NA","TYPE_2":"Mis'kaRada","ENGTYPE_2":"CityofRegionalSignificance","CC_2":"NA","HASC_2":"UA.LH.SM","terra_incognita":true,"NAME_1_REGION_RU":"Луганская область"}},{"type":"MultiPolygon","arcs":[[[320,-25,321,-260,322,-258,323,-21,-176,324,325,-95,326,-93],[-311,327],[-313,328],[-319,329,-317,330,-315,331]]],"properties":{"GID_2":"UKR.15.31_1","GID_0":"UKR","COUNTRY":"Ukraine","GID_1":"UKR.15_1","NAME_1":"Luhans'k","NL_NAME_1":"Луганська","NAME_2":"Sverdlovs'kyi","VARNAME_2":"Sverdlovskyi-Lug","NL_NAME_2":"NA","TYPE_2":"Raion","ENGTYPE_2":"District","CC_2":"NA","HASC_2":"UA.LH.SR","terra_incognita":true,"NAME_1_REGION_RU":"Луганская область"}},{"type":"MultiPolygon","arcs":[[[-49,332,333,-304,334]]],"properties":{"GID_2":"UKR.15.32_1","GID_0":"UKR","COUNTRY":"Ukraine","GID_1":"UKR.15_1","NAME_1":"Luhans'k","NL_NAME_1":"Луганська","NAME_2":"Tro‹ts'kyi","VARNAME_2":"Troitskyi-Lug","NL_NAME_2":"NA","TYPE_2":"Raion","ENGTYPE_2":"District","CC_2":"NA","HASC_2":"UA.LH.TR","terra_incognita":true,"NAME_1_REGION_RU":"Луганская область"}}]}},"arcs":[[[370403,310122],[19170,1457]],[[389573,311579],[6855,-5649],[14769,-3486],[-2751,-20783],[-22936,-1280],[-338,-2604],[-18493,3707]],[[366679,281484],[677,5207],[4105,2383],[1015,7810]],[[372476,296884],[-6516,8252],[4443,4986]],[[539164,133174],[-4528,-4986],[-7067,2912],[-762,-5162],[-8251,-4854],[-762,-5163]],[[517794,115921],[18196,-3442],[-8209,-4810],[-26406,-1456]],[[501375,106213],[-17816,6178],[-2920,5383],[5205,10193]],[[485844,127967],[-10791,3222],[15235,1809],[4104,2383],[720,5207],[14896,-795],[-2963,5384],[-14895,794],[719,5207],[4105,2383]],[[496974,153561],[32669,-14253],[9521,-6134]],[[561719,158194],[10791,-3089],[7871,2251],[2920,-5340],[-8675,-7413]],[[574626,144603],[-14896,662],[-7067,2957]],[[552663,148222],[381,2559],[8675,7413]],[[546739,158900],[-762,-5163],[-4147,-2427],[-10875,3089],[-8210,-4810],[-14557,3354],[8209,4810],[720,5207]],[[517117,162960],[17985,-6134],[7490,-353],[381,2604],[3766,-177]],[[402903,124834],[7109,-3044],[14557,-3442]],[[424569,118348],[9352,-13635],[3724,-221],[4062,2383],[1439,10414],[17393,17342],[3724,-221],[1100,7810],[-3386,2824],[4105,2383],[-20270,16857],[-7490,441],[-2116,-15621],[-19000,-1500],[677,5163],[7829,2206],[677,5207],[-7787,-2206],[-7151,3044],[-4444,-4986],[-7109,3001],[-19043,-1501],[-24459,-14341]],[[356396,143191],[-10918,3221],[-7786,-2206],[-31823,14915],[4020,2383],[1354,10414],[-7067,3044],[-3004,5428]],[[301172,180390],[15403,4368],[20270,11959],[7490,-441],[39525,13458],[11299,-662],[-5163,18666],[4105,2383],[1354,10369],[7532,-397],[677,5163],[4105,2383],[11299,-662]],[[419068,246977],[4443,4986],[19508,4104]],[[443019,256067],[3089,-5383],[-1396,-10414],[15065,-883],[1058,7811],[14684,-3442],[3089,-5428],[15023,-838],[3554,-28991],[14642,-3398],[26660,1147],[9014,-16106],[10156,-8296],[21751,-6222],[26237,-1279],[16630,9575],[15023,-750],[-9183,-9973],[9521,-10943],[3724,-177]],[[641360,162077],[-7278,-20474],[11595,1941],[6940,-3089]],[[652617,140455],[3597,-21136]],[[656214,119319],[-4190,-2339],[-9183,11032],[-17984,3662],[-14261,-17474],[-3216,2780],[-4148,-2383],[-21624,3663],[-4147,-2427],[2412,-7899],[-8252,-4854],[3259,-2736],[15065,1898],[31907,-6928],[4147,2382],[2455,12885],[4147,2383],[6855,-3044]],[[639456,109920],[-6136,-12665]],[[633320,97255],[7406,-441],[-1016,-5119],[-30765,-6089],[-2285,-31154],[27760,-9134],[-3427,-17915],[-4148,-2427]],[[626845,24976],[2497,-89],[-13753,-5824],[-32288,1765],[-9479,-6928],[-25475,971],[-10114,-6046],[-6728,-44],[-3301,4060],[-17943,6045],[-1608,3574],[85,15710],[6982,17959],[-13668,5781],[2497,15532],[-2920,5340],[-92421,5030],[677,5207],[-3682,177],[-3047,5427],[720,5207],[3681,-221],[-3004,5428],[4062,2383],[-7786,-2206],[-7109,3044],[8125,4766],[338,2603],[-3724,221],[677,5207],[4105,2383],[-338,-2604]],[[485844,127967],[-5585,-12796],[21116,-8958]],[[501375,106213],[34234,3707],[-2919,5339],[-14896,662]],[[539164,133174],[-13838,8473],[-28352,11914]],[[552663,148222],[21963,-3619]],[[561719,158194],[-8252,-4810],[-804,-5162]],[[546739,158900],[-7913,-2250],[-21709,6310]],[[437137,211896],[7152,-3000],[4443,4986],[11299,-662],[677,5207],[-44391,7766],[-4105,-2382],[7152,-3001],[-677,-5207],[-20143,-9311]],[[398544,206292],[22174,-3927],[7871,2206],[8548,7325]],[[455291,884255],[-19846,-1059],[-26237,-13768],[6474,-8252],[-16122,-1500],[7871,-529],[-889,-5163],[-8294,-2030],[-6052,-12620],[19085,-3883],[4782,4854],[11680,-839],[888,5163],[15531,-1103],[9944,-11164],[4317,2294],[3004,-5471],[7364,-3133],[2581,-7987],[-4697,-4854],[-7744,573],[3046,-5427]],[[461977,808357],[-9817,-12312],[-1651,-10325],[4952,-18578]],[[455461,767142],[-8548,-30623],[-18112,-16989]],[[428801,719530],[-1143,-7722],[4232,2294],[-720,-5163],[7702,-529],[-719,-5163]],[[438153,703247],[-29961,-18798],[-7702,530],[-24417,-8782]],[[376073,676197],[-14980,3663],[-10071,11120]],[[351022,690980],[1354,10370],[-6644,8251],[719,5207]],[[346451,714808],[-14641,6222],[-3851,265]],[[327959,721295],[-8972,-9840],[-7320,3133],[-4486,-4898]],[[307181,709690],[-18747,3883],[12442,6972]],[[300876,720545],[-2497,10590],[-32373,17916]],[[266006,749051],[-11764,-1810],[5755,15268],[31569,5560],[338,2604],[-7320,3088],[973,7723],[-6348,10855],[-12145,-4325],[-7363,3089],[-12399,-6884],[3512,-2868],[-8294,-4589],[2878,-8031],[-11130,3398],[974,7766],[-7025,5692]],[[228217,785587],[-12018,-4324]],[[216199,781263],[-6390,10899]],[[209809,792162],[635,5119],[7913,2030],[11129,-3442],[12061,4324],[635,5163],[-7025,5693],[4443,4853],[19805,3751],[5120,9973],[22851,-4192],[635,5119],[8464,4589],[719,5118],[-3893,265],[4232,2295],[-11003,5869],[720,5118],[21200,8914],[-2750,7899],[4782,4809],[-3174,5340],[13584,9399],[15446,-3486],[-847,-5075],[3513,-2780],[12314,1809],[2200,12665],[9691,9575],[-7067,5472],[846,4942],[-15445,3442],[-6644,7810],[32584,8384]],[[367483,932926],[11045,-11340],[15234,-4369],[3301,-4015],[16504,-1059],[6728,-6266],[34658,-3177],[-4359,-2516],[3343,-2824],[-1989,-10237],[3343,-2868]],[[470145,810342],[-423,-2559],[-7745,574]],[[461977,808357],[3724,882],[4444,1103]],[[922051,600608],[-4147,-2559],[-678,-5119],[-12145,-4324],[-13541,-14606],[-9352,-12356],[3554,-2824],[-931,-7678],[-4231,-2338],[-23148,4103],[-27845,-970],[-13160,-9576],[-12230,-1941],[-27210,6310],[-8675,-4722],[3555,-2736],[-4401,-4810],[3554,-2735],[-550,-5031],[-4020,-2250],[3216,-5296]],[[769666,519150],[-3978,-2250],[-20947,9311],[-19804,-11297]],[[724937,514914],[-17477,8958]],[[707460,523872],[-1397,18092],[-3385,2824],[1354,10237],[-6390,8164]],[[697642,563189],[-11425,-1721],[-5713,13326],[-7744,-2030],[2666,-7942],[-7787,-2030],[2370,-10502],[-11553,-1810]],[[658456,550480],[-43290,15886]],[[615166,566366],[338,2559],[-15826,-4148],[-14430,6134],[8632,7237]],[[593880,578148],[720,5163],[12102,4368],[1058,7722],[-20143,19549],[-4189,-2339],[-9902,11076],[719,5118],[7998,2074],[1820,12841],[-3428,2824],[17012,11782],[3808,-265],[13203,-13900],[7913,2030]],[[622571,646191],[-13245,13900],[16885,11694]],[[626211,671785],[761,5118],[-7151,3089],[-3005,5428]],[[616816,685420],[33304,-5119]],[[650120,680301],[19677,6266],[33854,0],[1143,7678],[21328,-9266]],[[726122,684979],[37704,-2472]],[[763826,682507],[23698,3707],[19212,-1191],[9395,9708]],[[816131,694731],[-3047,5427],[4274,2295]],[[817358,702453],[2623,-7987],[6898,-5648]],[[826879,688818],[-423,-2560],[-7702,530],[3005,-5384],[-1227,-7678],[13795,-11296],[-4232,-2295],[3047,-5383],[-8294,-27888],[7321,-3045],[15869,1633],[14303,-8561],[15827,1633],[14303,-8561],[23317,1103],[8632,7105],[13669,-11297],[-11595,-1676],[-4443,-4590]],[[424569,118348],[-21666,6486]],[[402903,124834],[550,4104],[-3259,3883],[-43798,10370]],[[437137,211896],[-12653,-9708],[-14684,3442],[-7828,-2162],[-3428,2824]],[[341543,351160],[-29876,1809],[-3386,2824]],[[308281,355793],[1651,13018],[4697,7590],[7744,2162],[677,5207],[13965,-8737],[-677,-5207]],[[336338,369826],[11256,-662]],[[347594,369164],[-3682,-4192],[-2369,-13812]],[[330836,385888],[677,5207]],[[331513,391095],[-3766,265],[-3089,5427]],[[324658,396787],[11553,1898],[10960,-3266]],[[347171,395419],[3512,-5780],[-19847,-3751]],[[780584,229415],[6728,-8870],[16589,353],[3639,-3177],[-1354,-7810],[11722,-4281]],[[817908,205630],[-973,-5118],[-4063,573],[-931,-5118]],[[811941,195967],[-20608,44],[-3090,5736],[-11129,6707],[-508,21446],[-3554,3133],[13668,8958],[4020,-530],[3174,-5780],[8125,-1148],[-4951,-4633]],[[797088,229900],[-16504,-485]],[[824382,217853],[-1438,-7722],[-4063,618],[-6347,11561],[-4105,618],[888,5207],[8633,1368]],[[817950,229503],[3259,-5869],[3173,-5781]],[[734924,218427],[-889,-5251],[-8083,-1897],[-18958,1632],[-14345,6266],[16038,4192],[846,5207],[15192,-1191],[-423,-2648]],[[724302,224737],[10622,-6310]],[[765985,239211],[-424,-2604],[-3935,442]],[[761626,237049],[-846,-5252]],[[760780,231797],[-4359,-2206],[-10791,6487]],[[745630,236078],[9014,7104],[5205,-1588],[6136,-2383]],[[870170,153693],[550,3354],[-3343,-265],[-8041,-7987],[-6389,1986],[-2032,20563],[-3004,2383],[-27803,220],[-2920,-15356],[-16334,-706],[-931,-5163],[-7998,971],[-889,-5163],[-19846,2339],[-4867,-4766],[3936,-441]],[[770259,145662],[-8379,-1677],[465,2604],[-3935,397]],[[758410,146986],[4866,4766],[-3047,5604],[-7871,882],[-13795,12047],[-19762,-750],[-7152,3265],[-5797,11076],[-11764,-1677]],[[694088,182199],[-17901,6531]],[[676187,188730],[4655,4942],[-6728,5648],[-11299,662],[-3385,2824],[846,5163],[-12145,-4545],[-15107,794],[17519,14694],[11341,-573],[-804,-5207]],[[661080,213132],[3809,-177],[4570,4943]],[[669459,217898],[2031,12973],[8421,4721],[-21201,11606],[381,2559]],[[659091,249757],[19001,-971],[4612,4942],[-5670,13371]],[[677034,267099],[-8379,-4810],[-3047,5383],[-7956,-2206],[-3046,5339]],[[654606,270805],[-8337,-4765]],[[646269,266040],[-11383,573],[1904,12930],[-2666,7942]],[[634124,287485],[15573,1810]],[[649697,289295],[-3428,2780],[1524,10325],[4189,2383],[-2666,7943]],[[649316,312726],[4147,2383],[7617,-397]],[[661080,314712],[-762,-5119],[3809,-221],[12907,9796]],[[677034,319168],[35081,3575],[11171,-3045],[19636,1853]],[[742922,321551],[-2751,7987],[1439,10370]],[[741610,339908],[4232,2471],[23740,1942],[6686,-4016],[16546,-1456],[23655,2427],[28099,-9840],[8336,-22505],[-296,-5957],[-8675,-2868],[1396,-12223],[18620,-10414],[-635,-5251],[9903,-14915],[-2328,-5869],[4613,-3177],[7447,1985],[2201,-7369],[-3385,-4412],[-38763,-13238],[1650,-3531],[32627,-10502],[24967,7590],[5078,-14606],[6983,-6972],[677,-11782],[-4825,-5692],[-24459,309],[-3004,-20740],[-12526,-5604]],[[734924,218427],[-3428,3001],[-7194,3309]],[[824382,217853],[-3216,5825],[-3216,5825]],[[811941,195967],[5967,9663]],[[780584,229415],[8040,1632],[8464,-1147]],[[745630,236078],[6898,-6090],[8252,1809]],[[761626,237049],[4359,2162]],[[765985,239211],[-7491,3530],[-12864,-6663]],[[374169,309902],[-11299,662]],[[362870,310564],[-8209,-4766],[-339,-2604]],[[354322,303194],[7533,-441],[3089,-5427]],[[364944,297326],[-4105,-2383],[-10960,3265]],[[349879,298208],[-12230,-7104],[2412,-10635],[-8124,-4810],[973,7811],[-3724,220],[-20524,-14517],[-7109,3045]],[[301553,272218],[12780,12355]],[[314333,284573],[-2413,10635],[-10156,8472]],[[301764,303680],[4401,4986]],[[306165,308666],[18874,1500],[27845,11473]],[[352884,321639],[18196,-6310],[3089,-5427]],[[223224,523607],[-931,-7854]],[[222293,515753],[-14134,8693],[-3132,5427]],[[205027,529873],[2158,-132],[16039,-6134]],[[45576,662077],[11383,-530],[10749,-5824],[26575,-1368],[15488,1853],[-2835,8031],[15784,4457],[7279,-3045],[19296,1589],[3470,-2824]],[[152765,664416],[50146,4986]],[[202911,669402],[16081,-24623],[15403,1721],[12865,12311],[15065,-970]],[[262325,657841],[-1566,-13018]],[[260759,644823],[7532,-485],[-634,-5207],[-4063,-2339],[17520,-11649],[-4401,-4942],[3131,-5472],[3766,-221],[635,5163],[11341,-750],[-677,-5163],[31018,3133],[-1311,-10370],[11044,-3353],[339,2603],[7617,-529],[-338,-2604],[7278,-3089],[5247,-18665],[-4485,-4942],[-1016,-7767],[7617,-529],[339,2603],[3470,-2824],[-1016,-7810],[-7617,485]],[[353095,560100],[-2327,-18136]],[[350768,541964],[-34785,-3001]],[[315983,538963],[-8802,-9928],[-16292,-9487]],[[290889,519548],[-18112,6398]],[[272777,525946],[-11595,-1942]],[[261182,524004],[3428,-2824],[-12230,-7148],[-11256,618]],[[241124,514650],[-3470,2868],[5035,10193],[-6855,5692],[-2835,8031],[-7194,3045],[-4105,-2383]],[[221700,542096],[-21666,9090],[-4105,-2382]],[[195929,548804],[-635,-5207],[3766,-221],[-634,-5251],[6601,-8252]],[[205027,529873],[-7532,442],[-14134,8648]],[[183361,538963],[-19509,-4192]],[[163852,534771],[-973,-7854],[3470,-2780],[2201,-13282],[-8168,-4854],[-7532,441],[-635,-5251]],[[152215,501191],[-6686,-3927],[-69696,44],[-14473,6045],[8760,10061],[3470,-2824],[7828,2206],[-3131,5428],[19466,4280],[635,5207],[-12653,21710],[1523,13106],[4105,2383],[1227,10502],[4063,2427],[1565,13061],[-14853,3398],[-1227,-10458],[-48877,5119],[-10748,5780],[4105,2472],[-2878,8031],[8167,4854],[7575,-398],[-10156,11032],[-11383,574],[-9522,16283],[7279,-3001],[11975,4677],[-6686,8252],[30934,3707],[-6347,10855]],[[661080,314712],[-11764,-1986]],[[649697,289295],[-23148,-1457]],[[626549,287838],[-10241,8340],[-11806,-2029],[-3428,2779],[1862,12930],[-11045,3177],[-12102,-4589],[-3428,2780]],[[576361,311226],[4528,4986],[1100,7766]],[[581989,323978],[-3428,2780],[9056,9929]],[[587617,336687],[-7617,397]],[[580000,337084],[381,2603],[11764,1942],[-14853,3442],[-10283,8384]],[[567009,353455],[8336,4765],[25518,-9222]],[[600863,348998],[15615,1765],[2877,20651],[7237,-3000],[4189,2383],[-14176,8560],[381,2604],[20058,6707]],[[637044,388668],[24459,-16901]],[[661503,371767],[11426,-573],[-719,-5163],[7617,-353],[-720,-5163],[7617,-353],[-4866,-7546],[-17054,-12134],[4613,-20961]],[[669417,319521],[7617,-353]],[[443019,256067],[11299,-662]],[[454318,255405],[1439,10414],[7871,2162],[-8167,24005],[-4147,-2383],[-3428,2825],[5543,12752]],[[453429,305180],[8252,4766],[-2750,7987]],[[458931,317933],[29918,-4369]],[[488849,313564],[12441,7149],[35166,5780],[719,5207],[18958,-1103],[4528,4986],[-11764,-1941],[1820,12929]],[[550717,346571],[3808,-221],[18239,-6266]],[[572764,340084],[3089,-5383]],[[575853,334701],[11764,1986]],[[581989,323978],[-5628,-12752]],[[626549,287838],[7575,-353]],[[646269,266040],[4570,4986],[3767,-221]],[[677034,267099],[3427,-2780],[1820,-13150],[-23190,-1412]],[[669459,217898],[-8379,-4766]],[[676187,188730],[14600,-3619],[6601,-5824]],[[697388,179287],[-23867,-6134]],[[673521,173153],[-10791,3310],[-4189,-2339],[-889,-5163],[2413,-8031],[-18705,1147]],[[249503,490512],[10325,-8472],[9352,-16327],[-7829,-2162],[-634,-5207],[-7194,3045],[-11891,-4590],[5035,10238],[-19127,-1545],[-3428,2825],[4401,5030],[-17561,11473],[-3132,5472],[-10960,3221],[8760,10017],[-10664,5868],[634,5207],[11638,1986],[-3470,2824],[4104,2427],[6898,-5648],[2793,-8075],[11299,-618],[10029,-11120]],[[238881,496381],[10622,-5869]],[[713765,852263],[3428,-2692],[26829,-1147],[-8590,-4633],[-424,-2604],[3851,-132],[-1269,-7899],[10240,-8472],[5121,-16151],[3851,-220],[6009,-10900],[18365,-6486],[8168,1941],[31738,-20695],[27421,485]],[[848503,772658],[1270,-15665],[3427,-2824],[-1692,-10237],[-24840,-8472],[6009,-10812],[-804,-5118]],[[831873,719530],[-17520,-11694],[3005,-5383]],[[816131,694731],[-4275,-2295],[-846,-5119],[-47184,-4810]],[[763826,682507],[-18831,1192],[-18873,1280]],[[650120,680301],[-25814,4545]],[[624306,684846],[762,5119],[8210,4545],[1142,7634]],[[634420,702144],[-3766,309],[381,2515],[-15361,-1412]],[[615674,703556],[-9014,-9620],[-25686,7061],[-4571,-4854],[-11383,838],[762,5119],[-18662,3971]],[[547120,706071],[8802,7149]],[[555922,713220],[22386,-4237],[21581,16460],[7152,-3133],[4105,2250],[1142,7634],[7152,-3133],[5205,9929],[7109,-3133],[762,5074],[8929,9576],[2666,17783],[4528,4765],[-6348,8164],[4147,2206],[21709,-6663]],[[668147,776762],[19170,27138],[381,2559]],[[687698,806459],[-7110,2913],[-7447,397]],[[673141,809769],[-762,-5075],[-3766,221],[380,2559],[-10494,5737],[761,5074],[-14260,6002],[9309,12178],[1058,7590],[14261,-5824],[15827,4500],[14007,-8339],[14303,17871]],[[826879,688818],[-12949,16459],[5120,7413],[12823,6840]],[[848503,772658],[22725,-4368],[12906,6707],[5629,9884],[44052,4237],[19508,-1501],[10495,6619],[18746,-2471],[-10833,133],[4824,-7987],[19255,-14827],[4189,-24534],[-22894,-21578],[-1396,-9841],[931,-16018],[11172,-37022],[-2836,-8913],[9606,-17784],[-2115,-5295],[-26660,-3000],[-25645,-21314],[-18111,-3177]],[[270238,413158],[5586,-16106],[-973,-7810],[25517,-6752],[-5036,-10193],[-10875,3265],[634,5207],[-7786,-2162],[-3089,5428],[-11553,-1986],[-16800,16724],[8125,4810],[6644,23254],[11553,1942]],[[272185,428779],[3427,-2824],[-634,-5207],[-4105,-2383],[-635,-5207]],[[315771,415673],[-11214,706],[-6813,5649],[-21836,6530],[-3089,5428],[19043,1500],[14007,-8693],[11849,4501],[6813,-5648],[7490,-485],[3089,-5428],[-4401,-4986],[-6517,8296]],[[324192,423043],[-8421,-7370]],[[615166,566366],[7194,-3089],[7532,-485],[17689,-8958]],[[647581,553834],[-4063,-2339],[2709,-7942],[6771,-5605],[-15700,-4147],[-677,-5119],[-4105,-2339],[3428,-2824],[-12696,-9531],[-6220,-17783],[-7913,-2118],[-720,-5163],[3470,-2780],[-22428,3971],[-25560,-19239],[-27294,-3530],[10367,-8473],[6179,-10811],[-12441,-7060],[3089,-5383],[3808,-221],[-677,-5163],[-11764,-1897],[-339,-2604],[-11087,3266],[-4485,-4943]],[[519233,424057],[-23190,-1191]],[[496043,422866],[-6559,8252],[-2412,10590],[2073,15533],[-26660,1632],[-677,-5162],[-4147,-2339],[-23486,-3751],[-719,-5207],[-18959,1192],[-677,-5207],[-8632,-7281],[-26195,4236],[-1650,-12973],[-4147,-2383],[-26787,-971]],[[346409,419027],[-7194,3089],[-6559,8252],[16758,12090],[-11341,706],[8209,4722],[-7194,3089],[4740,7545],[-10960,3310],[338,2603],[19551,4016],[338,2603],[-11383,706],[8590,7325],[-18916,1192],[-13414,13988],[8844,9929],[677,5206],[-30045,1898],[635,5207]],[[298083,516503],[-7194,3045]],[[315983,538963],[7913,2118],[26872,883]],[[350768,541964],[677,5163]],[[351445,547127],[15192,-971],[8252,4677],[30468,-2029],[-3470,2868],[2031,15532],[11807,1854],[20820,11649],[75705,-10193],[30850,574],[9394,12399],[7236,-3089],[-338,-2559],[34488,309]],[[455291,884255],[2920,-5428],[14938,-3883],[25010,12532],[18365,-4589],[19974,7413],[1143,9355],[19973,9487],[6136,-265],[4486,-7589],[10706,-5472],[5163,-19725],[10283,-8163],[-677,-4854],[17731,-8781],[33007,-7105],[31992,11429],[37324,-6354]],[[673141,809769],[14557,-3310]],[[687698,806459],[-15404,-27446],[-4147,-2251]],[[555922,713220],[-18366,-19460],[-762,-5163]],[[536794,688597],[14515,-6222],[-762,-5119]],[[550547,677256],[-7998,-2074],[-28691,15048],[-29537,9840]],[[484321,700070],[-6940,5692],[-39228,-2515]],[[428801,719530],[4231,2294],[762,5163],[8125,2074],[11172,22637],[2370,15444]],[[470145,810342],[-8168,-1985]],[[231814,283999],[11510,1986],[1270,10458],[3724,-221],[3089,-5427],[7490,-397],[28014,14120]],[[286911,304518],[3047,-5383]],[[289958,299135],[7448,-441]],[[297406,298694],[4358,4986]],[[314333,284573],[-12442,-9752],[-338,-2603]],[[349879,298208],[3766,-220],[-338,-2604],[11637,1942]],[[354322,303194],[8548,7370]],[[362870,310564],[7533,-442]],[[372476,296884],[-5797,-15400]],[[389573,311579],[-15404,-1677]],[[352884,321639],[16757,12091]],[[369641,333730],[51162,-16150]],[[420803,317580],[-339,-2604],[11680,1942],[2370,-10635]],[[434514,306283],[15488,1721]],[[450002,308004],[1015,7811],[-11341,662]],[[439676,316477],[19255,1456]],[[458931,317933],[3089,-5384],[-4824,-7589],[-3767,220]],[[454318,255405],[-22936,-1279],[-12314,-7149]],[[301172,180390],[973,7810],[-3047,5428],[-13795,8649],[-4359,-5031],[-25940,1456],[338,2604],[-4358,-4986],[-18239,3618],[635,5207],[-3386,2824],[4994,10237],[3724,-220],[-3090,5427],[27634,11606],[-3047,5427],[-14557,3442],[-6813,5604],[-1820,15842],[-6475,8251],[1270,10414]],[[163852,534771],[7871,2207],[11638,1985]],[[205027,529873],[16927,-16724],[7236,-3044],[7533,-442]],[[236723,509663],[634,5207]],[[237357,514870],[11257,-618]],[[248614,514252],[-931,-7854],[-7533,441],[3132,-5427],[-4401,-5031]],[[249503,490512],[15361,1721],[6559,-8251],[15319,1720],[10283,-8516],[7490,-441],[635,5207],[-6856,5648],[974,7810],[-7194,3089],[-11553,-1941],[-6855,5692],[7828,2162],[-3131,5428],[-3766,220],[973,7811]],[[275570,517871],[-14388,6133]],[[272777,525946],[25306,-9443]],[[346409,419027],[-677,-5163],[6898,-5692],[-2370,-18224]],[[350260,389948],[-3089,5471]],[[324658,396787],[-296,-2603],[7151,-3089]],[[330836,385888],[20313,3354],[5670,-7546]],[[356819,381696],[3766,-221],[-5459,-12797],[-4104,-2338]],[[351022,366340],[-14684,3486]],[[308281,355793],[10833,-3265]],[[319114,352528],[-11806,-4545],[-10833,3265],[-12188,-7192],[13288,-13900],[10833,-3265],[-296,-2604],[-11172,662],[-9056,-12576],[-3724,220],[-677,-5251]],[[283483,307342],[3428,-2824]],[[231814,283999],[-973,-7810],[-7787,-2206],[-635,-5207],[-7447,397],[-6856,5648],[-15234,-1809],[-10579,5825],[4655,7633],[-11214,574],[1269,10458],[7786,2206],[635,5207],[-7194,3045],[-9987,11032],[4401,5030],[-8759,21446],[1565,13061],[-10960,3222],[931,7810],[7533,-397],[592,5251],[11595,1986],[635,5207],[11595,2029],[296,2604],[-3766,221],[1566,13017],[7532,-397],[296,2603],[-6855,5648],[-7829,-2206],[-3470,2824],[635,5207],[-7194,3001],[-3132,5427],[8125,4854],[-3131,5428],[8802,10017],[11595,1985],[-22259,3839],[-3174,5428],[-15065,838],[3132,26123],[-3132,5428],[1227,10458],[-3470,2780],[4105,2427]],[[270238,413158],[5036,10193],[-3089,5428]],[[315771,415673],[5375,5560],[3046,1810]],[[638483,104757],[973,5163]],[[656214,119319],[1777,-10591]],[[657991,108728],[7448,-485],[2750,-5428],[11765,1765]],[[679954,104580],[3300,-2868],[-9013,-7149],[-20186,-6398],[-3723,265]],[[650332,88430],[7151,17739],[-10621,3309],[-974,-5163],[-4189,-2338],[-3216,2780]],[[223224,523607],[-18197,6266]],[[195929,548804],[7871,2206],[17900,-8914]],[[241124,514650],[-3767,220]],[[236723,509663],[-18197,6310],[3767,-220]],[[248614,514252],[12272,7149],[14684,-3530]],[[337776,351381],[3767,-221]],[[341543,351160],[1650,13018],[4401,4986]],[[347594,369164],[3428,-2824]],[[356819,381696],[-6559,8252]],[[496043,422866],[7617,-441]],[[503660,422425],[3089,-5428],[-4147,-2339],[2751,-8031],[6897,-5604],[7617,-485],[3090,-5384],[15234,-926],[-720,-5163]],[[537471,389065],[11045,-3265],[-381,-2560],[3809,-220]],[[551944,383020],[9394,12488],[3090,-5428],[3808,-221],[4486,4987],[11764,1897],[5924,15268],[11722,1941],[720,5163],[12441,7105],[7236,-3001],[-338,-2603],[7955,2162],[-1058,-7722],[6940,-5604],[-1058,-7723],[3809,-220],[-5205,-10061]],[[633574,391448],[3470,-2780]],[[600863,348998],[-29326,9399],[-4528,-4942]],[[580000,337084],[3809,-177],[-7956,-2206]],[[572764,340084],[-22047,6487]],[[488849,313564],[-22682,1324],[338,2604],[-26829,-1015]],[[450002,308004],[-4147,-2383],[-11341,662]],[[420803,317580],[-25433,9355],[-11299,706],[-6897,5648],[-7533,441]],[[352884,321639],[-3090,5428],[-7194,3045],[5121,10193],[-11257,662],[1312,10414]],[[319114,352528],[18662,-1147]],[[306165,308666],[-8759,-9972]],[[289958,299135],[-6475,8207]],[[769666,519150],[12568,4501],[7660,-2868],[-296,-2559],[11933,-618],[-296,-2515],[3978,-265],[-593,-5075],[11257,-5780],[3343,-5384],[-8464,-4545],[3343,-5383],[15192,-6178],[-4232,-2294],[3936,-265],[6982,-8252],[4232,2251],[889,7678],[3935,-265],[3386,-5428],[7871,-573],[16630,6575],[11341,-6002],[3428,-5427],[19762,-3928],[9395,14827],[16334,1500],[8210,-441],[-254,-5030],[7744,-10458],[-8887,-9752],[-35800,-24094],[-12145,751],[-34954,12929],[-19805,1500],[-15192,6354],[-888,-7634],[-3936,309],[-2073,-17871],[-8168,-1898],[3343,-5427],[-15996,-1147],[3344,-5428],[-4528,-4722],[-889,-7589],[-7829,750],[-846,-7546],[7532,-3309],[-4231,-2163],[3343,-5471],[-8125,-1677],[2454,-13062],[-8082,-1588],[-593,-5031],[-12822,-9134],[10452,-11296],[-11806,1015],[-20143,-4810]],[[742922,321551],[-73505,-2030]],[[661503,371767],[-27929,19681]],[[551944,383020],[-11045,3221],[381,2603],[-3809,221]],[[503660,422425],[15573,1632]],[[647581,553834],[10875,-3354]],[[697642,563189],[3343,-2824],[6475,-36493]],[[707460,523872],[6728,-5604],[10749,-3354]],[[327959,721295],[18492,-6487]],[[351022,690980],[3131,-5428],[14261,-8825],[7659,-530]],[[484321,700070],[7659,-530],[54378,-24622],[4189,2338]],[[536794,688597],[10326,17474]],[[615674,703556],[11637,1721],[7109,-3133]],[[624306,684846],[-7490,574]],[[626211,671785],[-16504,-9135],[2666,-7942],[10198,-8517]],[[351445,547127],[1650,12973]],[[260759,644823],[931,7811]],[[261690,652634],[26787,838],[11045,-3398],[-2455,10635],[8252,4677],[677,5163],[-2835,8031],[19762,3883],[1989,15533],[-18747,3927],[1016,7767]],[[45576,662077],[-29749,6751],[592,5207],[4105,2471],[-3216,5428],[4105,2427],[-3174,5427],[931,7855],[4104,2427],[-3512,2824],[4401,5075],[-7278,2956],[4697,7678],[-7279,3001],[296,2603],[4105,2471],[-18704,3486],[6221,20828],[-3513,2780],[8548,7546],[11426,-530],[8210,4898],[-10791,5781],[592,5251],[19381,1765],[8210,4898],[-3809,177],[-1946,15973],[15530,1898],[1270,10546],[-3513,2824],[27295,3883],[593,5252],[-7914,-2207],[931,7899],[-10537,8516],[12357,7281],[14599,-6089]],[[93140,839334],[889,7854],[7575,-441],[6728,-8340],[10749,-5957],[53743,4060],[-17054,-16945],[3512,-2868],[-592,-5207],[21497,-11959],[-2666,-23387]],[[177521,776144],[19170,1324],[19804,6398]],[[216495,783866],[-296,-2603]],[[216199,781263],[3808,-265],[8210,4589]],[[266006,749051],[28903,-15048],[5967,-13458]],[[261690,652634],[635,5207]],[[202911,669402],[-3766,265],[-46380,-5251]],[[676526,86577],[4274,2294],[19085,-1588],[-12949,-6708],[7152,-3221],[-466,-2559],[-11468,971],[-508,-2560]],[[681646,73206],[-7109,3177],[1016,5075],[973,5119]],[[826752,100697],[-18535,3398],[5671,12444],[22259,-3398],[2750,-5031]],[[838897,108110],[-13880,-3177],[1735,-4236]],[[734204,123246],[931,5163],[-3470,3000],[-15953,-1103],[931,5163],[8209,1853],[931,5207],[27337,-2868],[3470,-3001],[12272,1236],[2624,-8208],[-8379,-1676],[-11383,3883],[-8760,-4325],[11764,-1279],[-465,-2560]],[[754263,123731],[15361,-4412]],[[769624,119319],[465,2603],[16335,706],[5967,-9355],[-4528,-4854],[-20482,-2074],[1820,-11693],[-11595,2250],[-9776,-9399],[-3977,441],[3681,20696],[-3470,3001],[-15192,4236],[-8717,-4369],[2962,-5516],[-5332,-7369]],[[717785,98623],[-11129,3707]],[[706656,102330],[-2878,5471],[4317,2251],[1396,7722]],[[709491,117774],[6348,2030],[18365,3442]],[[870170,153693],[-2836,-16591],[-15996,-16018],[1651,-9664],[-10579,-3221],[5966,-4545],[13373,1103],[-847,-4987],[-38678,-3971],[5755,-10237],[13203,-4590],[2455,-4721],[-2158,-12444],[-11341,-8251],[1311,-12224],[-3427,-264],[2412,-15092],[-16123,-6001],[-1481,-9531],[-7829,-2295],[-846,-5030],[3808,-177],[-254,-2603],[-3977,-2339],[-22005,6310],[-19763,-441],[-10537,3265],[-42486,-4942],[-28395,14385],[-12272,-6222],[-11426,-926],[-11468,13326],[-18535,221]],[[633320,97255],[5163,7502]],[[650332,88430],[32457,10679],[-2835,5471]],[[657991,108728],[-5374,31727]],[[673521,173153],[20101,6443],[-423,-2604],[4189,2295]],[[697388,179287],[-3300,2912]],[[758410,146986],[7448,-3442],[4401,2118]],[[676526,86577],[-1524,-7767],[6644,-5604]],[[826752,100697],[-2750,5031],[14895,2382]],[[706656,102330],[7236,-3310],[3893,-397]],[[769624,119319],[-7913,926],[-7448,3486]],[[734204,123246],[-24713,-5472]],[[209809,792162],[6686,-8296]],[[216495,783866],[-31442,-8251],[-7532,529]],[[93140,839334],[-10791,5913],[-4104,-2471],[-14938,3441],[-11722,-2118],[592,5296],[-7278,2956],[5332,13017],[4104,2472],[10791,-5781],[7914,2250],[4993,10370],[11680,1986],[296,2648],[-7575,441],[-14261,8781],[593,5295],[4654,7766],[22513,-1456],[3978,2251],[508,5118],[-24375,20519],[20947,12797],[18620,794],[-889,-6266],[3682,-441],[19635,7016],[8548,9708],[11129,-794],[-4020,11958],[-11383,530],[3555,9972],[-3767,133],[2624,7413],[-3766,132],[5543,4854],[-296,9752],[18662,-4809],[19720,1676],[20651,7546],[3554,-2515],[-1565,-8693],[9479,-11076],[-170,-11561],[11214,-2604],[5375,-6972],[8040,-353],[6686,6531],[15869,-1015],[3216,-2339],[-4782,-1809],[11130,-2868],[-1651,-4413],[3301,-2471],[8718,1898],[-762,-2207],[7955,-573],[29707,5251],[22428,-8296],[8548,3530],[974,9002],[-3216,4942],[18281,-8472],[-10410,-10679],[2539,-6442],[7786,-2869]]],"bbox":[37.8543,47.8197,40.2174,50.0859],"transform":{"scale":[0.000002363102363102359,0.000002266202266202271],"translate":[37.8543,47.8197]}}