{"type":"Topology","objects":{"muni":{"type":"GeometryCollection","geometries":[{"type":"MultiPolygon","arcs":[[[0,1,2,3,4,5,6,7,8,9,10,11,12,13,14]]],"properties":{"GID_2":"RUS.40.1_1","GID_0":"RUS","COUNTRY":"Russia","GID_1":"RUS.40_1","NAME_1":"Magadan","NL_NAME_1":"Магадан|Магаданскаяобласть","NAME_2":"Khasynskiyrayon","VARNAME_2":"NA","NL_NAME_2":"Хасынскийрайон","TYPE_2":"Raion","ENGTYPE_2":"District","CC_2":"R70090","HASC_2":"RU.MG.KH"}},{"type":"MultiPolygon","arcs":[[[15]],[[16,17,18,19,20,-1]]],"properties":{"GID_2":"RUS.40.2_1","GID_0":"RUS","COUNTRY":"Russia","GID_1":"RUS.40_1","NAME_1":"Magadan","NL_NAME_1":"Магадан|Магаданскаяобласть","NAME_2":"Magadangorsovet","VARNAME_2":"Magadan","NL_NAME_2":"Магадан(горсовет)","TYPE_2":"Gorsovet","ENGTYPE_2":"District","CC_2":"R70090","HASC_2":"RU.MG.MA"}},{"type":"MultiPolygon","arcs":[[[21]],[[22]],[[23]],[[24]],[[25]],[[26]],[[27]],[[28]],[[29]],[[30]],[[31]],[[32]],[[33]],[[34]],[[35]],[[36]],[[37]],[[38]],[[39]],[[40]],[[41]],[[42]],[[43]],[[44]],[[45]],[[46]],[[47]],[[48]],[[49]],[[50]],[[51]],[[52]],[[53]],[[-13,54,55,56,-18,57,58]],[[59]],[[60,61,-3,62,-20,63]],[[64]],[[65]],[[66]]],"properties":{"GID_2":"RUS.40.3_1","GID_0":"RUS","COUNTRY":"Russia","GID_1":"RUS.40_1","NAME_1":"Magadan","NL_NAME_1":"Магадан|Магаданскаяобласть","NAME_2":"Ol'skiyrayon","VARNAME_2":"NA","NL_NAME_2":"Ольскийрайон","TYPE_2":"Raion","ENGTYPE_2":"District","CC_2":"R70090","HASC_2":"RU.MG.OL"}},{"type":"MultiPolygon","arcs":[[[67]],[[68]],[[-10,69,70,71,72,-56,73,74]]],"properties":{"GID_2":"RUS.40.4_1","GID_0":"RUS","COUNTRY":"Russia","GID_1":"RUS.40_1","NAME_1":"Magadan","NL_NAME_1":"Магадан|Магаданскаяобласть","NAME_2":"Omsukchanskiyrayon","VARNAME_2":"NA","NL_NAME_2":"Омсукчанскийрайон","TYPE_2":"Raion","ENGTYPE_2":"District","CC_2":"R70090","HASC_2":"RU.MG.OM"}},{"type":"MultiPolygon","arcs":[[[75]],[[76]],[[77]],[[78]],[[79]],[[80]],[[81]],[[82]],[[83]],[[84]],[[85]],[[86]],[[87]],[[88]],[[89]],[[90]],[[91]],[[-72,92,93,94]]],"properties":{"GID_2":"RUS.40.5_1","GID_0":"RUS","COUNTRY":"Russia","GID_1":"RUS.40_1","NAME_1":"Magadan","NL_NAME_1":"Магадан|Магаданскаяобласть","NAME_2":"Severo-Evenskiyrayon","VARNAME_2":"NA","NL_NAME_2":"Северо-Евенскийрайон","TYPE_2":"Raion","ENGTYPE_2":"District","CC_2":"R70090","HASC_2":"RU.MG.SE"}},{"type":"MultiPolygon","arcs":[[[-94,95,-70,-9,96,-7,97,98,99]]],"properties":{"GID_2":"RUS.40.6_1","GID_0":"RUS","COUNTRY":"Russia","GID_1":"RUS.40_1","NAME_1":"Magadan","NL_NAME_1":"Магадан|Магаданскаяобласть","NAME_2":"Srednekanskiyrayon","VARNAME_2":"NA","NL_NAME_2":"Среднеканскийрайон","TYPE_2":"Raion","ENGTYPE_2":"District","CC_2":"R70090","HASC_2":"RU.MG.SR"}},{"type":"MultiPolygon","arcs":[[[100,-99,101,102,103]]],"properties":{"GID_2":"RUS.40.7_1","GID_0":"RUS","COUNTRY":"Russia","GID_1":"RUS.40_1","NAME_1":"Magadan","NL_NAME_1":"Магадан|Магаданскаяобласть","NAME_2":"Susumanskiyrayon","VARNAME_2":"NA","NL_NAME_2":"Сусуманскийрайон","TYPE_2":"Raion","ENGTYPE_2":"District","CC_2":"R70090","HASC_2":"RU.MG.SU"}},{"type":"MultiPolygon","arcs":[[[104,-104,105,106,-5,107,-61]]],"properties":{"GID_2":"RUS.40.8_1","GID_0":"RUS","COUNTRY":"Russia","GID_1":"RUS.40_1","NAME_1":"Magadan","NL_NAME_1":"Магадан|Магаданскаяобласть","NAME_2":"Ten'kinskiyrayon","VARNAME_2":"NA","NL_NAME_2":"Тенькинскийрайон","TYPE_2":"Raion","ENGTYPE_2":"District","CC_2":"R70090","HASC_2":"RU.MG.TE"}},{"type":"MultiPolygon","arcs":[[[-6,-107,108,-102,-98]]],"properties":{"GID_2":"RUS.40.9_1","GID_0":"RUS","COUNTRY":"Russia","GID_1":"RUS.40_1","NAME_1":"Magadan","NL_NAME_1":"Магадан|Магаданскаяобласть","NAME_2":"Yagodninskiyrayon","VARNAME_2":"NA","NL_NAME_2":"Ягоднинскийрайон","TYPE_2":"Raion","ENGTYPE_2":"District","CC_2":"R70090","HASC_2":"RU.MG.YA"}}]}},"arcs":[[[341721,142771],[-2076,4171],[-6469,3395],[-4531,869],[-4856,-1216],[-3736,2994],[-3373,588],[-5951,-13381],[320,-5320]],[[311049,134871],[-5214,3435]],[[305835,138306],[-7264,254],[-6106,-2299],[-6607,-428],[-1051,2540],[1718,7807],[4387,8422],[3763,13355],[2807,13140],[5882,13609],[6852,12807]],[[310216,207513],[13823,14624]],[[324039,222137],[6255,4104],[8300,1351],[2214,5253],[-3068,17071],[-3000,4652],[-5993,1925],[2097,6885],[3672,3422],[-443,8542],[-5316,1083],[22,10441],[1585,4063],[-2402,21590],[-2775,548],[384,14130],[886,4559],[-5780,6871],[-1825,8930]],[[318852,347557],[6516,12632],[7163,6524],[11805,16817],[3160,-1270],[3698,3409],[1890,14451],[6116,13194],[8699,8476],[8209,5708],[10679,3382],[9356,1029]],[[396143,431909],[3576,-1283],[7082,-14384],[3491,-1030],[6895,6551],[4286,588],[2236,1631],[3090,4572]],[[426799,428554],[12297,3315]],[[439096,431869],[11586,-9023],[5583,-1698],[4019,882]],[[460284,422030],[2898,-3676],[1985,-6764],[-3666,-9973],[-11822,-19758],[-4088,-11055],[720,-9505],[4158,-9545],[4761,-5334],[565,-5708]],[[455795,340712],[-218,-18889]],[[455577,321823],[-1191,-5574]],[[454386,316249],[-8614,5481],[-2700,-2166],[-11368,-15614],[-3517,-6911],[5604,-13395],[-1553,-5067],[-3566,-5975],[-4168,-281],[-3330,-7098],[3794,-10107],[-3362,-3302],[-5054,1524],[-7258,-3890],[-5615,-1016],[-10076,1417],[-3560,-1350],[-5935,-8489],[-3058,-7633],[-2402,-10895],[-1985,-2580],[-2562,12098],[-4232,2621],[-3197,-455],[-5054,-2874],[-2039,-14585],[-1575,-6697],[-5390,-8516],[-8342,-8742],[-1900,-5775],[1692,-4011],[1425,-24142]],[[345489,157824],[3240,-3115]],[[348729,154709],[-7008,-11938]],[[327786,87975],[-5,147],[208,67],[-203,-214]],[[341721,142771],[-2124,-5334]],[[339597,137437],[-3085,-3676],[-3250,-6938],[1014,-3061],[-3240,-7781],[1511,-12472],[1377,-4946]],[[333924,98563],[-4996,-2420],[-1270,1257],[-1265,-2233],[566,-2299],[2247,-1444],[-331,-2125],[-918,-415],[-539,-1457],[2610,-1190],[-1441,-2379],[325,-1310],[-1558,-1324],[-3272,749],[-4686,-2366],[-891,428],[299,695],[-534,441],[379,829],[-278,855],[1980,1457],[-1590,2794],[-4542,1337],[-3832,-1845],[-2353,829],[-684,-668],[-16,-1123],[-1873,949],[1457,414],[619,1859],[3459,1764],[3447,1551],[1207,-615],[3170,922],[1654,1752],[-480,2794],[-2343,26]],[[317651,97052],[1137,3890],[3661,6644],[502,11136],[2263,6831],[-3747,3863],[-5545,1912]],[[315922,131328],[-4873,3543]],[[424755,9331],[27,-107],[-171,-40],[144,147]],[[407714,26121],[128,94],[-224,-415],[96,321]],[[511301,36187],[48,-160],[-134,-94],[86,254]],[[453762,39850],[245,14],[-74,-281],[-171,267]],[[318067,38727],[2012,-1390],[705,-3115],[-3731,-3101],[-6153,-9505],[-7141,308],[234,1991],[3091,5963],[4365,3903],[1335,-789],[2561,4158],[48,2246],[892,1684],[677,-27],[1105,-2326]],[[374213,41829],[-341,361],[-17,762],[358,-1123]],[[232311,49796],[1292,-949],[-1804,-2914],[-502,-2701],[-2673,-722],[-1836,-1751],[-534,-1163],[64,-2139],[-603,-1176],[-2754,2125],[59,1885],[1713,522],[160,2673],[1110,-1096],[1099,655],[86,3703],[950,1845],[-240,548],[1222,-989],[3191,1644]],[[229819,63940],[827,-1872],[-1670,1778],[843,94]],[[511151,49088],[144,-121],[-181,-120],[37,241]],[[517273,80863],[144,-227],[-662,468],[518,-241]],[[511893,92601],[448,147],[-325,-375],[-123,228]],[[513179,96451],[732,-562],[-203,-1096],[325,-615],[-1259,508],[405,1765]],[[160934,68685],[154,-13],[-154,-241],[0,254]],[[225250,82628],[102,-120],[-160,0],[58,120]],[[351910,96424],[773,-227],[-1569,307],[796,-80]],[[353351,96665],[2321,-428],[-3074,561],[753,-133]],[[574097,49208],[32,-1297],[-678,-240],[192,-669],[-886,816],[491,1644],[1126,1002],[-277,-1256]],[[559356,49622],[144,-80],[-657,27],[513,53]],[[562574,49876],[-155,588],[544,-507],[-389,-81]],[[559681,54475],[320,-682],[-731,-1591],[272,976],[-400,976],[539,321]],[[571508,63298],[267,53],[-363,-254],[96,201]],[[577598,66961],[-321,-468],[470,-1898],[-325,-589],[-4393,228],[91,1042],[1462,1685],[3016,0]],[[536134,193142],[-85,-67],[-80,201],[165,-134]],[[537052,195294],[-27,-481],[-170,0],[197,481]],[[518863,154896],[-928,-8556],[336,7888],[656,2633],[-64,-1965]],[[517321,152931],[-299,-27],[64,668],[235,-641]],[[519066,158465],[166,-133],[-193,-629],[27,762]],[[519595,160203],[85,-200],[-278,-281],[193,481]],[[519845,161112],[609,1257],[-443,-1818],[-166,561]],[[521014,163064],[-171,0],[0,133],[171,0],[0,-133]],[[521596,164935],[85,-200],[-277,-281],[192,481]],[[522071,166259],[384,-134],[-416,-628],[32,762]],[[504688,105675],[-304,481],[475,-548],[-171,67]],[[454386,316249],[-1345,-9706]],[[453041,306543],[2519,-5200],[6256,4265],[3309,-2407],[2097,-5748],[1921,-8662],[6677,-11203],[12200,-8622],[6181,3783],[6116,8422],[6063,2032],[9548,12338],[2332,-360],[7189,-10922],[2455,-7272],[4174,574],[1537,6350],[3469,4184],[11421,9866],[7739,9745],[1548,6430],[-961,5575],[4686,6109],[3853,-374],[3171,-5789],[3245,-3021],[12830,-7045],[9073,-16162],[4766,-6604],[-6848,-8101],[-3549,-8127],[38,-4398],[-1724,-8396],[-785,-12098]],[[585587,245705],[-1142,-1190],[-277,-1523],[-2866,481],[-246,-1324],[-1863,-347],[-1030,-2152],[-2615,-1538],[-886,-1952],[278,-695],[-892,-1390],[-1195,214],[-1308,-1738],[-555,-2794],[171,-3195],[-1281,134],[-918,-2152],[-1558,1951],[-1777,0],[-3336,-1951],[-1809,-3556],[-2386,-1257],[-1617,-4037],[-3000,-5013],[-3864,-2019],[-2225,-2500],[-3976,-1751],[-5054,-7379],[-422,775],[-2749,-3141],[-250,-1043],[640,-1871],[-2001,-4465],[-2279,-1805],[-3117,-5013],[-4723,-11563],[-4756,-629],[-4419,-3689],[-555,-3757],[1057,-2366],[112,-1537],[-416,-628],[416,-615],[-368,-214],[2150,-40],[-48,-2687],[844,-1244],[-331,-3449],[1185,-4571],[-86,-3917],[-3213,-1230],[144,628],[-976,-4478],[-1954,-2353],[1297,2888],[294,2687],[630,1443],[-652,-3395],[966,3222],[2818,1029],[-2705,-615],[2433,588],[144,869],[-2780,775],[-3202,-1336],[-1767,1296],[-2898,-1925],[-1783,-67],[-1019,-1884],[368,-1471],[-341,-2526],[309,-1832],[-560,-6069],[571,-5200],[2300,-8850],[5433,-12218],[-106,-883],[-2690,4746],[-1521,1110],[-273,708],[438,294],[69,2500],[-1051,2273],[-1494,922],[-1927,-2313],[-875,-4023],[480,-2166],[-560,-2821],[-684,-1818],[-1376,-1283],[-449,-3476],[-2161,856],[-1836,-3142],[-1142,1137],[3421,-6029],[667,-2768],[1943,-1898],[6890,-1230],[581,254],[918,3008],[1399,1203],[747,4318],[-806,2219],[2834,2005],[817,-3756],[-892,-2487],[-939,-147],[-128,-1510],[2556,-2674],[-912,-2767],[357,-1003],[-539,-628],[432,267],[481,-1376],[5118,-201],[870,976],[-32,1925],[518,-120],[-2637,1644],[-224,1617],[-1719,2353],[-314,3716],[667,1458],[1238,187],[-3064,1042],[-870,3703],[4852,-4251],[2535,-855],[2012,708],[1612,1845],[437,1578],[1185,-335],[4174,-6563],[3362,-3784],[2642,1337],[1751,-1203],[2065,655],[166,1805],[896,1123],[2135,628],[2156,-2500],[646,-6189],[966,-107],[320,-642],[-544,-628],[1585,-1350],[934,-2620],[4531,-1872],[2097,-4091],[-101,-1216],[-736,-802],[1270,-3302],[-2018,214],[-1366,-2005],[502,-1003],[-374,-468],[171,-1644],[2161,-4585],[-2044,-2139],[-1419,374],[971,-962],[625,-2982],[1366,-1550],[-507,-1016],[-6122,2366],[-1617,-655],[-555,-1979],[-2348,2166],[-3293,976],[-3517,-869],[-1255,1016],[-2166,-2232],[-267,-3637],[1046,-3408],[-2183,1751],[-4766,949],[-2695,2299],[-683,2032],[-1586,588],[358,1738],[-2893,2527],[-4301,67],[-3203,-2861],[-3346,1818],[59,-1003],[1569,-855],[-1751,-629],[657,-1938],[352,-3556],[624,-147],[-1035,-1163],[502,-628],[-59,-2487],[566,-147],[-240,-895],[-742,2045],[-502,-147],[-448,-749],[416,-695],[-827,-1898],[-1916,-1751],[-2071,949],[-849,1657],[-517,-949],[-2535,-280],[-6704,-6350],[-2300,2299],[-3229,789],[-2295,4491],[358,923],[-3325,7727],[-4729,2018],[-3490,40],[1932,4425],[1569,-976],[-262,455],[283,1109],[1212,-534],[-385,909],[102,1577],[1019,1417],[-603,588],[-1420,80],[-683,-2192],[-2834,-1190],[-176,-1283],[507,-334],[-662,-2326],[-2001,-896],[-2460,1644],[-433,1752],[-4899,2419],[-3933,-775],[-2375,-1765],[3677,2420],[-795,1029],[-924,-1043],[-2156,3035],[123,-2460],[-769,-2232],[753,-1243],[-982,-1190],[368,-2914],[-801,-1110],[81,-2887],[-684,-709],[-902,789],[278,1056],[-592,1056],[101,-816],[-1265,-481],[384,-1403],[-715,-1351],[-987,-320],[747,-1057],[2151,2340],[1462,-1430],[-261,-388],[496,-1524],[-1094,829],[-1334,-1030],[1323,455],[1052,-1939],[-1052,-1042],[262,-1337],[-3480,-508],[-1654,1216],[-3907,-1336],[-2626,601],[-5529,-2861],[-956,-1269],[-501,-3637],[-2220,-2860],[-449,-5000],[-1793,-3596],[-16,-2339],[470,-1391],[-443,-1350],[-481,-120],[-693,1965],[-3795,989],[-3523,-1350],[-1136,-1430],[-443,1657],[-3016,2981],[-5865,1230],[-368,2233],[-1463,2085],[166,588],[-2744,3128],[-1441,-26],[-1670,1510],[1366,2313],[-2044,0],[-2316,3075],[-801,-696],[422,-1564],[1105,-855],[-929,-428],[2508,-3516],[-4888,468],[-7051,-3395],[-1387,-1538],[-566,-1925],[774,-2099],[-379,-3649],[-977,-1938],[-3058,-2340],[-4702,-1283],[-7210,441],[-8620,-5187],[-7215,3315],[-3960,-187],[-2317,-895],[-918,-1645],[-3655,-1176],[757,1243],[123,1484],[-2455,4559],[-155,2633],[-3245,3302],[326,1043],[-1302,3770],[581,1671],[-357,1978],[-3304,3890],[-1772,5174],[-192,1951],[-1926,3249],[4109,-2808],[2092,188],[1911,2219],[3336,254],[2828,1992],[715,922],[-58,1898],[923,1457],[1740,1711],[1665,188],[1900,-1458],[4894,-842],[3149,2032],[2738,-3048],[2775,-1604],[4120,2273],[4115,-2059],[2461,575],[1916,2246],[4888,-869],[2621,1510],[1558,3356],[1457,67],[678,1965],[3560,-161],[464,949],[1938,-748],[661,1791],[48,2112],[-1777,2153],[-1334,294],[-1302,2526],[-1601,294],[-299,1899],[-924,160],[-934,1404],[70,935],[-972,-2179],[-704,-53],[438,588],[-620,2527],[-3293,-4011],[-2572,-53],[-1019,-1471],[-3112,1471],[-2813,4318],[-1798,-1123],[-6821,120],[-208,2206],[-795,1430],[2460,1457],[374,2380],[-1254,1163],[-1847,3796],[-1057,602],[411,2379],[-1227,4024],[-1927,3770],[-2738,3329],[-3923,1083],[-1377,3235],[331,1189],[-3832,3864],[2695,-1685],[-1718,3035],[-304,1805],[-1553,1711],[-2327,-80],[-1367,-4866],[-2519,200],[801,-1417],[2172,-374],[-11090,3596],[-785,-776],[-3522,655],[-1377,-1002]],[[339597,137437],[4270,9478],[4862,7794]],[[348729,154709],[-796,762],[-2444,2353]],[[301282,101103],[-752,-2594],[-2060,495],[1355,1938],[1457,161]],[[110301,301490],[5903,-869],[12094,321],[8405,2086],[7675,-1431],[5006,-2820],[875,-3690],[-7749,-13288],[3533,-2460],[4756,-735],[2310,-2500],[604,-4679],[2978,-2860],[4445,4558],[7307,695],[3768,-3074],[2546,3502],[4296,2968],[3800,1256],[4045,5414],[5172,2821],[5583,816],[10177,-12713],[3139,-6337],[-1420,-9879],[-2706,-6791],[-4494,-6965],[-4937,-4438],[-1398,-5187],[3464,-2874],[11394,2968],[4201,-2420],[1040,-5574],[2039,-3944],[6853,-1657],[3389,1270],[1372,7111],[8112,9198],[1809,7125],[3624,4331],[3955,2219],[5155,-53],[-2353,-5882],[6741,-4225],[549,-3810],[4836,-1363],[14394,8957],[2220,-2006],[-454,-16536],[566,-7072],[3704,-4197],[10167,3569],[4398,-1805],[731,-4237],[2012,-1832],[4344,3396],[4329,-2407],[6073,-1550]],[[314678,211911],[-4462,-4398]],[[305835,138306],[10087,-6978]],[[317651,97052],[-2215,-67],[-4600,-3007],[-1495,481],[-1297,1845],[-2092,-174],[731,1350],[-1355,1698],[-2135,-174],[731,2112],[-710,3035],[-1889,935],[-2050,-414],[-3805,4879],[-1067,-1002],[2022,-709],[-9932,1939],[-7365,4852],[7862,-4786],[-5402,4131],[-1302,2687],[-123,-2206],[-12867,6310],[-10071,2353],[-5215,-749],[-5561,-3128],[507,802],[-784,1137],[3335,2499],[-37,1070],[80,-829],[-2530,-708],[-1318,-1431],[-1340,308],[956,-294],[-3069,-2941],[3234,1711],[993,-589],[-18530,-15881],[2754,-561],[-502,-1979],[208,575],[91,-1470],[848,-321],[-176,-1123],[502,-963],[-1196,-1524],[166,-1737],[747,-1244],[1575,-1350],[3885,-802],[950,-2620],[-955,-3262],[640,-2166],[-1377,-267],[-1932,3275],[-3448,308],[-2754,-1163],[-2732,-2981],[-1687,508],[-1841,-936],[-3715,4425],[443,-94],[150,682],[-539,749],[1110,1711],[-294,1163],[2562,1751],[-2652,2647],[-1516,-722],[-101,-1417],[-1458,-2620],[-2647,-2286],[-1366,-3356],[891,-1751],[-1692,882],[-827,-1590],[475,-5374],[-144,-4599],[1116,-2540],[3036,-481],[230,-1310],[1046,147],[406,2072],[1131,1965],[2402,1751],[800,-481],[-982,-5120],[411,-428],[2242,909],[-897,2714],[-512,-468],[299,602],[3549,160],[480,-1858],[-2402,-2513],[-1382,-3396],[502,-548],[-598,-2045],[1131,-321],[1009,-2059],[-352,-3823],[-1655,-2473],[-1115,829],[-1863,4425],[-1537,1016],[-2642,-1003],[-597,-3877],[-683,-936],[-2258,134],[-267,1551],[646,2059],[-1249,347],[-5465,-2045],[-1665,-1818],[-8433,2018],[-91,695],[1441,1417],[6,1631],[-395,2086],[-1425,1885],[800,2232],[-1254,6484],[-6025,3983],[-6303,241],[-4163,-695],[-3405,-1992],[-3843,455],[-4387,-1003],[-3795,-3716],[-2257,-214],[1483,-1003],[566,-2379],[2658,-3436],[-256,-1805],[-2429,-3729],[-2850,574],[-1035,976],[-1142,3182],[-3667,1323],[-5038,-3876],[-325,-1979],[1334,-1671],[-833,-2005],[-3666,1510],[-2877,2848],[-1873,4224],[-3058,1444],[-1719,3195],[-2370,80],[-4611,-2246],[-1745,1658],[-379,2179],[-1718,1297],[-1927,-415],[-1719,2206],[-3319,-80],[3586,3542],[8865,2661],[187,17271],[4243,13301],[-1414,6257],[998,5614],[-753,3957],[-3325,4131],[2781,3743],[-854,6123],[-6223,3181],[-406,8328],[-4259,-481],[-6447,-8154],[-2514,1016],[-1729,4612],[-4280,8020],[3373,6778],[-166,3008],[-1788,4171],[-6169,481],[-4521,2553],[-1740,6925],[-3682,7473],[-6309,2419],[-7381,-5414],[-3282,0],[-3853,2433],[-2317,-815],[-2812,-3890],[-2557,-415],[-12120,14705],[-4761,8061],[3912,2380],[-1622,6216],[-3437,3342],[1739,5561],[5065,1738],[-32,8061],[3811,1724],[4222,5481],[3693,-40],[2535,3262],[1494,7673],[3795,481],[3474,4987],[3715,1176],[5364,-7446],[5310,-3369],[5673,161],[2664,5908],[-2786,6190],[1195,8128],[-384,7673],[-657,3449],[2413,4144],[4654,-80],[3885,1296],[1927,3383],[1686,9357],[-1126,3128],[3085,4719]],[[522263,166887],[85,-200],[-170,0],[85,200]],[[522791,168077],[225,134],[-198,-482],[-27,348]],[[537831,196685],[107,280],[112,-280],[-219,0]],[[615998,299178],[-86,213],[166,0],[-80,-213]],[[637149,357449],[85,214],[304,-67],[-85,-214],[-304,67]],[[460284,422030],[2711,4024],[3085,802],[8801,-2139],[5950,3610],[4217,4144],[1761,4705],[4926,1898],[2567,-5614],[6618,-2487],[3090,4492],[2498,-601],[2877,-2313],[1873,2112],[3202,8128],[1943,-1698],[-59,4331],[3064,4412],[5860,1123],[1174,5695],[-4915,2339],[-1820,4037],[-16,5374],[-3603,4077],[-3368,6283],[-1035,7674],[1628,15480],[4734,15667],[10199,4064],[160,5548],[3368,4518],[13278,7379],[4152,5949],[1169,5281],[-1724,5374],[337,6831],[3928,7726],[7071,7901],[1409,8662],[299,6377],[-395,5575],[-3613,2018],[-5225,-575],[-3645,6216],[2322,6270],[-6875,5174],[-1131,5694],[1558,7192],[-1868,2407],[171,4692],[3517,2874],[3544,307],[2455,2875],[-1099,4210],[1900,7193],[1233,17966],[28649,28621],[6607,1297],[6063,6564],[2775,7178],[4772,4265],[7109,534],[6943,-2419],[3240,-9104],[3805,214],[4574,8609],[432,4492],[3293,5320],[10840,8690],[3154,4959],[688,4585],[7654,5682],[3079,8448],[-822,8863],[-4675,9559],[-5785,8061],[-5156,4104],[-6703,2941],[-267,2727],[6901,5374],[1809,3048],[-3677,5841],[-3363,8596],[6250,-521],[5487,1911],[2871,-401],[2257,-3435],[1852,-6123],[5492,-1363],[7808,775],[-806,-5240],[4937,-2727],[2583,-6698],[4686,-13],[5327,3449],[3106,7593],[8224,8997],[6592,2940],[12558,-441]],[[715705,819035],[-1666,-6710]],[[714039,812325],[-2289,-3971],[1852,-7018],[5711,-5548],[-1111,-12298],[4975,-6176],[-2685,-8088],[3917,-6684],[4227,-3556],[-1174,-8288],[-5380,-16189],[-2246,-13649],[747,-6537],[-4313,-6216],[2914,-6604],[-3303,-15173],[5187,-6884],[1260,-5093],[6741,695],[4029,-4465],[6378,-2741],[-5946,-10627],[1116,-5334],[3245,-4866],[-3907,-5708],[1815,-5508],[-4345,-5320],[-6308,-1939],[-1724,-2754],[-1046,-6750],[-1185,-2888],[-5236,-1604],[-5662,708],[-4702,2313],[-3480,-11590],[-9014,-8342],[-6079,-10213],[-2701,-11363],[-405,-12071],[3704,-9451],[918,-5615],[-2738,-1725],[-1719,936],[-4424,-3716],[-480,-5641],[9137,-4265],[-278,-4612],[-6874,-3088],[-5801,-9638],[-4356,-12272],[-2028,-8689],[2904,-7647],[-2215,-3502],[3287,-5134],[1676,-4130],[-2967,-9318],[-2567,-1123],[-3357,1283],[-2856,-5654],[-3778,-54],[-2306,-4465],[1607,-1951],[-5380,-8462],[-9121,-11323],[-3298,-9264],[-294,-8048],[4713,-7780],[4221,-3783],[-624,-3102],[-2295,-3662],[80,-4038],[5433,-4879],[6890,-3128],[1788,-4492],[3635,-2045]],[[664149,380509],[-10098,-4813],[-2001,-3061],[496,-1256],[-1388,-2647],[-832,-3757],[-1500,134],[721,-1243],[-3752,-3971],[-3112,-1671],[-2781,268],[-891,1684],[-416,-495],[720,-561],[-416,-348],[-2332,1123],[-1751,-1470],[1500,-1805],[-1169,-147],[-998,-2219],[390,-976],[-726,-2647],[165,-1804],[-1163,-3209],[-59,-3208],[-502,-1243],[171,-1818],[-726,-1257],[1836,-2219],[112,-1818],[-389,-548],[501,-1123],[-1168,-2086],[-224,-3756],[725,-1818],[-170,-695],[725,-976],[-170,-2366],[613,-1390],[-501,-1110],[838,-695],[-561,-1818],[-859,-896],[-859,628],[277,963],[-309,347],[-3224,562],[-3085,-2019],[-7338,-6964],[-5727,-9331],[-3277,-2366],[-4670,-5294],[-3447,-5842],[-838,-3476],[-1719,-428],[-779,-1671],[277,-695],[-336,-829],[-496,281],[165,1524],[-448,842],[-1388,-280],[-555,-1257],[1388,-414],[-390,-1538],[865,-347],[-416,494],[640,348],[971,-1043],[-3394,-4879],[171,-976],[-614,-1257],[59,-5146],[-726,-1538],[112,-2647],[502,-1109],[-614,-1390],[1083,-3129],[-1334,-1403],[528,-348],[449,-2366],[-1196,-909],[-32,775],[-1163,415],[-363,2165],[-2669,-280],[-416,-348],[165,-976],[-555,-1951],[-2695,-3971]],[[453041,306543],[764,6965],[1772,8315]],[[455577,321823],[272,10160],[-54,8729]],[[806323,275021],[-833,696],[1057,548],[-224,-1244]],[[802346,295555],[529,-201],[-609,0],[80,201]],[[807155,297293],[-555,-1244],[-27,-1884],[-1862,1457],[640,1885],[1804,-214]],[[801903,296678],[86,-214],[-171,0],[85,214]],[[806210,276826],[-80,-200],[-85,66],[165,134]],[[806766,300220],[-81,-214],[-85,81],[166,133]],[[807267,301062],[-694,-494],[-1750,1323],[2193,67],[251,-896]],[[810549,308014],[-170,-134],[85,214],[85,-80]],[[805906,299739],[860,-80],[0,-1243],[-305,-629],[-26,1043],[-1724,695],[1195,214]],[[804903,300568],[85,-201],[-165,0],[80,201]],[[819804,251280],[85,-214],[-170,0],[85,214]],[[830841,283096],[304,200],[198,-481],[-502,281]],[[811270,306209],[304,214],[0,-281],[-304,67]],[[810379,309270],[170,148],[107,-428],[-277,280]],[[810352,308642],[304,-200],[-389,0],[85,200]],[[806323,332117],[667,133],[-192,-494],[-475,361]],[[824698,380228],[80,-214],[-165,0],[85,214]],[[714039,812325],[726,3890],[7083,21790]],[[721848,838005],[7946,12927],[5231,1925],[14036,-1605],[7856,3570],[555,7339],[-2759,8916],[-5428,7019],[5530,14397],[6516,1069],[4136,4893],[14720,8903]],[[780187,907358],[11661,-2673],[8273,-3503],[4403,-7098],[7904,-2153],[7088,-1216],[3005,-5160],[1969,-10748],[12328,-17151],[9810,-10347],[9692,-3102],[13887,-40],[12008,-3716],[12121,-9277],[8112,-1511],[5135,-13783],[6687,-12071],[10738,-8047],[19688,-4866],[5567,213],[3256,-2927],[3501,-5936],[4429,-3662],[23633,1069],[-993,-8903],[1361,-8115],[5129,-7780],[4360,-2941],[-90,-5775],[5150,-6376],[-181,-4278],[-6047,-3823],[-3854,-4786],[-3922,-2380],[-849,-3636],[2834,-3957],[-4307,-3970],[-11768,-1738],[-6463,-5053],[-1303,-6564],[6111,-11135],[753,-16724],[-4558,-4238],[-2775,-5788],[-2375,-8302],[5209,-4598],[266,-5735],[5668,-2647],[3368,-6711],[555,-10427],[-4819,-8622],[-4184,-5775],[-8241,-3209],[-331,-4438],[2957,-6724],[-2599,-6577],[4563,-5066],[-432,-3142],[-6538,-3329],[-4953,-8341],[-5369,-1658],[-4499,2326],[-3592,-5053],[-3720,-18221],[486,-7620],[7770,-2272],[8310,-8074],[3875,-5414],[-4056,-6658],[2994,-2861],[5945,-93],[3566,-3382],[-1249,-5989],[-6597,-6965],[2098,-6497],[4205,-8168],[-2321,-7807],[-700,-6670],[1884,-4693],[-1361,-4531],[-5241,-5241],[-6644,-4090],[-16508,-6216],[-1201,-5334],[3790,-4519],[12179,-3007],[2658,-9291],[-4788,-7740],[-2263,-2220],[-3954,789],[-3122,-3529],[1339,-6470],[3384,-7433],[4157,-3502],[1335,-3155],[48,-4652],[-1569,-3864],[-1164,829],[-1863,-1457],[-224,-695],[390,-561],[-1889,-5294],[-3059,-415],[1500,-1390],[0,-1818],[-2946,-2085],[171,-695],[-1196,-2300],[-2311,1043],[838,-1671],[-389,-1243],[608,-1257],[-107,-976],[-2727,-1537],[-1030,-2152],[-774,1109],[-640,-347],[389,-2928],[-2001,-2219],[-171,-1123],[390,-1110],[-4056,-695],[832,-280],[667,-1805],[-1835,-1257],[58,-1537],[-1558,-2781],[-4088,-66],[-134,1871],[-726,428],[-277,2366],[-390,0],[-443,-1123],[497,-267],[-166,-2928],[1393,-2647],[-1057,-2232],[278,-415],[-1644,-628],[-1190,1471],[53,962],[-1334,2513],[-720,-281],[-337,-1523],[502,-1671],[-1281,-1819],[502,-561],[112,-2085],[-891,-1671],[-1527,213],[-112,-842],[-3421,-1176],[197,-1043],[-1227,281],[-998,-3075],[-779,842],[-582,-1323],[-1083,-348],[-2754,482],[2166,-1391],[-165,-695],[390,-414],[336,-2928],[-1617,-2366],[389,-1257],[-2081,214],[-448,1391],[-2973,-348],[-1057,-4037],[-3389,-1537],[3058,-2781],[-336,-2085],[-2194,-348],[-1531,-1470],[-1500,-4038],[-2087,-2299],[-3335,-1390],[-2082,494],[496,-2927],[-1611,-1818],[-497,-3757],[-1724,-976],[-693,-1590],[-3229,-1123],[-1473,-2433],[-1612,-695],[-555,-843],[165,-975],[-2001,-2781],[-2946,-414],[-443,-2647],[502,-1110],[-668,-1671],[-2060,-1818],[59,-2366],[-1281,-2928],[53,-2366],[-944,-2366],[726,-695],[-667,-562],[112,-828],[-1393,-696],[-780,-2232],[283,-1524],[-3506,2500],[-219,1537],[721,829],[-1863,-214],[-779,1952],[-2194,-3970],[-475,-3543],[-1446,-281],[-774,1391],[-667,-281],[-422,347],[171,2099],[-1308,348],[-1254,-2714],[-1500,-147],[-362,-2152],[-1666,-842],[-3197,909],[225,2085],[1724,2647],[0,976],[-641,347],[-582,-1323],[-1617,-695],[278,-695],[-635,-909],[-1420,494],[1388,-1123],[336,-3061],[-833,-1671],[192,-762],[-581,-2166],[-1084,-1176],[-1862,-67],[-1116,-2513],[390,-1524],[-667,-1952],[-2055,-695],[-1361,-2446],[-2338,-829],[-1638,909],[219,4585],[1062,2928],[-838,2366],[1750,909],[1863,-495],[-219,3489],[-726,1671],[2946,1805],[-1163,1257],[1051,2085],[-496,2366],[833,2928],[-4169,5708],[1057,414],[443,1123],[-165,976],[528,629],[2081,-2447],[-277,1671],[277,976],[-608,1257],[304,1604],[-528,1591],[1499,-134],[337,2232],[-278,976],[747,629],[251,-1605],[1420,-909],[-753,1458],[225,695],[1862,-482],[331,1110],[753,-628],[-198,-1043],[1420,1190],[-2503,3195],[1168,708],[-277,1524],[1057,1257],[277,1804],[2615,2099],[112,1243],[-1168,1671],[2166,3904],[-2417,-214],[-1671,1404],[-1222,-1671],[-3891,-1404],[-4227,2513],[-1110,-1390],[-2001,0],[-891,-1671],[-1751,-348],[-720,-1537],[-726,134],[501,-1243],[-1638,-1738],[-1532,-81],[171,-1523],[-1089,-910],[-2305,-66],[58,-2367],[-752,-628],[-667,829],[-1863,-348],[-443,-1524],[1276,-1256],[-635,-1043],[-3560,2500],[-1222,-548],[-417,481],[1719,976],[336,1110],[-165,1256],[528,909],[-310,1604],[1948,1524],[1612,3209],[2167,414],[-608,562],[112,695],[2054,4318],[-832,1524],[832,975],[278,1818],[1281,1244],[219,1818],[-1724,3195],[-107,976],[945,695],[0,1537],[-726,976],[277,976],[-3389,4866],[1943,2232],[-774,2366],[-2417,2019],[-1975,-348],[-1809,-3275],[-998,1123],[-1532,-80],[1281,1537],[-726,1257],[1948,976],[331,976],[-497,1671],[417,347],[4115,281],[469,-1604],[1393,-428],[219,-695],[-496,-268],[1083,-628],[2973,2848],[27,1042],[-3667,-548],[-2087,3262],[3613,2928],[668,2646],[-833,2514],[6058,133],[-1612,562],[-443,1243],[2722,2928],[891,3756],[-971,1471],[-2978,200],[1227,1952],[2055,1256],[1003,1952],[-283,1257],[4868,1176],[1195,1190],[166,1524],[1387,695],[390,1537],[1057,976],[-1612,2233],[277,414],[-496,2219],[1719,2099],[112,976],[-1057,1390],[2391,2086],[1003,3756],[-1195,2019],[-2530,1042],[3389,2647],[2001,2233],[1724,3756],[1281,695],[-726,1671],[-53,3209],[-2279,975],[2503,3062],[-502,2513],[278,414],[-1500,2086],[1164,1109],[-385,1404],[278,414],[-945,1524],[385,1818],[-1612,-147],[726,1123],[-390,415],[945,414],[-443,1537],[-2418,67],[-891,-1390],[-2893,-842],[-1083,-896],[-614,-2099],[-1441,-1938],[-3533,-628],[-139,-1324],[-1276,-428],[-613,-1524],[-2834,-1256],[-1335,-3342],[-58,-2086],[-1612,-2927],[277,-1524],[-555,-1404],[-1168,-133],[58,-1538],[-1169,-1243],[166,-976],[-1724,-695],[-53,-1818],[-780,-829],[-2748,1043],[-667,-842],[-1116,1671],[-555,-2781],[-3223,0],[192,1043],[-1527,2018],[-197,-481],[614,-147],[-502,-1952],[502,-1109],[-390,-281],[390,-281],[-224,-695],[-3085,-67],[-4115,-4451],[-251,1042],[-2220,1671],[443,1671],[-1057,1257],[278,976],[-390,1390],[726,134],[667,1671],[-278,1257],[502,2499],[-838,1404],[502,695],[-390,829],[224,1257],[609,414],[-278,1818],[1948,2500],[-2946,-829],[390,-842],[-112,-1524],[-2279,-1257],[-448,-1123],[170,-1243],[-528,-628],[-251,2433],[-2727,976],[-886,842],[-390,1805],[-2060,1804],[2727,1671],[-170,2647],[501,1952],[-555,1109],[-10311,5374],[-5449,-280],[-1222,828],[-1783,-828],[-3223,548],[138,-1324],[726,-548],[-1419,-1751],[-4307,1056],[501,-1818],[-2839,-3195],[283,-1818],[-726,-1257],[390,-2085],[-972,-1176],[-4451,0],[-304,1042],[390,548],[-1975,1190],[-2669,0],[-1222,-1109],[-3448,548],[-1414,-629],[-1505,-4037],[-2194,-1176],[-138,1604],[-4201,2847],[-7002,281],[-5145,-7446],[-1830,-147],[-1169,-2914],[-2087,-1751],[-1446,1951],[-443,-2219],[-2557,1671],[-2113,-280],[-304,1042],[389,548],[-864,1190],[-2445,0],[-3672,2513],[-7338,-280],[-8673,1671],[-2556,-1123],[-555,-1391],[-1420,-66],[-53,-2086],[-2946,-2366],[-1111,-3342],[833,-2099],[-1222,-2219],[-838,-561],[390,1256],[-1415,1177],[-3335,-281],[-1772,-1377]],[[721848,838005],[-6143,-18970]],[[439096,431869],[-5396,-829],[-6901,-2486]],[[396143,431909],[993,7486],[-4996,7126],[-4131,7633],[950,7873],[5983,14879],[-1046,6297],[-3549,4892],[-1484,6270],[-2802,8101],[-4899,3663],[-3864,802],[-3918,7272],[-12291,3569],[-1606,4639],[-2039,14197],[-7178,27391],[-3662,9866],[-10818,6978],[-3613,7058],[-8150,12713]],[[324023,600614],[657,5815],[-1409,3329],[-726,4278],[1687,5080],[13054,8128],[576,4759],[-7130,6537],[176,4518],[6090,454],[3309,3904],[2540,6243],[7184,-709],[11432,-6443],[1900,2206],[-1601,2058],[-75,4652],[4723,9732],[1879,8021],[-2823,5053],[-5428,2540],[-1457,5789],[1489,4879],[4552,267],[2621,3356],[-4030,4933],[1810,4732],[3613,4692],[-5166,2888],[-4420,-442],[-4387,13221],[-656,5976]],[[354007,731060],[4019,1577],[2690,4318],[144,5963],[2962,3702],[5102,121],[5134,4171],[4451,-214],[2146,1845],[6015,-1190],[4120,-3663],[-3101,-8369],[3672,-2339],[13140,3543],[2428,6537],[-1382,5093],[-4611,5053],[1590,3476],[4990,40],[2237,1417],[2636,3582],[2556,7112],[5087,1685],[5550,4986],[2434,6243],[-977,3810],[-8256,4598],[-6928,29357],[6853,4064],[630,14531],[4440,6082],[-64,4385],[2391,2192],[5460,14],[6864,5841],[8848,-3021],[4393,1658],[42,5000],[3331,3649],[6148,-27],[4462,6484],[1014,6457],[-6116,5721],[1489,7353],[5075,4625],[3064,5895],[-1943,4652],[2770,7941],[-534,2821],[-3768,1470],[1564,11644],[8070,2633],[3885,4358],[9724,-1016],[6992,1818],[2898,-3569],[-1078,-7499],[6858,347],[5294,6403],[4382,8623],[-1142,5614],[1649,4265],[-2466,4211],[-4462,2192],[-1483,5962],[9297,5949],[245,6296],[4921,2059],[3362,3168],[4804,-1457],[3378,-3930],[5567,-388],[2364,-6938],[7152,1965],[3677,6965],[5999,1310],[3261,-6403],[7194,-227],[4713,2112],[11453,-3609],[9185,6015],[2775,-9104],[5097,-2339],[1964,-3462],[6463,1203],[5941,-588],[5353,-2821],[5481,3703],[1179,7593],[7424,8649],[2348,-976],[1810,-10748],[13380,-8889],[613,-5615],[-4152,-3743],[9927,-8088],[6250,-1310],[10082,428],[2385,3289],[-1169,5213],[1324,2339],[3170,1217],[3256,3008],[6169,10280],[10397,1430],[5620,3316],[6495,2285],[7333,-1938],[3832,-7259],[4249,1658],[6532,-1578],[3160,3543],[-8444,16670],[1511,4772],[4718,7687],[7151,-588],[1970,-6256],[12008,-7714],[14554,-815],[-624,-4906],[-9879,-13823],[-3677,-9665],[-908,-14277],[369,-17793],[8662,-10133],[14127,-6671]],[[73817,413381],[-1943,455],[-3698,5521],[-4153,2553],[-7744,1564],[-3133,8342],[-3100,-2968],[992,-7553],[-2567,-4224],[-4403,-816],[-1574,-4224],[-4345,53],[1932,6805],[-3640,-1083],[-1894,1150],[-150,2900],[-2892,682],[-3843,-6898],[-1494,2447],[-8086,4211],[-758,4063],[-3384,3850],[-4211,0],[-6457,-2553],[-2616,682],[-656,8114],[3907,1524],[3805,6176],[2925,-1564],[3303,3570],[1244,6055],[2716,-321],[2247,1177],[2205,7326],[-134,5641],[-1195,4746],[1056,3622],[3176,6310],[-3266,6323],[5918,6591],[2018,-2433],[5972,2098],[1927,3476],[-3800,5280],[2449,6832],[-2001,1203],[2989,6203],[-577,1898],[-4045,1657],[-614,5455],[4590,8288],[-934,16349],[-10386,9571],[3624,4907],[-59,6029],[-4840,7499],[2150,7767],[6917,10146],[-688,5989],[2732,5735],[1836,5762],[-1094,6965],[2888,6536],[5123,5655],[673,7887],[3052,6110],[-1611,4050],[-860,12031],[1473,5655],[11075,3556],[14725,8382],[6441,9839],[2306,11670],[2957,9090],[3127,2687],[8940,-4705],[16390,2807],[4814,-2647],[7077,-5975],[5983,-6444],[5956,-428],[1585,8035],[5492,-1752],[9388,6711],[3202,-3636],[-1617,-7566],[-2124,-3730],[3133,-3101],[3922,-1925],[1938,-2781],[-1948,-4853],[7103,148],[2231,-1952],[5321,1992],[-662,8154],[2247,6831],[5300,10213],[6965,10575],[-2594,3596],[-4462,3729],[-4435,8663],[-1959,10654],[6106,3436],[10973,13354],[6116,-3342],[988,-7379],[7920,-4465],[6095,4572],[6244,-5815],[2418,6123],[7621,-2447],[5887,-6831],[7200,-788],[-1217,5922],[6217,-2941],[3854,2138],[6463,7955],[3160,855],[5070,3917],[2599,5842],[7504,-1257],[-91,-5213],[8523,-5134],[-363,-4933],[-5283,-5013],[2183,-4986],[-860,-7406],[8225,-7579],[1937,-6765],[7771,1123],[8096,-5561],[5834,-281],[-694,18422],[3085,5387],[4114,-13],[3731,-2300],[3736,-802],[8710,1136],[5508,4947],[2482,-3396],[5614,4826],[2268,-2179],[3635,-6136]],[[324023,600614],[-4766,3369],[-944,6016],[-5156,3262],[-6644,7793],[-1399,6617],[54,6765],[-3059,6336],[-4589,2420],[-3800,-1551],[-4291,-4505],[-1484,-5254],[-507,-4278],[-2626,-1430],[-3933,5708],[-1287,4946],[-4163,3423],[-2449,-789],[-587,-5321],[-1409,-4986],[-4014,-2968],[-3015,-3823],[3618,-3850],[1164,-4973],[-16129,-7780],[-3085,1992],[-6927,815],[-3917,4265],[-5775,601],[-5455,4144],[-5,4238],[-3859,3997],[-14378,-976],[-7829,8168],[-5198,-2968],[-5551,268],[-3122,-1618],[-5300,-9598],[187,-7847],[6132,-5829],[9292,-14089],[1393,-15815],[3368,-3984],[715,-5053],[-3379,-3850],[-2492,-6176],[299,-14384],[1126,-17285],[2781,-6791],[3826,-3689],[6869,-3904],[4579,-6564],[-261,-7111],[-4857,-15240],[-1014,-6951]],[[210771,474527],[-1201,2660]],[[209570,477187],[-3885,748],[-1831,-3569],[-4446,-1711],[-7338,-401],[-3095,-4211],[-2632,-842],[-4195,4839],[507,3142],[-2113,5454],[-6549,-1564],[-4525,-2634],[-2450,-5481],[934,-8208],[-497,-4719],[-1622,-6443],[-2759,214],[-1900,7406],[-3608,4518],[-4200,989],[-4537,-3088],[-3357,-320],[-5001,1443],[-1307,8355],[-3389,10227],[-4361,5173],[-4451,1631],[-5187,-321],[-1527,-2606],[593,-10120],[-4980,2767],[-7018,334],[-5353,-2058],[-5455,-3529],[-6692,-6083],[-7456,-10788],[-4206,-12446],[-2487,-10494],[59,-5026],[3763,-6818],[-3550,-2045],[-3650,-5521]],[[110301,301490],[-582,4920],[977,6162],[-3309,9746],[-2220,10534],[1766,9090],[-2695,6497],[-3159,2299],[-630,6965],[1649,8756],[-2082,4679],[-4328,3756],[-2060,4185],[219,6309],[-6437,11363],[-6831,7981],[-2210,5534],[-4552,3115]],[[209570,477187],[4974,-9385]],[[214544,467802],[6592,-2112],[6105,4626],[4451,708],[2290,-2366],[566,-4585],[-2423,-5855],[1707,-8984],[1922,-15774],[3047,-7981],[4078,-3957],[19811,-24183],[2754,762],[4419,3316],[3768,-14],[3458,-3074],[2066,-5147],[587,-6136],[6362,-7085],[3020,-6216],[459,-12326],[2092,-3756],[-2583,-12539],[406,-5775],[4488,-3516],[5695,-989],[646,-5094],[7904,-5133],[155,15614],[2001,2968],[8465,4358]],[[324039,222137],[-5678,-5414],[-3683,-4812]],[[214544,467802],[-3773,6725]]],"bbox":[144.7769,58.837,163.5138,66.3175],"transform":{"scale":[0.000018736918736918728,0.0000074805074805074725],"translate":[144.7769,58.837]}}