{"type":"Topology","objects":{"muni":{"type":"GeometryCollection","geometries":[{"type":"MultiPolygon","arcs":[[[0,1,2],[3]]],"properties":{"GID_2":"RUS.41.1_1","GID_0":"RUS","COUNTRY":"Russia","GID_1":"RUS.41_1","NAME_1":"Mariy-El","NL_NAME_1":"РеспубликаМарийЭл","NAME_2":"Gornomariyskiyrayon","VARNAME_2":"NA","NL_NAME_2":"Горномарийскийрайон","TYPE_2":"Raion","ENGTYPE_2":"District","CC_2":"R21000","HASC_2":"RU.ME.GO"}},{"type":"MultiPolygon","arcs":[[[4]]],"properties":{"GID_2":"RUS.41.2_1","GID_0":"RUS","COUNTRY":"Russia","GID_1":"RUS.41_1","NAME_1":"Mariy-El","NL_NAME_1":"РеспубликаМарийЭл","NAME_2":"Ioshkar-Ola","VARNAME_2":"YoshkarOla","NL_NAME_2":"NA","TYPE_2":"Gorsovet","ENGTYPE_2":"District","CC_2":"NA","HASC_2":"RU.ME.IO"}},{"type":"MultiPolygon","arcs":[[[5,-3,6,7,8,9,10]]],"properties":{"GID_2":"RUS.41.3_1","GID_0":"RUS","COUNTRY":"Russia","GID_1":"RUS.41_1","NAME_1":"Mariy-El","NL_NAME_1":"РеспубликаМарийЭл","NAME_2":"Kilemarskiyrayon","VARNAME_2":"NA","NL_NAME_2":"Килемарскийрайон","TYPE_2":"Raion","ENGTYPE_2":"District","CC_2":"R21000","HASC_2":"RU.ME.KI"}},{"type":"MultiPolygon","arcs":[[[-4]]],"properties":{"GID_2":"RUS.41.4_1","GID_0":"RUS","COUNTRY":"Russia","GID_1":"RUS.41_1","NAME_1":"Mariy-El","NL_NAME_1":"РеспубликаМарийЭл","NAME_2":"Koz'modem'yansk","VARNAME_2":"Kozmodemyansk","NL_NAME_2":"Козьмодемьянск","TYPE_2":"Gorod","ENGTYPE_2":"City","CC_2":"NA","HASC_2":"RU.ME.KO"}},{"type":"MultiPolygon","arcs":[[[11,12,13,14,15,16]]],"properties":{"GID_2":"RUS.41.5_1","GID_0":"RUS","COUNTRY":"Russia","GID_1":"RUS.41_1","NAME_1":"Mariy-El","NL_NAME_1":"РеспубликаМарийЭл","NAME_2":"Kuzhenerskiyrayon","VARNAME_2":"NA","NL_NAME_2":"Куженерскийрайон","TYPE_2":"Raion","ENGTYPE_2":"District","CC_2":"R21000","HASC_2":"RU.ME.KU"}},{"type":"MultiPolygon","arcs":[[[17,18,19,20,21,22]]],"properties":{"GID_2":"RUS.41.6_1","GID_0":"RUS","COUNTRY":"Russia","GID_1":"RUS.41_1","NAME_1":"Mariy-El","NL_NAME_1":"РеспубликаМарийЭл","NAME_2":"Mari-Turekskiyrayon","VARNAME_2":"NA","NL_NAME_2":"Мари-Турекскийрайон","TYPE_2":"Raion","ENGTYPE_2":"District","CC_2":"R21000","HASC_2":"RU.ME.MA"}},{"type":"MultiPolygon","arcs":[[[23,24,25,26,27,28,29,30,31,-9],[-5]]],"properties":{"GID_2":"RUS.41.7_1","GID_0":"RUS","COUNTRY":"Russia","GID_1":"RUS.41_1","NAME_1":"Mariy-El","NL_NAME_1":"РеспубликаМарийЭл","NAME_2":"Medvedevskiyrayon","VARNAME_2":"NA","NL_NAME_2":"Медведевскийрайон","TYPE_2":"Raion","ENGTYPE_2":"District","CC_2":"R21000","HASC_2":"RU.ME.ME"}},{"type":"MultiPolygon","arcs":[[[-12,32,-18,33,34,35,36]]],"properties":{"GID_2":"RUS.41.8_1","GID_0":"RUS","COUNTRY":"Russia","GID_1":"RUS.41_1","NAME_1":"Mariy-El","NL_NAME_1":"РеспубликаМарийЭл","NAME_2":"Morkinskiyrayon","VARNAME_2":"NA","NL_NAME_2":"Моркинскийрайон","TYPE_2":"Raion","ENGTYPE_2":"District","CC_2":"R21000","HASC_2":"RU.ME.MO"}},{"type":"MultiPolygon","arcs":[[[37,38,-14,39,40,41]]],"properties":{"GID_2":"RUS.41.9_1","GID_0":"RUS","COUNTRY":"Russia","GID_1":"RUS.41_1","NAME_1":"Mariy-El","NL_NAME_1":"РеспубликаМарийЭл","NAME_2":"Novotor'yal'skiyrayon","VARNAME_2":"NA","NL_NAME_2":"Новоторьяльскийрайон","TYPE_2":"Raion","ENGTYPE_2":"District","CC_2":"R21000","HASC_2":"RU.ME.NO"}},{"type":"MultiPolygon","arcs":[[[42,-41,43,44,-25]]],"properties":{"GID_2":"RUS.41.10_1","GID_0":"RUS","COUNTRY":"Russia","GID_1":"RUS.41_1","NAME_1":"Mariy-El","NL_NAME_1":"РеспубликаМарийЭл","NAME_2":"Orshanskiyrayon","VARNAME_2":"NA","NL_NAME_2":"Оршанскийрайон","TYPE_2":"Raion","ENGTYPE_2":"District","CC_2":"R21001","HASC_2":"RU.ME.OR"}},{"type":"MultiPolygon","arcs":[[[-17,45,-19,-33]]],"properties":{"GID_2":"RUS.41.11_1","GID_0":"RUS","COUNTRY":"Russia","GID_1":"RUS.41_1","NAME_1":"Mariy-El","NL_NAME_1":"РеспубликаМарийЭл","NAME_2":"Paran'ginskiyrayon","VARNAME_2":"NA","NL_NAME_2":"Параньгинскийрайон","TYPE_2":"Raion","ENGTYPE_2":"District","CC_2":"R21001","HASC_2":"RU.ME.PA"}},{"type":"MultiPolygon","arcs":[[[-22,46,-20,-46,-16,47,-38,48]]],"properties":{"GID_2":"RUS.41.12_1","GID_0":"RUS","COUNTRY":"Russia","GID_1":"RUS.41_1","NAME_1":"Mariy-El","NL_NAME_1":"РеспубликаМарийЭл","NAME_2":"Sernurskiyrayon","VARNAME_2":"NA","NL_NAME_2":"Сернурскийрайон","TYPE_2":"Raion","ENGTYPE_2":"District","CC_2":"R21001","HASC_2":"RU.ME.SE"}},{"type":"MultiPolygon","arcs":[[[-13,-37,49,50,-29,51,-27,52,-44,-40]]],"properties":{"GID_2":"RUS.41.13_1","GID_0":"RUS","COUNTRY":"Russia","GID_1":"RUS.41_1","NAME_1":"Mariy-El","NL_NAME_1":"РеспубликаМарийЭл","NAME_2":"Sovetskiyrayon","VARNAME_2":"NA","NL_NAME_2":"Советскийрайон","TYPE_2":"Raion","ENGTYPE_2":"District","CC_2":"R21001","HASC_2":"RU.ME.SO"}},{"type":"MultiPolygon","arcs":[[[53,-35,54]]],"properties":{"GID_2":"RUS.41.14_1","GID_0":"RUS","COUNTRY":"Russia","GID_1":"RUS.41_1","NAME_1":"Mariy-El","NL_NAME_1":"РеспубликаМарийЭл","NAME_2":"Volzhskiyrayon","VARNAME_2":"NA","NL_NAME_2":"Волжскийрайон","TYPE_2":"Raion","ENGTYPE_2":"District","CC_2":"R21000","HASC_2":"RU.ME.VR"}},{"type":"MultiPolygon","arcs":[[[-2,55,-7]]],"properties":{"GID_2":"RUS.41.15_1","GID_0":"RUS","COUNTRY":"Russia","GID_1":"RUS.41_1","NAME_1":"Mariy-El","NL_NAME_1":"РеспубликаМарийЭл","NAME_2":"Yurinskiyrayon","VARNAME_2":"NA","NL_NAME_2":"Юринскийрайон","TYPE_2":"Raion","ENGTYPE_2":"District","CC_2":"R21001","HASC_2":"RU.ME.YU"}},{"type":"MultiPolygon","arcs":[[[-11,56,-31,57,-50,-36,-54,58]]],"properties":{"GID_2":"RUS.41.16_1","GID_0":"RUS","COUNTRY":"Russia","GID_1":"RUS.41_1","NAME_1":"Mariy-El","NL_NAME_1":"РеспубликаМарийЭл","NAME_2":"Zvenigovskiyrayon","VARNAME_2":"NA","NL_NAME_2":"Звениговскийрайон","TYPE_2":"Raion","ENGTYPE_2":"District","CC_2":"R21000","HASC_2":"RU.ME.ZV"}}]}},"arcs":[[[266482,249784],[-6809,-6845],[-21605,-44587],[-15211,-4652],[-8183,8174],[-7944,15748],[-10060,-864],[-19619,-24785],[-13836,-9569],[-6394,-13556],[-18026,-17343],[-21474,-12493],[-3426,-15615],[-12134,49239],[-2030,16812],[4278,27576],[-1724,9037],[-5980,11961],[-18549,11496],[-21496,24586],[-3426,13755],[2291,16148],[7376,14951],[10017,10366]],[[72518,329324],[36510,-42461],[1309,-23723],[11348,5449],[33281,32029],[11959,22792],[-6394,13356],[-14033,48375],[502,19470],[6285,35684],[1397,50568],[-1942,60004]],[[152740,550867],[42075,-14619],[53750,-3190],[676,-88045],[-1658,-10699],[-7289,-3123],[-6329,10366],[-7551,-5050],[262,-10831],[5914,-19669],[19838,-36946],[-284,-16613],[-7551,-15615],[-1244,-11363],[23133,-75686]],[[197150,281680],[-633,7110],[-2204,-2393],[2837,-4717]],[[509940,521297],[-9471,-16679],[-14338,12094],[7223,17742],[13400,-2991],[3186,-10166]],[[356436,332447],[-17065,2126],[-13814,-27111],[-59075,-57678]],[[152740,550867],[-568,16213],[2990,26181],[-3382,42727],[-7224,15483],[-2728,14353],[2684,18340],[9406,10898],[-3470,9170],[-10649,8705]],[[139799,712937],[5499,13556],[1179,16081],[3819,8239],[9885,5117],[12963,-1728],[13814,-6113],[18921,-17078],[17066,7908],[6263,28706],[5106,4851],[8468,-4319],[3862,-21464],[7813,-8771],[22914,-5316],[29287,9037],[18921,-9701],[12461,-27511],[-7093,-22393],[1964,-8240],[10432,-996],[6241,7641]],[[349584,680443],[10257,-24387],[-2706,-38408],[2378,-8970],[14600,-13357],[3972,-13356],[436,-15549],[-2749,-19470],[3382,-11363],[10475,-13024],[-785,-36215],[8009,-63791]],[[396853,422553],[-25817,1196]],[[371036,423749],[-6700,-60004],[-7900,-31298]],[[803286,530732],[-30531,-10432],[-12330,2924],[-10868,19802],[-11871,2724],[-11741,-3721],[-12658,-19071],[-7136,3588],[-5783,9901]],[[700368,536447],[-7507,24919],[-10060,9502],[-1790,13090],[5478,29305],[-895,43325],[5805,22858],[9929,16347]],[[701328,695793],[7726,5781],[13137,24786],[16717,14552]],[[738908,740912],[3448,9237]],[[742356,750149],[62065,-63260],[12788,5449]],[[817209,692338],[-3012,-13622],[-17851,-26846],[-7027,-16945],[-3426,-16213],[-393,-16081],[9864,-30966],[7922,-40933]],[[866005,437836],[-6612,33225],[-7464,15350]],[[851929,486411],[53183,31829],[-283,10300],[-9624,24054],[-17524,76284],[-8424,27643],[2466,15284],[4845,11363],[2116,18340],[-3338,12226],[-13465,2526],[-14076,18273]],[[847805,734533],[4866,13091],[18114,29570]],[[870785,777194],[1440,14353],[-131,14154]],[[872094,805701],[-2728,11296],[-5827,9768]],[[863539,826765],[-6896,3123],[15276,12360],[12701,-18207],[4889,2591],[13312,-12359],[-3165,-23524],[9079,-25317],[-5914,-22526],[1135,-18207],[-4081,-8572],[10889,-8174],[24901,-2990],[7245,-9834],[13203,8771],[9886,-5449],[8860,-14552],[1549,-15882],[7638,-29038],[-5870,-25783],[-3143,-31829],[-5564,-27377],[1003,-20932],[2925,-8838],[18375,-4120],[6699,-7907],[1528,-15217],[-1331,-15350],[-17830,-7442],[-7201,-8771],[-1419,-16480],[-3993,-17210],[-15691,-13755],[-4321,5714],[-3383,19204],[-6198,-14486],[-8227,-9768],[-12701,-7309],[-6700,11828],[-2575,12027],[6111,5515],[5325,12493],[-4954,17476],[-13596,8373],[-24027,-10234],[-8009,-9834],[-3274,-21131]],[[349584,680443],[15407,15416],[32145,6047],[12920,-17011],[5717,8838],[-2029,32494],[16236,26314]],[[429980,752541],[16629,3588],[5238,-2990],[2946,-11363],[-7616,-59672]],[[447177,682104],[110119,-51830]],[[557296,630274],[27715,-45518],[-2466,-13622]],[[582545,571134],[-23176,-38541]],[[559369,532593],[-2117,-12493],[2510,-21064],[15058,-47046],[1309,-14553]],[[576129,437437],[-3688,-44787]],[[572441,392650],[-8991,-41730],[-30836,4718],[-59817,-3588],[-9646,7243],[1942,47644],[-4517,7708]],[[460576,414645],[-63723,7908]],[[803286,530732],[30748,-2857],[5958,-7442],[7311,-31896],[4626,-2126]],[[866005,437836],[-2291,-17676],[-7027,-7708],[-13050,9104],[-11894,-3588],[-9406,-20998],[-87,-21131],[-5194,-8174],[-13181,-4385],[-12897,12824],[-29353,13556],[-17633,-14087],[-13595,-17942],[-6351,-13223],[808,-12094],[-10585,-23257],[5674,-27909],[18441,5449],[15167,-6246],[-2401,-20467],[-13268,-19337]],[[737882,240547],[-14447,12825],[-51110,-1861],[-28893,-8572]],[[643432,242939],[1505,45585],[-12853,31696],[-371,11363],[4561,23058],[-1528,9170],[-4015,10765],[-15473,17277],[-12417,24188]],[[602841,416041],[13334,8239],[9100,31099],[13967,27111],[17764,10898],[10889,-12692],[7529,1063],[24944,54688]],[[730920,846368],[5653,-42063],[6416,-23988],[2335,-17410]],[[745324,762907],[-6416,-21995]],[[701328,695793],[-17764,3057],[-11042,10432],[-29221,43325],[-8555,7376],[-15582,-10565],[-15014,-26979],[-9427,1263]],[[594723,723702],[2531,17343],[-4255,32627],[5041,24121],[-1310,17277],[-13399,22726],[-11959,9568]],[[571372,847364],[6547,19802],[1091,21530],[21365,-66],[4866,-20268],[9101,-7907],[6634,5249],[16062,37146],[13290,-3323],[4517,-12160],[9035,-3057],[16345,21464],[18659,-2924],[7267,-12759],[-2444,-13489],[-7158,-11562],[1288,-11230],[5914,-13290],[18091,-2060],[9078,7908]],[[429980,752541],[12265,21662],[16345,44256],[6089,8505],[8031,-2392],[7201,-27377],[23155,-16878],[50891,23058],[2488,16014],[-1724,18008],[16651,9967]],[[594723,723702],[-21256,-48907],[-23460,-37876]],[[550007,636919],[-102830,45185]],[[817209,692338],[12068,21729],[18528,20466]],[[872094,805701],[-1309,-28507]],[[742356,750149],[2968,12758]],[[730920,846368],[2030,12824],[-1397,17277],[3405,13622],[17589,24786],[-6831,12160],[-4037,21198],[109,20333],[4998,15682],[11370,5782],[7398,9502],[15254,465],[7878,-12559],[960,-10433],[-1353,-13622],[-12395,-23855],[3186,-20134],[-2684,-18340],[9951,-35019],[2597,-28574],[6023,-20998],[10257,-13422],[10955,-2060],[21409,27842],[25947,-2060]],[[602841,416041],[-27759,8837]],[[575082,424878],[1047,12559]],[[559369,532593],[15953,23523],[7223,15018]],[[557296,630274],[-7289,6645]],[[569168,39405],[10955,25051],[15451,24453],[4452,18341],[-3710,8904],[-19226,14353],[-5107,10964],[2117,15151],[5761,7774],[17262,-3987],[18157,5715],[3121,11761],[2815,31564],[3819,10499],[18397,22991]],[[737882,240547],[-2924,-7641],[-1135,-15018],[-16957,5848],[-4975,-5051],[-7311,-23058],[-3339,-4186],[-6547,-30434],[-11195,-4385],[-15975,18207],[-8314,-16613],[2662,-25915],[-7463,-28706],[-6264,-13290],[-13159,-4319],[-26777,-42993],[3514,-42993],[-7616,2126],[-20863,19138],[-14076,18141]],[[72518,329324],[1921,6113],[-306,30633],[-2008,12094],[-7921,11430],[-30225,31032],[-12156,-7775],[-16084,-1794],[-4844,11961],[-895,16878],[1637,16812],[7114,42129],[13356,30965],[7005,8041],[21583,-7842],[10104,4785],[5107,22327],[-7966,56548],[-633,38076],[3230,17676],[13640,20466],[65622,23058]],[[371036,423749],[89540,-9104]],[[572441,392650],[2641,32228]],[[569168,39405],[-35114,27975],[-18462,28972],[-7573,38009],[-938,33956],[-9078,26845],[-6678,6712],[-40940,12226],[-18157,-332],[-15800,21065],[-12439,8505],[-3405,26048],[-11173,30036],[-327,22127],[-4016,9835],[-9296,9170],[-19336,-8107]]],"bbox":[45.6307,55.8356,50.213,57.3405],"transform":{"scale":[0.0000045823045823045855,0.000001504901504901504],"translate":[45.6307,55.8356]}}