{"type":"Topology","objects":{"muni":{"type":"GeometryCollection","geometries":[{"type":"MultiPolygon","arcs":[[[0,1,2,3]]],"properties":{"GID_2":"RUS.42.1_1","GID_0":"RUS","COUNTRY":"Russia","GID_1":"RUS.42_1","NAME_1":"Mordovia","NL_NAME_1":"РеспубликаМордовия","NAME_2":"Ardatovskiyrayon","VARNAME_2":"NA","NL_NAME_2":"Ардатовскийрайон","TYPE_2":"Raion","ENGTYPE_2":"District","CC_2":"R22000","HASC_2":"RU.MR.AR"}},{"type":"MultiPolygon","arcs":[[[-1,4,5,6,7,8,9,10,11,12,13,14,15,16]]],"properties":{"GID_2":"RUS.42.2_1","GID_0":"RUS","COUNTRY":"Russia","GID_1":"RUS.42_1","NAME_1":"Mordovia","NL_NAME_1":"РеспубликаМордовия","NAME_2":"Atyashevskiyrayon","VARNAME_2":"NA","NL_NAME_2":"Атяшевскийрайон","TYPE_2":"Raion","ENGTYPE_2":"District","CC_2":"R22000","HASC_2":"RU.MR.AS"}},{"type":"MultiPolygon","arcs":[[[17,18,19,20,21,22,23]]],"properties":{"GID_2":"RUS.42.3_1","GID_0":"RUS","COUNTRY":"Russia","GID_1":"RUS.42_1","NAME_1":"Mordovia","NL_NAME_1":"РеспубликаМордовия","NAME_2":"Atyur'evskiyrayon","VARNAME_2":"NA","NL_NAME_2":"Атюрьевскийрайон","TYPE_2":"Raion","ENGTYPE_2":"District","CC_2":"R22000","HASC_2":"RU.MR.AT"}},{"type":"MultiPolygon","arcs":[[[24,25,26,27,28,29,30]]],"properties":{"GID_2":"RUS.42.4_1","GID_0":"RUS","COUNTRY":"Russia","GID_1":"RUS.42_1","NAME_1":"Mordovia","NL_NAME_1":"РеспубликаМордовия","NAME_2":"Bol'shebereznikovskiyrayon","VARNAME_2":"NA","NL_NAME_2":"Большеберезниковскийрайон","TYPE_2":"Raion","ENGTYPE_2":"District","CC_2":"R22000","HASC_2":"RU.MR.BB"}},{"type":"MultiPolygon","arcs":[[[-3,31,32,33]]],"properties":{"GID_2":"RUS.42.5_1","GID_0":"RUS","COUNTRY":"Russia","GID_1":"RUS.42_1","NAME_1":"Mordovia","NL_NAME_1":"РеспубликаМордовия","NAME_2":"Bol'sheignatovskiyrayon","VARNAME_2":"NA","NL_NAME_2":"Большеигнатовскийрайон","TYPE_2":"Raion","ENGTYPE_2":"District","CC_2":"R22000","HASC_2":"RU.MR.BI"}},{"type":"MultiPolygon","arcs":[[[-15,34,-13,35,36,-10,37,38,-31,39,40,41,42]]],"properties":{"GID_2":"RUS.42.6_1","GID_0":"RUS","COUNTRY":"Russia","GID_1":"RUS.42_1","NAME_1":"Mordovia","NL_NAME_1":"РеспубликаМордовия","NAME_2":"Chamzinskiyrayon","VARNAME_2":"NA","NL_NAME_2":"Чамзинскийрайон","TYPE_2":"Raion","ENGTYPE_2":"District","CC_2":"R22002","HASC_2":"RU.MR.CH"}},{"type":"MultiPolygon","arcs":[[[43,-8,44,-6,45,-25,-39]]],"properties":{"GID_2":"RUS.42.7_1","GID_0":"RUS","COUNTRY":"Russia","GID_1":"RUS.42_1","NAME_1":"Mordovia","NL_NAME_1":"РеспубликаМордовия","NAME_2":"Dubenskiyrayon","VARNAME_2":"NA","NL_NAME_2":"Дубенскийрайон","TYPE_2":"Raion","ENGTYPE_2":"District","CC_2":"R22000","HASC_2":"RU.MR.DU"}},{"type":"MultiPolygon","arcs":[[[-17,46,-42,47,48,-33,49]]],"properties":{"GID_2":"RUS.42.8_1","GID_0":"RUS","COUNTRY":"Russia","GID_1":"RUS.42_1","NAME_1":"Mordovia","NL_NAME_1":"РеспубликаМордовия","NAME_2":"Ichalkovskiyrayon","VARNAME_2":"NA","NL_NAME_2":"Ичалковскийрайон","TYPE_2":"Raion","ENGTYPE_2":"District","CC_2":"R22001","HASC_2":"RU.MR.IC"}},{"type":"MultiPolygon","arcs":[[[50,51,52,53,54]]],"properties":{"GID_2":"RUS.42.9_1","GID_0":"RUS","COUNTRY":"Russia","GID_1":"RUS.42_1","NAME_1":"Mordovia","NL_NAME_1":"РеспубликаМордовия","NAME_2":"Insarskiyrayon","VARNAME_2":"NA","NL_NAME_2":"Инсарскийрайон","TYPE_2":"Raion","ENGTYPE_2":"District","CC_2":"R22001","HASC_2":"RU.MR.IN"}},{"type":"MultiPolygon","arcs":[[[-53,55,56,57,58,59,60,61]]],"properties":{"GID_2":"RUS.42.10_1","GID_0":"RUS","COUNTRY":"Russia","GID_1":"RUS.42_1","NAME_1":"Mordovia","NL_NAME_1":"РеспубликаМордовия","NAME_2":"Kadoshkinskiyrayon","VARNAME_2":"NA","NL_NAME_2":"Кадошкинскийрайон","TYPE_2":"Raion","ENGTYPE_2":"District","CC_2":"R22001","HASC_2":"RU.MR.KA"}},{"type":"MultiPolygon","arcs":[[[62,63,-27,64,65,66,67,68]]],"properties":{"GID_2":"RUS.42.11_1","GID_0":"RUS","COUNTRY":"Russia","GID_1":"RUS.42_1","NAME_1":"Mordovia","NL_NAME_1":"РеспубликаМордовия","NAME_2":"Kochkurovskiyrayon","VARNAME_2":"NA","NL_NAME_2":"Кочкуровскийрайон","TYPE_2":"Raion","ENGTYPE_2":"District","CC_2":"R22001","HASC_2":"RU.MR.KO"}},{"type":"MultiPolygon","arcs":[[[69]]],"properties":{"GID_2":"RUS.42.12_1","GID_0":"RUS","COUNTRY":"Russia","GID_1":"RUS.42_1","NAME_1":"Mordovia","NL_NAME_1":"РеспубликаМордовия","NAME_2":"Kovylkino","VARNAME_2":"NA","NL_NAME_2":"Ковылкино","TYPE_2":"Gorsovet","ENGTYPE_2":"District","CC_2":"NA","HASC_2":"RU.MR.KG"}},{"type":"MultiPolygon","arcs":[[[70,71,-57,72,-51,73,74,75],[-70]]],"properties":{"GID_2":"RUS.42.13_1","GID_0":"RUS","COUNTRY":"Russia","GID_1":"RUS.42_1","NAME_1":"Mordovia","NL_NAME_1":"РеспубликаМордовия","NAME_2":"Kovylkinskiyrayon","VARNAME_2":"NA","NL_NAME_2":"Ковылкинскийрайон","TYPE_2":"Raion","ENGTYPE_2":"District","CC_2":"R22001","HASC_2":"RU.MR.KR"}},{"type":"MultiPolygon","arcs":[[[-24,76,77,78,79,80,81,-58,-72,82]]],"properties":{"GID_2":"RUS.42.14_1","GID_0":"RUS","COUNTRY":"Russia","GID_1":"RUS.42_1","NAME_1":"Mordovia","NL_NAME_1":"РеспубликаМордовия","NAME_2":"Krasnoslobodskiyrayon","VARNAME_2":"NA","NL_NAME_2":"Краснослободскийрайон","TYPE_2":"Raion","ENGTYPE_2":"District","CC_2":"R22001","HASC_2":"RU.MR.KS"}},{"type":"MultiPolygon","arcs":[[[-30,83,-69,84,85,86,87,88,89,90,91,92,93,94,-40]]],"properties":{"GID_2":"RUS.42.15_1","GID_0":"RUS","COUNTRY":"Russia","GID_1":"RUS.42_1","NAME_1":"Mordovia","NL_NAME_1":"РеспубликаМордовия","NAME_2":"Lyambirskiyrayon","VARNAME_2":"NA","NL_NAME_2":"Лямбирскийрайон","TYPE_2":"Raion","ENGTYPE_2":"District","CC_2":"R22001","HASC_2":"RU.MR.LY"}},{"type":"MultiPolygon","arcs":[[[-41,-95,95,-93,96,-48]]],"properties":{"GID_2":"RUS.42.16_1","GID_0":"RUS","COUNTRY":"Russia","GID_1":"RUS.42_1","NAME_1":"Mordovia","NL_NAME_1":"РеспубликаМордовия","NAME_2":"Romodanovskiyrayon","VARNAME_2":"NA","NL_NAME_2":"Ромодановскийрайон","TYPE_2":"Raion","ENGTYPE_2":"District","CC_2":"R22001","HASC_2":"RU.MR.RO"}},{"type":"MultiPolygon","arcs":[[[97]]],"properties":{"GID_2":"RUS.42.17_1","GID_0":"RUS","COUNTRY":"Russia","GID_1":"RUS.42_1","NAME_1":"Mordovia","NL_NAME_1":"РеспубликаМордовия","NAME_2":"Ruzaevka","VARNAME_2":"NA","NL_NAME_2":"Рузаевка","TYPE_2":"Gorod","ENGTYPE_2":"City","CC_2":"NA","HASC_2":"RU.MR.RG"}},{"type":"MultiPolygon","arcs":[[[98,-61,99,100,101,102,-89,103,104,105,106,-66,107],[-98]]],"properties":{"GID_2":"RUS.42.18_1","GID_0":"RUS","COUNTRY":"Russia","GID_1":"RUS.42_1","NAME_1":"Mordovia","NL_NAME_1":"РеспубликаМордовия","NAME_2":"Ruzayevskiyrayon","VARNAME_2":"NA","NL_NAME_2":"Рузаевскийрайон","TYPE_2":"Raion","ENGTYPE_2":"District","CC_2":"R22001","HASC_2":"RU.MR.RR"}},{"type":"MultiPolygon","arcs":[[[-68,108,109,-105,-87,110,-85]]],"properties":{"GID_2":"RUS.42.19_1","GID_0":"RUS","COUNTRY":"Russia","GID_1":"RUS.42_1","NAME_1":"Mordovia","NL_NAME_1":"РеспубликаМордовия","NAME_2":"Saranskgorsovet","VARNAME_2":"Saransk","NL_NAME_2":"Саранск(горсовет)","TYPE_2":"Gorsovet","ENGTYPE_2":"District","CC_2":"R22000","HASC_2":"RU.MR.SA"}},{"type":"MultiPolygon","arcs":[[[111,-59,-82,112,-80,113,114,-91,115,116,-101]]],"properties":{"GID_2":"RUS.42.20_1","GID_0":"RUS","COUNTRY":"Russia","GID_1":"RUS.42_1","NAME_1":"Mordovia","NL_NAME_1":"РеспубликаМордовия","NAME_2":"Staroshaygovskiyrayon","VARNAME_2":"NA","NL_NAME_2":"Старошайговскийрайон","TYPE_2":"Raion","ENGTYPE_2":"District","CC_2":"R22001","HASC_2":"RU.MR.ST"}},{"type":"MultiPolygon","arcs":[[[117,118,-21,119,120,121,122,123,124,-78]]],"properties":{"GID_2":"RUS.42.21_1","GID_0":"RUS","COUNTRY":"Russia","GID_1":"RUS.42_1","NAME_1":"Mordovia","NL_NAME_1":"РеспубликаМордовия","NAME_2":"Temnikovskiyrayon","VARNAME_2":"NA","NL_NAME_2":"Темниковскийрайон","TYPE_2":"Raion","ENGTYPE_2":"District","CC_2":"R22001","HASC_2":"RU.MR.TM"}},{"type":"MultiPolygon","arcs":[[[-123,125,126,127]]],"properties":{"GID_2":"RUS.42.22_1","GID_0":"RUS","COUNTRY":"Russia","GID_1":"RUS.42_1","NAME_1":"Mordovia","NL_NAME_1":"РеспубликаМордовия","NAME_2":"Ten'gushevskiyrayon","VARNAME_2":"NA","NL_NAME_2":"Теньгушевскийрайон","TYPE_2":"Raion","ENGTYPE_2":"District","CC_2":"R22002","HASC_2":"RU.MR.TN"}},{"type":"MultiPolygon","arcs":[[[-20,128,-75,129,130,131]]],"properties":{"GID_2":"RUS.42.23_1","GID_0":"RUS","COUNTRY":"Russia","GID_1":"RUS.42_1","NAME_1":"Mordovia","NL_NAME_1":"РеспубликаМордовия","NAME_2":"Torbeevskiyrayon","VARNAME_2":"NA","NL_NAME_2":"Торбеевскийрайон","TYPE_2":"Raion","ENGTYPE_2":"District","CC_2":"R22002","HASC_2":"RU.MR.TO"}},{"type":"MultiPolygon","arcs":[[[-79,-125,132,-114]]],"properties":{"GID_2":"RUS.42.24_1","GID_0":"RUS","COUNTRY":"Russia","GID_1":"RUS.42_1","NAME_1":"Mordovia","NL_NAME_1":"РеспубликаМордовия","NAME_2":"Yel'nikovskiyrayon","VARNAME_2":"NA","NL_NAME_2":"Ельниковскийрайон","TYPE_2":"Raion","ENGTYPE_2":"District","CC_2":"R22000","HASC_2":"RU.MR.YE"}},{"type":"MultiPolygon","arcs":[[[133,-131,134,-127]]],"properties":{"GID_2":"RUS.42.25_1","GID_0":"RUS","COUNTRY":"Russia","GID_1":"RUS.42_1","NAME_1":"Mordovia","NL_NAME_1":"РеспубликаМордовия","NAME_2":"Zubovo-Polyanskiyrayon","VARNAME_2":"NA","NL_NAME_2":"Зубово-Полянскийрайон","TYPE_2":"Raion","ENGTYPE_2":"District","CC_2":"R22000","HASC_2":"RU.MR.ZU"}}]}},"arcs":[[[955645,674892],[-8884,2046],[-9416,-5741],[-11011,-23557],[-8441,-7456],[-30219,43484],[-10789,6731],[-17480,-66],[-5295,19663],[-6137,11085],[-19452,8974],[-8707,17882],[-12739,11746]],[[807075,759683],[12274,20191]],[[819349,779874],[-1817,62685],[4188,39195]],[[821720,881754],[15021,-2177],[30307,38535],[5982,-43088],[8064,594],[4232,11877],[3368,24414],[8817,26064],[7422,-1649],[4630,-7918],[5893,-20984],[2194,-11151],[-12451,-16760],[-3523,-11350],[1573,-11547],[31150,-45265],[5915,-27054],[-1329,-19268],[4054,-29231],[5428,-8050],[-1263,-17486],[1551,-12207],[6890,-23161]],[[955645,674892],[7621,-15044],[1507,-24415],[-4808,-10557],[-17280,-20918],[1994,-7654],[15530,6005],[4099,-4289],[4408,-7126],[709,-24745],[-13891,-10029],[-4143,-8644]],[[951391,547476],[-7421,3233]],[[943970,550709],[-38971,-18080],[-9726,-11349]],[[895273,521280],[-5250,-19070],[-12252,-2573]],[[877771,499637],[-18499,20389],[-18987,1056]],[[840285,521082],[-8706,14780],[14932,43220],[709,13989]],[[847220,593071],[-3301,8446],[-3656,5345]],[[840263,606862],[-4165,-1650],[-14489,-24612]],[[821609,580600],[-8552,-6863],[-9859,3498],[-8219,11877]],[[794979,589112],[-7112,27054]],[[787867,616166],[466,16628]],[[788333,632794],[7576,8182]],[[795909,640976],[5473,20851],[11166,18674],[5937,23358],[177,11944],[-11587,43880]],[[317544,384757],[-33276,-41570]],[[284268,343187],[-26608,-12603]],[[257660,330584],[-5805,-17882],[-9482,-2838],[-27826,83009],[-25611,27978],[-6935,54503],[-5494,12405]],[[176507,487759],[11875,5609]],[[188382,493368],[40144,47575],[22753,12669]],[[251279,553612],[8773,-9238],[12629,-28175],[10457,-12537],[1794,-6203]],[[284932,497459],[-399,-34180],[22532,-63807],[10479,-14715]],[[860491,466974],[23993,-15506],[21158,12999],[7023,-8512],[6580,-15441],[7245,-31079],[2348,-19927],[5760,-12669]],[[934598,376839],[-10634,-21115],[-42692,-19928],[-11742,0],[-26010,-21841],[-6181,-15242],[-12518,-49027],[-9039,-21313]],[[815782,228373],[-5140,14913],[-37375,-10492]],[[773267,232794],[-4453,1122],[-6624,10953],[-953,6203]],[[761237,251072],[3013,25602],[12141,39525]],[[776391,316199],[4209,30353],[-66,13527],[-4054,14912]],[[776480,374991],[10058,4949],[7134,20917],[7134,7853],[17192,-10888],[4962,13395],[7400,9634],[5251,-1782],[2392,-8644],[4875,-4553],[13248,3827],[5517,28968],[-1152,28307]],[[819349,779874],[-17015,-23953],[-54367,-2705]],[[747967,753216],[-11233,15308]],[[736734,768524],[-4121,16761],[-10745,57142],[-4763,51271],[1905,18673],[4564,16496],[8574,17816],[14511,7721],[17414,36687],[9061,8908],[11011,-66],[11055,-9634],[-3278,-19267],[332,-36226],[-2614,-16364],[-8663,-27516],[12074,-22501],[28669,13329]],[[787867,616166],[2526,-12999],[4586,-14055]],[[821609,580600],[9903,19465],[8751,6797]],[[840263,606862],[6957,-13791]],[[840285,521082],[12274,1253],[10612,-6202],[4653,-7391]],[[867824,508742],[3146,-17156],[-10479,-24612]],[[776480,374991],[-10457,17024],[-6337,18938]],[[759686,410953],[-10479,42164],[1817,21511],[4564,18278],[8396,54570],[-4696,40646]],[[759288,588122],[16992,35632]],[[776280,623754],[12053,9040]],[[867824,508742],[9947,-9105]],[[895273,521280],[20228,18475],[28469,10954]],[[951391,547476],[3855,-9436],[10147,4355],[11166,13988],[5340,-395],[3146,-6005],[-1884,-14781],[-14799,-19663],[-1086,-14121],[5185,-13791],[9881,-4157],[13780,3102],[3877,-23887],[-4608,-28703],[-20227,-9106],[-21025,-32597],[-19541,-15440]],[[795909,640976],[-19629,-17222]],[[759288,588122],[-24260,-15110],[-18521,2441],[-13293,9304],[-33409,-19070],[-11432,-264]],[[658373,565423],[-14201,28374],[-13891,12999],[-2548,8908],[19717,41900],[-4763,22501],[-952,40712],[13492,28704],[5162,-1782],[9438,-30749],[5649,22105],[5295,45068],[4099,11613],[35780,16034],[5140,9304],[-1175,6137],[12119,-58727]],[[747967,753216],[59108,6467]],[[420630,37281],[6093,17816]],[[426723,55097],[14267,62884],[9549,52656]],[[450539,170637],[80444,16430]],[[530983,187067],[11498,-50413]],[[542481,136654],[-2437,-10227],[443,-14517],[11499,-36753],[15685,-26592],[3988,-13263],[-1196,-10294],[-5229,-8578],[-33808,-16430],[-8818,12405],[-3544,13857],[-35160,-15375],[-39103,9436],[-24171,16958]],[[450539,170637],[199,91718]],[[450738,262355],[16284,-7984],[9505,10822],[-6381,25866],[-40388,93368]],[[429758,384427],[21047,-12075],[5361,1716],[28070,44275]],[[484236,418343],[2172,-8578],[20293,-31936],[-20471,-33521],[-2658,-18541]],[[483572,325767],[39280,-56681]],[[522852,269086],[5206,-15441],[2393,-18409],[-1994,-18938]],[[528457,216298],[2526,-29231]],[[767241,288551],[-6004,-37479]],[[761237,251072],[3833,-12801],[8197,-5477]],[[815782,228373],[-21667,-53249],[-27671,-7655],[-20959,4355],[-31659,-12933],[-18056,-15902],[-10789,11481],[-4188,20192],[-1617,24150]],[[679176,198812],[-8574,14385],[-9172,31211]],[[661430,244408],[12983,9039]],[[674413,253447],[16970,33917],[17968,22236]],[[709351,309600],[13802,-4157],[18101,15705],[15220,-29759],[10767,-2838]],[[328378,244935],[-4476,-19795],[-15397,6401],[5516,16232],[14357,-2838]],[[284268,343187],[25611,33520],[25943,23161],[31171,13461],[32590,-924]],[[399583,412405],[30175,-27978]],[[450738,262355],[820,-84130],[-5317,-36358],[-19518,-86770]],[[420630,37281],[-6801,5477],[-14490,23095],[-4563,12735],[-909,11613],[2437,23557],[-1728,13593],[-4298,15770],[-6713,9304],[-35226,31672],[-24791,3960],[-4520,25800],[-4851,3761],[-7267,1517],[-22022,-21115]],[[284888,198020],[3212,34312],[-1595,19796],[333,63411],[-3900,14253]],[[282938,329792],[-11254,6004],[12584,7391]],[[284932,497459],[-15154,24810]],[[269778,522269],[3789,26394],[14866,18080],[7200,660],[24171,-14319]],[[319804,553084],[42759,14319],[14467,-9700],[4652,-11745],[222,-9172],[17458,-12867],[12783,-3299],[8264,-12669],[10434,-4157],[5451,13197],[-510,7126],[-7511,19465],[-6690,8512],[421,8249],[3013,9633],[10634,6731],[12650,-5411],[4365,7522]],[[452666,578818],[3079,-24612],[6846,-14913]],[[462591,539293],[22487,-10425]],[[485078,528868],[3944,-12273],[66,-12933],[-7820,-36688],[2968,-48631]],[[399583,412405],[-11077,1055],[-31726,-2705],[-39236,-25998]],[[776391,316199],[-9150,-27648]],[[709351,309600],[-111,19070],[-6890,15111],[-20294,22104]],[[682056,365885],[-9216,2640],[-6580,-3563]],[[666260,364962],[-7400,-13131],[-8463,-35038]],[[650397,316793],[-6979,2639],[-8197,6203]],[[635221,325635],[-31415,51996],[-9128,20521]],[[594678,398152],[8950,14649]],[[603628,412801],[9283,-5609],[2238,13197],[-8574,35236],[7909,55823],[-2880,22435]],[[611604,533883],[9903,8974],[16151,4157],[16483,-12999],[4830,6466]],[[658971,540481],[-12518,-46321],[6337,-26790],[8086,-12141],[10967,-33125],[11853,-14120],[22287,5806],[22421,-1517],[15420,-24481]],[[743824,387792],[13049,11482]],[[756873,399274],[2813,11679]],[[756873,399274],[-6093,-6269],[-6956,-5213]],[[658971,540481],[2304,16430],[-2902,8512]],[[620998,241174],[-10391,-22039],[-9172,16233],[8109,19927],[8862,1188],[2592,-15309]],[[542481,136654],[-11609,51007],[-2415,28637]],[[522852,269086],[-8773,12141]],[[514079,281227],[10989,10690],[11830,20257]],[[536898,312174],[17148,48103],[14401,18739],[23971,12142]],[[592418,391158],[2260,6994]],[[635221,325635],[15176,-8842]],[[650397,316793],[3080,-14715]],[[653477,302078],[-2969,-26658],[2437,-23160],[1706,-5807]],[[654651,246453],[6779,-2045]],[[679176,198812],[-17679,132],[-18101,-14055],[-13935,8512],[-13404,-3299],[-7577,10426],[-12118,-7127],[-24326,-34114],[-18256,-3233],[-11299,-19400]],[[674413,253447],[-9327,-8248],[-10435,1254]],[[654651,246453],[-3434,16760],[0,25008],[2260,13857]],[[666260,364962],[15796,923]],[[514079,281227],[-30507,44540]],[[485078,528868],[-15486,3893],[-7001,6532]],[[452666,578818],[3190,23821],[6159,11019]],[[462015,613658],[21978,-2705],[24769,-42230],[11720,-5015],[6447,2969],[11431,25272],[15354,-16958],[-4232,-21247],[-10213,-12405],[775,-15045],[21047,21511],[28026,9172],[17635,-23688],[4852,594]],[[603628,412801],[-11210,-21643]],[[592418,391158],[-17236,-7127],[-13205,-12273],[-13802,-24282],[-11277,-35302]],[[269778,522269],[-3500,12274],[-14999,19069]],[[251279,553612],[-10235,-2639],[-25079,-22699],[-27583,-34906]],[[176507,487759],[-6624,4685],[-18322,-3431],[-7068,-4949]],[[144493,484064],[-7444,-15440],[-9571,-10624],[-3943,-1188]],[[123535,456812],[-1529,15507],[421,18278]],[[122427,490597],[4520,14780],[16062,16892],[20272,8050],[6048,12208],[-14888,98581],[5428,24480],[6181,5213],[19009,-3431],[5915,4289],[-13382,51468],[-1085,24150]],[[176507,747277],[7466,5477],[15531,-24810],[5605,396],[6380,29363],[-2703,13197],[5849,16364],[6314,12273],[25988,15441],[3788,24216],[16727,5147],[5915,-14913],[18655,-6994],[12584,10360],[12340,3101],[2348,-8050],[-6846,-23755],[-1883,-15770]],[[310565,788320],[-10058,-20191],[-2703,-11680],[-1927,-24942],[13270,-62026],[1884,-51600],[2858,-30683],[5915,-34114]],[[122427,490597],[1108,-33785]],[[123535,456812],[-11831,4817],[-15818,15507]],[[95886,477136],[-3035,10293],[-14733,9040],[8064,46190],[13891,-13923],[4741,16628],[-4852,22237],[8818,15704],[9681,5015],[-3699,9238],[-12540,9172],[-3966,20653],[4897,20719],[-3833,13065],[-10524,-13923],[-8862,6005],[-4719,22897],[-6690,-13857],[-23307,37017],[-2216,25141],[-10058,15308],[12362,21907],[14312,-3827],[-1993,15242],[12495,-11877],[3589,-10887],[17037,-22633],[9305,-990],[13027,26658],[16771,2969],[3478,-7720],[3567,-25008],[4143,-4619],[16084,-462],[19386,28769]],[[257660,330584],[7178,4685],[18100,-5477]],[[284888,198020],[-4342,-2441],[-10967,19333],[-8862,4817],[-13005,-2309],[-3700,11745],[-7266,1122],[-17148,-49819],[-931,-18409],[14755,-29100],[-88,-7720],[-9150,-26790],[-4497,5411],[-7422,0]],[[212265,103860],[620,11745],[-4497,34312],[-11787,33257],[-18809,38865],[-14223,54701],[-1706,13263],[2680,7522],[18322,25140],[-24370,68163],[-10324,61629],[-377,22567],[-3301,9040]],[[144493,484064],[16040,8050],[15974,-4355]],[[310565,788320],[4852,-16562],[22266,-16892],[55209,-10954],[2903,-10821],[-4232,-23359],[8219,-11415],[15841,8644],[10213,-528],[6979,-12735],[0,-9898],[-4497,-26196],[10523,-23029],[16949,-21379],[6225,462]],[[123535,456812],[8729,5213],[12229,22039]],[[212265,103860],[-6536,-10821],[-14157,15836],[-8241,-12669],[-33543,-8248],[-24658,9567],[-13226,-8050],[-17370,-23886],[-8330,12801],[1041,20587],[-5206,7984],[-14401,-25338],[-1019,-20521],[8641,-19598],[-3567,-7192],[-36002,45728],[-1617,14054],[10568,41769],[16350,35895],[11144,8248],[-7023,20522],[-26763,22632],[930,13725],[-20648,29693],[11122,31607],[9283,-10491],[-4409,-20324],[7089,-7984],[16993,21643],[5893,-5939],[3567,-17354],[10812,-791],[4763,13395],[-8906,24414],[14666,15176],[26519,-11019],[2792,8842],[-3080,23556],[-5915,13395],[-16860,8182],[-18122,-11811],[-12141,32003],[-8397,-3365],[-13536,-15045],[5494,-17024],[-24348,-19465],[-8862,6136],[-13049,52920],[21978,-15507],[12473,11680],[10656,19465],[13138,2442],[10147,16826],[3722,33058],[9061,5807],[17657,-5543],[3656,9172],[-6602,22501]]],"bbox":[42.1994,53.6612,46.7131,55.1767],"transform":{"scale":[0.000004513704513704514,0.0000015155015155015113],"translate":[42.1994,53.6612]}}