{"type":"Topology","objects":{"muni":{"type":"GeometryCollection","geometries":[{"type":"MultiPolygon","arcs":[[[0,1,2,3,4,5,6,7,8]]],"properties":{"GID_2":"RUS.43.1_1","GID_0":"RUS","COUNTRY":"Russia","GID_1":"RUS.43_1","NAME_1":"MoscowCity","NL_NAME_1":"NA","NAME_2":"Central","VARNAME_2":"CentralAdministrativeOkrug","NL_NAME_2":"NA","TYPE_2":"Okrug","ENGTYPE_2":"District","CC_2":"NA","HASC_2":"NA"}},{"type":"MultiPolygon","arcs":[[[9,10,11]],[[12]]],"properties":{"GID_2":"RUS.43.2_1","GID_0":"RUS","COUNTRY":"Russia","GID_1":"RUS.43_1","NAME_1":"MoscowCity","NL_NAME_1":"NA","NAME_2":"Eastern","VARNAME_2":"EasternAdministrativeOkrug","NL_NAME_2":"NA","TYPE_2":"Okrug","ENGTYPE_2":"District","CC_2":"NA","HASC_2":"NA"}},{"type":"MultiPolygon","arcs":[[[-6,13,14,15,16,-11,17,18]]],"properties":{"GID_2":"RUS.43.3_1","GID_0":"RUS","COUNTRY":"Russia","GID_1":"RUS.43_1","NAME_1":"MoscowCity","NL_NAME_1":"NA","NAME_2":"North-Eastern","VARNAME_2":"North-EasternAdministrativeOkr","NL_NAME_2":"NA","TYPE_2":"Okrug","ENGTYPE_2":"District","CC_2":"NA","HASC_2":"NA"}},{"type":"MultiPolygon","arcs":[[[19,20,21,22,23,24]]],"properties":{"GID_2":"RUS.43.4_1","GID_0":"RUS","COUNTRY":"Russia","GID_1":"RUS.43_1","NAME_1":"MoscowCity","NL_NAME_1":"NA","NAME_2":"North-Western","VARNAME_2":"North-WesternAdministrativeOkr","NL_NAME_2":"Химки","TYPE_2":"Okrug","ENGTYPE_2":"District","CC_2":"NA","HASC_2":"RU.MS.KK"}},{"type":"MultiPolygon","arcs":[[[-24,25,-22,26,-16,27,28]],[[29]],[[30]]],"properties":{"GID_2":"RUS.43.5_1","GID_0":"RUS","COUNTRY":"Russia","GID_1":"RUS.43_1","NAME_1":"MoscowCity","NL_NAME_1":"NA","NAME_2":"Northern","VARNAME_2":"NorthernAdministrativeOkrug","NL_NAME_2":"NA","TYPE_2":"Okrug","ENGTYPE_2":"District","CC_2":"NA","HASC_2":"NA"}},{"type":"MultiPolygon","arcs":[[[31,32,33,34,-8,35]]],"properties":{"GID_2":"RUS.43.6_1","GID_0":"RUS","COUNTRY":"Russia","GID_1":"RUS.43_1","NAME_1":"MoscowCity","NL_NAME_1":"NA","NAME_2":"South-Eastern","VARNAME_2":"South-EasternAdministrativeOkr","NL_NAME_2":"NA","TYPE_2":"Okrug","ENGTYPE_2":"District","CC_2":"NA","HASC_2":"NA"}},{"type":"MultiPolygon","arcs":[[[36,37,38,39,40,41]]],"properties":{"GID_2":"RUS.43.7_1","GID_0":"RUS","COUNTRY":"Russia","GID_1":"RUS.43_1","NAME_1":"MoscowCity","NL_NAME_1":"NA","NAME_2":"South-Western","VARNAME_2":"South-WesternAdministrativeOkr","NL_NAME_2":"NA","TYPE_2":"Okrug","ENGTYPE_2":"District","CC_2":"NA","HASC_2":"NA"}},{"type":"MultiPolygon","arcs":[[[-32,42,-41,43,-39,44,45,46]]],"properties":{"GID_2":"RUS.43.8_1","GID_0":"RUS","COUNTRY":"Russia","GID_1":"RUS.43_1","NAME_1":"MoscowCity","NL_NAME_1":"NA","NAME_2":"Southern","VARNAME_2":"SouthernAdministrativeOkrug","NL_NAME_2":"NA","TYPE_2":"Okrug","ENGTYPE_2":"District","CC_2":"NA","HASC_2":"NA"}},{"type":"MultiPolygon","arcs":[[[47]],[[48]],[[-20,49,50,-1,51,-37,52]],[[53]]],"properties":{"GID_2":"RUS.43.9_1","GID_0":"RUS","COUNTRY":"Russia","GID_1":"RUS.43_1","NAME_1":"MoscowCity","NL_NAME_1":"NA","NAME_2":"Western","VARNAME_2":"WesternAdministrativeOkrug","NL_NAME_2":"NA","TYPE_2":"Okrug","ENGTYPE_2":"District","CC_2":"NA","HASC_2":"NA"}},{"type":"MultiPolygon","arcs":[[[54]]],"properties":{"GID_2":"RUS.43.10_1","GID_0":"RUS","COUNTRY":"Russia","GID_1":"RUS.43_1","NAME_1":"MoscowCity","NL_NAME_1":"NA","NAME_2":"Zelenogradsky","VARNAME_2":"ZelenogradskyAdministrativeOkr","NL_NAME_2":"NA","TYPE_2":"Okrug","ENGTYPE_2":"District","CC_2":"NA","HASC_2":"NA"}}]}},"arcs":[[[532261,461567],[7427,28944]],[[539688,490511],[-55150,-14951],[-16922,26069]],[[467616,501629],[40419,28752],[40418,8434],[9618,28944]],[[558071,567759],[28366,-17827]],[[586437,549932],[6087,19552],[21184,-1150]],[[613708,568334],[852,11117]],[[614560,579451],[95934,-43128]],[[710494,536323],[-51863,-34694],[-365,-12843],[32627,-18401]],[[690893,470385],[-4383,-21852],[-27149,-7859],[-7182,11118],[-61603,-23002],[-24105,4984],[-12539,-22810],[-44802,2300],[-7548,22810],[30679,25493]],[[633917,563350],[244,19551],[23253,47921]],[[657414,630822],[365,27793],[24592,19935],[-4261,12843],[33966,-15526],[5600,25685],[-22279,2108],[40784,33928]],[[736181,737588],[127466,-104274],[9009,-74373],[-3653,-74947],[56976,6134],[1096,-19360],[-24958,-9201],[3409,-19359],[60385,10350],[34088,-18209],[-30192,-27411],[-38715,-3066],[-28609,-19552],[-181520,104850],[-15096,55395],[-71950,18785]],[[910639,626413],[25932,-7859],[-32871,-18976],[-32018,12076],[33357,23768],[5600,-9009]],[[613708,568334],[-20818,1533],[-6453,-19935]],[[586437,549932],[-33479,23194],[-12661,52712]],[[540297,625838],[5478,32202]],[[545775,658040],[-15096,101208],[-32627,23768],[-24471,74181],[26419,6709],[-3166,16292],[42610,5559],[6940,-10926],[-16070,-8050],[6087,-18210],[-9740,-11692],[-487,-40253],[158145,-25111],[51862,-33927]],[[657414,630822],[-23497,-67472]],[[633917,563350],[-5357,5750],[-14000,10351]],[[417092,479585],[-26540,-12650],[-18383,16101],[33723,24727],[-14609,28368]],[[391283,536131],[-100195,-12459],[-2435,38911],[23010,30094],[-19601,4984],[21305,3067],[7426,36803],[-52836,-16868],[-12418,36227],[9861,7859],[-19235,6134],[10957,25302],[23131,15143],[22035,766],[487,-26835],[19236,1917],[14366,26452],[-42124,26068],[5601,20702],[-13270,4409],[1217,22810],[27636,11500],[24592,-62871],[33601,-767]],[[373630,735479],[20209,-18209]],[[393839,717270],[26906,-81273],[20453,-5175]],[[441198,630822],[-6818,-24152]],[[434380,606670],[42732,-98332],[-14853,-2876],[-36888,13801],[-8279,-39678]],[[441198,630822],[-20088,4792],[-27271,81656]],[[373630,735479],[51863,14376],[68663,42362],[34940,-29711],[16679,-104466]],[[540297,625838],[17774,-58079]],[[558071,567759],[-8522,-28177],[-28731,-7093],[-47602,-20318],[-38836,94499]],[[308741,798734],[-17653,-8626],[-6087,13226],[13879,12460],[-24227,14759],[-13270,-10542],[-16679,19551],[26540,9776],[-20088,29135],[99952,-1533],[608,-13034],[-18140,-14568],[6209,-16293],[-11930,1725],[-6696,-15909],[5478,-13035],[-17896,-7092]],[[388239,909717],[-39079,-21085],[-71098,9201],[73898,56163],[12174,-16485],[47845,-13801],[-23740,-13993]],[[808740,244968],[-12174,47920],[-86925,-18401]],[[709641,274487],[-47236,22810],[-122,28752]],[[662283,326049],[47358,37570],[-55271,28177]],[[654370,391796],[-7305,57696],[39932,-575],[3896,21468]],[[710494,536323],[8887,-46003],[136717,-76098],[38593,-23768],[-2435,-47537],[-37862,22618],[10713,-57504],[-56367,-63063]],[[397370,267778],[61967,47345],[20453,22810],[-15461,11310]],[[464329,349243],[79985,67663],[45897,-63447],[-11565,-16101]],[[578646,337358],[9374,-18784],[-8522,-41979],[-32506,7093],[-3652,-24535],[15218,-3259]],[[558558,255894],[-22888,-44853],[13879,-7668]],[[549549,203373],[-9252,-44470]],[[540297,158903],[35549,-31244],[-16071,-16867],[-10591,-63063],[22522,-24344],[-1582,-23385],[-29949,6517],[3530,29519],[-55028,-32011],[10836,23960],[-5114,9009],[-23740,15143],[-49062,1150],[1826,22810],[62089,34503],[22157,-4409],[9131,14376],[-20940,31628],[16192,5558],[-3530,12268],[-48941,21468],[-62211,76289]],[[808740,244968],[-121256,-94499],[-113099,-1533],[-3896,-15909],[-30192,25876]],[[549549,203373],[-13757,8051],[22766,44470]],[[578646,337358],[10348,21660],[-39567,52137],[13757,19552],[85951,12459],[5235,-51370]],[[654370,391796],[52593,-20510],[-2678,-20893],[-42002,-24344]],[[662283,326049],[-365,-27985],[47723,-23577]],[[145118,210082],[16314,20127],[47358,2492],[16192,-12076],[-8279,-13035],[6209,-15526],[-94960,-28752],[17166,46770]],[[102995,202607],[-33480,5175],[31410,22618],[14975,-12842],[-12905,-14951]],[[417092,479585],[8888,39870],[41636,-17826]],[[467616,501629],[16192,-26069],[55880,14951]],[[532261,461567],[-31531,-28560],[3652,-15909],[18383,-7668],[-58436,-60187]],[[397370,267778],[-26175,41403],[-23740,1150],[1339,-39869],[-8887,-18210],[-33479,-958],[-10592,-9584],[-55028,30668],[24349,48112],[5235,-9775],[19722,12842],[7548,-15334],[6209,12651],[42123,-1150],[-12539,12076],[15705,18401],[-5844,19168],[-37375,42553],[-19601,114050],[104943,10159]],[[290479,558558],[-27635,-39103],[-38228,-1533],[39932,38144],[-2800,19360],[28731,-16868]],[[96177,905309],[10105,-39103],[-87655,24535],[-4261,47728],[11809,15335],[-26175,42936],[93134,3259],[49914,-31436],[14488,-15526],[-7670,-9584],[16435,-10926],[-5600,-28560],[-48210,26068],[-16314,-24726]]],"bbox":[37.1633,55.4817,37.9847,56.0034],"transform":{"scale":[8.214008214008184e-7,5.217005217005244e-7],"translate":[37.1633,55.4817]}}