{"type":"Topology","objects":{"muni":{"type":"GeometryCollection","geometries":[{"type":"MultiPolygon","arcs":[[[0,1,2,3,4,5,6,7,8,9,10,11,12,13,14],[15]]],"properties":{"GID_2":"RUS.44.1_1","GID_0":"RUS","COUNTRY":"Russia","GID_1":"RUS.44_1","NAME_1":"Moskva","NL_NAME_1":"Московскаяобласть","NAME_2":"Balashikhinskiyrayon","VARNAME_2":"NA","NL_NAME_2":"Балашихинскийрайон","TYPE_2":"Raion","ENGTYPE_2":"NA","CC_2":"NA","HASC_2":"RU.MS.BR"}},{"type":"MultiPolygon","arcs":[[[16,17,18,19,20,21,22,23,24,25,26,27,28,29,30,31]]],"properties":{"GID_2":"RUS.44.2_1","GID_0":"RUS","COUNTRY":"Russia","GID_1":"RUS.44_1","NAME_1":"Moskva","NL_NAME_1":"Московскаяобласть","NAME_2":"Chekhovskiyrayon","VARNAME_2":"NA","NL_NAME_2":"Чеховскийрайон","TYPE_2":"Raion","ENGTYPE_2":"NA","CC_2":"NA","HASC_2":"RU.MS.CR"}},{"type":"MultiPolygon","arcs":[[[32,33,34,35,36,37,38,39,40,41]]],"properties":{"GID_2":"RUS.44.3_1","GID_0":"RUS","COUNTRY":"Russia","GID_1":"RUS.44_1","NAME_1":"Moskva","NL_NAME_1":"Московскаяобласть","NAME_2":"Chernogolovka","VARNAME_2":"NA","NL_NAME_2":"Черноголо́вка","TYPE_2":"Cityunderoblastjurisdiction","ENGTYPE_2":"City","CC_2":"NA","HASC_2":"NA"}},{"type":"MultiPolygon","arcs":[[[42,43,44,45,46,47,48,49,50,51,52,53,54,55,56,57,58,59,60,61,62,63,64,65,66,67,68,69,70,71]]],"properties":{"GID_2":"RUS.44.4_1","GID_0":"RUS","COUNTRY":"Russia","GID_1":"RUS.44_1","NAME_1":"Moskva","NL_NAME_1":"Московскаяобласть","NAME_2":"Dmitrovskiyrayon","VARNAME_2":"NA","NL_NAME_2":"Дмитровскийрайон","TYPE_2":"Raion","ENGTYPE_2":"NA","CC_2":"NA","HASC_2":"RU.MS.DR"}},{"type":"MultiPolygon","arcs":[[[72,73,74,75]]],"properties":{"GID_2":"RUS.44.5_1","GID_0":"RUS","COUNTRY":"Russia","GID_1":"RUS.44_1","NAME_1":"Moskva","NL_NAME_1":"Московскаяобласть","NAME_2":"Dolgoprudny","VARNAME_2":"Dolgopudnyy","NL_NAME_2":"NA","TYPE_2":"Gorsovet","ENGTYPE_2":"City","CC_2":"NA","HASC_2":"RU.MS.DP"}},{"type":"MultiPolygon","arcs":[[[-26,76,77,78,79,80,81,82,83,84,85,86,87,88,89,90,91,92,93]]],"properties":{"GID_2":"RUS.44.6_1","GID_0":"RUS","COUNTRY":"Russia","GID_1":"RUS.44_1","NAME_1":"Moskva","NL_NAME_1":"Московскаяобласть","NAME_2":"Domodedovskiyrayon","VARNAME_2":"NA","NL_NAME_2":"Домодедовскийрайон","TYPE_2":"Raion","ENGTYPE_2":"NA","CC_2":"NA","HASC_2":"RU.MS.DD"}},{"type":"MultiPolygon","arcs":[[[94,95,96,97,98,99]]],"properties":{"GID_2":"RUS.44.7_1","GID_0":"RUS","COUNTRY":"Russia","GID_1":"RUS.44_1","NAME_1":"Moskva","NL_NAME_1":"Московскаяобласть","NAME_2":"Dzerzinski","VARNAME_2":"Dzerzhinskyy","NL_NAME_2":"NA","TYPE_2":"Cityunderoblastjurisdiction","ENGTYPE_2":"City","CC_2":"NA","HASC_2":"RU.MS.DZ"}},{"type":"MultiPolygon","arcs":[[[100]]],"properties":{"GID_2":"RUS.44.8_1","GID_0":"RUS","COUNTRY":"Russia","GID_1":"RUS.44_1","NAME_1":"Moskva","NL_NAME_1":"Московскаяобласть","NAME_2":"Egor'evsk","VARNAME_2":"NA","NL_NAME_2":"NA","TYPE_2":"Gorod","ENGTYPE_2":"City","CC_2":"NA","HASC_2":"RU.MS.ER"}},{"type":"MultiPolygon","arcs":[[[101,102,103,104,105,106,107,108,109,110,111,112,113,114,115,116,117,118,119],[-101]]],"properties":{"GID_2":"RUS.44.9_1","GID_0":"RUS","COUNTRY":"Russia","GID_1":"RUS.44_1","NAME_1":"Moskva","NL_NAME_1":"Московскаяобласть","NAME_2":"Egor'evskiyrayon","VARNAME_2":"NA","NL_NAME_2":"Егорьевскийрайон","TYPE_2":"Raion","ENGTYPE_2":"NA","CC_2":"NA","HASC_2":"RU.MS.EG"}},{"type":"MultiPolygon","arcs":[[[120,121,122,123]]],"properties":{"GID_2":"RUS.44.10_1","GID_0":"RUS","COUNTRY":"Russia","GID_1":"RUS.44_1","NAME_1":"Moskva","NL_NAME_1":"Московскаяобласть","NAME_2":"Elektrogorsk","VARNAME_2":"NA","NL_NAME_2":"Электрого́рск","TYPE_2":"Cityunderoblastjurisdiction","ENGTYPE_2":"City","CC_2":"NA","HASC_2":"NA"}},{"type":"MultiPolygon","arcs":[[[124,125,126,127]]],"properties":{"GID_2":"RUS.44.11_1","GID_0":"RUS","COUNTRY":"Russia","GID_1":"RUS.44_1","NAME_1":"Moskva","NL_NAME_1":"Московскаяобласть","NAME_2":"Elektrostahl","VARNAME_2":"Zhukovskiy","NL_NAME_2":"NA","TYPE_2":"Gorod","ENGTYPE_2":"Town","CC_2":"NA","HASC_2":"RU.MS.EL"}},{"type":"MultiPolygon","arcs":[[[128]]],"properties":{"GID_2":"RUS.44.12_1","GID_0":"RUS","COUNTRY":"Russia","GID_1":"RUS.44_1","NAME_1":"Moskva","NL_NAME_1":"Московскаяобласть","NAME_2":"Fryazino","VARNAME_2":"NA","NL_NAME_2":"Фрязино","TYPE_2":"Gorod","ENGTYPE_2":"City","CC_2":"NA","HASC_2":"RU.MS.FR"}},{"type":"MultiPolygon","arcs":[[[129]]],"properties":{"GID_2":"RUS.44.13_1","GID_0":"RUS","COUNTRY":"Russia","GID_1":"RUS.44_1","NAME_1":"Moskva","NL_NAME_1":"Московскаяобласть","NAME_2":"Istra","VARNAME_2":"NA","NL_NAME_2":"Истра","TYPE_2":"Gorod","ENGTYPE_2":"City","CC_2":"NA","HASC_2":"RU.MS.IG"}},{"type":"MultiPolygon","arcs":[[[130,131,132,133,134,135,136,137,138,139,140,141,142,143,144,145,146,147,148,149,150,151,152,153,154,155,156,157,158,159],[-130]]],"properties":{"GID_2":"RUS.44.14_1","GID_0":"RUS","COUNTRY":"Russia","GID_1":"RUS.44_1","NAME_1":"Moskva","NL_NAME_1":"Московскаяобласть","NAME_2":"Istrinskiyrayon","VARNAME_2":"NA","NL_NAME_2":"Истринскийрайон","TYPE_2":"Raion","ENGTYPE_2":"NA","CC_2":"NA","HASC_2":"RU.MS.IR"}},{"type":"MultiPolygon","arcs":[[[160,161]]],"properties":{"GID_2":"RUS.44.15_1","GID_0":"RUS","COUNTRY":"Russia","GID_1":"RUS.44_1","NAME_1":"Moskva","NL_NAME_1":"Московскаяобласть","NAME_2":"Ivanteevka","VARNAME_2":"NA","NL_NAME_2":"Ивантеевка","TYPE_2":"Gorod","ENGTYPE_2":"City","CC_2":"NA","HASC_2":"RU.MS.IV"}},{"type":"MultiPolygon","arcs":[[[162,163]]],"properties":{"GID_2":"RUS.44.16_1","GID_0":"RUS","COUNTRY":"Russia","GID_1":"RUS.44_1","NAME_1":"Moskva","NL_NAME_1":"Московскаяобласть","NAME_2":"Karasnoarmesyk","VARNAME_2":"NA","NL_NAME_2":"NA","TYPE_2":"Okrug","ENGTYPE_2":"District","CC_2":"NA","HASC_2":"NA"}},{"type":"MultiPolygon","arcs":[[[164,165,166,167,168,169,170,171,172,173]]],"properties":{"GID_2":"RUS.44.17_1","GID_0":"RUS","COUNTRY":"Russia","GID_1":"RUS.44_1","NAME_1":"Moskva","NL_NAME_1":"Московскаяобласть","NAME_2":"Kashirskiyrayon","VARNAME_2":"NA","NL_NAME_2":"Каширскийрайон","TYPE_2":"Raion","ENGTYPE_2":"NA","CC_2":"NA","HASC_2":"RU.MS.KI"}},{"type":"MultiPolygon","arcs":[[[174,175,176,177,178,-74,179]],[[180]]],"properties":{"GID_2":"RUS.44.18_1","GID_0":"RUS","COUNTRY":"Russia","GID_1":"RUS.44_1","NAME_1":"Moskva","NL_NAME_1":"Московскаяобласть","NAME_2":"Khimki","VARNAME_2":"NA","NL_NAME_2":"NA","TYPE_2":"Gorsovet","ENGTYPE_2":"City","CC_2":"NA","HASC_2":"RU.MS.KK"}},{"type":"MultiPolygon","arcs":[[[181]]],"properties":{"GID_2":"RUS.44.19_1","GID_0":"RUS","COUNTRY":"Russia","GID_1":"RUS.44_1","NAME_1":"Moskva","NL_NAME_1":"Московскаяобласть","NAME_2":"Klimovsk","VARNAME_2":"NA","NL_NAME_2":"Климовск","TYPE_2":"Gorod","ENGTYPE_2":"City","CC_2":"NA","HASC_2":"RU.MS.KL"}},{"type":"MultiPolygon","arcs":[[[182]]],"properties":{"GID_2":"RUS.44.20_1","GID_0":"RUS","COUNTRY":"Russia","GID_1":"RUS.44_1","NAME_1":"Moskva","NL_NAME_1":"Московскаяобласть","NAME_2":"Klin","VARNAME_2":"NA","NL_NAME_2":"Клин","TYPE_2":"Gorod","ENGTYPE_2":"City","CC_2":"NA","HASC_2":"RU.MS.KG"}},{"type":"MultiPolygon","arcs":[[[-56,183,-54,184,185,-51,186,187,188,189,190,191,192,193,194,195,196,197,198,199],[-183]]],"properties":{"GID_2":"RUS.44.21_1","GID_0":"RUS","COUNTRY":"Russia","GID_1":"RUS.44_1","NAME_1":"Moskva","NL_NAME_1":"Московскаяобласть","NAME_2":"Klinskiyrayon","VARNAME_2":"NA","NL_NAME_2":"Клинскийрайон","TYPE_2":"Raion","ENGTYPE_2":"NA","CC_2":"NA","HASC_2":"RU.MS.KR"}},{"type":"MultiPolygon","arcs":[[[-104,200,-102,201,202,203,204,205,206,207,208,209,210,211,212,213,214,215,216,217,218,219,220,221,222,223]]],"properties":{"GID_2":"RUS.44.22_1","GID_0":"RUS","COUNTRY":"Russia","GID_1":"RUS.44_1","NAME_1":"Moskva","NL_NAME_1":"Московскаяобласть","NAME_2":"Kolomenskiyrayon","VARNAME_2":"NA","NL_NAME_2":"Коломенскийрайон","TYPE_2":"Raion","ENGTYPE_2":"NA","CC_2":"NA","HASC_2":"RU.MS.KO"}},{"type":"MultiPolygon","arcs":[[[-210,224,225,-207,226,-205,227]]],"properties":{"GID_2":"RUS.44.23_1","GID_0":"RUS","COUNTRY":"Russia","GID_1":"RUS.44_1","NAME_1":"Moskva","NL_NAME_1":"Московскаяобласть","NAME_2":"Kolomna","VARNAME_2":"NA","NL_NAME_2":"Коломна","TYPE_2":"Gorod","ENGTYPE_2":"City","CC_2":"NA","HASC_2":"RU.MS.KM"}},{"type":"MultiPolygon","arcs":[[[228,229]]],"properties":{"GID_2":"RUS.44.24_1","GID_0":"RUS","COUNTRY":"Russia","GID_1":"RUS.44_1","NAME_1":"Moskva","NL_NAME_1":"Московскаяобласть","NAME_2":"Kotelniki","VARNAME_2":"NA","NL_NAME_2":"Котéльники","TYPE_2":"Cityunderoblastjurisdiction","ENGTYPE_2":"City","CC_2":"NA","HASC_2":"NA"}},{"type":"MultiPolygon","arcs":[[[230]]],"properties":{"GID_2":"RUS.44.25_1","GID_0":"RUS","COUNTRY":"Russia","GID_1":"RUS.44_1","NAME_1":"Moskva","NL_NAME_1":"Московскаяобласть","NAME_2":"Krasnogorsk","VARNAME_2":"NA","NL_NAME_2":"Красногорск","TYPE_2":"Gorod","ENGTYPE_2":"City","CC_2":"NA","HASC_2":"RU.MS.KS"}},{"type":"MultiPolygon","arcs":[[[231,232,233,234,235,236,237,238,239,240],[-231]]],"properties":{"GID_2":"RUS.44.26_1","GID_0":"RUS","COUNTRY":"Russia","GID_1":"RUS.44_1","NAME_1":"Moskva","NL_NAME_1":"Московскаяобласть","NAME_2":"Krasnogorskiyrayon","VARNAME_2":"NA","NL_NAME_2":"Красногорскийрайон","TYPE_2":"Raion","ENGTYPE_2":"NA","CC_2":"NA","HASC_2":"RU.MS.KN"}},{"type":"MultiPolygon","arcs":[[[241,242,243]]],"properties":{"GID_2":"RUS.44.27_1","GID_0":"RUS","COUNTRY":"Russia","GID_1":"RUS.44_1","NAME_1":"Moskva","NL_NAME_1":"Московскаяобласть","NAME_2":"Kraznoznamensk","VARNAME_2":"NA","NL_NAME_2":"NA","TYPE_2":"Closedadministrative-territoria","ENGTYPE_2":"City","CC_2":"NA","HASC_2":"NA"}},{"type":"MultiPolygon","arcs":[[[244,245,246,247,248,249,250,251,252,253,254,255,256,257,258]],[[259,-98,260,261,262,263,264,-83,265,266,267,268]]],"properties":{"GID_2":"RUS.44.28_1","GID_0":"RUS","COUNTRY":"Russia","GID_1":"RUS.44_1","NAME_1":"Moskva","NL_NAME_1":"Московскаяобласть","NAME_2":"Leninskiyrayon","VARNAME_2":"NA","NL_NAME_2":"Ленинскийрайон","TYPE_2":"Raion","ENGTYPE_2":"NA","CC_2":"NA","HASC_2":"RU.MS.LE"}},{"type":"MultiPolygon","arcs":[[[269,270,271,272,273]]],"properties":{"GID_2":"RUS.44.29_1","GID_0":"RUS","COUNTRY":"Russia","GID_1":"RUS.44_1","NAME_1":"Moskva","NL_NAME_1":"Московскаяобласть","NAME_2":"Lobnya","VARNAME_2":"NA","NL_NAME_2":"Лобня","TYPE_2":"Gorsovet","ENGTYPE_2":"District","CC_2":"NA","HASC_2":"RU.MS.LB"}},{"type":"MultiPolygon","arcs":[[[274,275,276,277,278]]],"properties":{"GID_2":"RUS.44.30_1","GID_0":"RUS","COUNTRY":"Russia","GID_1":"RUS.44_1","NAME_1":"Moskva","NL_NAME_1":"Московскаяобласть","NAME_2":"Lotoshinskiyrayon","VARNAME_2":"NA","NL_NAME_2":"Лотошинскийрайон","TYPE_2":"Raion","ENGTYPE_2":"NA","CC_2":"NA","HASC_2":"RU.MS.LT"}},{"type":"MultiPolygon","arcs":[[[-120,279,280,281,282,283,284,285,286,-213,287,288,-228,-204,289,-202]]],"properties":{"GID_2":"RUS.44.31_1","GID_0":"RUS","COUNTRY":"Russia","GID_1":"RUS.44_1","NAME_1":"Moskva","NL_NAME_1":"Московскаяобласть","NAME_2":"Lukhovitskiyrayon","VARNAME_2":"NA","NL_NAME_2":"Луховицкийрайон","TYPE_2":"Raion","ENGTYPE_2":"NA","CC_2":"NA","HASC_2":"RU.MS.LU"}},{"type":"MultiPolygon","arcs":[[[290,-261]]],"properties":{"GID_2":"RUS.44.32_1","GID_0":"RUS","COUNTRY":"Russia","GID_1":"RUS.44_1","NAME_1":"Moskva","NL_NAME_1":"Московскаяобласть","NAME_2":"Lytkarino","VARNAME_2":"NA","NL_NAME_2":"Лытка́рино","TYPE_2":"Gorod","ENGTYPE_2":"City","CC_2":"NA","HASC_2":"RU.MS.LY"}},{"type":"MultiPolygon","arcs":[[[-14,291,292,293,294,295,296,297,-96,298,299]]],"properties":{"GID_2":"RUS.44.33_1","GID_0":"RUS","COUNTRY":"Russia","GID_1":"RUS.44_1","NAME_1":"Moskva","NL_NAME_1":"Московскаяобласть","NAME_2":"Lyuberetskiyrayon","VARNAME_2":"NA","NL_NAME_2":"Люберецкийрайон","TYPE_2":"Raion","ENGTYPE_2":"NA","CC_2":"NA","HASC_2":"RU.MS.LR"}},{"type":"MultiPolygon","arcs":[[[300]]],"properties":{"GID_2":"RUS.44.34_1","GID_0":"RUS","COUNTRY":"Russia","GID_1":"RUS.44_1","NAME_1":"Moskva","NL_NAME_1":"Московскаяобласть","NAME_2":"Molodyozhny","VARNAME_2":"Molodezhnyy","NL_NAME_2":"NA","TYPE_2":"PosyolokGorodskogoTipa","ENGTYPE_2":"Town","CC_2":"NA","HASC_2":"RU.MS.MO"}},{"type":"MultiPolygon","arcs":[[[301]]],"properties":{"GID_2":"RUS.44.35_1","GID_0":"RUS","COUNTRY":"Russia","GID_1":"RUS.44_1","NAME_1":"Moskva","NL_NAME_1":"Московскаяобласть","NAME_2":"Mozhaysk","VARNAME_2":"NA","NL_NAME_2":"Можайск","TYPE_2":"Gorod","ENGTYPE_2":"City","CC_2":"NA","HASC_2":"RU.MS.MG"}},{"type":"MultiPolygon","arcs":[[[302,303,304,305,306,307,308,309,310,311,312,313,314,315,316,317,318,319],[-302]]],"properties":{"GID_2":"RUS.44.36_1","GID_0":"RUS","COUNTRY":"Russia","GID_1":"RUS.44_1","NAME_1":"Moskva","NL_NAME_1":"Московскаяобласть","NAME_2":"Mozhayskiyrayon","VARNAME_2":"NA","NL_NAME_2":"Можайскийрайон","TYPE_2":"Raion","ENGTYPE_2":"NA","CC_2":"NA","HASC_2":"RU.MS.MR"}},{"type":"MultiPolygon","arcs":[[[-76,320,321,322,323,324,-71,325,-69,326,-67,327,328,329]]],"properties":{"GID_2":"RUS.44.37_1","GID_0":"RUS","COUNTRY":"Russia","GID_1":"RUS.44_1","NAME_1":"Moskva","NL_NAME_1":"Московскаяобласть","NAME_2":"Mytishchinskiyrayon","VARNAME_2":"NA","NL_NAME_2":"Мытищинскийрайон","TYPE_2":"Raion","ENGTYPE_2":"NA","CC_2":"NA","HASC_2":"RU.MS.MT"}},{"type":"MultiPolygon","arcs":[[[-319,330,-317,331,332,333,334,335,336,337,338,339,340,341,342,343,-254,344,-252,345,346,347,348,349,350,351,352],[353],[-301]]],"properties":{"GID_2":"RUS.44.38_1","GID_0":"RUS","COUNTRY":"Russia","GID_1":"RUS.44_1","NAME_1":"Moskva","NL_NAME_1":"Московскаяобласть","NAME_2":"Naro-Fominskiyrayon","VARNAME_2":"NA","NL_NAME_2":"Наро-Фоминскийрайон","TYPE_2":"Raion","ENGTYPE_2":"NA","CC_2":"NA","HASC_2":"RU.MS.NF"}},{"type":"MultiPolygon","arcs":[[[-6,354,355,356,357,358,359,360,361,-37,362,363,364,-33,365,366,367,368,369,370,371,372,-127,373,-125,374,375,376,377,378,379,-11,380,381]]],"properties":{"GID_2":"RUS.44.39_1","GID_0":"RUS","COUNTRY":"Russia","GID_1":"RUS.44_1","NAME_1":"Moskva","NL_NAME_1":"Московскаяобласть","NAME_2":"Noginskiyrayon","VARNAME_2":"NA","NL_NAME_2":"Ногинскийрайон","TYPE_2":"Raion","ENGTYPE_2":"NA","CC_2":"NA","HASC_2":"RU.MS.NG"}},{"type":"MultiPolygon","arcs":[[[382,383]],[[384,385]]],"properties":{"GID_2":"RUS.44.40_1","GID_0":"RUS","COUNTRY":"Russia","GID_1":"RUS.44_1","NAME_1":"Moskva","NL_NAME_1":"Московскаяобласть","NAME_2":"Odintsovo","VARNAME_2":"NA","NL_NAME_2":"Одинтсовo","TYPE_2":"Gorod","ENGTYPE_2":"City","CC_2":"NA","HASC_2":"RU.MS.OT"}},{"type":"MultiPolygon","arcs":[[[386,-257,387,-342,388,-243,389,390,-339,391,392,393,394,395,396,397,398,399,400,-139,401,-137,402,-135,403,-233,404,405],[-383,406],[407,408]],[[409]]],"properties":{"GID_2":"RUS.44.41_1","GID_0":"RUS","COUNTRY":"Russia","GID_1":"RUS.44_1","NAME_1":"Moskva","NL_NAME_1":"Московскаяобласть","NAME_2":"Odintsovskiyrayon","VARNAME_2":"NA","NL_NAME_2":"Одинтсовскийрайон","TYPE_2":"Raion","ENGTYPE_2":"District","CC_2":"NA","HASC_2":"RU.MS.OD"}},{"type":"MultiPolygon","arcs":[[[410]]],"properties":{"GID_2":"RUS.44.42_1","GID_0":"RUS","COUNTRY":"Russia","GID_1":"RUS.44_1","NAME_1":"Moskva","NL_NAME_1":"Московскаяобласть","NAME_2":"Orekhovo-Zuevo","VARNAME_2":"Orekhovo-Zuyevo","NL_NAME_2":"Орехово-Зуево","TYPE_2":"Gorod","ENGTYPE_2":"City","CC_2":"NA","HASC_2":"RU.MS.OK"}},{"type":"MultiPolygon","arcs":[[[-111,411,412,-108,413,414,415,416,417,418,419,420,-122,421,422,423,424],[-411]]],"properties":{"GID_2":"RUS.44.43_1","GID_0":"RUS","COUNTRY":"Russia","GID_1":"RUS.44_1","NAME_1":"Moskva","NL_NAME_1":"Московскаяобласть","NAME_2":"Orekhovo-Zuevskiyrayon","VARNAME_2":"NA","NL_NAME_2":"Орехово-Зуевскийрайон","TYPE_2":"Raion","ENGTYPE_2":"NA","CC_2":"NA","HASC_2":"RU.MS.OZ"}},{"type":"MultiPolygon","arcs":[[[-172,425,-170,426,427,428,429,430,431,432,-214,433,-286,434,435,436],[437]]],"properties":{"GID_2":"RUS.44.44_1","GID_0":"RUS","COUNTRY":"Russia","GID_1":"RUS.44_1","NAME_1":"Moskva","NL_NAME_1":"Московскаяобласть","NAME_2":"Ozerskiyrayon","VARNAME_2":"NA","NL_NAME_2":"Озерскийрайон","TYPE_2":"Raion","ENGTYPE_2":"NA","CC_2":"NA","HASC_2":"RU.MS.OR"}},{"type":"MultiPolygon","arcs":[[[-438]]],"properties":{"GID_2":"RUS.44.45_1","GID_0":"RUS","COUNTRY":"Russia","GID_1":"RUS.44_1","NAME_1":"Moskva","NL_NAME_1":"Московскаяобласть","NAME_2":"Ozery","VARNAME_2":"Ozyory","NL_NAME_2":"Озёры","TYPE_2":"Gorod","ENGTYPE_2":"City","CC_2":"NA","HASC_2":"RU.MS.OG"}},{"type":"MultiPolygon","arcs":[[[-124,438,-420,439,-418,440,441,442,-376,443,444,445,446,447,-369,448]]],"properties":{"GID_2":"RUS.44.46_1","GID_0":"RUS","COUNTRY":"Russia","GID_1":"RUS.44_1","NAME_1":"Moskva","NL_NAME_1":"Московскаяобласть","NAME_2":"Pavlovo-Posadskiyrayon","VARNAME_2":"NA","NL_NAME_2":"Павлово-Посадскийрайон","TYPE_2":"Raion","ENGTYPE_2":"NA","CC_2":"NA","HASC_2":"RU.MS.PV"}},{"type":"MultiPolygon","arcs":[[[449,450,451]]],"properties":{"GID_2":"RUS.44.47_1","GID_0":"RUS","COUNTRY":"Russia","GID_1":"RUS.44_1","NAME_1":"Moskva","NL_NAME_1":"Московскаяобласть","NAME_2":"Petrovsky","VARNAME_2":"NA","NL_NAME_2":"NA","TYPE_2":"Cityunderoblastjurisdiction","ENGTYPE_2":"City","CC_2":"NA","HASC_2":"NA"}},{"type":"MultiPolygon","arcs":[[[452,453,454,455,456,457,458]]],"properties":{"GID_2":"RUS.44.48_1","GID_0":"RUS","COUNTRY":"Russia","GID_1":"RUS.44_1","NAME_1":"Moskva","NL_NAME_1":"Московскаяобласть","NAME_2":"Podol'sk","VARNAME_2":"NA","NL_NAME_2":"Подольск","TYPE_2":"Gorod","ENGTYPE_2":"City","CC_2":"NA","HASC_2":"RU.MS.PD"}},{"type":"MultiPolygon","arcs":[[[-352,459,-350,460,461,462,463,464,-246,465,-458,466,467,468,469,470,-268,471,-81,472,473,474,-21,475,476,-18,477],[-182]]],"properties":{"GID_2":"RUS.44.49_1","GID_0":"RUS","COUNTRY":"Russia","GID_1":"RUS.44_1","NAME_1":"Moskva","NL_NAME_1":"Московскаяобласть","NAME_2":"Podol'skiyrayon","VARNAME_2":"NA","NL_NAME_2":"Подольскийрайон","TYPE_2":"Raion","ENGTYPE_2":"NA","CC_2":"NA","HASC_2":"RU.MS.PO"}},{"type":"MultiPolygon","arcs":[[[478,479,480]]],"properties":{"GID_2":"RUS.44.50_1","GID_0":"RUS","COUNTRY":"Russia","GID_1":"RUS.44_1","NAME_1":"Moskva","NL_NAME_1":"Московскаяобласть","NAME_2":"Protvino","VARNAME_2":"NA","NL_NAME_2":"NA","TYPE_2":"Gorod","ENGTYPE_2":"City","CC_2":"NA","HASC_2":"RU.MS.PT"}},{"type":"MultiPolygon","arcs":[[[481]]],"properties":{"GID_2":"RUS.44.51_1","GID_0":"RUS","COUNTRY":"Russia","GID_1":"RUS.44_1","NAME_1":"Moskva","NL_NAME_1":"Московскаяобласть","NAME_2":"Pushchino","VARNAME_2":"NA","NL_NAME_2":"NA","TYPE_2":"Gorod","ENGTYPE_2":"City","CC_2":"NA","HASC_2":"RU.MS.PU"}},{"type":"MultiPolygon","arcs":[[[482]]],"properties":{"GID_2":"RUS.44.52_1","GID_0":"RUS","COUNTRY":"Russia","GID_1":"RUS.44_1","NAME_1":"Moskva","NL_NAME_1":"Московскаяобласть","NAME_2":"Pushkino","VARNAME_2":"NA","NL_NAME_2":"Пушкино","TYPE_2":"Gorod","ENGTYPE_2":"City","CC_2":"NA","HASC_2":"RU.MS.PG"}},{"type":"MultiPolygon","arcs":[[[483,-3,484,-329,485,-65,486,487,488,489,490,491,492,493],[-483]]],"properties":{"GID_2":"RUS.44.53_1","GID_0":"RUS","COUNTRY":"Russia","GID_1":"RUS.44_1","NAME_1":"Moskva","NL_NAME_1":"Московскаяобласть","NAME_2":"Pushkinskiyrayon","VARNAME_2":"NA","NL_NAME_2":"Пушкинскийрайон","TYPE_2":"Raion","ENGTYPE_2":"NA","CC_2":"NA","HASC_2":"RU.MS.PR"}},{"type":"MultiPolygon","arcs":[[[494,-378,495,496,497,498,499,500,501,502,503,504,505,506,-88,507,-86,508,509,-264,510,511,-297,512,513,-294,514,-292],[515]]],"properties":{"GID_2":"RUS.44.54_1","GID_0":"RUS","COUNTRY":"Russia","GID_1":"RUS.44_1","NAME_1":"Moskva","NL_NAME_1":"Московскаяобласть","NAME_2":"Ramenskiyrayon","VARNAME_2":"NA","NL_NAME_2":"Раменскийрайон","TYPE_2":"Raion","ENGTYPE_2":"NA","CC_2":"NA","HASC_2":"RU.MS.RR"}},{"type":"MultiPolygon","arcs":[[[516]],[[517]]],"properties":{"GID_2":"RUS.44.55_1","GID_0":"RUS","COUNTRY":"Russia","GID_1":"RUS.44_1","NAME_1":"Moskva","NL_NAME_1":"Московскаяобласть","NAME_2":"Reutov","VARNAME_2":"NA","NL_NAME_2":"Реутов","TYPE_2":"Gorod","ENGTYPE_2":"City","CC_2":"NA","HASC_2":"RU.MS.RE"}},{"type":"MultiPolygon","arcs":[[[518]]],"properties":{"GID_2":"RUS.44.56_1","GID_0":"RUS","COUNTRY":"Russia","GID_1":"RUS.44_1","NAME_1":"Moskva","NL_NAME_1":"Московскаяобласть","NAME_2":"Roshal","VARNAME_2":"Roshal'","NL_NAME_2":"NA","TYPE_2":"Gorod","ENGTYPE_2":"City","CC_2":"NA","HASC_2":"RU.MS.RO"}},{"type":"MultiPolygon","arcs":[[[519,520,-142,521,522,-400,523,524,-397,525,-395,526,527,528,529,-334,530,-315,531,532,533,-311,534,535,536,537,538,539,540,-147,541]]],"properties":{"GID_2":"RUS.44.57_1","GID_0":"RUS","COUNTRY":"Russia","GID_1":"RUS.44_1","NAME_1":"Moskva","NL_NAME_1":"Московскаяобласть","NAME_2":"Ruzskiyrayon","VARNAME_2":"NA","NL_NAME_2":"Рузскийрайон","TYPE_2":"Raion","ENGTYPE_2":"NA","CC_2":"NA","HASC_2":"RU.MS.RU"}},{"type":"MultiPolygon","arcs":[[[-165,542,543,544]]],"properties":{"GID_2":"RUS.44.58_1","GID_0":"RUS","COUNTRY":"Russia","GID_1":"RUS.44_1","NAME_1":"Moskva","NL_NAME_1":"Московскаяобласть","NAME_2":"Serebryano-Prudskiyrayon","VARNAME_2":"NA","NL_NAME_2":"Серебряно-Прудскийрайон","TYPE_2":"Raion","ENGTYPE_2":"NA","CC_2":"NA","HASC_2":"RU.MS.SP"}},{"type":"MultiPolygon","arcs":[[[545]]],"properties":{"GID_2":"RUS.44.59_1","GID_0":"RUS","COUNTRY":"Russia","GID_1":"RUS.44_1","NAME_1":"Moskva","NL_NAME_1":"Московскаяобласть","NAME_2":"SergievPosad","VARNAME_2":"NA","NL_NAME_2":"СергиевПосад","TYPE_2":"Gorod","ENGTYPE_2":"City","CC_2":"NA","HASC_2":"RU.MS.SG"}},{"type":"MultiPolygon","arcs":[[[546,-63,547,-61,548,549,550,551,552,553,554,555,-488],[-546]]],"properties":{"GID_2":"RUS.44.60_1","GID_0":"RUS","COUNTRY":"Russia","GID_1":"RUS.44_1","NAME_1":"Moskva","NL_NAME_1":"Московскаяобласть","NAME_2":"Sergievo-Posadskiyrayon","VARNAME_2":"NA","NL_NAME_2":"Сергиево-Посадскийрайон","TYPE_2":"Raion","ENGTYPE_2":"NA","CC_2":"NA","HASC_2":"RU.MS.SR"}},{"type":"MultiPolygon","arcs":[[[556]]],"properties":{"GID_2":"RUS.44.61_1","GID_0":"RUS","COUNTRY":"Russia","GID_1":"RUS.44_1","NAME_1":"Moskva","NL_NAME_1":"Московскаяобласть","NAME_2":"Serpukhov","VARNAME_2":"NA","NL_NAME_2":"Серпухов","TYPE_2":"Gorod","ENGTYPE_2":"City","CC_2":"NA","HASC_2":"RU.MS.SE"}},{"type":"MultiPolygon","arcs":[[[557,558,-31,559,560,561,562,563,-479],[-482],[-557]]],"properties":{"GID_2":"RUS.44.62_1","GID_0":"RUS","COUNTRY":"Russia","GID_1":"RUS.44_1","NAME_1":"Moskva","NL_NAME_1":"Московскаяобласть","NAME_2":"Serpukhovskiyrayon","VARNAME_2":"NA","NL_NAME_2":"Серпуховскийрайон","TYPE_2":"Raion","ENGTYPE_2":"NA","CC_2":"NA","HASC_2":"RU.MS.SK"}},{"type":"MultiPolygon","arcs":[[[-278,564,565,566,567,-305,568,-303,569]]],"properties":{"GID_2":"RUS.44.63_1","GID_0":"RUS","COUNTRY":"Russia","GID_1":"RUS.44_1","NAME_1":"Moskva","NL_NAME_1":"Московскаяобласть","NAME_2":"Shakhovskoyrayon","VARNAME_2":"NA","NL_NAME_2":"Шаховскойрайон","TYPE_2":"Raion","ENGTYPE_2":"NA","CC_2":"NA","HASC_2":"RU.MS.SH"}},{"type":"MultiPolygon","arcs":[[[570]]],"properties":{"GID_2":"RUS.44.64_1","GID_0":"RUS","COUNTRY":"Russia","GID_1":"RUS.44_1","NAME_1":"Moskva","NL_NAME_1":"Московскаяобласть","NAME_2":"Shatura","VARNAME_2":"NA","NL_NAME_2":"Шатура","TYPE_2":"Gorod","ENGTYPE_2":"City","CC_2":"NA","HASC_2":"RU.MS.ST"}},{"type":"MultiPolygon","arcs":[[[-118,571,-116,572,573,574,575,576,577,-423,578],[-519],[-571]]],"properties":{"GID_2":"RUS.44.65_1","GID_0":"RUS","COUNTRY":"Russia","GID_1":"RUS.44_1","NAME_1":"Moskva","NL_NAME_1":"Московскаяобласть","NAME_2":"Shaturskiyrayon","VARNAME_2":"NA","NL_NAME_2":"Шатурскийрайон","TYPE_2":"Raion","ENGTYPE_2":"NA","CC_2":"NA","HASC_2":"RU.MS.SA"}},{"type":"MultiPolygon","arcs":[[[-5,579,-494,580,581,582,-492,583,-490,584,-164,585,-367,586,-42,587,-40,588,-38,-362,589,-360,590,-358,591,-452,592,593,-355],[-129],[-385,594]]],"properties":{"GID_2":"RUS.44.66_1","GID_0":"RUS","COUNTRY":"Russia","GID_1":"RUS.44_1","NAME_1":"Moskva","NL_NAME_1":"Московскаяобласть","NAME_2":"Shchelkovskiyrayon","VARNAME_2":"NA","NL_NAME_2":"Щелковскийрайон","TYPE_2":"Raion","ENGTYPE_2":"NA","CC_2":"NA","HASC_2":"RU.MS.SV"}},{"type":"MultiPolygon","arcs":[[[595,596,597]]],"properties":{"GID_2":"RUS.44.67_1","GID_0":"RUS","COUNTRY":"Russia","GID_1":"RUS.44_1","NAME_1":"Moskva","NL_NAME_1":"Московскаяобласть","NAME_2":"Shcherbinka","VARNAME_2":"NA","NL_NAME_2":"NA","TYPE_2":"Gorod","ENGTYPE_2":"City","CC_2":"NA","HASC_2":"RU.MS.SC"}},{"type":"MultiPolygon","arcs":[[[598]]],"properties":{"GID_2":"RUS.44.68_1","GID_0":"RUS","COUNTRY":"Russia","GID_1":"RUS.44_1","NAME_1":"Moskva","NL_NAME_1":"Московскаяобласть","NAME_2":"Solnechnogorsk","VARNAME_2":"NA","NL_NAME_2":"Солнечногорск","TYPE_2":"Gorod","ENGTYPE_2":"City","CC_2":"NA","HASC_2":"RU.MS.SS"}},{"type":"MultiPolygon","arcs":[[[599,-177,600,601,602,-238,603,-160,604,-158,605,606,-192,607,-190,608,-188,609,-49,610,-47,611,612,-44,613,614,615,-323,616],[-599]]],"properties":{"GID_2":"RUS.44.69_1","GID_0":"RUS","COUNTRY":"Russia","GID_1":"RUS.44_1","NAME_1":"Moskva","NL_NAME_1":"Московскаяобласть","NAME_2":"Solnechnogorskiyrayon","VARNAME_2":"NA","NL_NAME_2":"Солнечногорскийрайон","TYPE_2":"Raion","ENGTYPE_2":"NA","CC_2":"NA","HASC_2":"RU.MS.SO"}},{"type":"MultiPolygon","arcs":[[[617]]],"properties":{"GID_2":"RUS.44.70_1","GID_0":"RUS","COUNTRY":"Russia","GID_1":"RUS.44_1","NAME_1":"Moskva","NL_NAME_1":"Московскаяобласть","NAME_2":"Stupino","VARNAME_2":"NA","NL_NAME_2":"Ступино","TYPE_2":"Gorod","ENGTYPE_2":"City","CC_2":"NA","HASC_2":"RU.MS.SN"}},{"type":"MultiPolygon","arcs":[[[-29,618,619,-93,620,-91,621,622,-506,623,-219,624,-217,625,-215,-433,626,-431,627,628,-428,629,630,-167,631,-562,632,633],[-618]]],"properties":{"GID_2":"RUS.44.71_1","GID_0":"RUS","COUNTRY":"Russia","GID_1":"RUS.44_1","NAME_1":"Moskva","NL_NAME_1":"Московскаяобласть","NAME_2":"Stupinskiyrayon","VARNAME_2":"NA","NL_NAME_2":"Ступинскийрайон","TYPE_2":"Raion","ENGTYPE_2":"NA","CC_2":"NA","HASC_2":"RU.MS.SU"}},{"type":"MultiPolygon","arcs":[[[-60,634,-58,635,-555,636,-553,637,-551,638,-549]]],"properties":{"GID_2":"RUS.44.72_1","GID_0":"RUS","COUNTRY":"Russia","GID_1":"RUS.44_1","NAME_1":"Moskva","NL_NAME_1":"Московскаяобласть","NAME_2":"Taldomskiyrayon","VARNAME_2":"NA","NL_NAME_2":"Талдомскийрайон","TYPE_2":"Raion","ENGTYPE_2":"NA","CC_2":"NA","HASC_2":"RU.MS.TA"}},{"type":"MultiPolygon","arcs":[[[639,-463,640,641,642,643]]],"properties":{"GID_2":"RUS.44.73_1","GID_0":"RUS","COUNTRY":"Russia","GID_1":"RUS.44_1","NAME_1":"Moskva","NL_NAME_1":"Московскаяобласть","NAME_2":"Troitsk/Moskva","VARNAME_2":"Troitsk","NL_NAME_2":"Троицк","TYPE_2":"Gorod","ENGTYPE_2":"City","CC_2":"NA","HASC_2":"RU.MS.TR"}},{"type":"MultiPolygon","arcs":[[[-152,644,-150,645,-539,646,-537,647,-308,648,649,650,-567,651,-275,-199]]],"properties":{"GID_2":"RUS.44.74_1","GID_0":"RUS","COUNTRY":"Russia","GID_1":"RUS.44_1","NAME_1":"Moskva","NL_NAME_1":"Московскаяобласть","NAME_2":"Volokolamskiyrayon","VARNAME_2":"NA","NL_NAME_2":"Волоколамскийрайон","TYPE_2":"Raion","ENGTYPE_2":"NA","CC_2":"NA","HASC_2":"RU.MS.VL"}},{"type":"MultiPolygon","arcs":[[[652,653,-542]]],"properties":{"GID_2":"RUS.44.75_1","GID_0":"RUS","COUNTRY":"Russia","GID_1":"RUS.44_1","NAME_1":"Moskva","NL_NAME_1":"Московскаяобласть","NAME_2":"Voskhod","VARNAME_2":"NA","NL_NAME_2":"NA","TYPE_2":"PosyolokGorodskogoTipa","ENGTYPE_2":"Town","CC_2":"NA","HASC_2":"RU.MS.VO"}},{"type":"MultiPolygon","arcs":[[[-106,654,655,656,-222,657,658,-504,659,-502,660,-500,661,-498,662,-415,663]]],"properties":{"GID_2":"RUS.44.76_1","GID_0":"RUS","COUNTRY":"Russia","GID_1":"RUS.44_1","NAME_1":"Moskva","NL_NAME_1":"Московскаяобласть","NAME_2":"Voskresenskiyrayon","VARNAME_2":"NA","NL_NAME_2":"Воскресенскийрайон","TYPE_2":"Raion","ENGTYPE_2":"NA","CC_2":"NA","HASC_2":"RU.MS.VG"}},{"type":"MultiPolygon","arcs":[[[664]]],"properties":{"GID_2":"RUS.44.77_1","GID_0":"RUS","COUNTRY":"Russia","GID_1":"RUS.44_1","NAME_1":"Moskva","NL_NAME_1":"Московскаяобласть","NAME_2":"Zaraysk","VARNAME_2":"NA","NL_NAME_2":"Зарайск","TYPE_2":"Gorod","ENGTYPE_2":"City","CC_2":"NA","HASC_2":"RU.MS.ZG"}},{"type":"MultiPolygon","arcs":[[[665,-173,-437,666,667,-284,668,669,-281,670,671,-543],[-665]]],"properties":{"GID_2":"RUS.44.78_1","GID_0":"RUS","COUNTRY":"Russia","GID_1":"RUS.44_1","NAME_1":"Moskva","NL_NAME_1":"Московскаяобласть","NAME_2":"Zarayskiyrayon","VARNAME_2":"NA","NL_NAME_2":"Зарайскийрайон","TYPE_2":"Raion","ENGTYPE_2":"NA","CC_2":"NA","HASC_2":"RU.MS.ZR"}},{"type":"MultiPolygon","arcs":[[[672,-9,673,674,675]]],"properties":{"GID_2":"RUS.44.79_1","GID_0":"RUS","COUNTRY":"Russia","GID_1":"RUS.44_1","NAME_1":"Moskva","NL_NAME_1":"Московскаяобласть","NAME_2":"Zheleznodoroznhy","VARNAME_2":"Zheleznodorozhnyy","NL_NAME_2":"Железнодоро́жный","TYPE_2":"Gorsovet","ENGTYPE_2":"City","CC_2":"NA","HASC_2":"RU.MS.ZZ"}},{"type":"MultiPolygon","arcs":[[[-516]]],"properties":{"GID_2":"RUS.44.80_1","GID_0":"RUS","COUNTRY":"Russia","GID_1":"RUS.44_1","NAME_1":"Moskva","NL_NAME_1":"Московскаяобласть","NAME_2":"Zhukovsky","VARNAME_2":"NA","NL_NAME_2":"NA","TYPE_2":"Gorod","ENGTYPE_2":"Town","CC_2":"NA","HASC_2":"RU.MS.ZH"}},{"type":"MultiPolygon","arcs":[[[-408,676]]],"properties":{"GID_2":"RUS.44.81_1","GID_0":"RUS","COUNTRY":"Russia","GID_1":"RUS.44_1","NAME_1":"Moskva","NL_NAME_1":"Московскаяобласть","NAME_2":"Zvenigorod","VARNAME_2":"NA","NL_NAME_2":"Звенигород","TYPE_2":"Gorsovet","ENGTYPE_2":"District","CC_2":"NA","HASC_2":"RU.MS.ZV"}}]}},"arcs":[[[544035,555862],[-1334,4827]],[[542701,560689],[961,2285],[-3591,4422],[-4554,-1548],[-1453,17835],[-11521,11497],[-334,5564],[5044,921]],[[527253,601665],[5261,-3132]],[[532514,598533],[14780,5085],[6909,-5675]],[[554203,597943],[5869,-405],[78,-4422],[2473,-2137],[5987,2395],[6732,-5675],[3023,-5895]],[[578365,581804],[1806,-9765],[-2336,-6412],[9795,-3280],[589,-3537]],[[588219,558810],[-25713,-2027],[-20,3980],[-4240,1400],[-3768,-6338]],[[554478,555825],[3317,-8291],[13327,-4974]],[[571122,542560],[4495,8512],[-922,2653]],[[574695,553725],[8911,-848],[3494,-2321]],[[587100,550556],[3121,-7333]],[[590221,543223],[6928,-2064],[-451,-2395]],[[596698,538764],[-5005,-552],[-4103,2653],[-8145,-4643]],[[579445,536222],[-10187,5232],[-5064,-2505]],[[564194,538949],[-12994,9838],[-9952,-2616],[-981,4495],[4024,1769],[-256,3427]],[[541013,582283],[-511,1695],[-5142,-4459],[5162,-2322],[5300,3648],[-4809,1438]],[[393173,299690],[-1747,6080],[1394,6817],[-3573,148],[-981,3353],[-3160,1547],[-4888,37],[98,11165],[16410,4901]],[[396726,333738],[471,3980],[5770,1916]],[[402967,339634],[-1138,24394],[13681,7591],[491,-5343]],[[416001,366276],[22140,-1032],[23868,11570]],[[462009,376814],[8185,10171]],[[470194,386985],[6340,-10539],[4416,4643]],[[480950,381089],[3514,-3427],[2041,8254],[5476,-884],[-176,8549],[1276,773],[8499,-3463],[-5614,-10871],[5300,-1437]],[[501266,378583],[3749,-7222],[-5634,-3169]],[[499381,368192],[5025,-16103],[-8205,-3538]],[[496201,348551],[3180,-3648],[-7341,-12160],[2709,-6817],[14093,406]],[[508842,326332],[3769,-20599],[-13249,-1879]],[[499362,303854],[14976,-12455],[-8519,-2911]],[[505819,288488],[766,-8033]],[[506585,280455],[-8048,5196],[-7890,479],[-11483,-8696],[-39,8143],[-8813,-5085],[-2120,15403]],[[468192,295895],[-15114,7701],[-3788,-6338],[-9382,3501],[-8774,-6264],[-10383,6043],[-5477,-10244]],[[415274,290294],[-2650,4643],[-19451,4753]],[[655053,674183],[2080,-3500],[-7773,-7923],[6733,-2764]],[[656093,659996],[-550,-10686],[-10167,-110]],[[645376,649200],[-1335,-5712],[-5260,1106]],[[638781,644594],[-4004,-3980],[-6399,111]],[[628378,640725],[-2434,4827]],[[625944,645552],[-687,8733]],[[625257,654285],[-7969,2690],[1492,6522],[19019,-5232],[6596,7332]],[[644395,665597],[-2807,4312],[6536,258],[432,3390],[4907,-1327],[-4181,5638],[1335,2358]],[[650617,680226],[-1100,2432],[5339,-1621]],[[654856,681037],[197,-6854]],[[467054,674036],[-11385,-12087],[-6399,4496]],[[449270,666445],[-5240,110],[-766,-3132]],[[443264,663423],[-14348,1732],[-6831,10428],[569,6007]],[[422654,681590],[5948,4200],[-4731,6117]],[[423871,691907],[-4475,553],[-2493,13302],[7695,14445],[-6203,6006],[-5280,9876],[-17547,-958]],[[395568,735131],[-491,5417],[4868,5748],[-1983,4753],[-9618,4938]],[[388344,755987],[-608,4385]],[[387736,760372],[-14466,17319],[-864,8770]],[[372406,786461],[1551,2727],[-2513,3316]],[[371444,792504],[5045,2248],[-3258,3501]],[[373231,798253],[1001,6411],[-10737,11460]],[[363495,816124],[7635,8254],[3828,7738],[10187,848]],[[385145,832964],[5280,4532],[-2277,4017]],[[388148,841513],[-7046,2321]],[[381102,843834],[1374,4201],[6084,-1105],[-981,6964],[1511,17872],[-2650,12012],[7322,11387],[-1865,17724],[23574,-20046]],[[415471,892843],[28598,-37401]],[[444069,855442],[5908,-17872],[27951,9949]],[[477928,847519],[1982,-4864],[6870,-5601],[11011,-3169],[10364,15735],[10835,6817]],[[518990,856437],[5260,-4606],[-353,-4275],[4789,-9102],[-687,-6080],[3023,-4974],[-530,-3353],[5849,-2027]],[[536341,822020],[5339,-9212],[-9991,-14150]],[[531689,798658],[3259,-9286],[-7714,-12455],[137,-7259],[-5162,-5454],[4083,-12676]],[[526292,751528],[-6851,-4827],[7812,-1990],[1963,-12160],[-7341,-1400],[-15251,-17319]],[[506624,713832],[2807,-7259],[-2591,-9949]],[[506840,696624],[-7164,-369]],[[499676,696255],[-12818,10465],[-7988,848]],[[478870,707568],[-9481,-3685],[354,-4201]],[[469743,699682],[-1492,-1621]],[[468251,698061],[2944,-4311],[-1413,-6265]],[[469782,687485],[2336,-2984]],[[472118,684501],[-5064,-10465]],[[474591,627754],[-3435,-1106],[3337,-12418],[-5751,-4053]],[[468742,610177],[-4809,3574],[1452,9102],[-2296,4827],[1845,5675],[-3926,-958],[-3121,4385]],[[457887,636782],[3357,2727],[-354,2763]],[[460890,642272],[7027,4127],[5359,-4974],[1354,-6301],[-1649,-3169],[1610,-4201]],[[496201,348551],[8264,3833],[-5084,15808]],[[499381,368192],[5516,3722],[-3631,6669]],[[501266,378583],[-3946,-737],[-1354,3206],[5672,9138],[-1884,2396]],[[499754,392586],[1433,2063],[4848,-2800],[2022,2211],[-2670,6632]],[[505387,400692],[-745,14261],[-12229,3095],[-3494,4569],[1374,5786],[5261,1768],[-2316,3538],[5613,9691],[-39,3685],[5594,3648],[5633,12086]],[[510039,462819],[7714,-3832],[2886,3648]],[[520639,462635],[11325,-2985],[0,8881],[4102,-3169]],[[536066,465362],[5241,6559],[5025,-5712],[-1884,-3242],[3513,-9065]],[[547961,453902],[6968,-516],[3298,-12602],[-6242,-5822]],[[551985,434962],[4946,-4349],[5378,-184],[4122,-11939],[4161,221],[6164,-9433],[-3828,-6154],[-8499,-4532],[7439,-5859],[471,-3353]],[[572339,389380],[6615,1400],[2650,4532],[3984,-2100]],[[585588,393212],[40,-4311],[2728,-1069],[-2022,-4680]],[[586334,383152],[59,-10096],[-11600,-8844],[-5948,479]],[[568845,364691],[-11678,-9875],[-4731,6375]],[[552436,361191],[1865,3684]],[[554301,364875],[-6458,2322],[-1629,-5638],[2395,-2837],[-2002,-5564]],[[546607,353158],[1315,-5565],[3611,37],[864,-8512],[-9422,-4753],[-5358,4495],[-5535,-4164],[2179,-5822],[-2297,-4385],[-9893,5233],[-1001,3537]],[[521070,333259],[-10265,4164],[-2297,-4790],[334,-6301]],[[533574,519861],[2159,-4901],[5280,-1032]],[[541013,513928],[-314,-2800],[2453,-4385]],[[543152,506743],[-2591,-7001]],[[540561,499742],[-2394,958],[1589,2542]],[[539756,503242],[-2905,3390],[-8950,-2284]],[[527901,504348],[-2100,5380],[7773,10133]],[[769858,411821],[-12837,-4459],[-1904,10318],[6222,7959],[3161,405],[5358,-14223]],[[823581,328764],[-19059,5269],[-4397,-4938],[-7616,1880],[-39,6043],[-8323,2948],[-4534,15218]],[[779613,355184],[-26125,-8917],[-7046,17835]],[[746442,364102],[8420,8180],[-7910,-958],[-5202,4643]],[[741750,375967],[-1452,6780],[4416,5527],[-6791,2580],[6575,3242]],[[744498,394096],[3828,6965],[-6242,2653],[1237,10649],[-4338,10392]],[[738983,424755],[6575,-258]],[[745558,424497],[8656,5379],[707,15293],[11757,-479],[-3003,8106],[3043,3427]],[[766718,456223],[1962,8107],[17528,-700]],[[786208,463630],[3808,-3280],[4633,3464]],[[794649,463814],[2021,10318],[16331,-1806],[18607,2322]],[[831608,474648],[2807,-1953],[-1531,-7739]],[[832884,464956],[3239,-3721],[40316,-1474],[-1805,-3059]],[[874634,456702],[1079,-6854],[5673,-6080]],[[881386,443768],[-413,-10022],[-6379,-737]],[[874594,433009],[-961,-6338],[-6733,-1290],[589,-9175],[-4632,-1732],[1118,-5417],[-11443,-7959],[-235,-13782],[2355,-4200],[-4063,-5049],[3317,-6301],[11856,-37],[981,-6338],[4416,-2247]],[[871159,363144],[16488,1731],[5260,-16250]],[[892907,348625],[3769,-3095],[0,-4975],[8342,-7369],[-9579,-17688],[2454,-9617],[-6418,-5159],[-4201,110],[-4985,-13007]],[[882289,287825],[-2317,-295],[-1629,-11128],[-16075,14187]],[[862268,290589],[176,11644],[-5888,1326],[78,5859],[-7851,18203],[-25202,1143]],[[735214,605055],[-1236,-2027],[1491,-4716]],[[735469,598312],[-3140,-1769],[216,-2985]],[[732545,593558],[-18333,74],[-1276,3095],[1629,4275],[177,14665],[14231,-2210]],[[728973,613457],[6241,-8402]],[[661824,559584],[-7007,-3390],[-3847,4053]],[[650970,560247],[-8008,37],[-2002,8807],[8086,12381]],[[649046,581472],[8755,1769],[9029,-8918],[3395,-11165]],[[670225,563158],[-608,-3169],[-7793,-405]],[[582919,636929],[-4240,-1732],[1629,-7296],[-4043,-2506],[-8244,12234],[3729,-737],[3612,3538],[7557,-3501]],[[336899,602402],[-5182,700],[-353,6191],[1590,2726],[4514,148],[530,-8623],[-1099,-1142]],[[396608,611688],[-3023,-2101],[8440,-5859]],[[402025,603728],[1139,-5085],[-5948,-10354]],[[397216,588289],[3200,-6043],[-1414,-5638],[-4318,-1437]],[[394684,575171],[-981,-7001],[-8558,-4975],[1531,-4348]],[[386676,558847],[-11895,-479]],[[374781,558368],[-12778,5785],[-7341,11386],[-8911,-2505]],[[345751,573034],[-5398,6927],[-14446,-1400],[-4652,4422]],[[321255,582983],[-13583,1179],[-3415,-663],[-8244,-12713],[-4455,331]],[[291558,571117],[-687,-6890],[-10482,4311],[-4907,-5969]],[[275482,562569],[-3258,1179],[-1786,-2764],[-3494,2469],[-1335,5675]],[[265609,569128],[-6202,-2285],[-668,8623],[216,2247],[4946,369]],[[263901,578082],[4692,5711],[-3848,4901]],[[264745,588694],[12033,4864],[-11247,19309]],[[265531,612867],[-6262,1032],[471,6117]],[[259740,620016],[9049,73],[0,10723]],[[268789,630812],[-7223,7038],[-2768,-1732],[-1236,-6338]],[[257562,629780],[-2081,1106],[177,5527]],[[255658,636413],[-13760,1658],[334,-6706],[-5260,-2911],[-1590,14113],[-3612,1069]],[[231770,643636],[-1315,4348],[-2807,479],[-432,4495]],[[227216,652958],[-4377,3538]],[[222839,656496],[-1197,12197],[6713,4053]],[[228355,672746],[5319,-7001],[4259,3758]],[[237933,669503],[20610,1143],[4024,4458]],[[262567,675104],[5613,-3095],[16704,5491],[7439,-2285],[2218,2800]],[[294541,678015],[4770,-73],[-1198,7775]],[[298113,685717],[9147,-2616],[1237,3353],[-2316,2469]],[[306181,688923],[2492,1547],[11031,-11349]],[[319704,679121],[6949,295],[9382,-15256],[903,-5785],[29266,-5711],[3984,-11939],[10815,2726]],[[381003,643451],[-392,-14850],[4887,-1658]],[[385498,626943],[2532,-7259],[2415,-811],[-373,-2837],[3336,553],[3200,-4901]],[[553006,633244],[-9579,1474],[-1884,3685],[3749,6964],[14858,-5121]],[[560150,640246],[-785,-6154],[-4573,1253],[-1786,-2101]],[[592164,675104],[-2238,885],[942,6043],[-5378,-1364],[-4082,5417],[2610,4385],[5849,-2948],[2572,3280],[-5634,6669],[61221,53063],[-2532,-4607],[2610,-3648],[-235,-4495],[6084,-7001]],[[653953,730783],[-28853,-25057],[-2395,-5859],[-4652,-4496],[-10756,-7149],[-7537,-10870],[-7596,-2248]],[[672325,150932],[-3513,-1511],[-1629,-6080],[-9343,-2948]],[[657840,140393],[-3298,7260],[-7674,-74],[-6144,-4901],[-3906,3427],[-8911,1290],[-7243,6043],[-9579,-10428],[-17155,17503],[-1923,-553],[-6065,10428],[-5869,-1990],[-8990,6338],[-491,3575],[3357,921],[-452,9470],[-11914,12050],[1511,11202],[-2708,5085],[11698,1474],[13092,-5896],[9795,8475]],[[594971,221092],[3650,6375]],[[598621,227467],[7675,3132],[9186,-4385]],[[615482,226214],[4907,3427],[8303,-4754],[9009,3317],[12975,-1695],[-2513,-6817]],[[648163,219692],[6634,-15403],[-3140,-4901]],[[651657,199388],[11110,-1068],[-3435,-13782]],[[659332,184538],[9657,-774]],[[668989,183764],[2178,-12123]],[[671167,171641],[7812,-5675],[-6654,-15034]],[[428720,610951],[-2631,-295],[-3807,5638]],[[422282,616294],[2689,4827],[6261,-2985],[1904,6780],[-2375,885]],[[430761,625801],[-1531,-4901],[-609,3574],[-6045,0],[-1178,3096],[1610,1547],[-2670,2174],[-3121,-4679]],[[417217,626612],[-2669,7111],[18215,2653]],[[432763,636376],[7675,-3758],[8754,2174],[1727,-2064],[6968,4054]],[[468742,610177],[-16311,-8365],[-2552,1437],[-4279,11866],[1884,1732],[138,5490],[1982,-258],[-1001,3132],[2925,2801],[-99,2505],[-16075,369],[3199,-5675],[-4298,-1842],[2708,-3796],[2140,2027],[3906,-2837],[-2238,-2395],[884,-2580],[-1355,-2653],[2846,-2948],[-608,-2506],[-7812,-4016],[-6006,9286]],[[460223,644852],[78,-5086],[-7105,3096],[7027,1990]],[[482992,417606],[4122,-5822],[-8028,-3317],[-4142,1253],[-2179,-5011],[-6536,4938],[98,4458],[-1570,1732],[3886,295],[1414,2874],[3258,-2727],[3827,4975],[5850,-3648]],[[311264,759967],[-12621,-3906],[-6732,21446],[18941,-8697],[412,-8843]],[[388148,841513],[2316,-3759],[-5319,-4790]],[[363495,816124],[10521,-11018],[-785,-6853]],[[373231,798253],[3238,-3317],[-5025,-2432]],[[372406,786461],[1021,-5896]],[[373427,780565],[-5064,-737]],[[368363,779828],[3337,-9396],[-8696,-1142]],[[363004,769290],[7655,-6560]],[[370659,762730],[-471,-3832],[-10265,2911],[-7950,-2100],[-1099,-6117],[-6065,0],[530,-6006]],[[345339,747586],[-4220,-6080],[-942,-10318],[-9363,-1400],[-13053,-7665],[884,-5638],[-2258,-3537],[1217,-2211],[-3886,-4385]],[[313718,706352],[6732,-6485],[-4337,-12087]],[[316113,687780],[-8342,2617],[-1590,-1474]],[[306181,688923],[2355,-2764],[-1688,-3243],[-8735,2801]],[[298113,685717],[884,-8070],[-4456,368]],[[294541,678015],[-2532,-2837],[-7439,2248],[-16154,-5417],[-5849,3095]],[[262567,675104],[-4593,-4606],[-20041,-995]],[[237933,669503],[-2708,17798],[4494,16582],[-16841,9433],[-215,7739],[-11208,0],[-6203,11496],[7282,2801],[-6438,8107],[2277,5785],[-8204,626],[-5300,10355]],[[194869,760225],[-8224,7849],[1963,17834],[4887,37],[3926,11276],[18509,-3611],[726,3979],[5948,-442],[4259,8438],[13740,4901],[14093,13524],[3670,-4312],[14545,-257],[3690,2690],[314,7148],[9421,405],[3965,6117],[4005,-2247],[4926,2063],[707,3427],[29972,18019],[-1079,7591],[14583,-5970],[2356,2396],[2532,-3796],[16154,-3906],[4141,-7480],[12504,-2064]],[[746442,364102],[7262,-17983],[25909,9065]],[[823581,328764],[-18078,-15329],[-20355,8217],[-13818,-18793],[3730,-6006]],[[775060,296853],[-4554,-9802],[-16370,4385]],[[754136,291436],[-12503,11092]],[[741633,302528],[-197,6374],[-11364,-2984],[-11090,12123],[-5575,516]],[[713407,318557],[-5123,8070],[-6379,1363]],[[701905,327990],[373,-4754]],[[702278,323236],[-2257,-3832],[9893,-26236]],[[709914,293168],[11011,8770],[2983,-8254]],[[723908,293684],[5732,-3390],[3042,6190],[6654,-2505]],[[739336,293979],[12229,-15551],[-1276,-8254]],[[750289,270174],[-18863,-773],[-12307,14813]],[[719119,284214],[-5221,479],[1472,-18609]],[[715370,266084],[-2591,-10281],[-7144,3612],[-14192,-553],[2022,5896],[-9049,1989],[-4180,8955],[-4358,-1769],[-12307,5490],[-12091,-258],[-5201,6412]],[[646279,285577],[2218,9212],[-2434,3427],[3513,6670]],[[649576,304886],[3023,-37],[844,7407],[-3239,-258]],[[650204,311998],[-1138,4827],[-3062,700]],[[646004,317525],[3867,8143],[-2238,1990],[-2512,-3463]],[[645121,324195],[-3396,3832],[6870,9028]],[[648595,337055],[5751,-922],[864,4312],[-4338,7775],[-3710,1732],[785,6559],[5928,-848],[1551,5970]],[[655426,361633],[3650,-148],[1041,2432],[10363,-4127]],[[670480,359790],[-628,4238],[3808,1879],[7420,-5380],[12365,9176],[3494,-4091]],[[696939,365612],[17489,1290],[7518,8328]],[[721946,375230],[14721,-4569],[5083,5306]],[[723908,293684],[-3219,8328],[-10775,-8844]],[[709914,293168],[-10011,27047],[2375,3021]],[[701905,327990],[5123,-848],[6379,-8585]],[[741633,302528],[-2297,-8549]],[[533574,519861],[-884,12418],[11522,-9433]],[[544212,522846],[2297,-8254],[-10423,184],[-2512,5085]],[[420024,581988],[-2865,-37],[-6164,9065],[1355,3242],[6575,-516],[2414,-6817],[-1315,-4937]],[[424598,560210],[-550,-7148],[-10128,3132]],[[413920,556194],[-7243,-7444],[-9009,3869],[-4122,-4679]],[[393546,547940],[-6831,5416],[255,6633],[-1943,2985],[8499,5011],[1158,7186]],[[394684,575171],[4495,1695],[1197,6669],[-3160,4754]],[[397216,588289],[5987,8991],[-1178,6448]],[[402025,603728],[-5535,2101],[-2532,4643],[8833,4532],[13249,-7001]],[[416040,608003],[-628,-2395],[1491,-737]],[[416903,604871],[6910,2211],[667,5011]],[[424480,612093],[4240,-1142]],[[428720,610951],[2414,-6080],[4161,-3575],[2473,3759],[4279,-221],[7007,-5712],[-2316,-5085],[-3101,-368],[-78,5159],[-3553,-148],[-3730,-2911],[-1786,-4938],[3121,-1105],[-1590,-1511],[2002,-6964],[8519,3242],[-1158,-7038],[-10030,-2432],[2120,-6190],[-3788,-5343],[-9088,-3280]],[[385361,494620],[-15526,-774]],[[369835,493846],[1668,3353],[4201,-405]],[[375704,496794],[-2316,4016],[8675,2248],[3298,-8438]],[[471254,471368],[-8421,-3906]],[[462833,467462],[-8891,-13708],[-138,-2874]],[[453804,450880],[-6457,-258],[-1433,-5932],[-9127,958],[-412,4716]],[[436375,450364],[1668,2248],[-5830,1069]],[[432213,453681],[1374,6890],[-1805,6596]],[[431782,467167],[5633,5159],[412,6596]],[[437827,478922],[-14858,-958],[-511,2616]],[[422458,480580],[5535,3390],[-3808,1880]],[[424185,485850],[-2963,-2432],[-3102,5232]],[[418120,488650],[3357,2285],[-59,3169]],[[421418,494104],[9441,4864],[-1099,2874],[1295,2727],[-10658,1511],[-2375,-1843],[-176,-4053]],[[417846,500184],[-5300,6080]],[[412546,506264],[4318,4974],[-196,4127]],[[416668,515365],[6497,3133],[7694,-1548],[2846,5933]],[[433705,522883],[3651,-1548],[-3710,-7001],[1374,-1917],[4436,-257],[3062,-3759],[2532,2948],[4417,-1069],[1590,3648],[-629,6670],[3278,1216],[15114,-22957],[7989,-4237],[569,-2359],[-2611,-1068],[3082,-3611],[59,-2985],[-14878,-8070],[-138,-4422],[8362,-737]],[[527901,504348],[9323,1989],[2532,-3095]],[[540561,499742],[-19,-3648],[3964,-5896]],[[544506,490198],[9402,-6596]],[[553908,483602],[-2708,-6670],[706,-6743],[2807,-995]],[[554713,469194],[2886,-6412],[-2807,-2469]],[[554792,460313],[-3160,3722],[-3612,-2653],[-1845,5269],[-5319,5454],[-4790,-6743]],[[520639,462635],[-3376,-3501],[-7224,3685]],[[510039,462819],[-3140,8070],[-7851,-4975]],[[499048,465914],[-8951,1216],[-1551,-7480],[-4475,1364]],[[484071,461014],[3573,2063],[-4299,8291],[1806,12492],[2512,2469],[-648,3979],[18647,553],[19746,18388],[2493,-4901]],[[453510,662760],[2689,-479],[9029,11349],[1826,406]],[[467054,674036],[765,-6486],[5987,922],[-8401,-9986]],[[465405,658486],[3925,-6007],[-1118,-2911],[-11561,-2395]],[[456651,647173],[-5614,1879],[903,2838]],[[451940,651890],[-2375,5895],[3945,4975]],[[194869,760225],[-7792,-2211],[-452,-21851],[-11011,1216],[-2415,-8512],[2356,-7960],[-16508,-3500],[-1962,-4754],[-22004,1621]],[[135081,714274],[-22415,-10538],[-1138,-2064],[1393,-12602]],[[112921,689070],[-5712,-3280],[-2571,2801],[1315,4717],[-4652,1400],[-4652,-4643],[-6712,9396]],[[89937,699461],[-12916,-1805],[-1315,2395],[3003,8180],[-8656,1143],[3180,5453],[-5732,4680],[-7733,-3759],[-9245,14850]],[[50523,730598],[8656,3538],[4652,-3280],[6340,5896],[-6360,9286],[3416,1769],[-4436,6927],[5653,3132],[-3730,3427],[1060,16140],[3278,-921],[3553,7296],[-1158,3832],[-2591,774],[-3847,-5859],[-12032,-405],[1766,15845],[4672,1510],[-5261,5417],[1413,5233],[6458,-111],[3121,-3795],[-1511,-3390],[6202,-2764],[6360,15108],[4926,-6117],[7184,8144],[3769,442],[2179,-8033],[392,6596],[8990,6375],[7851,-7591],[8539,-2580],[-2807,-20451],[5770,-5048],[11090,6633],[16351,-9912],[28284,-1659],[4789,-5564],[-2277,-3353],[5555,-4459],[8087,-8401]],[[862268,290589],[12483,-11718],[2611,-5933],[-1492,-2579],[-11757,73],[-16135,-18682],[2218,-11460],[-14780,-15182],[4279,-6890],[-3513,-3464],[1413,-3611],[-7439,-7665],[-1217,-6632],[-4966,-3391],[-118,-3979],[-2257,-2727],[9696,-2579],[-7380,-7665],[491,-2911],[-5280,-1990],[-7321,2359],[-6811,-5307],[-393,1990]],[[804600,170646],[-2964,-2985]],[[801636,167661],[-3729,1364],[3494,2506]],[[801401,171531],[4750,11128],[-7793,516],[-589,3021],[4162,3206]],[[801931,189402],[-1198,11607],[-5123,-257],[-5397,5637],[-3062,8070],[-11581,-3869],[-7321,9581],[-22671,1547],[-5751,10355],[-7950,-3059],[2061,10208]],[[733938,239222],[-10775,-1069],[-5948,8438]],[[717215,246591],[1747,3096],[-4868,1142]],[[714094,250829],[3808,9101],[-2532,6154]],[[719119,284214],[11816,-14703],[19354,663]],[[750289,270174],[1119,8660],[-12072,15145]],[[754136,291436],[16664,-4348],[4260,9765]],[[540561,499742],[7557,3279],[5025,-13450],[7753,-1289],[-1786,-1880],[-59,-4164],[-5908,1695],[-8637,6265]],[[579445,536222],[-373,-2874]],[[579072,533348],[3984,-4754],[-1531,-4053]],[[581525,524541],[-6634,-4422],[255,-3132],[-3631,-3169]],[[571515,513818],[-530,-4569],[-5005,-885]],[[565980,508364],[-7655,4201],[-746,-3132],[6988,-2874]],[[564567,506559],[-4397,-6007]],[[560170,500552],[5201,-11791],[-11482,294],[-5653,13892],[-6772,-1400],[1688,5196]],[[541013,513928],[4985,-221],[511,2101],[-2297,7038]],[[544212,522846],[-5535,5011],[392,9139],[12111,3169],[1296,3169],[5495,2210],[6223,-6595]],[[329185,393507],[-3219,516],[157,5859],[8833,1879],[706,-7296],[-6477,-958]],[[173886,444469],[-9657,2100],[2886,10170],[9225,-5011],[-2454,-7259]],[[38393,561574],[11953,-258],[-765,-7812],[3965,-2064]],[[53546,551440],[10619,700],[3945,7960]],[[68110,560100],[16900,6338],[2689,8364],[10344,-921]],[[98043,573881],[-2395,-7296],[7224,-15403]],[[102872,551182],[-7341,-7443],[7517,958]],[[103048,544697],[1806,-4164],[17960,1879],[3454,-6706]],[[126268,535706],[4201,-1253],[2924,7333],[10639,3058],[255,-9396]],[[144287,535448],[5790,-3980],[15938,6412],[11051,-8991],[-2296,-7075],[6811,663]],[[181581,522477],[-982,-6559],[5967,-3427],[-1472,-5932],[5418,-1327],[2708,-13266],[5516,4054],[7498,-10244],[5064,2579]],[[211298,488355],[14112,-25204],[-2904,-4827]],[[222506,458324],[-9186,258],[2178,-7997]],[[215498,450585],[-13779,-8659],[1826,-3943]],[[203545,437983],[-1355,-4053]],[[202190,433930],[-8891,-1732],[-13544,-14297],[-1177,-9065]],[[178578,408836],[3022,2579],[4338,-1879],[-3121,-14076],[-11266,-4975],[-5123,4422]],[[166428,394907],[-14113,-3722],[-923,-13523]],[[151392,377662],[-3454,-1732]],[[147938,375930],[4730,-11128],[-2355,-3759],[-7851,-2248],[-6164,4091],[-1374,5011],[-2492,184],[-9638,12971],[-5064,-5490],[-2512,3537],[-3416,-3169],[-5692,-1842],[-8676,3758],[-11443,-17945],[-5260,5601],[-6320,-10207],[-10855,-774],[-16429,5417],[-1923,8438],[-7871,1548],[-4946,7812],[2218,4937],[-8087,7112],[2885,1916],[2630,6559],[-706,14777],[3808,2358],[-1257,6375],[2788,3095],[471,4754],[-2061,1510],[1315,6007],[-4004,3279],[-373,3169],[785,3059],[3886,2211],[-1040,6964],[3317,9433],[-726,3722],[-6065,5306],[589,8807],[9244,5601],[4220,-1327],[5065,2911],[-1787,12308],[-6163,2911],[-1590,8401],[-4691,2727],[2905,12050],[-3140,2948],[-3298,9949],[1080,4274],[6300,-516],[-2846,7923],[1669,3058],[-1335,5270]],[[460890,642272],[-667,2580]],[[460223,644852],[-3455,-1216]],[[456768,643636],[-117,3537]],[[456651,647173],[12169,2764],[-353,4974],[-3062,3575]],[[465405,658486],[8401,9728],[-6772,773],[824,9139],[4260,6375]],[[469782,687485],[1472,5970],[-3003,4606]],[[469743,699682],[-589,3943],[9716,3943]],[[499676,696255],[8911,-847],[-177,-3390],[-3670,-1953],[-2179,-12013],[25124,-24136],[-6988,-16287]],[[520697,637629],[9147,-10465],[-2866,-4458],[-2021,-9323],[9284,331],[3965,-2800],[-3730,-6338]],[[534476,604576],[-12091,-3574],[-78,-5343],[-17096,14592],[-25556,4827],[78,7738],[1571,2248],[-982,3500],[2238,2912],[-5987,479],[-1864,-1032],[-118,-3169]],[[151392,377662],[1198,13781],[13838,3464]],[[178578,408836],[1020,8586],[14211,15108],[8381,1400]],[[202190,433930],[3376,-6891],[13446,-663]],[[219012,426376],[4632,-7038],[10442,7554],[3396,-6707],[12680,5196]],[[250162,425381],[7125,-848],[-79,11829]],[[257208,436362],[10462,4680],[-5535,8069]],[[262135,449111],[-39,8844]],[[262096,457955],[9755,9912],[13367,-13560]],[[285218,454307],[2237,9986],[7165,-553],[1982,-4643],[2984,3612],[8636,-4127],[1276,3721],[17724,4201],[6615,6191],[530,7701],[11737,1179],[6596,6596],[15349,2211]],[[368049,490382],[1707,-3280],[4868,5344]],[[374624,492446],[10737,2174]],[[385361,494620],[5928,6153]],[[391289,500773],[12346,443],[2591,5158],[3415,1622],[8205,-7812]],[[417846,500184],[-2395,-6854],[5967,774]],[[418120,488650],[2866,-5048],[3199,2248]],[[422458,480580],[295,-2469],[15074,811]],[[437827,478922],[-628,-6891],[-9147,-8217]],[[428052,463814],[157,-2506],[-2905,1216]],[[425304,462524],[-2689,-2690],[530,-5011],[-12739,-5343],[1433,-4348],[-21571,-6154]],[[390268,438978],[-6890,-7222],[-3003,37],[-589,-4385],[-4808,-221],[-5732,-10613],[-4102,-2542],[-942,-5859],[7144,-5712],[-4122,-16103]],[[367224,386358],[7341,-3058],[-11678,-6522]],[[362887,376778],[-4750,-11424]],[[358137,365354],[-15801,-5895],[1550,-2838],[-6712,-9212],[-9913,1953],[-4848,17466],[-30129,1180],[-707,25646],[-5535,4975],[-6850,-3759],[-1374,-2026],[1001,-2838],[-4142,-5232],[-5005,2616],[-11011,-4827],[-3828,5638],[-4554,-2911],[-1629,-6670],[-2964,-958],[1826,-9618],[-7125,701],[-1512,-12308],[-7399,-11460],[1590,-2542],[-7597,-5749],[-4220,7407],[-13425,1363],[-7086,-7701],[-3415,1769],[-3592,9801],[-10482,2875],[-6359,-5086],[-12406,14592],[-5279,-4090],[-3062,6117],[-4181,-184],[-4024,12381]],[[411427,501437],[2081,2321],[-2415,2469],[-5064,-4348],[5398,-442]],[[578365,581804],[6163,2653],[6713,-1069],[1394,2469],[3906,-3427],[11267,2100],[-197,5233],[2513,4016]],[[610124,593779],[-1708,8107]],[[608416,601886],[5967,-295],[491,6265],[-3612,10170]],[[611262,618026],[177,4090]],[[611439,622116],[-4868,4975],[6222,1621]],[[612793,628712],[-275,7738],[4633,627]],[[617151,637077],[-2925,6043],[4279,3242]],[[618505,646362],[2041,-3758],[5398,2948]],[[628378,640725],[6085,-185],[4318,4054]],[[638781,644594],[5398,-995],[1197,5601]],[[645376,649200],[9853,-369],[864,11165]],[[655053,674183],[2689,2837],[3081,-2174],[79,-5490],[12130,-1327],[-1649,4938]],[[671383,672967],[-3199,995],[4868,3611]],[[673052,677573],[2198,-6154],[7498,-2874],[-157,-11460],[5123,-3316],[-8165,-6080],[3297,-5527],[7891,-1143]],[[690737,641019],[-766,-13634],[9363,-5490]],[[699334,621895],[-5162,-3538],[-3612,-15402]],[[690560,602955],[1884,-9102],[-3866,-3980]],[[688578,589873],[137,-5637],[-17135,-7370]],[[671580,576866],[-1355,-13708]],[[649046,581472],[-7871,-11423],[1571,-9618],[8224,-184]],[[661824,559584],[8951,-11644],[-4907,-3648]],[[665868,544292],[1256,-3833],[-4986,-700]],[[662138,539759],[-804,-13744],[-15291,10538],[-18097,-8401],[-6438,37],[-1138,3132]],[[620370,531321],[-4436,663],[-9167,-3537]],[[606767,528447],[-687,6890],[-9382,3427]],[[596698,538764],[-98,3464],[-6379,995]],[[587100,550556],[-3416,2137]],[[583684,552693],[11012,1474],[-6477,4643]],[[402653,527820],[59,6596]],[[402712,534416],[6222,-405],[-490,-4127],[-5791,-2064]],[[590751,599712],[-4554,3243]],[[586197,602955],[805,3242],[6084,-1437],[-2335,-5048]],[[433705,522883],[-3023,-6007],[-8086,1474],[-5928,-2985]],[[412546,506264],[-5574,737],[-3632,-5896],[-12051,-332]],[[385361,494620],[-2552,8364],[-8793,-1879],[-1001,-958],[2689,-3353]],[[369835,493846],[4789,-1400]],[[374624,492446],[-4711,-5307],[-1864,3243]],[[285218,454307],[-13092,13597],[-10030,-9949]],[[262096,457955],[-6340,7996]],[[255756,465951],[-7655,2948],[2708,4238]],[[250809,473137],[-1511,5564]],[[249298,478701],[5103,5380],[16625,3832]],[[271026,487913],[8892,10244]],[[279918,498157],[9461,4348],[-5908,6522],[373,10502]],[[283844,519529],[4338,4864],[-10345,15550],[2081,6117]],[[279918,546060],[-1511,7702]],[[278407,553762],[2198,2690],[-5123,6117]],[[291558,571117],[4612,-184],[8558,12971],[16527,-921]],[[345751,573034],[9049,2432],[6771,-11055],[13210,-6043]],[[386676,558847],[216,-5970],[6654,-4937]],[[413920,556194],[9912,-3280],[766,7296]],[[424598,560210],[12542,1548],[4515,5748],[-825,-4937],[1885,-14814],[1452,-6669],[6046,-8328],[902,-3501],[-2532,-3537],[1924,-2506],[-6693,405],[-1531,-2432],[-687,2948],[-3180,-2468],[-785,1916],[-982,-3132],[-2944,2432]],[[402653,527820],[6046,2322],[98,4311],[-6085,-37]],[[326221,529110],[11188,553],[1492,7333],[5967,-7923],[3474,2874],[-3121,9397],[8421,1068],[157,-7222],[8087,13044],[-14368,37],[2434,7112],[-6576,-3464],[-3670,4606],[-9991,-1068],[2728,-12234],[-7164,-1069],[2257,-4532]],[[327536,537622],[-1138,-4496],[-177,-4016]],[[441988,576571],[3082,-700],[-2689,-5491],[-7439,3169],[3121,3280],[3925,-258]],[[769564,589984],[3651,-3022],[-4849,-13007],[2591,-2948],[-12621,-3796],[-2767,1990],[-354,3390],[-6889,-4569],[-1610,3353],[3239,8254],[4102,3648],[1296,5601],[8499,480],[3533,3242],[2179,-2616]],[[794649,463814],[-5025,-3611],[-3416,3427]],[[786208,463630],[-17410,811],[-2080,-8218]],[[745558,424497],[-7439,294],[-962,5454]],[[737157,430245],[-14838,1990],[-2474,18498],[-9264,-1585],[-5967,4606],[4514,7260],[-137,8254],[-16625,-4238],[353,6117],[-3867,4569],[2277,5417],[-4612,4827]],[[686517,485960],[5240,-995],[1001,4090],[-11266,10834],[8146,4311]],[[689638,504200],[30050,-442],[6615,9876]],[[726303,513634],[-118,2579]],[[726185,516213],[5673,1584],[-79,6633]],[[731779,524430],[-8715,8954],[3161,1880],[2905,7738],[-7891,6080],[648,4827],[4475,1695],[-294,12013],[-3691,1068],[-274,4127],[-3337,1659]],[[718766,574471],[-4201,9875],[6792,2948],[706,4901],[10482,1363]],[[735469,598312],[-1432,5195],[2905,3759],[-8185,13708],[8440,2174],[5319,5269],[10207,-4901],[13700,6449],[5162,-2653],[-5731,-1474],[118,-3906],[5496,-2764],[2335,6043],[1394,-847],[-5319,-10097],[14054,-21519],[29461,-3870],[13622,8402],[1708,-2174],[-8695,-8844],[5614,-10944],[942,-11460],[3690,-1068],[9205,4053],[884,-2174],[5476,2137],[1197,-2469],[7577,-147],[-334,-9286],[3631,-1474]],[[857910,553430],[6576,-14297],[-13230,-20267],[-7046,-17024]],[[844210,501842],[4102,-3648],[-10364,-8881]],[[837948,489313],[-9833,479],[3493,-15144]],[[659332,184538],[3258,13966],[-10933,884]],[[648163,219692],[2709,6706],[-25536,-37]],[[625336,226361],[6536,9176]],[[631872,235537],[9441,4311],[-236,7628]],[[641077,247476],[-15290,7222],[-1708,13597]],[[624079,268295],[4122,1916]],[[628201,270211],[1963,9249],[8951,74]],[[639115,279534],[2002,4274],[5162,1769]],[[715370,266084],[1688,-3500],[766,-3722],[-3730,-8033]],[[717215,246591],[4534,-4606]],[[721749,241985],[-8263,-1326],[7596,-6670],[-628,-7701],[-9304,-332],[2944,-16324],[-7557,1769]],[[706537,211401],[-1020,-10686],[-12994,6264],[-23534,-23215]],[[675191,225293],[-9048,5159],[-8735,-7812],[9755,-5049],[8028,7702]],[[728973,613457],[-14722,1584],[-824,-20893],[12699,-590],[-4357,-1621],[-609,-4827],[-6673,-3353],[4279,-9286]],[[731779,524430],[471,-4311],[-1845,-3538],[-4220,-368]],[[726303,513634],[-6242,-9655],[-30423,221]],[[689638,504200],[-2395,2469]],[[687243,506669],[-7753,-2727],[-2729,13561],[-15486,6890],[863,15366]],[[665868,544292],[4946,3390],[-8990,11902]],[[661824,559584],[8225,700],[1531,16582]],[[671580,576866],[16821,7001],[177,6006]],[[688578,589873],[3827,3722],[-1845,9360]],[[690560,602955],[3278,14076],[5496,4864]],[[690737,641019],[12405,2580],[6870,-2801],[16193,-15218],[10678,-18056],[-1669,-2469]],[[608416,601886],[883,-6448]],[[609299,595438],[-1590,-1659],[-11620,3059],[1374,4790]],[[597463,601628],[5536,-1474],[1040,8586],[4809,-3022],[-432,-3832]],[[483443,458803],[-491,-6707],[4633,-5011],[-1453,-2985]],[[486132,444100],[2650,-2469],[-3847,-3685]],[[484935,437946],[2787,-9986],[-6379,-479]],[[481343,427481],[-805,-3353],[-4298,-1253],[-295,3575]],[[475945,426450],[-6497,5195],[-7027,332]],[[462421,431977],[4063,8622],[8107,-773],[-1041,5416],[3769,3612],[-1394,3795],[3318,1216],[1688,5343]],[[480931,459208],[2512,-405]],[[362887,376778],[11737,6669],[-7400,2911]],[[390268,438978],[21316,5970],[-1079,4643],[10108,3316]],[[420613,452907],[2395,-8807],[6222,1032],[373,5490]],[[429603,450622],[2610,3059]],[[432213,453681],[5791,-958],[-1629,-2359]],[[436375,450364],[176,-4643],[9598,-958],[1021,5712],[6634,405]],[[462833,467462],[5477,3611],[2571,-1547],[4279,-10760],[5771,442]],[[462421,431977],[6772,-184],[6752,-5343]],[[475945,426450],[59,-3464],[3749,737],[1590,3758]],[[481343,427481],[6968,1511],[-3376,8954]],[[484935,437946],[3827,3390],[-2630,2764]],[[486132,444100],[1551,2764],[-3337,1953],[-1767,4569],[1492,7628]],[[499048,465914],[8675,4459],[2316,-7554]],[[505387,400692],[2395,-7590],[-2002,-1180],[-3160,3612],[-2866,-2948]],[[499754,392586],[-7517,1732],[-393,-9471],[-5241,1180],[-2002,-8291],[-3651,3353]],[[480950,381089],[-3945,-4717],[-6811,10613]],[[462009,376814],[-24162,-11681],[-21846,1143]],[[416001,366276],[-40,4790],[-1256,369],[-13170,-7923],[1432,-23878]],[[396726,333738],[-7675,-773],[-11011,-590],[-3867,3869],[-883,5712],[-6910,1363],[-4318,12123],[-2650,2064],[275,6153],[-1550,1695]],[[404812,242280],[1826,-2064],[11463,664]],[[418101,240880],[3219,-8623],[-3317,-2579]],[[418003,229678],[-1237,-6559],[-7302,-2248],[-6673,6006],[1295,3390],[-942,7186],[1668,4827]],[[490215,204731],[-13210,9175],[15349,6449],[4848,-1511],[1610,-9912],[-8597,-4201]],[[539541,623258],[-3906,-2137],[-4593,3132],[5064,3869],[3435,-4864]],[[548903,602770],[-16389,-4237]],[[527253,601665],[7223,2911]],[[520697,637629],[6851,16582],[-25085,24136],[2394,12013],[3887,2911],[-1904,3353]],[[506624,713832],[16468,17651],[3101,-885]],[[526193,730598],[609,-4900],[17940,3721],[19373,-11423],[5143,1879],[5182,-9138],[28833,74]],[[603273,710811],[-16742,-13745],[5868,-5822],[-1923,-3353],[-6222,2653],[-2827,-3832],[3926,-5970],[5672,1069],[-1040,-6007],[7086,-8401]],[[597071,667403],[-2218,-8033],[-3455,3611],[-7615,-2063]],[[583783,660918],[-4378,4937],[-5358,-5232]],[[574047,660623],[-7734,74],[1433,-3906],[-4848,-4570]],[[562898,652221],[1669,-8475],[-7734,2211],[2355,-4348],[-3219,-1253],[-5927,4901],[-6046,-1142],[-2336,-5049],[491,-3132],[8322,-3832],[5006,774],[2257,-3427],[-1060,-2137],[-5751,1695],[-4730,-5712]],[[546195,623295],[2904,-5048],[-1609,-3390],[5437,-2359],[-1197,-7775],[-2827,-1953]],[[579445,536222],[8381,4643],[17901,-5270],[1040,-7148]],[[620370,531321],[1943,-3243],[5947,148],[18137,8254],[3611,-4275],[8499,-2727],[3435,-5822],[14604,-5895],[2826,-13708],[7871,2616]],[[687243,506669],[2100,-1769],[-7832,-5269],[11012,-10170],[-550,-4312],[-3690,1843],[-23828,-2211],[-8872,-6817],[-3828,-17540],[-10737,1658]],[[641018,462082],[-726,-9212]],[[640292,452870],[-3081,-5159],[8891,-5601]],[[646102,442110],[-216,-6448],[4868,-4717],[550,-7406]],[[651304,423539],[13759,1510],[962,-6522]],[[666025,418527],[-4358,-1363],[-4632,-9065]],[[657035,408099],[10168,-10023],[-746,-7038],[-5143,-5859]],[[661314,385179],[-236,-11534],[-9774,-6411]],[[651304,367234],[-5261,1068]],[[646043,368302],[-3513,9434],[-7753,737],[-11934,-6007],[-2415,2101],[-549,7111]],[[619879,381678],[-27558,-1216],[-5103,-2837],[-884,5527]],[[585588,393212],[-4337,2064],[-2179,-4422],[-6733,-1474]],[[551985,434962],[6143,7001],[-3788,12934],[-6379,-995]],[[547961,453902],[-3513,9359],[3984,-1989],[3612,2726],[2748,-3685]],[[554713,469194],[-2709,663],[-726,7370],[2630,6375]],[[553908,483602],[4907,-1474],[707,4974],[5869,2064],[-5221,11386]],[[564567,506559],[-7302,3906],[1825,2395],[6890,-4496]],[[565980,508364],[5123,958],[412,4496]],[[581525,524541],[1472,3648],[-3925,5159]],[[599524,490235],[-5515,5306],[-667,5269],[-6223,4569],[-7085,-552],[-2003,-4312],[-6379,-2395],[2552,-9580],[4083,958],[8970,-10097],[7321,2764],[9618,-9102],[1060,2837],[-7420,7002],[1688,7333]],[[544035,555862],[-39,-221],[-196,0],[235,221]],[[542701,560689],[1393,-4458],[-9225,-922],[589,10908],[4436,1363],[3827,-4754],[-1020,-2137]],[[933793,530363],[2571,1658],[6124,-3943],[-1786,-11239],[-7145,111],[-3572,-4901],[-13445,-737],[-1512,2064],[2003,5453],[6379,4643],[824,4606],[3356,3722],[6203,-1437]],[[259740,620016],[-353,-6559],[6144,-590]],[[265531,612867],[11305,-19014],[-12091,-5159]],[[263901,578082],[-5044,-516],[412,-10465],[6340,2027]],[[265609,569128],[1983,-6375],[3160,-1769],[3179,2432],[6596,-6706],[-2120,-2948]],[[279918,546060],[-2159,-5822],[10305,-15292],[-4220,-5417]],[[283844,519529],[-432,-9617],[6045,-7149],[-9539,-4606]],[[271026,487913],[-16095,-3500],[-5633,-5712]],[[250809,473137],[-2610,-4459],[7557,-2727]],[[255756,465951],[5358,-6596],[1021,-10244]],[[262135,449111],[5515,-7811],[-10442,-4938]],[[257208,436362],[-176,-11976],[-6870,995]],[[219012,426376],[-13799,1032],[-3023,6522]],[[203545,437983],[-1983,3685],[13936,8917]],[[215498,450585],[-2041,8144],[9049,-405]],[[222506,458324],[2610,5564],[-13818,24467]],[[181581,522477],[-6890,-553],[2140,7260],[-11502,8954],[-16626,-6080],[-4416,3390]],[[144287,535448],[98,9102],[-3513,257],[3533,3648],[-1256,3096],[-9932,5822],[10128,6927]],[[143345,564300],[6222,-10096],[5398,16250],[12228,3685],[2414,4496],[19609,3095],[2473,10944],[3494,-10428]],[[195183,582246],[3258,184],[197,10649]],[[198638,593079],[12915,10392],[-7223,3426],[5280,4643],[-2807,6302],[13445,9875],[-647,3795],[-6713,3243]],[[212888,634755],[2689,6449],[16252,-1769],[-59,4201]],[[231770,643636],[2866,-148],[2826,-15255],[4829,3279],[-648,6523],[14015,-1622]],[[257562,629780],[2178,-9764]],[[672325,150932],[6831,-6964],[9559,3427],[4220,-4680],[9363,2432],[10952,-9433]],[[713250,135714],[1629,-10760],[11385,3353]],[[726264,128307],[1099,-4053],[-3082,-2248],[2258,-5011],[-6694,-3870],[157,-5232],[982,-2211],[8067,2063],[1158,-3942],[-5241,-1585],[2905,-1953],[-8715,-18092],[5732,-7260],[3317,479],[5280,-5048],[12719,111],[7341,-4017],[1296,-13376],[-10011,-3390],[-3867,-14629],[-6634,12308],[-1727,-4238],[-3612,4495],[-4338,222],[-6143,-16767],[-10462,5933],[-3514,-1400],[-3690,-22846],[2886,-1622],[-864,-5822],[-9284,-5306],[-4299,1584],[-2905,5491],[-29933,10760],[-3749,14444],[9598,11129],[-2924,8549],[-13387,10428],[2474,7148],[-1806,4864],[-5967,4201],[2473,12566],[-6418,8217],[-1708,7259],[18136,3832],[20,5380],[2395,2137],[4671,16803],[-2414,5601]],[[589475,763394],[-5045,-9028],[-3572,2174],[-3572,7775],[2100,6338],[10089,-7259]],[[526193,730598],[3161,2359],[-1944,11497],[-7988,1989],[6870,5085]],[[531689,798658],[3573,7296],[6516,6448],[-5437,9618]],[[518990,856437],[4161,8364],[-7380,12160]],[[515771,876961],[1079,8144],[9599,5601]],[[526449,890706],[9382,-1142],[8518,8475]],[[544349,898039],[17685,7112],[8892,-8734],[6144,6228]],[[577070,902645],[-3789,10317]],[[573281,912962],[6281,6965],[668,3132]],[[580230,923059],[-2846,737]],[[577384,923796],[39,3316],[38628,4864],[491,4901],[11463,-9212],[15997,-20856],[-11836,-5343],[-4200,1437],[6595,-15771],[-1924,-6412],[2650,-2764],[-3062,-7296],[5987,-4311],[1040,-6817],[-15271,-12492],[-1923,-4164],[3454,-5748],[8480,-37],[-6890,-6891],[7498,-5895],[-137,-8623],[11109,590],[2473,-6670],[-4141,-9912],[1629,-5049],[9264,-2358],[903,-6006],[-7674,-1953],[3121,-4238],[-3219,-13192],[5044,-3942],[-1727,-8586],[-47972,-43555]],[[453137,253961],[9127,626],[-3160,-6264],[-39,-6080],[7419,848],[668,-5601],[-9402,2137],[-4318,-6817],[-1492,3243],[-10050,1437],[1374,2874],[-4043,2542],[-923,3427],[8754,7923],[275,6485],[5202,-1474],[608,-5306]],[[404812,242280],[3239,5601],[-6320,12344],[2237,3243],[-7517,8180],[2748,4754],[-5634,8549],[-4573,2837],[-2905,9654],[7086,2248]],[[393173,299690],[18431,-4385],[3670,-5011]],[[468192,295895],[2238,-15440],[8499,5233],[490,-8218],[10462,8476],[8008,-148],[16370,-8659],[-274,-6559],[8106,-1548],[-275,-8954]],[[521816,260078],[5614,-2211],[-3710,-7075]],[[523720,250792],[5084,-11497],[16664,-8217],[1983,-9360]],[[547451,221718],[-28226,-6596],[-903,-1952],[4378,-6523],[-2650,-3685],[78,-4900],[2257,-1474],[-392,-4127],[-3435,-1953],[432,-7812],[-7734,-8918],[-13759,-2432],[-11914,8586],[-11012,-5454],[-5751,6412],[1492,16840],[-8107,3869],[-5201,12787],[-28559,4053],[-295,-6596],[-5986,2063],[1295,5344],[-7105,-885],[-2670,2911],[3259,2027],[1060,6375]],[[418003,229678],[3336,2727],[-2983,4606],[-255,3869]],[[89937,699461],[6457,-9322],[5771,4569],[4338,-1916],[-1865,-3906],[1256,-2985],[7027,3169]],[[112921,689070],[2257,-4938],[-6084,-5822]],[[109094,678310],[-5536,-19935],[11758,-774],[-4672,-7112],[3062,-12123],[7165,-2616],[294,-3132],[-1119,-7923],[-5869,-6080],[2611,-8880],[-14702,-15329]],[[102086,594406],[3789,-13008],[-7832,-7517]],[[68110,560100],[-3651,-7849],[-10913,-811]],[[38393,561574],[-726,2800],[-8833,1621],[765,6707],[-8243,11349],[-1335,6117],[-6536,10060],[2119,4680],[-3415,-590],[-1649,7222],[-10540,11939],[9618,20046],[5221,737],[3690,7149],[-628,5158],[5947,-1584],[3985,8401],[4966,-1437],[2296,6265],[-765,3058],[3867,3538],[-3769,4016],[-6360,-626],[-1158,6006],[5908,5306],[-2826,4827],[11855,11534],[-1962,2874],[2002,4054],[-7184,4016],[-1767,7701],[17587,6080]],[[859912,489424],[1315,-8881],[-7380,443],[-1609,3390],[3238,4716],[4436,332]],[[892907,348625],[-5613,16729],[-16135,-2210]],[[874594,433009],[6262,405],[530,10354]],[[881386,443768],[-5575,5565],[-1177,7369]],[[874634,456702],[1472,3243],[-40729,1769],[-2493,3242]],[[832884,464956],[1590,7481],[-2866,2211]],[[831608,474648],[-3572,14886],[9912,-221]],[[837948,489313],[10560,9286],[-4298,3243]],[[857910,553430],[6556,3538],[530,12418],[8813,4864],[7518,-2764],[6222,3132],[3003,-3611],[7734,4532],[9087,13118],[9795,-221],[1727,-4679],[3180,3058],[14701,-1658],[4240,-11829],[2061,-14850],[-1825,-8917],[3945,-6301],[4416,258],[7557,-12345],[16979,-10243],[-5771,-6338],[6359,-14224],[-2669,-9138],[-5398,405],[569,-20156],[21572,331],[1649,-7996],[4573,-2690],[-589,-13781],[-7144,700],[1884,-8844],[-4574,-6854],[5889,-7848],[4338,-19014],[5162,-5675],[-8381,-1179],[3042,-4717],[-3984,-2616],[-5241,-15403],[-26871,-16176],[-4593,-5638],[-12778,1805],[-18313,-8438],[-3317,2801],[-4142,-1548],[-2473,-8770],[-10972,-17540],[6084,-1511],[10678,7959],[4063,-7332],[5319,-1585],[-1845,-7001],[1885,-1622],[-3494,-4200],[-7439,-25942],[-6674,5786],[-2630,-1327],[-137,-5343],[-14604,-369],[-4632,7002],[-6261,921]],[[554203,597943],[-5300,4827]],[[546195,623295],[4887,5749],[6340,-995],[-1296,4348],[-3120,847]],[[553006,633244],[6771,1548],[373,5454]],[[560150,640246],[-3847,5343],[8519,-1622],[-1924,8254]],[[574047,660623],[5201,5159],[4535,-4864]],[[597071,667403],[-4907,7701]],[[653953,730783],[5320,405],[647,-7407],[10030,1990],[-5083,-11754],[4436,-9471],[-1099,-9654],[3395,-3832],[-333,-6928],[1786,-6559]],[[671383,672967],[1826,-4753],[-12543,1289],[-255,6080],[-2395,1548],[-2963,-2948]],[[654856,681037],[-5142,1695],[903,-2506]],[[644395,665597],[-6831,-7480],[-19216,5196],[-982,-6633],[7891,-2395]],[[618505,646362],[-4044,-2948],[2690,-6337]],[[612793,628712],[-6261,-2064],[4907,-4532]],[[611262,618026],[3533,-9655],[-196,-6411],[-6183,-74]],[[597463,601628],[-1374,-4459],[10894,-3500],[2316,1769]],[[609299,595438],[825,-1659]],[[590751,599712],[2826,4053],[-962,1253],[-5751,1142],[-667,-3205]],[[471254,471368],[4083,-3906],[-2336,-4385],[5614,1364],[-648,2763],[4455,1695],[-608,-5453],[2257,-2432]],[[484071,461014],[-628,-2211]],[[483443,458803],[-7773,-479],[-5790,12381],[1374,663]],[[358509,708047],[-3160,-8438],[-6281,1842],[295,12934],[6791,-1584],[2355,-4754]],[[432763,636376],[-6418,-2653],[-5614,1990],[903,5491],[-2689,2210],[1217,1843],[-10227,8880],[-15074,-479],[4181,-8364],[-1904,-2948],[687,-9175],[14054,-4754],[-1139,10207],[5516,1658],[3808,-4532],[-5457,-1769],[2610,-7369]],[[430761,625801],[2493,-1179],[-2159,-6559],[-6615,2690],[-2198,-4459]],[[422282,616294],[2198,-4201]],[[424480,612093],[-530,-4827],[-7047,-2395]],[[416040,608003],[-12974,6927],[-6458,-3242]],[[385498,626943],[-5005,1953],[510,14555]],[[319704,679121],[-8420,8696],[4829,-37]],[[316113,687780],[4318,11755],[-6713,6817]],[[345339,747586],[-707,5748],[6537,442],[1079,6117],[8283,1990],[9402,-3390],[726,4237]],[[363004,769290],[8578,958],[-3219,9580]],[[373427,780565],[157,-3464],[14152,-16729]],[[388344,755987],[8676,-3611],[2552,-4606],[-4633,-7554],[629,-5085]],[[423871,691907],[4809,-6338],[-6026,-3979]],[[422654,681590],[-392,-7038],[7184,-9802],[13818,-1327]],[[449270,666445],[4240,-3685]],[[453510,662760],[-3984,-5527],[2414,-5343]],[[451940,651890],[-1040,-2653],[5751,-2064]],[[456768,643636],[-3042,184],[-2454,1363],[-11619,-10649],[-6890,1842]],[[585451,249281],[-628,-9138],[-4829,626],[-137,6780],[-4436,2948],[5555,3427],[4475,-4643]],[[505819,288488],[8519,3169],[-14976,12197]],[[499362,303854],[13308,2027],[-3455,13118],[-785,12971],[1668,4753],[10972,-3464]],[[546607,353158],[2002,5822],[-2395,2911],[2002,5674],[6085,-2690]],[[552436,361191],[4574,-6449],[11835,9949]],[[568845,364691],[6223,-295],[16998,15993],[27813,1289]],[[646043,368302],[9088,-4421],[-962,-7849],[-6104,589],[-1021,-6153],[7596,-8512],[157,-5233],[-6202,332]],[[645121,324195],[2630,3500],[2375,-2469],[-4122,-7701]],[[650204,311998],[3161,552],[-570,-7148],[-3219,-516]],[[639115,279534],[-8598,332],[-2316,-9655]],[[624079,268295],[1963,-14260],[15035,-6559]],[[641077,247476],[157,-8181],[-9362,-3758]],[[625336,226361],[-5300,3354],[-4554,-3501]],[[615482,226214],[-9461,4311],[-7400,-3058]],[[594971,221092],[-10089,-8512],[-8911,5122],[-15428,110],[-8440,4385],[-4652,-479]],[[523720,250792],[3808,6854],[-5712,2432]],[[521816,260078],[471,8770],[-8106,1547],[314,6486],[-7910,3574]],[[477928,847519],[-27735,-10096],[-6124,18019]],[[415471,892843],[-34016,30216],[24594,15034],[9480,-2800],[40,-2690],[6909,-3980],[2159,2211],[10266,-3980],[2532,6265],[15094,6780],[10834,-5491],[7341,14850],[7165,5380],[-2925,8107],[4829,1990],[-157,2542],[-5948,5528],[3043,9064],[12738,5270],[982,3537],[13013,3022],[5202,5343],[5064,958],[392,-2837],[4417,-2174],[-589,-6044],[6242,-552],[3140,-7444],[12366,-1363],[5378,-10207],[6988,3390],[11482,-7812],[1021,-11423],[10952,-23841],[2061,-553],[-176,-5343]],[[580230,923059],[-6949,-10097]],[[577070,902645],[-6713,-6338],[-8558,8770],[-17450,-7038]],[[526449,890706],[-9383,-5380],[-1295,-8365]],[[431782,467167],[1747,-7333],[-1316,-6153]],[[429603,450622],[-216,-5232],[-6634,-1106],[-2140,8623]],[[420613,452907],[2748,2248],[-1001,4274],[2944,3095]],[[425304,462524],[2807,-1289],[-59,2579]],[[428052,463814],[3730,3353]],[[228355,672746],[-6654,-3574],[1138,-12676]],[[227216,652958],[628,-4753],[2866,-627],[1943,-7554],[-17704,516],[-2061,-5785]],[[198638,593079],[-314,-10760],[-3141,-73]],[[143345,564300],[-9461,-5932],[10580,-9544],[-11326,-7259],[-2237,-7075],[-4633,1216]],[[103048,544697],[-7674,-774],[7498,7259]],[[102872,551182],[-7263,15661],[2434,7038]],[[98043,573881],[8185,8217],[-4142,12308]],[[109094,678310],[6124,5196],[-2689,7591],[-491,12270],[23043,10907]],[[257562,629780],[2316,7739],[3552,-590],[1983,-4753],[3376,-1364]],[[268789,630812],[196,-10133],[-9245,-663]],[[744498,394096],[-6575,-2984],[6791,-3059],[-4259,-4901],[1295,-7185]],[[741750,375967],[-4121,-4901],[-15683,4164]],[[721946,375230],[-6537,-8180],[-18470,-1438]],[[670480,359790],[-10069,4127],[-4985,-2284]],[[655426,361633],[-766,3574],[-3356,2027]],[[661314,385179],[5359,6338],[353,7186],[-9991,9396]],[[666025,418527],[-726,5748],[-13995,-736]],[[646102,442110],[-8970,5233],[3160,5527]],[[641018,462082],[11032,-1289],[4494,18203],[9481,6485],[20492,479]],[[737157,430245],[-78,-4753],[1904,-737]],[[738944,180485],[-9736,-553],[1806,10244],[7674,-2764],[256,-6927]],[[672325,150932],[6733,14740],[-7891,5969]],[[706537,211401],[7420,-1990],[-2866,16250],[9657,1069],[20,8770],[-7282,4901],[5417,1474],[2846,110]],[[721749,241985],[1649,-3906],[10540,1143]],[[801931,189402],[-4044,-5085],[8283,-1953],[-4769,-10833]],[[801401,171531],[-3808,-1953],[4043,-1917]],[[804600,170646],[1217,-6669],[-1570,-3280],[4534,-3759],[-4731,-13044],[-9068,-811],[-4632,6965],[-2650,-5159],[-3631,110],[-1845,-4827],[-4377,5638],[-4103,-3869],[-11168,-1290],[-6144,-10354],[-7753,1658],[-3494,7923],[-19608,-7665],[687,-3906]],[[726264,128307],[-10933,-3427],[-2081,10834]],[[583684,552693],[-8989,1032]],[[571122,542560],[-12346,3832],[-4298,9433]],[[554478,555825],[4396,6412],[3769,-1695],[-609,-3685],[26185,1953]],[[588219,558810],[6516,-4238],[-1570,-2358],[-6006,2543],[-3475,-2064]],[[326221,529110],[275,4385],[1040,4127]]],"bbox":[35.1518,54.2281,40.2465,56.9419],"transform":{"scale":[0.00000509470509470509,0.000002713802713802713],"translate":[35.1518,54.2281]}}