{"type":"Topology","objects":{"muni":{"type":"GeometryCollection","geometries":[{"type":"MultiPolygon","arcs":[[[0,1,2,3,4,5,6,7,8,9,10],[11]]],"properties":{"GID_2":"RUS.45.1_1","GID_0":"RUS","COUNTRY":"Russia","GID_1":"RUS.45_1","NAME_1":"Murmansk","NL_NAME_1":"Мурманскаяобласть","NAME_2":"Apatitygorsovet","VARNAME_2":"NA","NL_NAME_2":"Апатиты(горсовет)","TYPE_2":"Gorsovet","ENGTYPE_2":"District","CC_2":"R05000","HASC_2":"RU.MM.AP"}},{"type":"MultiPolygon","arcs":[[[12]],[[13]],[[14]],[[15]],[[16]],[[17]],[[18]],[[19]],[[20]],[[21]],[[22]],[[23]],[[24]],[[25]],[[26]],[[27]],[[28]],[[29]],[[30]],[[31]],[[32]],[[33]],[[34]],[[35]],[[36]],[[37]],[[38]],[[39]],[[40]],[[41]],[[42]],[[43]],[[44]],[[45]],[[46]],[[47]],[[48]],[[49]],[[50,51]],[[52]],[[53,54,-11,55,56,57,58,59,60]],[[61]],[[62]],[[63]],[[64]],[[65]],[[66]],[[67]],[[68]],[[69]],[[70]],[[71]],[[72]],[[73]],[[74]],[[75]],[[76]],[[77]],[[78]],[[79]],[[80]],[[81]]],"properties":{"GID_2":"RUS.45.2_1","GID_0":"RUS","COUNTRY":"Russia","GID_1":"RUS.45_1","NAME_1":"Murmansk","NL_NAME_1":"Мурманскаяобласть","NAME_2":"Kandalakshagorsovet","VARNAME_2":"Kandalaksha","NL_NAME_2":"Кандалакша(горсовет)","TYPE_2":"Gorsovet","ENGTYPE_2":"District","CC_2":"R05000","HASC_2":"RU.MM.KA"}},{"type":"MultiPolygon","arcs":[[[-9,82,83,84,85,86,87,88]]],"properties":{"GID_2":"RUS.45.3_1","GID_0":"RUS","COUNTRY":"Russia","GID_1":"RUS.45_1","NAME_1":"Murmansk","NL_NAME_1":"Мурманскаяобласть","NAME_2":"Kirovskgorsovet","VARNAME_2":"Kirovsk","NL_NAME_2":"Кировск(горсовет)","TYPE_2":"Gorsovet","ENGTYPE_2":"District","CC_2":"R05000","HASC_2":"RU.MM.KI"}},{"type":"MultiPolygon","arcs":[[[89,90,91,92,93,94,95,96,97,98,99,100,101,102,103,104,105,106,107,108],[109,110,111,112]],[[113]],[[114]],[[115]],[[116]]],"properties":{"GID_2":"RUS.45.4_1","GID_0":"RUS","COUNTRY":"Russia","GID_1":"RUS.45_1","NAME_1":"Murmansk","NL_NAME_1":"Мурманскаяобласть","NAME_2":"Kol'skiyrayon","VARNAME_2":"NA","NL_NAME_2":"Кольскийрайон","TYPE_2":"Raion","ENGTYPE_2":"District","CC_2":"R05000","HASC_2":"RU.MM.KL"}},{"type":"MultiPolygon","arcs":[[[117,-108,118,119,120,-2,121,-54]]],"properties":{"GID_2":"RUS.45.5_1","GID_0":"RUS","COUNTRY":"Russia","GID_1":"RUS.45_1","NAME_1":"Murmansk","NL_NAME_1":"Мурманскаяобласть","NAME_2":"Kovdorskiyrayon","VARNAME_2":"NA","NL_NAME_2":"Ковдорскийрайон","TYPE_2":"Raion","ENGTYPE_2":"District","CC_2":"R05000","HASC_2":"RU.MM.KV"}},{"type":"MultiPolygon","arcs":[[[-86,122,-84,123,-104,124,-102,125,126,127,128,129,130,131,132,133,-88,134]],[[135]],[[136]],[[137]],[[138]],[[139]],[[140]],[[141]],[[142]],[[143]],[[144]],[[145]],[[146]],[[147]],[[148]]],"properties":{"GID_2":"RUS.45.6_1","GID_0":"RUS","COUNTRY":"Russia","GID_1":"RUS.45_1","NAME_1":"Murmansk","NL_NAME_1":"Мурманскаяобласть","NAME_2":"Levozerskiyrayon","VARNAME_2":"NA","NL_NAME_2":"Левозерскийрайон","TYPE_2":"Raion","ENGTYPE_2":"District","CC_2":"R05000","HASC_2":"RU.MM.LE"}},{"type":"MultiPolygon","arcs":[[[-4,149,-120,150,-106,151,152,153]]],"properties":{"GID_2":"RUS.45.7_1","GID_0":"RUS","COUNTRY":"Russia","GID_1":"RUS.45_1","NAME_1":"Murmansk","NL_NAME_1":"Мурманскаяобласть","NAME_2":"Monchegorskgorsovet","VARNAME_2":"Monchegorsk","NL_NAME_2":"Мончегорск(горсовет)","TYPE_2":"Gorsovet","ENGTYPE_2":"District","CC_2":"R05000","HASC_2":"RU.MM.MO"}},{"type":"MultiPolygon","arcs":[[[154,155]],[[156,157]]],"properties":{"GID_2":"RUS.45.8_1","GID_0":"RUS","COUNTRY":"Russia","GID_1":"RUS.45_1","NAME_1":"Murmansk","NL_NAME_1":"Мурманскаяобласть","NAME_2":"Murmansk","VARNAME_2":"NA","NL_NAME_2":"Мурманск","TYPE_2":"Gorod","ENGTYPE_2":"City","CC_2":"NA","HASC_2":"RU.MM.MU"}},{"type":"MultiPolygon","arcs":[[[-94,158,159,-155,160,161]],[[162,-157,163,164,165,-97]],[[166]],[[167,168]]],"properties":{"GID_2":"RUS.45.9_1","GID_0":"RUS","COUNTRY":"Russia","GID_1":"RUS.45_1","NAME_1":"Murmansk","NL_NAME_1":"Мурманскаяобласть","NAME_2":"Murmanskgorod","VARNAME_2":"Murmansk","NL_NAME_2":"Мурманск(город)","TYPE_2":"Gorod","ENGTYPE_2":"City","CC_2":"R05001","HASC_2":"RU.MM.MU"}},{"type":"MultiPolygon","arcs":[[[-8,169,170,-152,-105,-124,-83]]],"properties":{"GID_2":"RUS.45.10_1","GID_0":"RUS","COUNTRY":"Russia","GID_1":"RUS.45_1","NAME_1":"Murmansk","NL_NAME_1":"Мурманскаяобласть","NAME_2":"Olenegorskgorsovet","VARNAME_2":"NA","NL_NAME_2":"Оленегорск(горсовет)","TYPE_2":"Gorsovet","ENGTYPE_2":"District","CC_2":"R05001","HASC_2":"RU.MM.OL"}},{"type":"MultiPolygon","arcs":[[[-90,171]],[[172]],[[173]],[[174]]],"properties":{"GID_2":"RUS.45.11_1","GID_0":"RUS","COUNTRY":"Russia","GID_1":"RUS.45_1","NAME_1":"Murmansk","NL_NAME_1":"Мурманскаяобласть","NAME_2":"Pechengskiyrayon","VARNAME_2":"NA","NL_NAME_2":"Печенгскийрайон","TYPE_2":"Raion","ENGTYPE_2":"District","CC_2":"R05000","HASC_2":"RU.MM.PE"}},{"type":"MultiPolygon","arcs":[[[-12]]],"properties":{"GID_2":"RUS.45.12_1","GID_0":"RUS","COUNTRY":"Russia","GID_1":"RUS.45_1","NAME_1":"Murmansk","NL_NAME_1":"Мурманскаяобласть","NAME_2":"Polyarnye","VARNAME_2":"NA","NL_NAME_2":"Полярный","TYPE_2":"Gorsovet","ENGTYPE_2":"District","CC_2":"NA","HASC_2":"RU.MM.PO"}},{"type":"MultiPolygon","arcs":[[[-92,175,-169,176,-159,177],[178,179]],[[180]],[[181]],[[182]]],"properties":{"GID_2":"RUS.45.13_1","GID_0":"RUS","COUNTRY":"Russia","GID_1":"RUS.45_1","NAME_1":"Murmansk","NL_NAME_1":"Мурманскаяобласть","NAME_2":"Polyarnyegorsovet","VARNAME_2":"Polyarnye","NL_NAME_2":"Полярные(горсовет)","TYPE_2":"Gorsovet","ENGTYPE_2":"District","CC_2":"R05001","HASC_2":"RU.MM.PO"}},{"type":"MultiPolygon","arcs":[[[-179,183]]],"properties":{"GID_2":"RUS.45.14_1","GID_0":"RUS","COUNTRY":"Russia","GID_1":"RUS.45_1","NAME_1":"Murmansk","NL_NAME_1":"Мурманскаяобласть","NAME_2":"PolyarnyeZori","VARNAME_2":"NA","NL_NAME_2":"ПолярныеЗори","TYPE_2":"Gorsovet","ENGTYPE_2":"District","CC_2":"NA","HASC_2":"RU.MM.PZ"}},{"type":"MultiPolygon","arcs":[[[-100,184,-128,185,186]],[[187]],[[188,-165,189,-98]],[[190]],[[191]],[[192]],[[193]],[[194]],[[195]],[[196]],[[197]],[[198]],[[199]],[[200]],[[201]],[[202]],[[203]],[[204]],[[205]],[[206]],[[207]],[[208]],[[209]],[[210]],[[211]]],"properties":{"GID_2":"RUS.45.15_1","GID_0":"RUS","COUNTRY":"Russia","GID_1":"RUS.45_1","NAME_1":"Murmansk","NL_NAME_1":"Мурманскаяобласть","NAME_2":"Severomorskgorsovet","VARNAME_2":"Severomorsk","NL_NAME_2":"Североморск(горсовет)","TYPE_2":"Gorsovet","ENGTYPE_2":"District","CC_2":"R05001","HASC_2":"RU.MM.SE"}},{"type":"MultiPolygon","arcs":[[[212]],[[213]],[[214]],[[-89,-134,215,-132,216,-130,217,-56,218]],[[219]],[[220]],[[221]],[[222]],[[223]],[[224]],[[225]],[[226]],[[227]],[[228]],[[229]],[[230]],[[231]],[[232]],[[233]],[[234]]],"properties":{"GID_2":"RUS.45.16_1","GID_0":"RUS","COUNTRY":"Russia","GID_1":"RUS.45_1","NAME_1":"Murmansk","NL_NAME_1":"Мурманскаяобласть","NAME_2":"Terskiyrayon","VARNAME_2":"NA","NL_NAME_2":"Терскийрайон","TYPE_2":"Raion","ENGTYPE_2":"District","CC_2":"R05000","HASC_2":"RU.MM.TE"}},{"type":"MultiPolygon","arcs":[[[235,-59,236,-51,237]],[[-6,238,-153,239,-170,240]],[[-110,241,242,243]]],"properties":{"GID_2":"RUS.45.17_1","GID_0":"RUS","COUNTRY":"Russia","GID_1":"RUS.45_1","NAME_1":"Murmansk","NL_NAME_1":"Мурманскаяобласть","NAME_2":"Waterbody","VARNAME_2":"NA","NL_NAME_2":"NA","TYPE_2":"Waterbody","ENGTYPE_2":"Waterbody","CC_2":"NA","HASC_2":"NA"}}]}},"arcs":[[[251903,342926],[9904,8064]],[[261807,350990],[19252,11030],[2929,4387],[-2428,22441],[7121,27563]],[[288681,416411],[29641,-6314]],[[318322,410097],[24886,2764]],[[343208,412861],[-547,-2866]],[[342661,409995],[2605,-3398],[7622,-2282],[3484,-5325],[-8,-3347],[-932,-3651],[-9827,3144],[-6975,-1775],[-1387,2308],[-678,3930],[-2220,786],[-2782,-2130],[-547,-2891],[3753,-9838],[-2381,-1344],[-5072,2003],[-8608,-14073],[-15430,5376],[-1348,-4463],[11498,-9940],[85,-3398],[-1148,-2409],[5464,-4386],[7368,-9306],[1534,3169],[-632,3829],[2767,2155],[6874,-3550],[-1140,6492],[-8432,12552],[2759,5502],[10813,-2460],[2983,761],[2358,4615],[8000,-1471],[3352,-1901],[1272,-4489],[10651,-11917],[1141,2256],[-1264,4514],[162,5426],[1919,3778],[9664,-126],[-16739,15569],[-1033,3169],[1534,3069],[3021,-2764],[-54,3398],[-1264,4513],[1387,4311],[1757,1724],[4378,-5173],[-254,8089]],[[372711,408626],[-4085,12755]],[[368626,421381],[9896,1977],[14551,10853],[13356,15214]],[[406429,449425],[-3507,-16887],[1256,-14758],[2975,-16457],[4224,-17623],[1664,-39658],[2151,-16507],[154,-13515],[1526,-15849],[670,-19448]],[[417542,278723],[-12739,-11385],[-18050,-10929]],[[386753,256409],[-18027,15036],[-36146,38543],[-15121,12374],[-28870,19018],[-10937,2485],[-25749,-939]],[[321590,344372],[-46,3930],[-4270,3017],[-4747,406],[-11769,-7100],[-5164,-6998],[19753,-13668],[6243,20413]],[[338522,135203],[162,25],[224,-76],[-386,51]],[[366098,145117],[-886,533],[1849,0],[-963,-533]],[[352326,159520],[285,-913],[-1526,1319],[1241,-406]],[[353135,160585],[115,-406],[-1040,0],[925,406]],[[349921,160585],[-1287,-532],[-763,912],[2050,-380]],[[352572,164718],[517,-837],[-918,-1191],[-1410,2510],[1811,-482]],[[344141,164287],[-440,381],[1203,0],[-763,-381]],[[337235,173264],[4139,-2257],[-401,-1319],[1518,-786],[162,-1851],[-4616,938],[-3330,5680],[2528,-405]],[[333706,173796],[115,-406],[-1040,0],[925,406]],[[331578,173923],[-239,0],[0,253],[239,0],[0,-253]],[[332542,175241],[-124,-405],[-277,152],[401,253]],[[335594,175774],[-401,-279],[116,406],[285,-127]],[[352125,173390],[-239,0],[0,279],[239,0],[0,-279]],[[351486,173923],[-239,0],[0,253],[239,0],[0,-253]],[[349281,176433],[278,-406],[-725,0],[447,406]],[[346869,182772],[439,-1445],[-2643,1826],[2204,-381]],[[328765,188706],[563,-533],[-439,-659],[-124,1192]],[[331293,193321],[-2042,938],[1241,659],[801,-1597]],[[333058,196516],[285,-406],[-724,0],[439,406]],[[327725,228871],[-239,0],[0,254],[239,0],[0,-254]],[[338484,222253],[0,-254],[-247,0],[0,254],[247,0]],[[337721,223445],[439,-406],[-724,0],[285,406]],[[327077,233359],[-115,-405],[-285,126],[400,279]],[[326638,238228],[439,-913],[-917,-1192],[-763,3043],[1241,-938]],[[326160,241930],[917,-913],[-755,-152],[-162,1065]],[[329205,260415],[285,-1445],[-1087,-127],[-1726,2510],[1888,1192],[640,-2130]],[[330291,261353],[-115,-405],[-285,126],[400,279]],[[327077,263458],[-115,-380],[-285,126],[400,254]],[[327401,264244],[-239,0],[0,279],[239,0],[0,-279]],[[326600,265309],[-239,0],[0,254],[239,0],[0,-254]],[[318253,227020],[-401,533],[1041,0],[-640,-533]],[[323948,230697],[401,0],[162,-786],[-563,786]],[[324110,231762],[-1002,-913],[-439,1445],[1441,-532]],[[321459,231762],[-563,532],[1049,-786],[-486,254]],[[323386,234399],[-116,-380],[-285,126],[401,254]],[[321659,236123],[286,-406],[-725,0],[439,406]],[[318168,245505],[1688,-3955],[-1888,-1192],[-2528,4361],[925,2511],[1803,-1725]],[[323224,246038],[486,-1851],[-1850,1039],[285,2004],[1079,-1192]],[[233175,147450],[5056,7227],[14250,14910],[5534,1623],[2952,-2004],[11930,1319],[4231,-3043],[-578,-6009],[517,-8901],[9171,-7708],[786,-4843],[-4339,-8546],[624,-3651],[5989,-4336],[948,-2815],[-2336,-4665],[3746,-6973],[-4932,-1750],[-8686,5173],[-4332,-2257],[-5965,4184],[-3553,-735],[-1148,-2409],[3599,-5680],[5904,-4108],[16770,2916]],[[289313,104369],[7676,-5604],[2197,-6897],[-46,-6339],[-2359,-4641],[-7691,76],[-12609,2790],[-13310,-1370],[-7561,23278],[-1048,6035],[-4909,4361],[-6096,1953],[-31,6390],[-1719,12881],[324,7252],[-8956,2916]],[[304642,254076],[763,-380],[-1202,0],[439,380]],[[122495,403174],[16131,-10447],[5117,-7176],[-208,-14631],[1842,-15290],[4031,-11689],[7483,-13262],[11106,-27817],[5364,-10523],[2266,-13642],[3638,-12501],[5125,-9204],[4848,-2510],[13657,27892],[10874,12577],[11037,20007],[22859,24520]],[[247665,339478],[4238,3448]],[[386753,256409],[-11468,-15290],[-8208,-17345],[-1457,-6237],[-11213,-6492]],[[354407,211045],[-4162,1826],[-2212,3322],[-7222,14250],[-5464,14783],[725,4767],[-239,3424],[14088,6491],[0,1572],[-9634,-3170],[-7383,533],[-5981,8317],[-1888,-406],[-1927,2663],[-4817,507],[-1402,-1167],[277,-1470],[-1441,0],[-285,938],[724,1040],[-1564,659],[-1411,-1167],[1087,-1470],[-2088,532],[-5580,4894],[-1041,3956],[-3329,3296],[-1888,-127],[716,-2383],[-1842,-254],[401,-2383],[-601,-1192],[-3013,1471],[-316,-812],[716,-2104],[-601,-2257],[-4493,3702],[-4339,533],[-917,-1192],[1040,-1065],[-162,-1826],[-1687,-811],[400,-2384],[-2042,938],[-324,-1597],[-6258,2130],[-7391,6871],[-4932,-659],[3491,-2510],[1927,1040],[2042,-4337],[-1880,-1470],[4015,0],[3692,-2637],[1764,2104],[8671,-1039],[-162,2104],[-2204,127],[2042,1978],[9110,-4869],[1526,-4488],[2975,-3448],[-5218,0],[3607,-3170],[-717,-1040],[640,-3448],[7029,-127],[5934,-4767],[3337,-4361],[1927,-6340],[-401,-2358],[879,-2637],[-3615,-811],[1249,-5148],[-6266,1065],[-2081,2105],[-1572,-2232],[7506,-3575],[1449,1065],[2043,-1724],[-77,-2384],[562,-532],[-2689,-127],[-2251,3702],[-3368,-2104],[763,-660],[-886,-532],[601,-938],[1927,1065],[1564,-1978],[-2967,-3423],[1726,-2536],[-4177,532],[-2366,-3017],[10397,380],[12647,-16507],[-2173,-533],[323,-3423],[5742,-5426],[1765,1597],[2728,-1597],[3214,1065],[7823,-11233],[-601,-1446],[-4979,1065],[-5418,3829],[-678,2511],[-8470,-1725],[7468,-5274],[1040,-2916],[4740,-3956],[-285,-1470],[17341,-6340],[8030,1065],[1603,-3169],[3653,-127],[-1040,-1318],[1726,-3829],[3653,-127],[-2011,-2384],[1202,-786],[1449,-4234],[-5495,-786],[-647,4082],[2004,-2688],[1572,989],[-2536,4336],[-2081,-532],[-801,2130],[-3854,1572],[-3499,-1167],[725,-2383],[-1364,-1319],[724,-2130],[-162,-2383],[-963,-2637],[-3129,-2359],[2165,-1851],[-3815,-1191],[-2404,0],[-1765,3169],[-2412,1065],[-2729,-1065],[-4339,2637],[-2042,-659],[1526,-1065],[-601,-913],[-2251,-25]],[[338522,135203],[-19491,3195],[-3129,-2891],[70,-15924],[-3176,-9230],[-16778,-2383]],[[296018,107970],[3353,1775],[7090,13819],[-770,4818],[-9357,5857],[-1557,3297],[8640,7404],[401,3930],[1718,5097],[3592,-2713],[1757,1851],[940,3550],[-5171,2865],[-3499,-558],[-2397,1801],[-809,1673],[763,1572],[-2613,3018],[-7753,5730],[1541,3145],[3553,583],[6990,-4184],[12432,-3094],[3799,-7201],[10998,5046],[-10920,9762],[-4139,51],[-4254,9687],[-13865,5198],[6150,9255],[-4748,3626],[-9001,-8317],[-4763,304],[-7283,-3271],[-3577,2587],[-1487,5350],[324,4057],[6905,5731],[7414,17141],[-4146,-178],[-3854,-4691],[-3868,-7962],[-6274,-6212],[-4971,-1902],[-3653,2485],[-4817,51],[-1850,-7328],[-4439,938],[-4347,-5579],[5904,-3043],[10135,2764],[10265,-7150],[-1325,-4412],[-2143,-2764],[-4632,2130],[1542,3245],[-7538,-2408],[-12431,4234],[5734,-8266],[-8763,-1446],[5117,-7835],[-5926,-2333]],[[240135,170550],[-6235,-6415],[-7414,-8799]],[[226486,155336],[-1280,-4488],[-22049,-3829],[-30636,2865],[-10712,-5096],[-31299,-3905],[-26134,2358],[-23121,-7683],[-5279,-1268],[-1249,1800],[-2089,3347],[-1086,7379],[-2728,4565],[655,431],[-2074,5020],[-11306,24216],[-2851,7049],[146,1293],[-3175,5351],[-779,6871],[-2057,5402],[208,1851],[-563,101],[-701,4564],[-370,11588],[632,4235],[7568,19068],[29032,58727],[2012,5097],[-23,3904],[3884,3043],[601,4032],[3684,456],[332,2739],[-586,2637],[5349,10523],[19051,30885],[2382,19449],[2620,13261]],[[313112,261886],[-724,1039],[1202,0],[-478,-1039]],[[321505,247737],[-1086,405],[439,660],[647,-1065]],[[320858,250906],[285,-913],[-601,-659],[-2374,1192],[2690,380]],[[321659,255673],[-963,-532],[-277,913],[1240,-381]],[[320056,256206],[-639,-1065],[-1888,3043],[1888,126],[639,-2104]],[[313914,257398],[-239,0],[0,253],[239,0],[0,-253]],[[316164,266095],[-123,-1445],[-1888,1191],[2011,254]],[[323910,266222],[-2852,1471],[2690,126],[162,-1597]],[[320218,267819],[-763,938],[879,508],[-555,-508],[439,-938]],[[304642,266222],[3977,-5655],[-4300,-1192],[-1642,4083],[-3129,1851],[3168,1978],[1926,-1065]],[[310746,263078],[440,-406],[-925,-659],[-601,1977],[1086,-912]],[[308134,263458],[-116,-380],[-285,126],[401,254]],[[295648,267819],[-439,406],[886,-811],[-447,405]],[[299664,269924],[439,-1978],[-763,-1724],[-2844,1724],[925,2510],[2243,-532]],[[294970,268757],[-1850,508],[925,659],[925,-1167]],[[302877,269417],[116,-406],[-1202,0],[1086,406]],[[301274,269924],[278,-380],[-725,0],[447,380]],[[306045,269544],[-239,0],[0,253],[239,0],[0,-253]],[[290469,270862],[-115,-406],[-286,127],[401,279]],[[302238,276796],[115,-381],[-878,0],[763,381]],[[302353,277734],[-115,-406],[-285,127],[400,279]],[[406429,449425],[23105,23582]],[[429534,473007],[8571,-6060],[9148,-3170],[13055,-11131],[2582,-13541],[1757,-4970],[340,-5883],[4994,-8038],[21032,-18764],[3900,-8038],[1495,-10194]],[[496408,383218],[-1210,-24215]],[[495198,359003],[-2227,-16660]],[[492971,342343],[-571,-24748]],[[492400,317595],[-1973,-5883]],[[490427,311712],[232,-4590],[-1850,-15873],[-647,-14758],[-3977,-17192],[-3191,-6947],[-4247,557],[-8685,7886],[-4170,-608],[-4000,-5198],[-5942,-12248],[-3113,533],[-11199,15341],[-10319,3803],[-6320,4666],[-2143,9686],[-3314,1953]],[[23306,687729],[3021,-5578],[9071,-9459],[12162,-1065],[15730,7176],[35121,2967],[14481,3347],[1287,7557],[7384,16583],[18658,36970],[17811,27284],[25957,45262],[14906,16077],[16238,20894],[17873,14986]],[[233006,870730],[45957,23911],[-856,-3854],[-2967,-2384],[401,-1065],[-401,-1318],[4092,1065],[2289,6212],[1765,533],[486,-1598],[1765,2637],[3214,533],[3853,-1572],[2081,-3702],[13333,-2637],[601,-1471],[-3614,-7911],[8585,-3982],[-717,-2890],[1041,-2637],[-5896,-660],[-1726,-1724],[1202,-3423],[-1888,-1724],[2412,532],[-285,-1471],[763,-126],[439,4108],[-562,507],[647,1597],[3329,659],[1442,-2104],[2250,4742],[1249,-127],[-725,-1851],[925,-660],[963,1573],[1565,-1167],[-239,-2916],[1040,-1318],[201,-6213],[200,3043],[1364,786],[-562,1851],[1526,2384],[-1203,1318],[2043,2232],[2535,-127],[-601,-1978],[5457,1065],[1888,-1192],[-886,-1318],[1726,-660],[2412,1572],[956,-2104],[2089,1597],[485,-2130],[2243,1598],[1726,-1192],[-878,-1065],[439,-1978],[-3815,-127],[123,-1470],[1889,-381],[-2328,-786],[401,-2383],[-3291,-3956],[1040,-1851],[-2489,-6086],[601,-2510],[1888,3829],[-562,811],[1202,3424],[247,3423],[2165,786],[2929,5173],[2890,507],[2890,3195],[6428,507],[1564,-1699],[-1048,-533],[725,-1318],[-964,-2130],[-4894,-4488],[-562,-3423],[-2012,-1319],[-1202,-3449],[-3291,-1318],[2489,-2358],[-2813,-6086],[563,-532],[-478,-2384],[-1449,-2105],[-4732,-253],[2166,-1065],[162,-2916],[-964,-4209],[-2011,-1319],[4740,1319],[-1365,2383],[1565,1699],[925,-1192],[-563,-507],[563,-1876],[-887,-786],[-161,-2105],[601,-913],[1248,1699],[-401,1319],[1203,1318],[-77,1851],[1842,2916],[92,2130],[2505,-1065]],[[349266,827927],[4154,-16406],[7576,-16456],[470,-4235]],[[361466,790830],[-16030,-22973]],[[345436,767857],[-4155,-21934],[201,-6618],[-2066,-6694]],[[339416,732611],[13048,-406]],[[352464,732205],[70,-3601],[716,-786],[802,-5299],[-1202,-3677],[285,-938],[1279,-533],[2212,2790],[-886,2637],[724,1039],[-162,1851],[-1202,786],[-1125,5477]],[[353975,731951],[13464,-1394],[7638,2891],[7152,3550],[13695,12171],[3152,6567]],[[399076,755736],[339,6162],[5118,26016],[9587,25737],[2428,-710]],[[416548,812941],[-401,1547],[1488,1471],[1333,-3728]],[[418968,812231],[8370,-2459],[18867,-11715],[24415,-21325],[16455,-10853],[16917,-16102],[12254,-16634],[9387,7683],[10189,19652],[12593,-9610]],[[548415,750868],[22281,-27918]],[[570696,722950],[-10089,-22948],[-10890,-16507],[-13379,-1623],[-12231,-5756],[-13287,-3119],[-44616,7810],[-26350,-3829],[-39198,3981],[-2312,-4412],[-2189,-9103],[2929,-9687]],[[399084,657757],[16986,-32735]],[[416070,625022],[3152,-11056],[-200,-8875],[1087,-21528],[8431,-16380],[2898,-16584],[917,-13464],[-655,-9560],[-1441,-7658]],[[430259,519917],[-9611,7379],[-10435,12679],[-11245,21325],[-10890,15239],[-12678,3221],[-24808,-5706]],[[350592,574054],[-11723,-6440],[-24816,-736],[-6467,-3448],[-11414,-16634],[-12955,-25256],[-9164,-12425]],[[274053,509115],[-25764,-27106]],[[248289,482009],[-18921,-11842],[-22951,-10979],[-22651,-20184],[-28216,-30987],[-20192,-5350],[-12570,2663]],[[122788,405330],[393,2865],[224,2028],[-663,2105],[-25649,28222],[-5842,14936],[162,1242],[-3630,5122],[-5657,17370],[-2852,4691],[-724,4031],[-2767,6492],[154,2155],[-1418,1319],[-4470,12044],[170,1420],[-52871,30961],[-3267,18105],[231,2028],[-617,102],[-585,5857],[-3083,14453],[246,2130],[-647,102],[-570,5832],[-501,101],[-2597,14378],[246,2130],[-647,101],[-578,5832],[-771,1623],[224,1927],[-586,102],[-1195,9407],[-1441,5198],[8840,17801],[12162,30301],[1094,7886]],[[106727,662930],[15229,-253],[11884,-4692],[6682,5376],[6458,-3829],[987,-10903],[3730,-5350],[10343,10294],[5264,-76],[331,-1242],[-2374,-4793],[3653,-3271],[14813,-5908],[-2497,-6846],[6366,-8089],[-493,-7024],[-5148,51],[-4309,-4615],[-809,-7810],[-4624,-9585],[-13164,-11334],[-6412,-14454],[-3661,-1775],[-17680,7759],[-5772,-2662],[1726,-5097],[6813,-6085],[10898,-7734],[4015,507],[925,-4666],[-1657,-4032],[-370,-9965],[-3298,-8063],[-5041,-5908],[-18890,11664],[11430,-17116],[1634,-5046],[-948,-7455],[-3152,-6060],[138,-2105],[3592,-2257],[5433,7607],[7892,20235],[18235,-2789],[624,3702],[-7329,6872],[-2636,4792],[1172,22821],[1595,8216],[3900,10903],[3283,5148],[13264,15467],[8554,-5375],[5842,5730],[6836,11462],[-2635,4792],[-363,3373],[8239,11765],[77,4159],[887,3677],[6366,-3905],[21502,19829],[9588,3803],[192,2029],[-8971,1141],[-7213,4336],[-10713,-11588],[-5033,-1192],[-2335,1420],[0,11639],[2250,6035],[-9102,1217],[-4231,-3778],[-2181,-6035],[-570,-4920],[-2104,-3981],[-10983,3525],[-8069,4869],[-2867,4868],[-2859,-1420],[-8532,4108],[378,2891],[-1673,3068],[-11406,-3550],[-4115,2459],[-3615,-963],[-2713,-3575]],[[137200,667368],[-14458,6187]],[[122742,673555],[-5087,-279],[-5688,-2029]],[[111967,671247],[-2119,-2916],[-3121,-5401]],[[327000,867281],[239,0],[0,-279],[-239,0],[0,279]],[[312550,867788],[763,152],[123,-405],[-886,253]],[[342854,827775],[-316,-1572],[-1087,1192],[1403,380]],[[344665,861728],[601,1445],[1565,-126],[-2166,-1319]],[[122495,403174],[293,2156]],[[248289,482009],[16508,18029]],[[264797,500038],[-4716,-20540],[-918,-11207],[93,-12958],[2420,-15645],[-1287,-25002],[1911,-8900],[13588,9965],[7367,2384]],[[283255,418135],[5426,-1724]],[[261807,350990],[-14142,-11512]],[[495198,359003],[886,13489],[324,10726]],[[429534,473007],[-1765,11918],[2490,34992]],[[416070,625022],[-12470,22567],[-4516,10168]],[[570696,722950],[6582,-8267]],[[577278,714683],[29648,-27588]],[[606926,687095],[30990,-13769],[12686,-9863],[8794,-8698],[14026,-22111],[6605,-5705],[7438,2510],[5703,6212],[12131,8546],[13726,13819]],[[719025,658036],[1318,-2459],[2204,-127],[-1364,-1344],[2805,-3423],[324,-2384],[-879,-1318],[478,-1319],[2852,406],[477,-2637],[7993,-5959],[1926,-4742],[-886,-2383],[2012,-787],[516,-3042],[3175,-1725],[-1849,-1318],[2813,-1851],[1364,-7126],[5857,-1851],[-77,-1318],[2805,-3423],[725,-6086],[886,1065],[-85,1826],[1411,659],[2528,-3296],[362,-2511],[4616,-1192],[-123,-1445],[-1241,127],[3445,-4995],[-401,-6086],[1049,-533],[678,4615],[2127,-5147],[724,279],[-400,-1344],[562,-2105],[-1040,-4488],[555,-532],[-555,-1040],[316,-3981],[2050,-3296],[601,3042],[-1202,3956],[717,1851],[-879,1598],[2327,3676],[-2003,5300],[1402,4894],[2528,-3854],[-239,-1826],[1680,-1598],[-4408,-6339],[6220,-3829],[963,-3702],[3052,533],[3692,-6872],[2088,1065],[3368,-2637],[2127,-4108],[2012,-786],[354,-3575],[2212,659],[-801,4514],[-2813,1825],[-2767,6213],[-5619,532],[-4978,5807],[-3214,1065],[-2204,3829],[0,1851],[1240,1699],[1765,-1572],[1611,1065],[3368,-5807],[2212,1699],[-1688,6085],[1202,1319],[-115,1445],[1919,0],[208,-1978],[4008,-5806],[4416,-4488],[85,-1851],[1726,-2764],[3853,0],[1442,-3195],[963,1597],[2890,-532],[-277,-1446],[2851,-3296],[2043,-152],[801,-2866],[-3329,888],[38,-2510],[4902,-6061],[-85,-1318],[6505,-5553],[1125,-2637],[-401,-1319],[1203,-1319],[-401,-4513],[1842,1065],[1973,4615],[2243,0],[1410,-1699],[-85,-2384],[19268,-24292],[6342,-5553],[85,-1851],[4609,-5401],[5464,-2662],[363,-2511],[3653,-2231],[-47,1445],[-6982,7937],[2050,-406],[362,2511],[2204,659],[2852,-3296],[-77,-1319],[2690,-1724],[3368,532],[485,1572],[5572,-912],[-3368,13464],[-1040,279],[-1449,5274],[401,1319],[-478,3169],[-1688,1319],[-1927,7125],[1241,-380],[4015,-5832],[3014,-1699],[879,-4488],[2651,-1851],[2250,-6340],[-85,-2916],[1850,-3423],[4894,-16659],[1726,-1167],[2852,1446],[1364,-6086],[1688,-1826],[-77,-1344],[4771,-4336],[1764,1040],[1488,-3575],[1564,405],[1565,-2231],[-1364,-1065],[447,-1445],[3329,3017],[0,-1826],[-1526,-1851],[563,-811],[-1249,-2764],[4016,3170],[-39,-2511],[-1202,-1572],[2690,3018],[3653,-2764],[-401,-5021],[2327,-253],[-84,-4489],[562,-532],[-8308,1445],[123,-3043],[-1687,533],[2088,-4742],[2490,-2383],[878,-3449],[2813,-2358],[2651,-8190],[3006,1445],[201,-3575],[2489,-1319],[686,-2510],[2088,532],[201,1978],[3607,5021],[-1041,1065],[563,3955],[-1526,2638],[2851,2789],[3368,-3170],[-601,1446],[763,1191],[2852,-2256],[239,-3956],[1849,-1851],[-400,-2891],[4894,-2916],[2289,-7784],[5456,532],[2728,3144],[1727,-1699],[408,-4488],[1719,913],[2050,-2231],[963,-2130],[-239,-2359],[2166,-4513],[1526,-7658],[725,-786],[-324,-5553],[-1202,-2891],[239,-6085],[-4733,-5021],[1765,-3956],[1364,-253],[-238,-3981],[1518,-3956],[-1518,-3170],[238,-2916],[-1526,-3423],[-323,-1851],[886,-532],[-1048,-2105],[3491,1978],[4663,-3170],[1079,-3829],[-77,-2916],[1364,-253],[802,-3170],[-563,-2383],[724,-3170],[-1202,-2891],[162,-3981],[555,-253],[-555,-5275],[401,-3955],[-1087,-3322],[601,-2510],[-801,-6339],[-2490,278],[1688,-1597],[-563,-1040],[563,-532],[-563,-2916],[2328,-2358],[-77,-2916],[2366,-3829],[9950,-4235],[686,4615],[1402,-1445],[1287,1597],[2852,-3829],[0,-3448],[-3453,-9763],[239,-1851],[-1202,-1065],[8632,-6466],[439,-1978],[-925,-659],[-200,1978],[-725,0],[-1765,-4235],[-239,-2890],[-2003,-2384],[1518,-7937],[-1040,-5527],[2813,0],[-763,-2257],[-1087,406],[-401,-5021],[-2651,-1851],[-516,-2510],[-1411,1191],[-239,2916],[-3691,7379],[-4093,5021],[-4339,8723],[2728,-8723],[3291,-3423],[5619,-12172],[-1565,660],[-439,-2485],[2004,-2916],[809,-6086],[-2328,-3423],[-84,-4488],[-1041,-3423],[563,-2917],[-1048,-1851],[400,-5020],[-1526,-2916],[85,-2358],[-7144,-13997],[-886,-3449],[-2490,-2891],[-562,-2916],[-2968,-1851],[563,-1318],[-1249,-1725],[-4292,-1191],[886,-2359],[-3137,-4488],[-1202,-3981],[-2328,-1318],[-1441,-2105],[-85,-1851],[-3129,-2891],[-1202,-5020],[-5141,-7937],[-4416,-2891],[-1441,-6871],[1041,-3703],[-324,-2383],[-3969,-2231],[-2574,-4235],[-1241,1445],[-1834,-5730],[-5696,16938]],[[929449,125694],[-16986,17801],[-12262,1039],[-10235,-2307],[-14759,-6923],[-30011,51],[-28154,-9534],[-12886,-330],[-12493,6060],[-7044,5452],[-6042,5655],[-15337,21071],[-13672,11588],[-14775,8115],[-29595,9483],[-7483,1293],[-17957,-1293],[-21256,4995],[-3060,7227],[-6112,6644],[-22997,7607],[-17580,-660],[-22574,-6060],[-6913,2916],[-6112,7683],[-3252,8419],[-486,22365],[-1333,5578]],[[568083,259629],[-5241,7987],[-4177,4844]],[[558665,272460],[-19183,12729],[-3236,8393],[678,4868],[-6228,8850]],[[530696,307300],[-5387,3727],[-10913,2105]],[[514396,313132],[-17055,-6593],[-6914,5173]],[[492400,317595],[301,11486],[270,13262]],[[852202,515176],[5217,-6340],[-3013,939],[-4616,4868],[2412,533]],[[849551,517027],[323,-1319],[-447,-659],[-1564,659],[-154,1851],[1842,-532]],[[762446,601566],[-1125,2105],[886,0],[239,-2105]],[[933202,450465],[-562,-3956],[1210,-1597],[-1087,-2764],[-3692,532],[-1726,2764],[563,1319],[-887,1318],[1411,2003],[2081,-1597],[447,659],[-285,1978],[2527,-659]],[[920201,452316],[478,253],[-440,-912],[-38,659]],[[908039,475441],[277,-405],[-400,0],[123,405]],[[861473,509242],[2050,-1978],[-1248,-1192],[-2204,2764],[1402,406]],[[762084,607500],[439,406],[-277,-939],[-162,533]],[[767540,613839],[286,-406],[-401,0],[115,406]],[[757105,614879],[285,-381],[-400,0],[115,381]],[[751849,621370],[-640,786],[1041,533],[-401,-1319]],[[879176,999872],[278,127],[123,-406],[-277,-126],[-124,405]],[[882028,999999],[277,-406],[-400,0],[123,406]],[[955722,999999],[285,-406],[-400,0],[115,406]],[[318322,410097],[-35067,8038]],[[264797,500038],[9256,9077]],[[350592,574054],[3552,-8849],[-4770,-17522],[-1395,-7911],[-1025,-13896],[18450,-17927],[964,-3170],[-2744,-15620],[-755,-11765]],[[362869,477394],[1248,-4564],[-1025,-3576],[-2142,862],[-1865,5072],[-247,4767],[-3191,4032],[-6890,3955],[-4046,5832],[-1711,10523],[-193,20565],[-2720,3347],[-509,6086],[-4454,12475],[-2613,1953],[-2451,-2713],[9187,-22771],[-2058,-3981],[-4216,-16888],[1126,-6516],[13094,-17852],[10304,-9255],[4478,-11994],[-956,-3651],[-1772,-1750],[-8779,-3372],[-2042,2967],[740,4970],[-5364,-5401],[-3014,-761],[2274,-7582],[2666,-3474],[6559,4311],[5033,-2308],[-2944,-4082],[-401,-4133],[5503,-11715],[269,-4716],[-1549,-3069],[-10327,12577],[-3553,-6947]],[[344318,418617],[-1110,-5756]],[[348850,736566],[-3399,4134],[1040,13287],[8393,6415]],[[354884,760402],[-424,-1167],[717,-2104],[-3453,-3449],[1850,-1572],[-724,-5020],[886,-787],[640,-5553],[-856,-2764],[-4670,-1420]],[[371539,761365],[871,-1901],[3484,-12755],[-6729,-9559],[-7075,3093],[-6350,-1597]],[[355740,738646],[1364,2104],[-1364,3956],[1364,8723],[-401,1318],[1287,4767],[5580,2232],[6420,-938],[1549,557]],[[345436,767857],[12362,-1623]],[[357798,766234],[-2914,-5832]],[[348850,736566],[4686,1420],[-1326,-3828],[254,-1953]],[[352464,732205],[-1726,254],[-11322,152]],[[353975,731951],[724,2460],[-400,1319],[1441,2916]],[[371539,761365],[-1587,-532],[2127,1445],[639,-2104],[1565,2231],[85,2384],[3815,2256],[1402,-659],[-239,-1851],[1079,-1192],[3376,4210],[3692,-508],[501,1598]],[[387994,768643],[-339,1141]],[[387655,769784],[11421,-14048]],[[379986,765042],[-162,812],[725,0],[-563,-812]],[[371277,779546],[11037,-3144],[-9110,-8317],[-12524,-2637]],[[360680,765448],[2435,6339],[8162,7759]],[[368626,421381],[786,4868],[-1942,22061],[9025,24291],[5734,12704],[-2212,11183],[932,10472],[2413,7937],[-3985,-761],[-2374,-4564],[-2011,-7202],[832,-5325],[-1217,-5654],[-2752,-5350],[-2813,1496]],[[369042,487537],[-6173,-10143]],[[23306,687729],[840,4438],[478,-51],[2073,13515],[493,-101],[1233,9179],[-9834,3093],[-14204,-532],[-4385,5933],[37934,37782],[6273,-5198],[2074,-5097],[7814,8038],[4825,7278],[2543,7632],[2058,3170],[848,8266],[979,609],[2096,6922],[1349,15392],[-2513,1851],[879,5350],[-201,5629],[879,2384],[5819,3778],[4832,-837],[3684,3576],[4193,-3779],[6859,6872],[14343,19778],[5448,1015],[6551,-2384],[9542,12527],[1487,2941],[848,4006],[-231,4210],[1348,4691],[2867,2510],[216,2967],[-801,8038],[-2559,10193],[85,4666],[-702,1699],[-2751,-482],[-532,3474],[3461,4032],[3822,-1370],[13164,-12424],[12393,-18917],[22620,-203],[6189,5046],[3483,6238],[-15,13972],[-1657,5604],[570,5933],[-3838,5351],[-231,2307],[1479,4691],[-2913,7303],[208,1344],[-1549,5604],[740,0],[478,-2130],[485,1597],[3214,-532],[1927,-4235],[439,1978],[-562,532],[601,1192],[3530,-532],[4662,-6340],[39,2511],[1564,152],[8509,-3702],[2405,-3170],[3213,1040],[5418,-3829],[-400,-1319],[485,-1039],[2528,-660],[1603,-3702],[3214,1040],[763,-1699],[-401,-1318],[2328,-1852],[-1126,-6618],[-1202,-786],[-401,-2916],[-4100,-1825],[763,-939],[5102,-405],[1280,2662],[-401,1319],[886,786],[77,2383],[1526,2358],[-400,1344],[447,660],[1079,-1192],[-401,-1344],[1364,-786],[85,-3423],[2003,532],[-1849,4209],[-39,3043],[1126,-2104],[8346,0],[2251,-3170],[3368,1572],[8030,-6339],[925,1978],[-2566,4767],[-4301,5933],[-3969,2790],[401,1039],[-401,3449],[2805,3955],[-716,9763],[878,2916],[-562,1851],[1610,5274],[3330,3322],[3214,-1598],[7059,-6871],[3977,-1725],[879,-4488],[2975,-1318],[-1049,-1851],[2051,-2764],[1888,-406],[-2166,4235],[439,1978],[4933,-2511],[-2482,4767],[-1048,7126],[-1927,4767],[-5857,6060],[3129,3170],[-324,2383],[-1842,1851],[77,2384],[-5217,3423],[1040,3702],[-555,2891],[802,3702],[1888,1724],[4609,-1724],[-1202,-2637],[-162,-1851],[763,-660],[5780,4742],[2412,-1040],[10235,-8596],[1488,-4614],[5934,-1065],[7668,-6999],[2128,-4082],[5418,-1725],[323,-2383],[-2651,-3423],[1850,-2105],[-763,-2510],[4978,1039],[-762,-1445],[3653,-1192],[763,-1724],[-563,-786],[763,-659],[3368,0],[2412,4767],[5133,-3170],[12686,-1597],[2374,-1192],[-401,-1319],[1403,-2231],[5094,-1192],[362,-4108],[2251,-532],[-124,2003],[1249,1192],[1726,-1725],[239,-2916],[1202,-1851],[-3291,-2104],[2166,-4235],[-717,-532],[401,-2359],[-1210,-278],[886,-1319],[-1526,-1319],[1526,-4234],[-485,-3423],[-5056,-4489],[-5495,-9914],[-9480,-4209],[-5294,3702],[-4817,-533],[-7068,2637],[-1441,2105],[-6427,533],[-5573,5426],[-847,3017],[-2567,-4209],[-14936,3170],[-3807,4868],[0,2384],[1202,2383],[-239,1851],[2644,3424],[-717,532],[555,1319],[-1202,279],[886,1318],[-2328,2358],[401,2384],[-1287,3169],[-3491,2257],[-440,-2003],[1041,-1572],[-1202,-1065],[4092,-3423],[0,-4488],[-6420,-14784],[-7946,-1343],[5372,-5275],[1487,-3550],[1403,913],[486,-2383],[-47352,-24799]],[[229861,909272],[324,1851],[879,0],[-1203,-1851]],[[286700,923523],[124,405],[277,-126],[-123,-406],[-278,127]],[[359593,924055],[401,279],[-116,-406],[-285,127]],[[349266,827927],[-3476,1319],[1364,1851],[-246,2358],[963,3170],[10682,8469],[-6543,-4640],[-2366,1724],[1040,532],[-563,533],[486,1318],[2805,2891],[-400,1319],[1086,1191],[5295,1598],[-278,1445],[2844,3829],[1889,-659],[-879,-1040],[717,-1065],[-555,-532],[277,-939],[4332,1598],[2535,-1978],[-6543,-1192],[-3175,-5147],[3175,1978],[917,-660],[-277,-1445],[2088,4209],[6906,1065],[1926,4235],[2891,-1065],[-1249,-1445],[3815,-2257],[4493,3169],[-277,-1445],[763,-1724],[4932,-2232],[-316,-2916],[-1849,-1851],[84,-1851],[-4739,-3955],[1040,-1851],[-1518,-254],[1402,-938],[1765,2637],[2366,406],[-77,-2384],[1041,-1318],[-802,-2891],[-4254,-6086],[925,-913],[2566,3145],[285,-913],[-724,0],[724,-3170],[-1888,-1724],[-5942,532],[-439,-912],[2165,-812],[162,-1826],[-2528,-2256],[-6581,2104],[2042,-2510],[-7468,-5021],[2851,-2485],[486,3677],[963,-1572],[2243,2637],[3491,-406],[-2643,2130],[439,913],[1927,-2104],[801,2104],[1449,0],[4494,-3169],[2366,938],[647,-1598],[-162,-2383],[-3175,-4869],[-8308,-2510],[4778,-1192],[2890,2105],[439,-913],[-1040,-3170],[1726,2511],[1966,-3576],[1564,-126],[-2851,4614],[4739,1598],[-1526,-2916],[1203,-786],[-717,-1851],[1518,-1319],[162,-1851],[-2643,-3423],[716,-2130],[-477,-4488],[-4417,-2384],[-1764,-5959],[-10960,2764]],[[360680,765448],[-3214,-2105],[332,2891]],[[345436,767857],[12739,18231],[3291,4742]],[[383339,790501],[1772,-2460],[1881,76],[1356,2434]],[[388348,790551],[-2335,3094],[-1935,-1370],[-739,-1774]],[[388179,811547],[0,253],[239,0],[0,-253],[-239,0]],[[384641,814716],[401,254],[-116,-380],[-285,126]],[[382876,816821],[-162,786],[1203,0],[-1041,-786]],[[383339,790501],[2666,3144],[2343,-3094]],[[418968,812231],[-3661,9078],[887,786],[-563,1851],[1248,152],[4494,-3195],[3529,5300],[6104,-3170],[2567,1065],[1927,-2130],[3213,2638],[8671,-3170],[5780,1597],[6381,-3829],[-2813,-4234],[286,-913],[6096,533],[3052,-4235],[3052,2105],[3530,-533],[-440,-1445],[1565,-1192],[2412,1597],[2243,-5832],[1934,3195],[10073,-4894],[-1888,-2510],[3052,2105],[5133,0],[2212,-2232],[-601,-4107],[1765,3169],[485,-2104],[1603,0],[362,3549],[1365,-507],[-2891,-9255],[-1202,-1318],[917,-1446],[1565,127],[246,2384],[1681,1318],[-879,1319],[1040,786],[-77,2916],[1842,786],[-277,1445],[4015,533],[2690,-2232],[-447,-3575],[1125,3702],[2574,-532],[763,-3043],[-1526,-2105],[1241,-3322],[2528,152],[1125,2384],[-1688,1040],[2690,2764],[2412,0],[1927,-3145],[439,660],[-400,1318],[2165,1319],[486,2104],[-2852,4108],[-4292,2232],[-2575,3169],[-200,2510],[12208,-532],[4169,-6339],[1449,1597],[11075,-1597],[4016,-5807],[3853,1597],[1888,-1191],[363,-2003],[3052,1065],[5132,-5275],[1927,533],[601,-1192],[-439,-1471],[1087,1725],[-401,2916],[1403,659],[4454,-3296],[3091,-7278],[1765,1065],[3175,-2764],[4169,-6339],[-77,-3981],[602,-1192],[1248,2510],[-1364,2384],[555,1319],[-1202,1851],[447,1977],[4292,-3828],[-2651,0],[278,-913],[2412,-1065],[801,2104],[2251,-2104],[162,1597],[3206,-3702],[2088,1572],[1565,-1724],[200,-1978],[3700,533],[2366,-5148],[-4093,0],[2166,-786],[4532,-7810],[2574,0],[1279,-3144],[2736,507],[154,-2637],[1611,1597],[6058,-4361],[-563,-1065],[563,-786],[-1364,-1851],[277,-913],[4663,4209],[1765,-3169],[1079,405],[-77,-2383],[1086,-1724],[7661,-4362],[-2042,-3017],[4493,-533],[1248,-1724],[-562,-1318],[755,-1725],[1287,1065],[1649,-3575],[4417,-2358],[77,-1851],[3976,-3297],[1280,1040],[6065,-5934],[39,-2510],[2088,1065],[1241,-2257],[-555,-532],[316,-1319],[2690,-127],[439,-1191],[-400,-1319],[763,-659],[6104,-1598],[3329,-5933],[-77,-2384],[925,-1191],[3853,0],[4817,-5807],[1927,0],[5133,-9509],[8832,-3170],[1248,-2231],[-1048,-533],[324,-1318],[1888,913],[840,-2511],[2004,-786],[409,-2383],[3167,-659],[201,-1978],[3776,-3423],[239,-1852],[2659,-1369]],[[606926,687095],[-16809,14885],[-12839,12703]],[[577278,714683],[-28863,36185]],[[387130,779039],[0,-253],[-238,0],[0,253],[238,0]],[[399076,755736],[-4955,7278],[-6466,6770]],[[387994,768643],[-941,101],[-1287,4767],[1087,2511],[2690,1192],[4215,7784],[1565,-1192],[-401,-1318],[802,-2105],[1040,507],[-878,3702],[-162,3956],[562,1851],[-400,1344],[878,786],[-724,2358],[4740,-3423],[-486,2916],[-3931,2891],[-1764,6872],[400,2383],[-562,533],[5055,6592],[-3491,-3296],[-1564,1192],[-162,6593],[963,3169],[7831,1724],[439,-938],[-1202,-1572],[924,-659],[5619,3702],[-201,-2003],[-2813,-2891],[-316,-2916],[4455,4640],[3206,0],[3337,-4894],[-1688,-1318],[1719,-1243]],[[568569,797271],[478,279],[-717,-812],[239,533]],[[576954,790272],[447,-1445],[-1850,1851],[1403,-406]],[[491815,804396],[0,-253],[-239,0],[0,253],[239,0]],[[482381,812460],[9919,-3550],[-9757,-153],[-3491,2257],[3329,1446]],[[467014,812865],[1040,-786],[-1202,0],[162,786]],[[406436,817759],[286,-406],[-401,0],[115,406]],[[441118,843623],[19391,-12526],[-1449,-3702],[-1881,-1192],[-4978,2637],[-6906,-3702],[-3853,0],[-4178,4767],[-9949,1572],[-1411,2257],[3214,7125],[2528,2232],[9472,532]],[[717468,669827],[586,-913],[-2050,-1191],[-1565,1724],[3029,380]],[[697700,679336],[277,-406],[-401,0],[124,406]],[[700913,680933],[116,-405],[-401,0],[285,405]],[[697422,688972],[3607,-3170],[-2690,406],[-2366,3575],[1449,-811]],[[685653,700458],[3499,-4082],[-2211,-659],[-3815,2763],[763,2511],[1764,-533]],[[612082,758171],[-886,0],[-324,1343],[1210,-1343]],[[615173,761746],[277,-381],[-400,0],[123,381]],[[610233,765042],[4092,-3169],[-2366,-660],[-3167,2790],[439,3042],[1002,-2003]],[[693846,692547],[763,-406],[-886,0],[123,406]],[[692921,693206],[-200,-659],[-925,1445],[1125,-786]],[[731418,821968],[123,-405],[-401,0],[278,405]],[[609555,770722],[439,-380],[-725,0],[286,380]],[[597547,774297],[563,-786],[-725,0],[162,786]],[[590125,778659],[116,-406],[-401,0],[285,406]],[[581331,784871],[563,-811],[-401,0],[-162,811]],[[517710,112508],[278,-405],[-401,0],[123,405]],[[504863,123082],[285,-405],[-401,0],[116,405]],[[456717,140857],[-3191,1116],[3006,2232],[447,-660],[-262,-2688]],[[514396,313132],[5341,-406],[10959,-5426]],[[558665,272460],[9418,-12831]],[[929449,125694],[5842,-17014],[-724,-1851],[886,-3703],[-802,-3169],[-2574,-3702],[-2042,-2232],[-1087,913],[401,-1851],[-1125,-2105],[-7183,-8063],[-7345,-1192],[-1040,-2890],[-4101,-3449],[401,-1826],[-3930,-2916],[-5141,-7404],[-1364,-4488],[-4093,-3423],[-2928,-5148],[-11723,-4767],[-4655,-5274],[-16215,-6339],[-4817,532],[0,-1597],[-6104,-2105],[-1287,-2637],[-16693,-8469],[-1449,-3170],[-6420,-5274],[-13487,1572],[-6744,-3144],[-6906,-6365],[-35968,-3144],[-8825,5274],[-19753,1572],[-9957,6340],[-3854,-1040],[-2890,2637],[-801,-1065],[-6744,6339],[-2728,0],[-2405,5300],[-12370,10548],[-14450,9509],[-13002,5807],[-21032,6339],[-17187,-2105],[-4008,3170],[-7868,1572],[-18790,9534],[-5934,2105],[-2575,-1065],[-3853,3702],[-10921,1065],[-1919,2637],[-6589,1065],[-1927,2105],[-10435,1572],[-7068,4235],[-1919,3169],[-6227,2232],[-1279,2662],[1040,2891],[-2528,5959],[-8955,659],[-1927,3169],[-401,3956],[-6821,4488],[-1849,4488],[-11676,15468],[-6428,2105],[-7060,-1065],[-2851,-2764],[562,-3449],[-1048,279],[85,-1851],[-2050,-2764],[-12038,-5299],[-2251,532],[-1726,1192],[-401,3956],[-5857,9787],[716,1319],[-878,5274],[4131,2764],[6065,-913],[-324,786],[-4292,3297],[-4178,-507],[-924,1166],[400,1319],[-639,1597],[-1403,659],[-1287,-2104],[-963,2637],[-7222,0],[-447,1445],[563,533],[-725,1065],[2174,3955],[-1087,1978],[-439,-659],[562,-533],[-162,-2383],[-1202,-786],[-1171,-4615],[-601,127],[246,2916],[-2489,1318],[763,4615],[-1087,-1192],[-401,-2890],[-1040,253],[1364,-2104],[-324,-1344],[-4578,532],[5218,11639],[-563,1851],[1850,5021],[-324,2358],[-1040,279],[123,5680],[-1410,-1724],[401,-1319],[-717,-1597],[1202,-1040],[-1048,-1598],[886,-253],[162,-1851],[-1364,-1319],[-247,-6618],[-801,-2637],[-1565,-1724],[-1279,1597],[-285,-913],[886,-1597],[-2975,-2105],[-1125,8191],[1526,1572],[-2644,5020],[555,1851],[-755,660],[-609,-1192],[162,-1851],[1850,-3956],[-1364,-4234],[562,-2891],[-1086,-2257],[-6420,-532],[-2690,2789],[77,2383],[-724,786],[400,1319],[-716,786],[277,1445],[-1927,-2104],[-1241,913],[717,-2105],[-439,-913],[-1002,2511],[-1850,786],[-963,2637],[724,5020],[-963,2637],[-1726,1192],[-763,-913],[886,-532],[-1087,-1192],[-1164,3043],[-2327,1851],[-2251,4209],[401,1319],[-1040,2916],[401,2383],[-602,1167],[-924,-1167],[-77,-2916],[-1688,-532],[-2767,9382],[115,-3575],[-562,-1573],[562,-532],[-1202,-2105],[1688,-3702],[-1565,-1192],[-2050,2232],[563,1597],[-724,1065],[400,1319],[-2042,3296],[-447,-913],[724,-1065],[-878,-1851],[555,-3955],[-555,-533],[1518,-786],[-77,-3448],[1765,-4742],[724,0],[39,1978],[3653,-5427],[-879,-507],[278,-2003],[-3168,2003],[917,-2535],[-3653,2003],[5542,-6339],[-162,-1319],[-6058,5655],[-439,-913],[717,-2105],[-2690,-1192],[-2528,2232],[285,1470],[-8308,6466],[-1048,2916],[-7669,8571],[-7984,5426],[-563,2891],[-4177,7937],[-5587,6212]],[[386753,256409],[12693,7302],[18096,15012]],[[421010,157289],[-1086,-406],[-278,938],[1364,-532]],[[420247,163222],[763,-406],[-886,0],[123,406]],[[418197,158328],[401,0],[162,-786],[-401,0],[-162,786]],[[418960,161625],[447,-381],[-724,0],[277,381]],[[419122,162690],[440,-381],[-717,0],[277,381]],[[418498,163755],[262,-406],[-401,0],[139,406]],[[403030,162030],[-447,-912],[-439,1445],[886,-533]],[[400926,166341],[177,-355],[-246,0],[69,355]],[[402267,169029],[1079,-2510],[-1364,532],[-640,2384],[925,-406]],[[400494,170626],[286,-1470],[-1850,1065],[1564,405]],[[413828,167989],[115,-405],[-239,0],[124,405]],[[405997,168902],[-1765,533],[925,1191],[840,-1724]],[[403870,184877],[278,-913],[-918,-659],[-763,2510],[1403,-938]],[[397450,180668],[278,-406],[-401,0],[123,406]],[[401419,181581],[162,532],[486,-1318],[-648,786]],[[400780,182113],[0,-279],[-239,0],[0,279],[239,0]],[[226486,155336],[13649,15214]],[[296018,107970],[10451,-9814],[2320,-4868],[-1973,-659],[-17503,11740]],[[233175,147450],[-8693,-1470],[2004,9356]],[[342661,409995],[1657,8622]],[[362869,477394],[3206,6085],[2967,4058]],[[368626,421381],[1441,-5782],[2644,-6973]],[[106727,662930],[5240,8317]],[[111967,671247],[10775,2308]],[[122742,673555],[6027,-2359],[8431,-3828]]],"bbox":[28.4347,66.0563,41.4099,70],"transform":{"scale":[0.000012975212975212976,0.000003943703943703951],"translate":[28.4347,66.0563]}}