{"type":"Topology","objects":{"muni":{"type":"GeometryCollection","geometries":[{"type":"MultiPolygon","arcs":[[[0]],[[1,2]],[[3]],[[4,5]]],"properties":{"GID_2":"RUS.46.1_1","GID_0":"RUS","COUNTRY":"Russia","GID_1":"RUS.46_1","NAME_1":"Nenets","NL_NAME_1":"НенецкийАОк","NAME_2":"Nar'yan-Mar","VARNAME_2":"NA","NL_NAME_2":"Нарьян-Мар","TYPE_2":"Gorsovet","ENGTYPE_2":"District","CC_2":"NA","HASC_2":"RU.NN.NA"}},{"type":"MultiPolygon","arcs":[[[6]],[[7]],[[8]],[[9]],[[-6,10,11,-2,12]],[[13]],[[14]],[[15]],[[16]],[[17]],[[18]],[[19]],[[20]],[[21]],[[22]],[[23]],[[24]],[[25]],[[26]],[[27]],[[28]],[[29]],[[30]],[[31]],[[32]],[[33]],[[34]],[[35]],[[36]],[[37]],[[38]],[[39]],[[40]],[[41]],[[42]],[[43]],[[44]],[[45]],[[46]],[[47]],[[48]],[[49]],[[50]],[[51]],[[52]],[[53]],[[54]],[[55]],[[56]],[[57]],[[58]],[[59]],[[60]],[[61]],[[62]],[[63]],[[64]],[[65]],[[66]],[[67]],[[68]],[[69]],[[70]],[[71]],[[72]],[[73]],[[74]],[[75]],[[76]],[[77]],[[78]],[[79]],[[80]],[[81]],[[82]],[[83]],[[84]],[[85]],[[86]],[[87]],[[88]],[[89]],[[90]],[[91]],[[92]],[[93]],[[94]],[[95]],[[96]],[[97]],[[98]],[[99]],[[100]],[[101]],[[102]],[[103]],[[104]],[[105]],[[106]],[[107]],[[108]],[[109]],[[110]],[[111]],[[112]],[[113]],[[114]],[[115]],[[116]],[[117]],[[118]],[[119]],[[120]],[[121]],[[122]],[[123]],[[124]],[[125]],[[126]],[[127]],[[128]],[[129]],[[130]],[[131]],[[132]],[[133]],[[134]],[[135]],[[136]],[[137]],[[138]],[[139]],[[140]],[[141]],[[142]],[[143]],[[144]],[[145]],[[146]],[[147]],[[148]],[[149]],[[150]],[[151]],[[152]],[[153]],[[154]],[[155]],[[156]],[[157]],[[158]],[[159]],[[160]],[[161]],[[162]],[[163]],[[164]],[[165]],[[166]],[[167]],[[168]],[[169]],[[170]],[[171]],[[172]],[[173]],[[174]],[[175]],[[176]],[[177]],[[178]],[[179]],[[180]],[[181]],[[182]],[[183]],[[184]],[[185]],[[186]],[[187]],[[188]],[[189]],[[190]],[[191]],[[192]],[[193]],[[194]],[[195]],[[196]],[[197]],[[198]],[[199]],[[200]],[[201]],[[202]],[[203]],[[204]],[[205]],[[206]],[[207]],[[208]],[[209]],[[210]],[[211]]],"properties":{"GID_2":"RUS.46.2_1","GID_0":"RUS","COUNTRY":"Russia","GID_1":"RUS.46_1","NAME_1":"Nenets","NL_NAME_1":"НенецкийАОк","NAME_2":"NenetskiyAOk","VARNAME_2":"Nemetskiy","NL_NAME_2":"НенецкийАОк","TYPE_2":"AOk","ENGTYPE_2":"AutonomousOkurg","CC_2":"R03012","HASC_2":"RU.AL.NE"}}]}},"arcs":[[[469293,392124],[-567,1405],[697,0],[1389,432],[-1519,-1837]],[[474429,398478],[-88,-1686]],[[474341,396792],[-2812,-2031],[2900,3717]],[[471246,397117],[325,-778],[-1172,0],[847,778]],[[474742,404205],[-300,-3371],[-1895,-3264],[-1105,1016],[563,908],[-476,432],[217,692],[-237,994],[-806,-3480],[-2532,-3263]],[[468171,394869],[-997,2442],[-939,8666],[3221,6938],[3713,-2658],[1573,-6052]],[[463857,396663],[935,-1686],[-1715,-562],[-1978,1924],[2758,324]],[[484784,438654],[-1781,-2917],[-1219,-5403],[-41,-3393],[-1089,-886],[-88,5165],[1827,6311],[3522,2701],[-1131,-1578]],[[499299,453523],[1326,778],[-872,-1793],[-671,562],[217,453]],[[501581,456095],[-785,-454],[1023,1254],[-238,-800]],[[468171,394869],[-7009,5403],[-1018,-108],[1431,-1362],[-1519,-1340],[413,-799],[-4347,-1340],[-150,1686],[388,453],[-4302,5619],[956,5641],[1281,2356],[3825,907],[630,3026],[1281,1924],[3459,1685],[-568,-1340],[414,-345],[2607,4495],[3283,562],[-1347,454],[651,2701],[-413,800],[-1565,-3609],[-3826,-3610],[-1477,454],[-4781,-5857],[-3563,-2247],[-1193,-2810],[-175,-1124],[305,-1361],[-393,-216],[-129,-2486],[-1193,-2809],[-609,1340],[-7652,-7197],[-2933,-4603],[826,-2032],[-563,-670],[305,-1577],[-935,-1470],[-2524,454],[-2345,-4495],[-1998,-1362],[-1306,-3609],[-1823,-454],[-1631,-3026],[3976,3026],[2348,-3587],[238,1231],[-1085,1578],[88,2939],[2825,3588],[-155,-1686],[1306,3155],[4669,5058],[-217,670],[262,2723],[935,3263],[4172,2680],[413,-562],[-392,-670],[413,-1448],[1998,4041],[4523,3610],[584,-562],[480,-2940],[909,-216],[-300,-2031],[1105,-1016],[4523,908],[3997,-1794],[1823,1340],[2916,-2745]],[[469293,392124],[5048,4668]],[[474429,398478],[1923,3717],[-651,886],[347,1578],[651,-670],[-476,4495],[434,2940],[1606,3371],[655,3825],[1694,1578],[-480,1124],[1523,2917],[868,4517],[-130,2464],[998,1578],[-497,1253],[3563,6289],[8953,6765],[1736,-454],[2958,3155],[1673,5273],[1977,2832],[413,-800],[-1089,-1124],[480,-1124],[-2303,-5619],[-175,-1124],[1281,1232],[-1540,-4387],[2041,3588],[283,2593],[-238,800],[1565,4495],[1715,2356],[1109,-108],[259,-887],[-304,-1815],[175,-2464],[1172,-907],[346,1340],[-346,2485],[-1435,4041],[3262,3393],[1694,6527],[3259,6527],[1435,7888],[1085,216],[-305,2032],[1001,1124],[-217,1123],[651,2464],[-304,2939],[2565,9682],[-304,2032],[563,1794],[-496,4171],[325,1448],[-217,1124],[1978,2809],[2169,0],[2804,6203],[1089,670],[-46,1577],[1631,4625],[1652,886],[1369,-1448],[475,-3393],[739,-1123],[-130,-1578],[826,-2010],[568,-6095],[1518,-2463],[88,-1124],[-563,-1578],[300,-1361],[-217,-670],[739,-216],[-130,-1124],[651,-238],[-129,-1124],[4063,-5057],[3563,454],[1481,-1362],[1281,4171],[259,3156],[-325,2118],[154,1253],[-1348,2702],[1953,2031],[1652,5165],[-434,3610],[-2215,5165],[217,691],[-1260,1124],[-609,2918],[675,1923],[1106,-1685],[-738,2463],[1084,238],[-237,778],[371,2140],[1606,3825],[651,6073],[655,691],[-480,1124],[1043,5835],[8494,14070],[1807,129],[-305,2464],[781,2248],[5540,9574],[4869,2701],[3650,-2701],[2608,907],[-63,-1253],[413,-108],[2954,5403],[2608,1361],[3041,6289],[1652,454],[1369,2831],[-739,1556],[2758,4172],[0,-1340],[3738,-454],[2846,-3717],[2194,-5295],[5215,-3588],[5215,886],[4523,5857],[780,0],[1306,-3155],[237,1231],[-738,1816],[346,1794],[676,108],[6346,-4042],[2324,-4171],[-130,-1124],[522,-1793],[1890,-4171],[4693,-2248],[2696,-3609],[10254,907],[1565,1340],[1414,4409],[1715,1448],[284,2140],[2474,3371],[546,4841],[-350,3609],[371,3502],[3780,8320],[609,2248],[-480,1123],[1348,1578],[784,4063],[-217,670],[1348,1794],[-480,1124],[154,1253],[-4172,0],[-4176,-3155],[-2432,-4517],[-4694,1362],[-2086,-1794],[-325,562],[175,1124],[6321,5964],[16604,7197],[6517,5857],[935,-1016],[283,-2593],[-1543,-2810],[0,-1577],[1957,-2486],[-568,-2917],[588,-562],[1890,3263],[-392,670],[1198,5533],[-372,3933],[-1281,-800],[-1280,1470],[237,1232],[5825,6310],[8344,6311],[6516,6743],[434,1815],[1219,0],[14343,14848],[15558,1793],[2695,-886],[1539,-2377],[-759,-2140],[-1477,0],[-1740,2702],[-1022,-1016],[217,-670],[-759,-2355],[-780,907],[-1394,-2269],[-1998,908],[-609,-1794],[-1302,0],[-522,1340],[-1022,-1902],[305,-1578],[-2499,-2831],[-347,-1794],[7994,-4041],[4848,-10028],[305,-2031],[3433,-4712],[-217,-2031],[1281,-1016],[-1389,-454],[-67,-1686],[2845,-1015],[1023,-2810],[392,-3371],[651,-692],[-155,-3479],[263,-908],[-413,-778],[914,-1578],[-393,-1577],[501,-2356],[-434,-2702],[522,-3155],[-676,-1016],[217,-670],[-4147,-1015],[-3392,2701],[-1652,-1815],[-1477,454],[-935,-1902],[238,-1232],[-238,-2140],[480,-2269],[-175,-1794],[-651,-670],[217,-2031],[-1978,-1016],[-759,-2809],[476,-908],[-392,-1578],[392,-216],[87,-3371],[-1606,-2032],[84,-2485],[1043,-3588],[2653,-2939],[-1089,-3155],[-42,-2010],[-392,-238],[-868,-5403],[217,-670],[-392,-670],[217,-2031],[-826,-2032],[242,-2139],[-413,-1232],[388,-216],[-129,-2032],[500,-1016],[-237,-1232],[738,-1123],[-217,-692],[259,-886],[5803,-4625],[4606,-886],[5737,-8104],[2607,886],[3826,-4496],[868,2702],[2236,2356],[25,1685],[2778,2248],[2437,-886],[-154,3933],[433,2248],[1782,4733],[438,1794],[-392,1123],[651,692],[913,4711],[1348,1816],[-1001,3825],[242,2140],[-372,4841],[-1998,6742],[-1435,2032],[-564,4733],[-1435,2464],[-1043,7218],[217,670],[-738,1124],[217,1124],[-480,1361],[1564,7197],[3522,5187],[-217,670],[913,1124],[476,2917],[3980,-4841],[956,-2701],[1130,1815],[3476,-908],[9996,3156],[3041,2701],[6237,11368],[2391,8774],[1865,2939],[221,2464],[476,238],[-217,1578],[1347,5165],[-217,735],[956,2636],[3976,4171],[3195,-1015],[259,-1124],[-1085,-4063],[1281,799],[609,-1793],[-1456,-1470],[326,-778],[1652,1794],[2520,-454],[3888,-5057],[371,-3955],[847,2377],[-217,1578],[480,1340],[-1110,-778],[-2782,4949],[-4756,2809],[1977,4388],[2758,-1686],[-672,1686],[-1827,2247],[-1740,0],[-1389,4063],[-780,-2247],[-1131,3133],[-1110,130],[2132,3155],[280,2118],[-238,1708],[413,2355],[-238,2594],[759,1901],[-500,1924],[217,2464],[-1260,6548],[217,432],[-217,2032],[500,1923],[-500,2810],[217,1577],[-1173,2464],[130,2939],[-910,3372],[217,670],[-521,2701],[-2500,5533],[-2586,-130],[217,-1577],[-480,-670],[-280,-2594],[238,-1686],[-413,-1448],[759,-4625],[-325,-2139],[-1564,908],[-3021,6851],[217,691],[-476,1578],[-283,5727],[671,800],[-651,2247],[393,2918],[-217,1577],[475,238],[-217,3372],[393,453],[-393,2464],[134,2486],[-655,2463],[-42,2032],[-1781,3371],[-1002,6095],[-3433,8320],[-388,3372],[-1177,1577],[217,2486],[-997,2031],[-46,1578],[-1952,1556],[237,3047],[-283,1686],[-2996,4733],[-263,4733],[480,1340],[-2219,2485],[-388,3372],[-1177,1123],[914,4063],[0,2464],[-780,3156],[-1436,1123],[-87,3372],[738,691],[459,2572],[-934,2831],[651,4042],[-217,1577],[5452,8667],[1565,907],[3997,-4063],[7301,2248],[588,-562],[630,-3479],[847,562],[-738,2247],[325,800],[2674,-346],[-1435,2248],[413,1231],[-500,1016],[216,1124],[-258,2248],[-914,1145],[238,778],[-238,2594],[501,1015],[3216,0],[-500,1016],[217,2918],[-1523,9228],[-522,6980],[2220,4733],[259,1340],[-217,670],[2411,-324],[697,3588],[259,-1340],[1827,1340],[3997,-2248],[2520,-4041],[1368,1469],[522,2248],[-63,3479],[1022,-2809],[-217,-670],[476,-1578],[-150,-2139],[2257,-2702],[2086,1340],[2782,-886],[1890,-2809],[196,-2162],[-237,-1232],[325,-561],[4260,-3156],[6779,-1794],[5386,1794],[1653,-3587],[3454,-1470],[-738,-454],[-196,-2139],[2348,454],[956,-1362],[325,2161],[-1956,886],[3458,562],[2608,-2701],[26680,-2248],[2065,-2356],[284,-1685],[609,2247],[8949,-3609],[1110,-1016],[-476,-907],[-87,-2010],[1022,-1924],[496,1470],[-150,3026],[3826,-1340],[28332,-20251],[19208,-17116],[6696,-8558],[9713,-14977],[-154,-778],[1827,-1362],[21,-1232],[6562,-10590],[3693,-8320],[2999,-3825],[-325,-1686],[-1740,-1362],[-3997,2702],[-847,-1448],[130,-3393],[-1435,237],[655,-907],[-330,-1232],[-4064,-1470],[1895,-2593],[1301,908],[1198,-3718],[-1177,0],[651,-2247],[-83,-2032],[-1699,-670],[242,-799],[-325,-994],[217,-692],[-305,-4041],[914,-1362],[-1610,-4258],[738,-691],[-1347,-2918],[588,-1685],[1377,1512],[1460,-10438],[-1573,-6030],[-4239,-3458],[-2332,-5035],[1106,-8645],[2399,-8169],[-1565,-6030],[1398,-4776],[3775,-3220],[1536,7780],[3212,-2918],[9759,-17505],[4046,2334],[3901,-476],[5645,-6678],[-58,-9768],[7297,-7672],[-1894,-11606],[617,-5554],[3797,-10287],[1393,-10071],[-1527,-11238],[-7860,-15021],[-7005,-8039],[-3830,497],[-6863,7975],[-4497,-3782],[-7840,-173],[-7597,-12406],[-839,-3565],[977,-3415],[1752,-15950],[-764,-7023],[-6062,-4669],[-438,-4927],[-1184,-3933],[-11311,-10374],[-9241,-12729],[2282,-12730],[29,-11216],[-2586,-8602],[-6317,-11454],[-1493,-4366],[-209,-5619],[684,-5532],[-8769,8212],[-6663,-3868],[-3196,-6311],[-1765,-6505],[-5440,-7975],[-1406,-6116],[-1152,-8558],[-4301,-14891],[-401,-9509],[822,-9012],[-1414,-10698],[-18507,-28009],[-28220,-37518],[-2507,-6721],[-605,-6894],[-1882,-4388],[-2048,-669],[-4456,2766],[-2508,-2161],[-1414,-4279],[-2991,-2097],[-1957,2831],[-2691,303],[-14302,-1945],[-111723,-432],[-95106,-2745],[-57441,3285],[-42538,8796],[-58801,9163],[-8407,-16079],[-2795,-1707],[-5065,-9553],[-2787,-1729],[-2741,-6656],[-4635,-908],[-492,-16879],[1414,-10633],[-12162,-13961],[-22303,-29024],[-74997,-102008],[-11119,4668],[-7868,-1621],[-5916,4171],[-9429,-1621],[-2215,-6397],[-5620,-7866],[-5928,-11692],[-4160,-15561],[5132,-18175],[-2136,-4258],[-3063,2313],[-10843,410],[-11665,-3436],[-8382,11562],[-18311,34774],[-3596,5403],[-10985,-9834],[-3621,3177],[-1273,4841],[-7243,10633],[-4439,-2809],[-2874,-3869],[-3113,951],[-5986,7888],[-3922,9013],[-7326,9336],[-17615,9250],[-5540,4473],[-1360,5835],[-6204,16253],[-2111,-173],[-7881,5467],[-238,-1253],[459,4582],[2695,11713],[2850,5511],[1193,-778],[-392,6527],[650,9228],[-129,2486],[2174,12599],[1281,2810],[3304,-454],[1368,1923],[-3108,778],[-1539,2810],[-305,2485],[-3000,8342],[-217,5166],[-1172,5186],[0,1578],[847,2356],[3192,2809],[479,3372],[998,2031],[521,2940],[-1343,6072],[-176,2918],[610,3609],[1714,-346],[326,1686],[-4302,11498],[-1001,8320],[-4126,8775],[0,3393],[563,670],[134,2463],[1802,130],[847,3026],[-3801,-3026],[-2416,4603],[-2390,8775],[-4235,6872],[-7998,-886],[-4322,7759],[-434,2701],[-263,7889],[305,669],[-217,3372],[826,6527],[-129,2485],[822,6073],[-130,2918],[480,1123],[-46,2032],[568,2031],[3955,29047],[5344,24983],[651,8774],[501,1470],[1043,-908],[1714,1686],[-1260,-6743],[242,-800],[1932,7997],[1523,216],[-2065,3047],[-1565,-886],[-588,-1470],[242,-799],[-1369,2377],[1519,6289],[868,5403],[133,3825],[476,1146],[-305,2247],[326,2594],[-109,3933],[-1606,3372],[-129,3825],[-305,238],[914,4949],[217,5165],[4844,-1232],[1915,5857],[3016,1902],[-3367,345],[-955,2702],[-1652,908],[-1152,-5295],[-1606,-1362],[87,3825],[822,3847],[-129,2464],[651,3372],[-910,6310],[-283,3480],[196,2161],[651,0],[630,-2594],[2436,0],[1973,4604],[-62,1253],[3888,2572],[-3888,-1232],[-1022,-1469],[-284,-2140],[-2845,-324],[-347,2464],[956,3155],[1890,108],[588,2831],[-1368,-1016],[-414,1016],[217,1556],[-413,562],[63,-1686],[-868,-3155],[-1456,-3696],[-325,1448],[175,2486],[1431,5619],[217,6527],[392,2031],[-217,4733],[826,6981],[-304,670],[650,3371],[-216,3393],[392,3588],[-305,237],[-42,8321],[-438,6311],[-955,4495],[-6346,14415],[-24031,39398],[-2215,6527],[-4389,8320],[-1477,6981],[1802,2356],[6171,-432],[4431,-4063],[2782,-4950],[4260,-2247],[718,-2594],[4151,-6872],[8690,-8537],[25295,4495],[16860,-907],[16600,-4949],[11039,-8105],[2783,-4041],[4673,-3717],[-1719,-800],[-847,1253],[563,-907],[88,-1124],[-388,-454],[1126,-4949],[2086,-6311],[1089,-1123],[2779,-10353],[350,-2939],[-413,-1015],[-1043,1361],[-1389,-1361],[-1719,2161],[2303,-3609],[-305,-1124],[480,-1578],[-129,-1124],[476,0],[-393,3372],[1198,1015],[4606,-4949],[2194,-8904],[2912,-6526],[2128,-6981],[3021,-2810],[242,1232],[-676,3264],[434,0],[1673,-5295],[2131,-3826],[-216,-670],[3692,-6526],[521,-4279],[-2065,345],[-1998,-2247],[-1627,1016],[1105,-2832],[1198,1016],[-242,800],[2499,-130],[-476,-5619],[305,-216],[-134,-4733],[568,-2485],[-217,-2010],[1652,-7673],[2215,-6526],[129,-2918],[480,-1578],[-133,-2939],[2912,-6505],[-305,-908],[305,-1123],[-651,216],[-346,-2702],[1431,-4495],[-956,-9228],[-9103,-108],[-5649,3133],[-11820,-8104],[-3129,1362],[-4088,-7219],[-1477,-886],[-7126,-1794],[-1393,1794],[-3647,0],[-5999,-5403],[-4673,-8212],[88,-2486],[826,670],[1130,-4949],[-350,-9228],[-997,-4279],[-305,-4733],[-1631,1707],[-3300,-1361],[-5457,-10460],[-4085,-11260],[-1214,-7651],[-521,-6310],[-175,-13724],[304,-238],[0,-2031],[-304,-2702],[1714,-1015],[7823,-15302],[9996,-10805],[1394,453],[346,-1793],[6496,-6873],[1130,-3609],[781,-5835],[-171,-5641],[-305,-670],[217,-670],[-392,-1577],[217,-2032],[-1085,-1362],[1781,-216],[2174,-6764],[346,-2248],[46,-5619],[1606,-5187],[1740,-8104],[-133,-1124],[1698,-6073],[-480,-1577],[1631,-562],[2086,-5403],[4669,-3718],[784,-4495],[-413,-1686],[2174,2248],[7735,0],[4084,2702],[3480,4495],[3125,1361],[2173,-907],[1544,-5057],[-997,-908],[-1415,-4387],[1653,1340],[3475,-1340],[6867,5403],[2954,0],[1043,-1794],[717,2572],[1807,1923],[3563,-454],[868,2248],[7126,4949],[3567,5403],[3129,2247],[5995,-5381],[1456,-2831],[88,-1124],[-739,-2247],[501,345],[847,3026],[-568,1124],[217,1577],[-997,1124],[-175,3393],[2349,6743],[2040,2939],[-305,1124],[2933,9099],[-413,1707],[480,2918],[-129,2031],[651,7435],[-305,10568],[563,2701],[-692,4063],[-1348,2010],[-392,5187],[-1172,908],[1652,4949],[1781,1578],[1389,4041],[263,3825],[-1610,4279],[46,3372],[-568,691],[351,2918],[738,1124],[-133,1577],[304,1362],[-388,1794],[4823,12383],[2174,10806],[-305,454],[413,2593],[-283,4388],[-1694,2917],[-956,4063],[-46,2464],[-826,1578],[914,1577],[-1606,6073],[-175,2032],[346,2701],[4218,4733],[2345,4949],[20,1686],[501,-108],[109,-1686],[1543,-562],[-42,-1577],[413,-562],[3042,-454],[4431,5403],[784,2701],[3388,908],[434,2248],[1998,-4517],[3304,-2248],[2871,2702],[2365,6656],[2499,3242],[2499,-994],[-2474,-2486],[1715,-1923],[3392,454],[1735,3155],[1740,-886],[1389,-3609],[1565,-454],[2436,-4949],[1018,778],[-150,-1232],[-2586,-778],[1084,-1578],[-41,-1577],[675,-1470],[2237,1232],[542,-2593],[-501,-1686],[676,-562],[326,1686],[-434,4516],[-2737,-237],[1952,2701],[-216,692],[304,886],[-434,1815],[-4823,5165],[-2194,7089],[-1652,1816],[-2608,-1362],[759,-1686],[-1368,-1469],[-847,1015],[259,3826],[392,-216],[1740,7650],[0,2486],[-568,1123],[568,3156],[-305,432],[238,4409],[-501,2355],[134,2918],[-1002,3393],[305,670],[-651,-238],[-1306,3847],[1110,-346],[1999,-4495],[2519,-1815],[6171,-1340],[6696,4041],[14427,17117],[15733,22951],[6083,11260],[1631,1470],[1761,4387],[7451,11368],[6976,13399],[1280,108],[-304,1578],[8736,15993],[4105,11130],[1740,-4496],[2520,-1361],[5649,2701],[2261,-886],[3392,6289],[5128,1362],[1977,2355],[1064,3048],[2345,454],[242,778],[-413,2355],[433,1362],[4173,-1794],[2257,1340],[1109,2377],[-258,2918],[-1002,1124],[42,2031],[-909,2464],[150,2140],[434,453],[6170,908],[-62,-1686],[413,-129],[237,562],[-237,1707],[8602,4949],[12779,12600],[413,-1016],[-87,-2464],[-3171,-4279],[-459,-4841],[-4844,-108],[-175,-1124],[739,-2939],[-564,-2032],[2237,-2355],[196,2593],[1435,2032],[-392,2010],[588,108],[1302,-886],[1306,-3156],[1389,-454],[1389,-4041],[2499,324],[-1281,-1686],[847,-7996],[-847,-2356],[-4063,-4171],[-1477,-4495],[304,-1578],[-392,-907],[2478,-4279],[-217,-670],[434,-1794],[3021,-4625],[1022,130],[367,3025],[1306,-907],[3822,2269],[196,1685],[3780,6073],[1435,6073],[5866,6073],[-301,1146],[1607,3825],[-305,1124],[480,6289],[-3455,6418],[-2849,1924],[-1477,3609],[129,3372],[-563,1577],[129,1124],[-2824,2918],[-88,1577],[826,1124],[109,2140],[-1106,1923],[-87,1578],[2148,1902],[1218,-2248],[3388,0],[501,1016],[108,2139],[-434,1794],[-1564,454],[-5649,-4042],[-1823,-6764],[-1306,1362],[-935,-1016],[-21,-1254],[-2436,0],[-1193,2594],[20142,30278],[12170,14869],[151,-1708],[-413,-562],[413,-1901],[87,-1578],[-392,-1124],[305,-1124],[-2216,-4733],[217,-670],[-2215,-2031],[87,-1578],[1260,-1124],[693,-2463],[-6146,-3285],[-675,-1448],[-88,-2486],[847,-3263],[3650,-2701],[3718,-5058],[41,-3825],[439,-2248],[1456,-2377],[3734,1816],[371,2571],[914,670],[-568,2032],[1348,3609],[-1456,1923],[-21,-1707],[-1281,-108],[-521,-1794],[-1915,1340],[-693,2269],[609,5382],[-459,3047],[-2411,1016],[-1193,2355],[1693,2270],[-217,1124],[585,2809],[1718,-2377],[217,-2464],[1260,-1124],[-1001,-2939],[2937,-2810],[1281,562],[88,2032],[-1348,2485],[-217,2464],[-1544,-324],[-1109,4149],[-109,2594],[3542,-1016],[-3433,5641],[413,1231],[934,-1015],[-475,670],[-263,3155],[217,670],[-1694,3371],[392,1600],[-738,670],[171,1123],[2849,4172],[1043,-454],[-154,778],[1977,3263],[10255,12168],[15908,11691],[8169,4064],[11995,2701],[7126,-454],[2524,-1794],[934,-2377],[-1631,1016],[-1652,-1794],[-3475,2248],[-1740,-3610],[-2086,-1339],[-8778,-2702],[-10689,-5857],[-4089,2702],[-888,-3047],[-1890,-1902],[-4414,-562],[-171,-1124],[1694,-908],[-1281,-3263],[-1285,-778],[2153,-1470],[805,-3047],[2411,-1902],[780,-2247],[589,561],[-176,2918],[-1952,1124],[-438,3371],[3283,-2139],[1740,1361],[8407,-6418],[262,-4280],[-1347,-216],[-371,-4409],[-2257,1362],[-1719,-1470],[392,-2247],[-88,-2464],[-1606,-4279],[-284,-3047],[1369,-7543],[-2349,-6764],[-2996,-4712],[-542,-6202],[542,-4841],[2650,-4258],[479,-3847],[2912,-4279],[1043,-4495],[130,-2464],[563,-1145],[133,-5166],[564,-1577],[0,-3825],[-501,-3718],[935,-7542],[-1803,-5057],[-3041,-1816],[-847,-2355],[-175,-1578],[1435,-6981],[-242,-1232],[-672,1016],[-434,2702],[217,670],[-3087,3371],[-217,2939],[-847,1902],[-2345,3155],[-1047,0],[-1039,-2701],[-1306,3609],[-609,-454],[1632,-2809],[196,-1686],[1477,432],[847,-1902],[-914,-2701],[567,-2248],[0,-3825],[-1523,2248],[-888,4841],[-3914,432],[-2173,3155],[-847,-562],[-480,-3825],[-1539,-3263],[-589,108],[-196,2139],[-2086,-1793],[-367,-2594],[-826,-1124],[-305,-3371],[-1088,-670],[-2086,-6311],[-84,-2917],[739,-692],[196,-2139],[-851,-1686],[1610,0],[-88,-1794],[-1109,-1923],[-1043,1361],[-497,-1016],[1260,-1793],[801,-4409],[-1539,-4841],[408,-994],[501,1231],[109,-3047],[1456,1016],[-672,5749],[325,2355],[-217,3826],[2128,2031],[-129,2486],[238,561],[3129,-3609],[5628,3717],[-672,2140],[1652,0],[280,-2593],[851,-562],[2257,1794],[2261,-1794],[2695,2247],[1477,-2701],[2174,908],[2670,-4171],[-1348,-1340],[-196,-2594],[1219,0],[-151,778],[1456,3264],[1106,-562],[-129,-1578],[304,-216],[-784,-2918],[-1715,-1015],[-346,-1816],[2866,3155],[784,2702],[1043,-1340],[-154,778],[392,238],[-217,670],[1978,2355],[413,-108],[87,-1577],[-588,-1470],[434,-886],[1544,5511],[-217,670],[1606,-216],[-563,2247],[175,670],[935,-1231],[83,1340],[1285,129],[-1435,1794],[738,2248],[-41,1577],[563,216],[-480,1124],[4064,6419],[-1540,-5511],[301,-1578],[-476,-3155],[476,-4495],[-1106,-562],[847,-2356],[175,-2485],[-392,-908],[476,-670],[175,-2464],[-1519,-4279],[-609,-5403],[238,-799],[-284,-3026],[-997,-1578],[388,-4279],[-2908,-7888],[-133,-2464],[-998,-2031],[-1435,-6527],[-2845,-4625],[-2783,-454],[88,-1340],[1564,-454],[-3392,-6310],[-955,0],[-325,799],[392,454],[-413,562],[-2587,-4171],[-2628,-6635],[-5737,-1815],[-10084,-10352],[-1368,1469],[129,1578],[-304,1340],[3175,2701],[-2587,-1232],[-759,562],[475,1794],[-325,800],[-889,-3047],[-2912,-3826],[-872,-3155],[88,-4279],[2173,7434],[1544,2356],[1911,-5403],[-1369,-3263],[672,-325],[-672,-3263],[392,-2485],[-826,-1124],[393,-1794],[-176,-1578],[-2953,-9898],[-827,-691],[-216,-6981],[-764,-2809],[21,1685]],[[519571,501134],[-151,324],[217,0],[-66,-324]],[[526154,539517],[-1431,-2940],[1260,-1793],[196,-3048],[-350,-2247],[325,-778],[-563,-2032],[217,-1124],[-1715,-3263],[-3392,-2248],[-584,562],[-521,3588],[346,6094],[5278,10461],[525,453],[409,-1685]],[[520789,534438],[-175,454],[242,-108],[-67,-346]],[[508882,465107],[671,800],[-997,-1599],[326,799]],[[510642,468371],[0,216],[130,0],[0,-216],[-130,0]],[[515837,485379],[150,-346],[-392,-907],[242,1253]],[[517835,488081],[-154,324],[217,0],[-63,-324]],[[479502,503382],[-150,324],[217,0],[-67,-324]],[[509207,513842],[-129,0],[0,238],[129,0],[0,-238]],[[509466,514296],[-217,216],[154,129],[63,-345]],[[510183,516435],[326,-1232],[-388,0],[62,1232]],[[509491,519591],[-154,345],[216,0],[-62,-345]],[[506445,519137],[-1126,1361],[1539,1232],[88,-2031],[-501,-562]],[[479698,521946],[0,238],[130,0],[0,-238],[-130,0]],[[479936,523632],[326,-778],[-388,-454],[62,1232]],[[515899,523978],[-238,108],[88,454],[150,-562]],[[516291,528257],[42,-908],[-217,0],[0,1124],[175,-216]],[[500300,531844],[476,692],[-238,-1686],[-413,108],[175,886]],[[510271,547513],[413,-1016],[434,-11043],[-1131,-4496],[-1193,-1469],[-2349,2701],[-930,2810],[-88,2031],[476,2032],[-476,1340],[88,2485],[2582,4625],[2174,0]],[[521244,536577],[1347,454],[-1518,-2031],[171,1577]],[[528265,542110],[-154,324],[217,0],[-63,-324]],[[528436,543904],[501,-346],[-501,-1016],[0,1362]],[[555642,579023],[-150,346],[217,0],[-67,-346]],[[504968,544790],[-780,-1340],[-263,1340],[1544,1707],[-501,-1707]],[[497146,549307],[-150,324],[217,0],[-67,-324]],[[443322,569233],[-2128,670],[1544,562],[584,-1232]],[[471855,628557],[-155,324],[217,0],[-62,-324]],[[644127,581271],[-154,345],[217,0],[-63,-345]],[[647169,582632],[-155,324],[217,0],[-62,-324]],[[542780,583972],[-155,346],[217,0],[-62,-346]],[[655141,592185],[-129,0],[-21,345],[150,-345]],[[613876,595686],[0,-454],[-238,108],[238,346]],[[643518,610079],[-154,346],[217,0],[-63,-346]],[[643430,611441],[-325,324],[1519,2269],[-868,-3393],[-326,800]],[[660377,626288],[-780,-454],[-346,908],[1126,-454]],[[473419,641157],[-237,346],[150,108],[87,-454]],[[475918,653411],[-154,-108],[-63,346],[217,-238]],[[522683,645522],[1932,-1210],[3800,-5749],[-1802,-1015],[-2954,3155],[-1827,0],[-1978,4171],[238,1232],[2591,-584]],[[574329,660975],[3392,-4517],[-1131,-454],[-3454,5295],[1193,-324]],[[572418,668172],[4084,-3610],[2153,-3717],[1131,-3155],[780,-5165],[-1281,4387],[-8690,9898],[-1481,-454],[-605,-2247],[-697,1361],[1389,2702],[3217,0]],[[568008,662877],[0,216],[129,0],[0,-216],[-129,0]],[[568334,663223],[-155,324],[655,0],[-500,-324]],[[567875,664454],[-1369,-3047],[-413,562],[676,3047],[1106,-562]],[[553469,669512],[934,-1448],[88,-1578],[-3280,-562],[-1305,886],[-672,2377],[4235,325]],[[562943,669079],[67,-345],[-392,0],[325,345]],[[538975,679086],[934,-2810],[-847,-1470],[-20,-1685],[-2086,454],[66,1231],[-738,1578],[1018,4387],[1306,0],[367,-1685]],[[540322,677054],[-217,-216],[67,346],[150,-130]],[[84050,201832],[0,217],[129,0],[0,-217],[-129,0]],[[179311,218495],[0,216],[129,0],[0,-216],[-129,0]],[[179486,218927],[0,238],[129,0],[0,-238],[-129,0]],[[179115,222882],[66,-345],[-392,-454],[326,799]],[[142221,305807],[-113,259],[134,0],[-21,-259]],[[148976,374943],[479,-216],[-826,-454],[347,670]],[[148062,374943],[-63,-346],[-325,130],[388,216]],[[147478,375051],[-155,346],[217,0],[-62,-346]],[[292544,426379],[-154,346],[217,0],[-63,-346]],[[290312,440383],[-96,303],[134,0],[-38,-303]],[[288022,448445],[371,-2140],[1260,-670],[522,-2701],[-88,-2032],[-2478,2248],[-217,2031],[-1540,3264],[2170,0]],[[211189,468716],[63,-345],[-388,-454],[325,799]],[[69686,378660],[-150,346],[217,0],[-67,-346]],[[99391,397916],[87,-691],[-304,453],[217,238]],[[99846,444403],[-151,324],[217,0],[-66,-324]],[[190675,519591],[1281,-4388],[-501,-562],[-1105,2356],[129,1124],[-651,3155],[847,-1685]],[[187200,533552],[-154,324],[217,0],[-63,-324]],[[187613,534784],[-67,-778],[-150,562],[217,216]],[[183896,538955],[-151,324],[217,0],[-66,-324]],[[184242,538955],[175,886],[413,-562],[-588,-324]],[[191109,545244],[2587,-5057],[434,-5619],[-1456,-562],[237,1232],[-692,1793],[-1197,1470],[-956,-908],[-346,1816],[-2695,0],[-672,994],[651,2031],[-739,670],[2583,2594],[2261,-454]],[[184396,541094],[-237,108],[83,454],[154,-562]],[[183983,541656],[-154,324],[217,0],[-63,-324]],[[186591,541656],[-155,324],[217,0],[-62,-324]],[[202215,475351],[-67,-346],[-325,130],[392,216]],[[191197,531736],[150,-778],[-476,0],[326,778]],[[194760,535346],[66,-346],[-479,0],[413,346]],[[305073,612954],[-167,-498],[0,670],[167,-172]],[[183462,552916],[1281,-3955],[-1194,800],[-955,2701],[-2153,778],[3021,-324]],[[174617,556395],[501,-345],[-522,-886],[21,1231]],[[180767,557411],[500,-1686],[-2824,2010],[1715,1016],[609,-1340]],[[175443,564046],[3325,-3479],[-1389,0],[-3196,4387],[1260,-908]],[[440043,536253],[-238,778],[476,-454],[-238,-324]],[[379027,544358],[1193,-346],[-1193,-562],[0,908]],[[399365,573166],[6759,-1686],[-1543,-4624],[-2696,453],[-2866,-4041],[-4347,886],[-2349,-886],[-2169,-4063],[-5044,454],[-935,-1016],[826,-1578],[-914,-216],[393,-2031],[-672,-1470],[-4151,-1902],[-176,-1123],[413,-3264],[-1456,1902],[88,1578],[3913,9012],[4757,8666],[5911,4949],[6258,0]],[[408753,566423],[62,-1253],[-822,-216],[150,-800],[-433,908],[630,3479],[738,0],[-325,-2118]],[[310622,609647],[-150,324],[216,0],[-66,-324]],[[310338,610684],[-150,-151],[-67,346],[217,-195]],[[320009,610987],[-150,346],[217,0],[-67,-346]],[[320768,611333],[-62,-346],[-326,108],[63,346],[325,-108]],[[310188,611895],[62,-346],[-388,-454],[326,800]],[[320814,611549],[0,216],[129,0],[0,-216],[-129,0]],[[321661,611441],[-154,324],[217,0],[-63,-324]],[[322725,611549],[0,216],[129,0],[0,-216],[-129,0]],[[322333,612003],[263,216],[-651,-670],[388,454]],[[323593,612456],[0,217],[133,0],[0,-217],[-133,0]],[[323918,612781],[-150,345],[217,0],[-67,-345]],[[325203,614250],[522,238],[-826,-1145],[304,907]],[[326442,615050],[171,1340],[1110,-108],[-1281,-1232]],[[324965,642065],[-154,324],[217,0],[-63,-324]],[[334611,657820],[-150,324],[217,0],[-67,-324]],[[335395,659613],[-154,346],[217,0],[-63,-346]],[[335829,660067],[-154,346],[217,0],[-63,-346]],[[336263,660521],[-154,324],[217,0],[-63,-324]],[[336372,661083],[0,216],[129,0],[0,-216],[-129,0]],[[336935,661753],[-63,-346],[-325,130],[388,216]],[[345800,669641],[-129,0],[0,216],[129,0],[0,-216]],[[345997,669965],[-151,346],[217,0],[-66,-346]],[[348062,674353],[-67,-778],[-150,561],[217,217]],[[348604,675368],[67,-324],[-392,-454],[325,778]],[[348713,675476],[0,238],[129,0],[0,-238],[-129,0]],[[349038,675822],[-150,346],[217,0],[-67,-346]],[[350169,681225],[-151,346],[217,0],[-66,-346]],[[351016,683365],[-63,-346],[-154,130],[217,216]],[[303755,613688],[609,-454],[-609,-453],[0,907]],[[296107,618184],[7451,-4388],[-8473,3610],[150,1231],[872,-453]],[[294259,617622],[346,-670],[-1781,1123],[1435,-453]],[[294522,617946],[-155,-216],[-62,345],[217,-129]],[[284371,619999],[-150,324],[217,0],[-67,-324]],[[283591,620453],[-154,324],[217,0],[-63,-324]],[[284113,620453],[-155,324],[217,0],[-62,-324]],[[281939,622700],[1631,-1253],[-2499,-108],[-1285,2139],[2391,-453],[-238,-325]],[[282527,622528],[-217,-173],[63,345],[154,-172]],[[283616,624494],[125,-346],[-475,0],[350,346]],[[271509,642065],[2236,-5987],[-388,-670],[997,-216],[-42,-1578],[476,-216],[-42,-1577],[785,-2270],[3258,-6289],[-3717,3934],[-2846,5511],[217,691],[-826,2464],[-1043,7434],[935,-1231]],[[270729,645652],[150,-1232],[-217,0],[67,1232]],[[270704,648246],[87,-670],[-304,453],[217,217]],[[271250,654210],[409,-1685],[-1106,-108],[-325,2139],[325,1016],[697,-1362]],[[268726,687990],[67,-346],[-392,-454],[325,800]],[[261688,735255],[-155,345],[217,0],[-62,-345]],[[350778,687536],[-150,324],[216,0],[-66,-324]],[[351908,690237],[501,-1685],[-1001,-1124],[304,-1578],[-1022,-2377],[-325,2593],[913,2248],[-1285,-778],[-258,1794],[1022,1469],[805,3480],[522,-1794],[-676,-3047],[500,799]],[[352601,688876],[-150,346],[217,0],[-67,-346]],[[352951,690237],[-154,324],[217,0],[-63,-324]],[[343911,693825],[154,-1232],[-305,454],[151,778]],[[354170,694733],[584,345],[-826,-1577],[242,1232]],[[352255,696094],[237,-800],[-475,454],[238,346]],[[355296,698774],[-171,-886],[-242,562],[413,324]],[[356060,701367],[-393,-216],[63,346],[330,-130]],[[349476,705538],[-154,346],[217,0],[-63,-346]],[[353732,706878],[-151,346],[217,0],[-66,-346]],[[353014,707678],[88,-670],[-305,432],[217,238]],[[337565,662769],[67,-346],[-393,-454],[326,800]],[[311490,792439],[5477,-2247],[4606,-9012],[14603,-21158],[-501,-1470],[413,-1232],[2174,-454],[3391,-4063],[1974,-4603],[-1865,1362],[171,-2032],[1089,-691],[-134,-1124],[413,-994],[1456,-584],[-388,-1124],[1260,-2464],[-133,-1577],[392,-1124],[-392,-908],[175,-1577],[1110,345],[934,-3717],[368,-6202],[-847,-6181],[2586,-2356],[2149,3696],[-1389,9249],[-914,1578],[-651,3825],[-914,2010],[-216,2486],[-3084,6743],[3780,-4496],[2174,-4041],[1957,-7435],[1952,-4733],[2437,-9898],[433,-5187],[-913,-2463],[563,-1146],[-822,-3371],[217,-670],[-1001,670],[392,-2010],[-914,216],[-41,-2485],[-676,-1448],[237,1232],[-408,561],[-1456,-1685],[-88,1124],[1694,2031],[-914,-454],[263,2464],[997,-216],[-388,1794],[300,1577],[-563,670],[305,1600],[-1523,669],[350,2010],[910,454],[-497,1924],[-784,0],[-630,-3048],[-1694,-1577],[-805,-3026],[-413,108],[-367,3047],[-1022,-1015],[-1523,-6981],[-910,-670],[130,-1578],[-501,-1015],[-697,-908],[-780,1340],[-87,-1794],[-2153,-1448],[46,-3393],[-1089,-216],[-1214,-4949],[1172,-5187],[-4652,-11022],[-1172,-5641],[-914,-1577],[-41,-2918],[-697,-3155],[-997,-670],[1022,-2140],[-4089,-4495],[-1043,432],[-1064,-3025],[-1022,-108],[-1998,-4063],[-3476,-3156],[-2607,-1340],[-1131,1794],[672,-3047],[-6321,-6419],[-3392,-432],[-6867,-6765],[-4084,-2247],[-4694,-1340],[-692,2247],[-351,-4970],[-4606,1815],[-1802,2810],[-21,1232],[1652,-887],[-1456,2356],[-221,2032],[-1735,4495],[-5520,8320],[-1172,4280],[-1698,2031],[-1498,4841],[2757,-1232],[-433,2032],[-3367,5511],[-868,-1362],[-588,1924],[1001,1793],[-1177,4063],[-346,3134],[480,4063],[-305,454],[305,2032],[-392,1339],[651,4280],[-305,2701],[217,670],[-325,562],[325,3047],[-388,1794],[388,692],[-217,2009],[305,1124],[46,6527],[475,3847],[-304,432],[325,1707],[-63,2572],[610,5403],[388,692],[-130,3371],[826,3372],[305,4279],[392,216],[-305,692],[651,4279],[-304,1123],[563,1124],[-129,1578],[676,4603],[-155,1232],[651,692],[221,2917],[1823,7651],[6955,18478],[6755,13162],[11302,9898],[9646,907]],[[336438,758228],[-242,324],[760,-324],[-518,0]],[[325462,778370],[-63,-346],[-154,108],[217,238]],[[28032,588813],[-67,-346],[-150,130],[217,216]],[[217,899936],[-67,-345],[-150,108],[67,345],[150,-108]],[[283654,772059],[-63,-324],[-154,108],[217,216]],[[264445,899936],[-62,-345],[-154,108],[216,237]],[[353452,708132],[-217,-238],[63,346],[154,-108]],[[353732,708694],[154,-346],[-392,0],[238,346]],[[330677,821594],[-63,-346],[-154,108],[217,238]],[[315294,892718],[-217,-216],[63,346],[154,-130]],[[807271,658252],[-242,346],[154,108],[88,-454]],[[797275,708240],[62,-800],[-388,0],[326,800]],[[798426,708348],[0,238],[130,0],[0,-238],[-130,0]],[[798318,708694],[-155,346],[217,0],[-62,-346]],[[730434,673121],[-150,346],[217,0],[-67,-346]],[[730176,673575],[-155,345],[217,0],[-62,-345]],[[731565,709601],[238,-1253],[-997,908],[0,2031],[759,-1686]],[[730347,711849],[263,886],[434,-454],[-697,-432]],[[796666,710488],[-88,-454],[-175,454],[88,453],[175,-453]],[[960093,711503],[46,454],[79,-562],[-125,108]],[[958963,736270],[0,216],[129,0],[0,-216],[-129,0]],[[958679,737048],[242,-324],[-242,-108],[0,432]],[[710096,761362],[1998,-4496],[2520,-453],[1740,-3610],[6779,-4949],[7193,-10006],[305,-2485],[1280,-3264],[-21,-3025],[-1172,216],[-175,-2918],[1110,-3717],[1105,324],[263,-2917],[-826,-5403],[1781,-5619],[0,-2032],[-2478,4041],[-258,3826],[388,237],[-217,887],[217,691],[-326,562],[-847,-1923],[46,-2464],[-480,432],[217,2032],[-826,3371],[217,2939],[-563,4279],[914,2464],[-1177,238],[134,1124],[-1002,2463],[217,692],[-258,886],[-3893,5079],[-692,2247],[-1828,908],[-1218,3134],[-5040,908],[-847,1901],[-42,2032],[-3980,5079],[-1368,3717],[242,778],[-242,1686],[438,1815],[672,-1707]],[[706186,765879],[-851,778],[1260,-454],[-409,-324]],[[699056,782541],[238,-346],[-1518,1124],[1280,-778]],[[701839,785675],[346,-1340],[-258,-1362],[-2349,-432],[-346,1794],[237,778],[-759,1923],[1652,-907],[956,1361],[521,-1815]],[[776435,768234],[501,346],[-88,-908],[-413,562]],[[778067,768580],[62,-346],[-475,0],[413,346]],[[906357,822609],[-154,325],[217,0],[-63,-325]],[[782260,837133],[0,216],[129,0],[0,-216],[-129,0]],[[773023,785675],[-150,346],[216,0],[-66,-346]],[[766506,832961],[150,-799],[-475,0],[325,799]],[[742863,840612],[955,-454],[-1280,-324],[325,778]],[[745667,854011],[-781,886],[998,0],[-217,-886]],[[883411,837457],[-154,346],[217,0],[-63,-346]],[[781976,838364],[154,-799],[-392,0],[238,799]],[[859159,843314],[67,-346],[-480,0],[413,346]],[[818223,859069],[62,-325],[-651,0],[589,325]],[[738866,862678],[0,-908],[-1911,908],[605,907],[1306,-907]],[[734173,864925],[696,0],[-934,-1232],[238,1232]],[[740973,865660],[480,-1080],[-1198,-562],[-1105,2139],[2040,0],[-217,-497]],[[739388,873030],[934,-2810],[-175,-1577],[-3258,-454],[650,2247],[-217,1578],[2066,1016]],[[784412,866719],[409,-324],[-738,-454],[329,778]],[[821001,866287],[-605,-454],[347,2248],[413,-562],[-155,-1232]],[[811877,869874],[2411,-2355],[-216,-1124],[475,-238],[-238,-778],[238,-799],[-2148,-109],[150,800],[-1260,2464],[-455,2593],[1043,-454]],[[810746,871690],[67,-346],[-480,0],[413,346]],[[783303,872468],[475,-216],[-738,-454],[263,670]],[[781434,888893],[-151,-108],[-66,346],[150,108],[67,-346]],[[712182,887445],[66,-346],[-479,0],[413,346]],[[722524,996390],[847,-1016],[-501,-1686],[351,-886],[2695,-1815],[3062,-7089],[2391,-2917],[563,-2486],[1456,-562],[2675,-4603],[87,-1124],[-480,-1124],[263,-2031],[1260,-1578],[914,-3825],[2303,-3825],[563,-2940],[1348,-2463],[283,-1254],[-242,-1685],[1782,-3372],[-238,-778],[501,-1470],[-130,-1577],[2670,-1470],[6062,-9574],[872,-3587],[-479,-2702],[262,-1124],[1978,-562],[3300,-5856],[3129,-454],[1218,1361],[672,-2377],[-238,-1686],[543,-3479],[4389,-8342],[304,-2464],[1435,-1578],[826,-3393],[4131,-5619],[1064,-4841],[1910,1794],[697,-2702],[1627,-994],[522,-2269],[-217,-670],[1022,-3263],[-1456,-2810],[263,-2031],[997,-1578],[-217,-3825],[2215,-2918],[-217,-1124],[1002,-2485],[-238,-1232],[279,-3047],[739,-1794],[-2474,-3393],[-217,-2918],[-1001,-3371],[1522,-7434],[-1368,799],[-1306,-1815],[-2783,4949],[-496,-2140],[651,-670],[-130,-2463],[651,-1816],[-3108,-108],[-588,-1469],[217,-1578],[-760,-1902],[-2866,-454],[-609,-2247],[-1306,-908],[-150,1232],[476,1361],[-847,2356],[-1106,130],[388,2010],[-2845,1469],[-1999,3609],[-1368,-1253],[1172,-1124],[130,-2464],[479,-237],[-217,-670],[476,-1794],[-2670,3933],[-847,-1016],[997,-2701],[522,-4042],[-760,-1685],[-2236,2809],[-284,1232],[238,1232],[-475,238],[150,2572],[-1369,-1448],[151,-1232],[-2779,2680],[-784,-1794],[-1302,0],[-5478,5857],[-2345,-908],[-325,800],[1172,670],[-480,1577],[739,670],[459,2594],[-25,1231],[-2216,2940],[956,3825],[5173,1794],[-2303,4279],[-1347,6527],[-1194,-325],[-892,3480],[-5453,8666],[-872,454],[-693,-2248],[-2783,887],[-784,1815],[-434,-1815],[-1301,-454],[-1632,1923],[-196,2594],[-3041,3587],[-1043,-3134],[-1999,4042],[-4760,1686],[330,-2140],[4952,-4495],[2499,-4625],[-217,-670],[259,-3156],[479,-1339],[-2586,-1016],[-2412,1902],[-304,2939],[-1456,562],[-847,2809],[-367,2140],[237,2139],[-872,3156],[-7689,9682],[-1176,4733],[-997,1124],[-305,2463],[-2390,4279],[-1957,7889],[-997,1124],[1085,3609],[-217,670],[262,1340],[935,1015],[-1807,4388],[1369,129],[588,1686],[-3283,5511],[-1452,108],[475,1362],[-563,2679],[413,800],[-1393,908],[-346,-1816],[-868,454],[-676,2378],[4043,3825],[-1803,1448],[-175,1815],[-2607,-1361],[150,799],[-476,886],[1957,1816],[-3346,1124],[651,1340],[-155,1685],[676,-994],[-392,-1145],[847,-108],[1218,3155],[1302,0],[1827,-2702],[2086,454],[5737,-9012],[2432,454],[1890,-1686],[434,1578],[-1802,4603],[934,3501],[-4063,562],[-847,1470],[217,1556],[-1131,4517],[-1715,562],[-6237,10244],[935,2355],[5215,-5403],[588,1470],[-305,1578],[476,1124],[-476,453],[0,1578],[1890,-346],[2433,4496],[934,-779],[-738,2032],[913,2464],[0,2485],[-1347,3155],[1739,4950],[5624,108],[1023,1469],[-217,670],[262,1340],[1803,1924],[1389,453],[609,-1361]],[[703491,922996],[-154,346],[217,0],[-63,-346]],[[703554,924012],[-935,-108],[-609,1815],[1218,433],[326,-2140]],[[695994,953966],[0,-670],[-217,0],[0,670],[217,0]],[[706683,959585],[-217,238],[154,108],[63,-346]],[[700275,976593],[-155,325],[217,0],[-62,-325]],[[707834,997298],[-847,799],[676,562],[326,-562],[-155,-799]],[[706879,998659],[67,-346],[-217,0],[150,346]],[[722870,999091],[-846,-1232],[329,2140],[517,-908]]],"bbox":[41.7422,65.8354,65.7112,70.4625],"transform":{"scale":[0.000023969023969023977,0.000004627104627104626],"translate":[41.7422,65.8354]}}