{"type":"Topology","objects":{"muni":{"type":"GeometryCollection","geometries":[{"type":"MultiPolygon","arcs":[[[0,1,2,3,4,5,6,7,8]]],"properties":{"GID_2":"RUS.47.1_1","GID_0":"RUS","COUNTRY":"Russia","GID_1":"RUS.47_1","NAME_1":"Nizhegorod","NL_NAME_1":"Нижегородскаяобласть","NAME_2":"Ardatovskiyrayon","VARNAME_2":"NA","NL_NAME_2":"Ардатовскийрайон","TYPE_2":"Raion","ENGTYPE_2":"District","CC_2":"R25000","HASC_2":"RU.NZ.AT"}},{"type":"MultiPolygon","arcs":[[[9]]],"properties":{"GID_2":"RUS.47.2_1","GID_0":"RUS","COUNTRY":"Russia","GID_1":"RUS.47_1","NAME_1":"Nizhegorod","NL_NAME_1":"Нижегородскаяобласть","NAME_2":"Arzamas","VARNAME_2":"NA","NL_NAME_2":"Арзама́с","TYPE_2":"Gorod","ENGTYPE_2":"City","CC_2":"NA","HASC_2":"RU.NZ.AG"}},{"type":"MultiPolygon","arcs":[[[-1,10,11,12,13,14,15,16,17,18],[-10]]],"properties":{"GID_2":"RUS.47.3_1","GID_0":"RUS","COUNTRY":"Russia","GID_1":"RUS.47_1","NAME_1":"Nizhegorod","NL_NAME_1":"Нижегородскаяобласть","NAME_2":"Arzamasskiyrayon","VARNAME_2":"NA","NL_NAME_2":"Арзамасскийрайон","TYPE_2":"Raion","ENGTYPE_2":"District","CC_2":"R25000","HASC_2":"RU.NZ.AR"}},{"type":"MultiPolygon","arcs":[[[19]]],"properties":{"GID_2":"RUS.47.4_1","GID_0":"RUS","COUNTRY":"Russia","GID_1":"RUS.47_1","NAME_1":"Nizhegorod","NL_NAME_1":"Нижегородскаяобласть","NAME_2":"Balakhna","VARNAME_2":"NA","NL_NAME_2":"Балахна","TYPE_2":"Gorod","ENGTYPE_2":"City","CC_2":"NA","HASC_2":"RU.NZ.BL"}},{"type":"MultiPolygon","arcs":[[[20,21,22,23,24,25,26,27,28],[-20]]],"properties":{"GID_2":"RUS.47.5_1","GID_0":"RUS","COUNTRY":"Russia","GID_1":"RUS.47_1","NAME_1":"Nizhegorod","NL_NAME_1":"Нижегородскаяобласть","NAME_2":"Balakhninskiyrayon","VARNAME_2":"NA","NL_NAME_2":"Балахнинскийрайон","TYPE_2":"Raion","ENGTYPE_2":"District","CC_2":"R25000","HASC_2":"RU.NZ.BA"}},{"type":"MultiPolygon","arcs":[[[29]]],"properties":{"GID_2":"RUS.47.6_1","GID_0":"RUS","COUNTRY":"Russia","GID_1":"RUS.47_1","NAME_1":"Nizhegorod","NL_NAME_1":"Нижегородскаяобласть","NAME_2":"Bogorodsk","VARNAME_2":"NA","NL_NAME_2":"Богородск","TYPE_2":"Gorod","ENGTYPE_2":"City","CC_2":"NA","HASC_2":"RU.NZ.BO"}},{"type":"MultiPolygon","arcs":[[[30,31,32,33,34,35,36],[-30]]],"properties":{"GID_2":"RUS.47.7_1","GID_0":"RUS","COUNTRY":"Russia","GID_1":"RUS.47_1","NAME_1":"Nizhegorod","NL_NAME_1":"Нижегородскаяобласть","NAME_2":"Bogorodskiyrayon","VARNAME_2":"NA","NL_NAME_2":"Богородскийрайон","TYPE_2":"Raion","ENGTYPE_2":"District","CC_2":"R25000","HASC_2":"RU.NZ.BD"}},{"type":"MultiPolygon","arcs":[[[37,38,39,40,41,42,43,44]]],"properties":{"GID_2":"RUS.47.8_1","GID_0":"RUS","COUNTRY":"Russia","GID_1":"RUS.47_1","NAME_1":"Nizhegorod","NL_NAME_1":"Нижегородскаяобласть","NAME_2":"Bol'sheboldinskiyrayon","VARNAME_2":"NA","NL_NAME_2":"Большеболдинскийрайон","TYPE_2":"Raion","ENGTYPE_2":"District","CC_2":"R25000","HASC_2":"RU.NZ.BB"}},{"type":"MultiPolygon","arcs":[[[45,46,47,48,49,50,51,52,53,54,55,56,57]]],"properties":{"GID_2":"RUS.47.9_1","GID_0":"RUS","COUNTRY":"Russia","GID_1":"RUS.47_1","NAME_1":"Nizhegorod","NL_NAME_1":"Нижегородскаяобласть","NAME_2":"Bol'shemurashkinskiyrayon","VARNAME_2":"NA","NL_NAME_2":"Большемурашкинскийрайон","TYPE_2":"Raion","ENGTYPE_2":"District","CC_2":"R25000","HASC_2":"RU.NZ.BM"}},{"type":"MultiPolygon","arcs":[[[58]]],"properties":{"GID_2":"RUS.47.10_1","GID_0":"RUS","COUNTRY":"Russia","GID_1":"RUS.47_1","NAME_1":"Nizhegorod","NL_NAME_1":"Нижегородскаяобласть","NAME_2":"Bor","VARNAME_2":"NA","NL_NAME_2":"Бор","TYPE_2":"Gorod","ENGTYPE_2":"City","CC_2":"NA","HASC_2":"RU.NZ.BG"}},{"type":"MultiPolygon","arcs":[[[59,60,61,62,63,64,65,66,67,68,69,70,71,72,73,74],[-59]]],"properties":{"GID_2":"RUS.47.11_1","GID_0":"RUS","COUNTRY":"Russia","GID_1":"RUS.47_1","NAME_1":"Nizhegorod","NL_NAME_1":"Нижегородскаяобласть","NAME_2":"Borskiyrayon","VARNAME_2":"NA","NL_NAME_2":"Борскийрайон","TYPE_2":"Raion","ENGTYPE_2":"District","CC_2":"R25000","HASC_2":"RU.NZ.BR"}},{"type":"MultiPolygon","arcs":[[[-51,75,-49,76,77,78,79,80,81,82,83,84,85,86]]],"properties":{"GID_2":"RUS.47.12_1","GID_0":"RUS","COUNTRY":"Russia","GID_1":"RUS.47_1","NAME_1":"Nizhegorod","NL_NAME_1":"Нижегородскаяобласть","NAME_2":"Buturlinskiyrayon","VARNAME_2":"NA","NL_NAME_2":"Бутурлинскийрайон","TYPE_2":"Raion","ENGTYPE_2":"District","CC_2":"R25000","HASC_2":"RU.NZ.BU"}},{"type":"MultiPolygon","arcs":[[[87,88,89,-29,90,91]]],"properties":{"GID_2":"RUS.47.13_1","GID_0":"RUS","COUNTRY":"Russia","GID_1":"RUS.47_1","NAME_1":"Nizhegorod","NL_NAME_1":"Нижегородскаяобласть","NAME_2":"Chkalovskiyrayon","VARNAME_2":"NA","NL_NAME_2":"Чкаловскийрайон","TYPE_2":"Raion","ENGTYPE_2":"District","CC_2":"R25004","HASC_2":"RU.NZ.CH"}},{"type":"MultiPolygon","arcs":[[[-13,92,-31,93,94,95,96]]],"properties":{"GID_2":"RUS.47.14_1","GID_0":"RUS","COUNTRY":"Russia","GID_1":"RUS.47_1","NAME_1":"Nizhegorod","NL_NAME_1":"Нижегородскаяобласть","NAME_2":"Dal'nekonstantinovskiyrayon","VARNAME_2":"NA","NL_NAME_2":"Дальнеконстантиновскийрайон","TYPE_2":"Raion","ENGTYPE_2":"District","CC_2":"R25002","HASC_2":"RU.NZ.DA"}},{"type":"MultiPolygon","arcs":[[[97,98,99,-2,-19,100]]],"properties":{"GID_2":"RUS.47.15_1","GID_0":"RUS","COUNTRY":"Russia","GID_1":"RUS.47_1","NAME_1":"Nizhegorod","NL_NAME_1":"Нижегородскаяобласть","NAME_2":"Diveevskiyrayon","VARNAME_2":"NA","NL_NAME_2":"Дивеевскийрайон","TYPE_2":"Raion","ENGTYPE_2":"District","CC_2":"R25002","HASC_2":"RU.NZ.DI"}},{"type":"MultiPolygon","arcs":[[[-43,101,102,103,104,105,-81,106,107,108,109]]],"properties":{"GID_2":"RUS.47.16_1","GID_0":"RUS","COUNTRY":"Russia","GID_1":"RUS.47_1","NAME_1":"Nizhegorod","NL_NAME_1":"Нижегородскаяобласть","NAME_2":"Gaginskiyrayon","VARNAME_2":"NA","NL_NAME_2":"Гагинскийрайон","TYPE_2":"Raion","ENGTYPE_2":"District","CC_2":"R25001","HASC_2":"RU.NZ.GA"}},{"type":"MultiPolygon","arcs":[[[110]]],"properties":{"GID_2":"RUS.47.17_1","GID_0":"RUS","COUNTRY":"Russia","GID_1":"RUS.47_1","NAME_1":"Nizhegorod","NL_NAME_1":"Нижегородскаяобласть","NAME_2":"Gorodets","VARNAME_2":"NA","NL_NAME_2":"Городец","TYPE_2":"Gorod","ENGTYPE_2":"City","CC_2":"NA","HASC_2":"RU.NZ.GG"}},{"type":"MultiPolygon","arcs":[[[111,112,113,-61,114,115,-22,116,-89],[-111]]],"properties":{"GID_2":"RUS.47.18_1","GID_0":"RUS","COUNTRY":"Russia","GID_1":"RUS.47_1","NAME_1":"Nizhegorod","NL_NAME_1":"Нижегородскаяобласть","NAME_2":"Gorodetskiyrayon","VARNAME_2":"NA","NL_NAME_2":"Городецкийрайон","TYPE_2":"Raion","ENGTYPE_2":"District","CC_2":"R25002","HASC_2":"RU.NZ.GR"}},{"type":"MultiPolygon","arcs":[[[-48,117,-46,118,119,120,121,122,-77]]],"properties":{"GID_2":"RUS.47.19_1","GID_0":"RUS","COUNTRY":"Russia","GID_1":"RUS.47_1","NAME_1":"Nizhegorod","NL_NAME_1":"Нижегородскаяобласть","NAME_2":"Knyagininskiyrayon","VARNAME_2":"NA","NL_NAME_2":"Княгининскийрайон","TYPE_2":"Raion","ENGTYPE_2":"District","CC_2":"R25002","HASC_2":"RU.NZ.KN"}},{"type":"MultiPolygon","arcs":[[[123,124,125,-63,-113]]],"properties":{"GID_2":"RUS.47.20_1","GID_0":"RUS","COUNTRY":"Russia","GID_1":"RUS.47_1","NAME_1":"Nizhegorod","NL_NAME_1":"Нижегородскаяобласть","NAME_2":"Koverninskiyrayon","VARNAME_2":"NA","NL_NAME_2":"Ковернинскийрайон","TYPE_2":"Raion","ENGTYPE_2":"District","CC_2":"R25002","HASC_2":"RU.NZ.KV"}},{"type":"MultiPolygon","arcs":[[[126,127,128,129,130,131,132,133,134,135]]],"properties":{"GID_2":"RUS.47.21_1","GID_0":"RUS","COUNTRY":"Russia","GID_1":"RUS.47_1","NAME_1":"Nizhegorod","NL_NAME_1":"Нижегородскаяобласть","NAME_2":"Krasnobakovskiyrayon","VARNAME_2":"NA","NL_NAME_2":"Краснобаковскийрайон","TYPE_2":"Raion","ENGTYPE_2":"District","CC_2":"R25002","HASC_2":"RU.NZ.KB"}},{"type":"MultiPolygon","arcs":[[[136,-45,137,-109,138,139,140]]],"properties":{"GID_2":"RUS.47.22_1","GID_0":"RUS","COUNTRY":"Russia","GID_1":"RUS.47_1","NAME_1":"Nizhegorod","NL_NAME_1":"Нижегородскаяобласть","NAME_2":"Krasnooktyabr'skiyrayon","VARNAME_2":"NA","NL_NAME_2":"Краснооктябрьскийрайон","TYPE_2":"Raion","ENGTYPE_2":"District","CC_2":"R25002","HASC_2":"RU.NZ.KO"}},{"type":"MultiPolygon","arcs":[[[141]]],"properties":{"GID_2":"RUS.47.23_1","GID_0":"RUS","COUNTRY":"Russia","GID_1":"RUS.47_1","NAME_1":"Nizhegorod","NL_NAME_1":"Нижегородскаяобласть","NAME_2":"Kstovo","VARNAME_2":"NA","NL_NAME_2":"Кстово","TYPE_2":"Gorod","ENGTYPE_2":"City","CC_2":"NA","HASC_2":"RU.NZ.KG"}},{"type":"MultiPolygon","arcs":[[[-37,142,143,144,-73,145,146,-55,-94],[-142]]],"properties":{"GID_2":"RUS.47.24_1","GID_0":"RUS","COUNTRY":"Russia","GID_1":"RUS.47_1","NAME_1":"Nizhegorod","NL_NAME_1":"Нижегородскаяобласть","NAME_2":"Kstovskiyrayon","VARNAME_2":"NA","NL_NAME_2":"Кстовскийрайон","TYPE_2":"Raion","ENGTYPE_2":"District","CC_2":"R25002","HASC_2":"RU.NZ.KR"}},{"type":"MultiPolygon","arcs":[[[147]]],"properties":{"GID_2":"RUS.47.25_1","GID_0":"RUS","COUNTRY":"Russia","GID_1":"RUS.47_1","NAME_1":"Nizhegorod","NL_NAME_1":"Нижегородскаяобласть","NAME_2":"Kulebaki","VARNAME_2":"NA","NL_NAME_2":"Кулебаки","TYPE_2":"Gorsovet","ENGTYPE_2":"District","CC_2":"NA","HASC_2":"RU.NZ.KK"}},{"type":"MultiPolygon","arcs":[[[-7,148,149,150,151,152,153,154,155,156],[-148]]],"properties":{"GID_2":"RUS.47.26_1","GID_0":"RUS","COUNTRY":"Russia","GID_1":"RUS.47_1","NAME_1":"Nizhegorod","NL_NAME_1":"Нижегородскаяобласть","NAME_2":"Kulebakskiyrayon","VARNAME_2":"NA","NL_NAME_2":"Кулебакскийрайон","TYPE_2":"Raion","ENGTYPE_2":"District","CC_2":"R25002","HASC_2":"RU.NZ.KU"}},{"type":"MultiPolygon","arcs":[[[157,158,159,160,161,162,-103,163,-41,164,165]]],"properties":{"GID_2":"RUS.47.27_1","GID_0":"RUS","COUNTRY":"Russia","GID_1":"RUS.47_1","NAME_1":"Nizhegorod","NL_NAME_1":"Нижегородскаяобласть","NAME_2":"Lukoyanovskiyrayon","VARNAME_2":"NA","NL_NAME_2":"Лукояновскийрайон","TYPE_2":"Raion","ENGTYPE_2":"District","CC_2":"R25002","HASC_2":"RU.NZ.LU"}},{"type":"MultiPolygon","arcs":[[[166,-57,167,-146,-72,168,-70,169,-68,170,171,172,173,174,-120,175]]],"properties":{"GID_2":"RUS.47.28_1","GID_0":"RUS","COUNTRY":"Russia","GID_1":"RUS.47_1","NAME_1":"Nizhegorod","NL_NAME_1":"Нижегородскаяобласть","NAME_2":"Lyskovskiyrayon","VARNAME_2":"NA","NL_NAME_2":"Лысковскийрайон","TYPE_2":"Raion","ENGTYPE_2":"District","CC_2":"R25003","HASC_2":"RU.NZ.LY"}},{"type":"MultiPolygon","arcs":[[[-8,-157,176,-155,177,178,179,180]]],"properties":{"GID_2":"RUS.47.29_1","GID_0":"RUS","COUNTRY":"Russia","GID_1":"RUS.47_1","NAME_1":"Nizhegorod","NL_NAME_1":"Нижегородскаяобласть","NAME_2":"Navashinskiyrayon","VARNAME_2":"NA","NL_NAME_2":"Навашинскийрайон","TYPE_2":"Raion","ENGTYPE_2":"District","CC_2":"R25003","HASC_2":"RU.NZ.NA"}},{"type":"MultiPolygon","arcs":[[[-24,181,-143,-36,182]]],"properties":{"GID_2":"RUS.47.30_1","GID_0":"RUS","COUNTRY":"Russia","GID_1":"RUS.47_1","NAME_1":"Nizhegorod","NL_NAME_1":"Нижегородскаяобласть","NAME_2":"NizhniyNovgorodgorsovet","VARNAME_2":"NizhniyNovgorod","NL_NAME_2":"НижнийНовгород(горсовет)","TYPE_2":"Gorsovet","ENGTYPE_2":"District","CC_2":"R25000","HASC_2":"RU.NZ.NI"}},{"type":"MultiPolygon","arcs":[[[183]]],"properties":{"GID_2":"RUS.47.31_1","GID_0":"RUS","COUNTRY":"Russia","GID_1":"RUS.47_1","NAME_1":"Nizhegorod","NL_NAME_1":"Нижегородскаяобласть","NAME_2":"Pavlovo","VARNAME_2":"NA","NL_NAME_2":"Павлово","TYPE_2":"Gorod","ENGTYPE_2":"City","CC_2":"NA","HASC_2":"RU.NZ.PG"}},{"type":"MultiPolygon","arcs":[[[-33,184,185,186,187,188],[-184]]],"properties":{"GID_2":"RUS.47.32_1","GID_0":"RUS","COUNTRY":"Russia","GID_1":"RUS.47_1","NAME_1":"Nizhegorod","NL_NAME_1":"Нижегородскаяобласть","NAME_2":"Pavlovskiyrayon","VARNAME_2":"NA","NL_NAME_2":"Павловскийрайон","TYPE_2":"Raion","ENGTYPE_2":"District","CC_2":"R25003","HASC_2":"RU.NZ.PR"}},{"type":"MultiPolygon","arcs":[[[189,-53,190,191,192,-85,193,194,195,196,197,-95]]],"properties":{"GID_2":"RUS.47.33_1","GID_0":"RUS","COUNTRY":"Russia","GID_1":"RUS.47_1","NAME_1":"Nizhegorod","NL_NAME_1":"Нижегородскаяобласть","NAME_2":"Perevozskiyrayon","VARNAME_2":"NA","NL_NAME_2":"Перевозскийрайон","TYPE_2":"Raion","ENGTYPE_2":"District","CC_2":"R25003","HASC_2":"RU.NZ.PV"}},{"type":"MultiPolygon","arcs":[[[-101,198,-159,199]]],"properties":{"GID_2":"RUS.47.34_1","GID_0":"RUS","COUNTRY":"Russia","GID_1":"RUS.47_1","NAME_1":"Nizhegorod","NL_NAME_1":"Нижегородскаяобласть","NAME_2":"Pervomayskiyrayon","VARNAME_2":"NA","NL_NAME_2":"Первомайскийрайон","TYPE_2":"Raion","ENGTYPE_2":"District","CC_2":"R25003","HASC_2":"RU.NZ.PM"}},{"type":"MultiPolygon","arcs":[[[200,201,-140,202,203,204,205,206,207,208,209,210,211]]],"properties":{"GID_2":"RUS.47.35_1","GID_0":"RUS","COUNTRY":"Russia","GID_1":"RUS.47_1","NAME_1":"Nizhegorod","NL_NAME_1":"Нижегородскаяобласть","NAME_2":"Pil'ninskiyrayon","VARNAME_2":"NA","NL_NAME_2":"Пильнинскийрайон","TYPE_2":"Raion","ENGTYPE_2":"District","CC_2":"R25003","HASC_2":"RU.NZ.PI"}},{"type":"MultiPolygon","arcs":[[[-166,212,-39,213]]],"properties":{"GID_2":"RUS.47.36_1","GID_0":"RUS","COUNTRY":"Russia","GID_1":"RUS.47_1","NAME_1":"Nizhegorod","NL_NAME_1":"Нижегородскаяобласть","NAME_2":"Pochinkovskiyrayon","VARNAME_2":"NA","NL_NAME_2":"Починковскийрайон","TYPE_2":"Raion","ENGTYPE_2":"District","CC_2":"R25003","HASC_2":"RU.NZ.PO"}},{"type":"MultiPolygon","arcs":[[[214,-141,-202,215]]],"properties":{"GID_2":"RUS.47.37_1","GID_0":"RUS","COUNTRY":"Russia","GID_1":"RUS.47_1","NAME_1":"Nizhegorod","NL_NAME_1":"Нижегородскаяобласть","NAME_2":"Sechenovskiyrayon","VARNAME_2":"NA","NL_NAME_2":"Сеченовскийрайон","TYPE_2":"Raion","ENGTYPE_2":"District","CC_2":"R25003","HASC_2":"RU.NZ.SC"}},{"type":"MultiPolygon","arcs":[[[-64,-126,216,217,218,-132,219,-130,220,221]]],"properties":{"GID_2":"RUS.47.38_1","GID_0":"RUS","COUNTRY":"Russia","GID_1":"RUS.47_1","NAME_1":"Nizhegorod","NL_NAME_1":"Нижегородскаяобласть","NAME_2":"Semenovskiyrayon","VARNAME_2":"NA","NL_NAME_2":"Семеновскийрайон","TYPE_2":"Raion","ENGTYPE_2":"District","CC_2":"R25003","HASC_2":"RU.NZ.SM"}},{"type":"MultiPolygon","arcs":[[[222,-79,223,-122,224,225,226,227,-207,228,-205,229,-203,-139,-108]]],"properties":{"GID_2":"RUS.47.39_1","GID_0":"RUS","COUNTRY":"Russia","GID_1":"RUS.47_1","NAME_1":"Nizhegorod","NL_NAME_1":"Нижегородскаяобласть","NAME_2":"Sergachskiyrayon","VARNAME_2":"NA","NL_NAME_2":"Сергачскийрайон","TYPE_2":"Raion","ENGTYPE_2":"District","CC_2":"R25003","HASC_2":"RU.NZ.SG"}},{"type":"MultiPolygon","arcs":[[[230,231,232,233,234,235,236,237,238]]],"properties":{"GID_2":"RUS.47.40_1","GID_0":"RUS","COUNTRY":"Russia","GID_1":"RUS.47_1","NAME_1":"Nizhegorod","NL_NAME_1":"Нижегородскаяобласть","NAME_2":"Shakhunskiyrayon","VARNAME_2":"NA","NL_NAME_2":"Шахунскийрайон","TYPE_2":"Raion","ENGTYPE_2":"District","CC_2":"R25004","HASC_2":"RU.NZ.SK"}},{"type":"MultiPolygon","arcs":[[[239,240,241,242,243]]],"properties":{"GID_2":"RUS.47.41_1","GID_0":"RUS","COUNTRY":"Russia","GID_1":"RUS.47_1","NAME_1":"Nizhegorod","NL_NAME_1":"Нижегородскаяобласть","NAME_2":"Sharangskiyrayon","VARNAME_2":"NA","NL_NAME_2":"Шарангскийрайон","TYPE_2":"Raion","ENGTYPE_2":"District","CC_2":"R25004","HASC_2":"RU.NZ.SR"}},{"type":"MultiPolygon","arcs":[[[-18,244,245,-83,246,-105,247,248,-161,249,-199]]],"properties":{"GID_2":"RUS.47.42_1","GID_0":"RUS","COUNTRY":"Russia","GID_1":"RUS.47_1","NAME_1":"Nizhegorod","NL_NAME_1":"Нижегородскаяобласть","NAME_2":"Shatkovskiyrayon","VARNAME_2":"NA","NL_NAME_2":"Шатковскийрайон","TYPE_2":"Raion","ENGTYPE_2":"District","CC_2":"R25004","HASC_2":"RU.NZ.ST"}},{"type":"MultiPolygon","arcs":[[[-9,-181,250,251,252,-185,-32,253,-11]]],"properties":{"GID_2":"RUS.47.43_1","GID_0":"RUS","COUNTRY":"Russia","GID_1":"RUS.47_1","NAME_1":"Nizhegorod","NL_NAME_1":"Нижегородскаяобласть","NAME_2":"Sosnovskiyrayon","VARNAME_2":"NA","NL_NAME_2":"Сосновскийрайон","TYPE_2":"Raion","ENGTYPE_2":"District","CC_2":"R25004","HASC_2":"RU.NZ.SS"}},{"type":"MultiPolygon","arcs":[[[-121,-175,254,255,256,257,258,259,-209,260,-227,261,-225]]],"properties":{"GID_2":"RUS.47.44_1","GID_0":"RUS","COUNTRY":"Russia","GID_1":"RUS.47_1","NAME_1":"Nizhegorod","NL_NAME_1":"Нижегородскаяобласть","NAME_2":"Spasskiyrayon","VARNAME_2":"NA","NL_NAME_2":"Спасскийрайон","TYPE_2":"Raion","ENGTYPE_2":"District","CC_2":"R25004","HASC_2":"RU.NZ.SP"}},{"type":"MultiPolygon","arcs":[[[262,-244,263,264,265,-127,266,267,-232]]],"properties":{"GID_2":"RUS.47.45_1","GID_0":"RUS","COUNTRY":"Russia","GID_1":"RUS.47_1","NAME_1":"Nizhegorod","NL_NAME_1":"Нижегородскаяобласть","NAME_2":"Tonkinskiyrayon","VARNAME_2":"NA","NL_NAME_2":"Тонкинскийрайон","TYPE_2":"Raion","ENGTYPE_2":"District","CC_2":"R25004","HASC_2":"RU.NZ.TK"}},{"type":"MultiPolygon","arcs":[[[-231,268]]],"properties":{"GID_2":"RUS.47.46_1","GID_0":"RUS","COUNTRY":"Russia","GID_1":"RUS.47_1","NAME_1":"Nizhegorod","NL_NAME_1":"Нижегородскаяобласть","NAME_2":"Tonshaevskiyrayon","VARNAME_2":"NA","NL_NAME_2":"Тоншаевскийрайон","TYPE_2":"Raion","ENGTYPE_2":"District","CC_2":"R25004","HASC_2":"RU.NZ.TS"}},{"type":"MultiPolygon","arcs":[[[-136,269,270,271,272,273,274,275,-234,276,-267]]],"properties":{"GID_2":"RUS.47.47_1","GID_0":"RUS","COUNTRY":"Russia","GID_1":"RUS.47_1","NAME_1":"Nizhegorod","NL_NAME_1":"Нижегородскаяобласть","NAME_2":"Urenskiyrayon","VARNAME_2":"NA","NL_NAME_2":"Уренскийрайон","TYPE_2":"Raion","ENGTYPE_2":"District","CC_2":"R25004","HASC_2":"RU.NZ.UR"}},{"type":"MultiPolygon","arcs":[[[-179,277,-187,278,-252,279]]],"properties":{"GID_2":"RUS.47.48_1","GID_0":"RUS","COUNTRY":"Russia","GID_1":"RUS.47_1","NAME_1":"Nizhegorod","NL_NAME_1":"Нижегородскаяобласть","NAME_2":"Vachskiyrayon","VARNAME_2":"NA","NL_NAME_2":"Вачскийрайон","TYPE_2":"Raion","ENGTYPE_2":"District","CC_2":"R25001","HASC_2":"RU.NZ.VC"}},{"type":"MultiPolygon","arcs":[[[-17,280,-15,281,282,-197,283,-195,-245]]],"properties":{"GID_2":"RUS.47.49_1","GID_0":"RUS","COUNTRY":"Russia","GID_1":"RUS.47_1","NAME_1":"Nizhegorod","NL_NAME_1":"Нижегородскаяобласть","NAME_2":"Vadskiyrayon","VARNAME_2":"NA","NL_NAME_2":"Вадскийрайон","TYPE_2":"Raion","ENGTYPE_2":"District","CC_2":"R25001","HASC_2":"RU.NZ.VD"}},{"type":"MultiPolygon","arcs":[[[284,285,286,-271,287,-134,288,-218,289]]],"properties":{"GID_2":"RUS.47.50_1","GID_0":"RUS","COUNTRY":"Russia","GID_1":"RUS.47_1","NAME_1":"Nizhegorod","NL_NAME_1":"Нижегородскаяобласть","NAME_2":"Varnavinskiyrayon","VARNAME_2":"NA","NL_NAME_2":"Варнавинскийрайон","TYPE_2":"Raion","ENGTYPE_2":"District","CC_2":"R25001","HASC_2":"RU.NZ.VV"}},{"type":"MultiPolygon","arcs":[[[290,-238,291,-236,292,-275,293,-273,294,-286]]],"properties":{"GID_2":"RUS.47.51_1","GID_0":"RUS","COUNTRY":"Russia","GID_1":"RUS.47_1","NAME_1":"Nizhegorod","NL_NAME_1":"Нижегородскаяобласть","NAME_2":"Vetluzhskiyrayon","VARNAME_2":"NA","NL_NAME_2":"Ветлужскийрайон","TYPE_2":"Raion","ENGTYPE_2":"District","CC_2":"R25001","HASC_2":"RU.NZ.VE"}},{"type":"MultiPolygon","arcs":[[[-92,295,-27,296,-25,297,-34,-189,298]]],"properties":{"GID_2":"RUS.47.52_1","GID_0":"RUS","COUNTRY":"Russia","GID_1":"RUS.47_1","NAME_1":"Nizhegorod","NL_NAME_1":"Нижегородскаяобласть","NAME_2":"Volodarskiyrayon","VARNAME_2":"NA","NL_NAME_2":"Володарскийрайон","TYPE_2":"Raion","ENGTYPE_2":"District","CC_2":"R25001","HASC_2":"RU.NZ.VL"}},{"type":"MultiPolygon","arcs":[[[-211,299,-259,300,301,302,303,-173,304,305,306]]],"properties":{"GID_2":"RUS.47.53_1","GID_0":"RUS","COUNTRY":"Russia","GID_1":"RUS.47_1","NAME_1":"Nizhegorod","NL_NAME_1":"Нижегородскаяобласть","NAME_2":"Vorotynskiyrayon","VARNAME_2":"NA","NL_NAME_2":"Воротынскийрайон","TYPE_2":"Raion","ENGTYPE_2":"District","CC_2":"R25001","HASC_2":"RU.NZ.VT"}},{"type":"MultiPolygon","arcs":[[[307,-306,308,309,-66,310,-222,311,-128,-266,312,-241]]],"properties":{"GID_2":"RUS.47.54_1","GID_0":"RUS","COUNTRY":"Russia","GID_1":"RUS.47_1","NAME_1":"Nizhegorod","NL_NAME_1":"Нижегородскаяобласть","NAME_2":"Voskresenskiyrayon","VARNAME_2":"NA","NL_NAME_2":"Воскресенскийрайон","TYPE_2":"Raion","ENGTYPE_2":"District","CC_2":"R25001","HASC_2":"RU.NZ.VS"}},{"type":"MultiPolygon","arcs":[[[313,314,315,-99]]],"properties":{"GID_2":"RUS.47.55_1","GID_0":"RUS","COUNTRY":"Russia","GID_1":"RUS.47_1","NAME_1":"Nizhegorod","NL_NAME_1":"Нижегородскаяобласть","NAME_2":"Voznesenskiyrayon","VARNAME_2":"NA","NL_NAME_2":"Вознесенскийрайон","TYPE_2":"Raion","ENGTYPE_2":"District","CC_2":"R25001","HASC_2":"RU.NZ.VZ"}},{"type":"MultiPolygon","arcs":[[[316]]],"properties":{"GID_2":"RUS.47.56_1","GID_0":"RUS","COUNTRY":"Russia","GID_1":"RUS.47_1","NAME_1":"Nizhegorod","NL_NAME_1":"Нижегородскаяобласть","NAME_2":"Vyksa","VARNAME_2":"NA","NL_NAME_2":"Выкса","TYPE_2":"Gorod","ENGTYPE_2":"City","CC_2":"NA","HASC_2":"RU.NZ.VG"}},{"type":"MultiPolygon","arcs":[[[317,-4,-315,318,-153,319,-151],[-317]]],"properties":{"GID_2":"RUS.47.57_1","GID_0":"RUS","COUNTRY":"Russia","GID_1":"RUS.47_1","NAME_1":"Nizhegorod","NL_NAME_1":"Нижегородскаяобласть","NAME_2":"Vyksunskiyrayon","VARNAME_2":"NA","NL_NAME_2":"Выксунскийрайон","TYPE_2":"Raion","ENGTYPE_2":"District","CC_2":"R25001","HASC_2":"RU.NZ.VR"}}]}},"arcs":[[[246155,315199],[585,-12510],[5293,-6185],[11020,-6821],[1085,-3673],[-801,-2513],[-9902,-8754],[4008,-7511],[14243,-3701],[1820,-3369],[-8182,-8284],[-4091,-7484],[4291,-7373],[7047,-7015],[13207,-8063],[3974,-11267]],[[289752,210676],[-26181,-14581],[-3841,-6186],[-1352,-14857],[-3590,-5329],[-16564,-718],[-15278,-9058],[-19069,-5164]],[[203877,154783],[-50477,6075]],[[153400,160858],[-5059,3203],[-451,11875]],[[147890,175936],[4559,18806],[-1720,23141]],[[150729,217883],[2671,4391],[4091,3314]],[[157491,225588],[8432,-1878],[16498,13559],[12590,2845],[6979,-608],[8516,4363],[401,5717],[-4525,5661],[-19904,12454],[-9350,9168]],[[177128,276869],[1836,8644],[4525,6020]],[[183489,291533],[13509,4777],[30339,15548],[18818,3341]],[[349914,266237],[-3206,553],[-217,4197],[2070,939],[3457,-2927],[-2104,-2762]],[[246155,315199],[8733,7346],[18434,6158],[4943,8920],[4090,3783],[11271,3176]],[[293626,344582],[47238,-10439]],[[340864,334143],[17398,-911],[13141,-7650],[819,-4805],[-1186,-4473],[4575,-5302]],[[375611,311002],[-6044,-553]],[[369567,310449],[-3089,-7925],[-1904,-21347],[818,-4832]],[[365392,276345],[8433,-12151],[6762,-4612]],[[380587,259582],[17532,-6020],[5845,-19662],[4441,-2706]],[[408405,231194],[-10336,-718],[-6345,4584],[-7881,1988],[-21523,-8616],[-6863,-8450],[-5944,-3507],[768,-13697],[-8750,-10301],[-19986,-12012]],[[321545,180465],[-2154,6600],[-1119,11681],[-10035,12261],[-301,4474],[-6896,-7070],[-11288,2265]],[[295346,560118],[-2688,856],[584,3258],[4024,-2209],[-1920,-1905]],[[251582,636971],[7514,-24385]],[[259096,612586],[5276,-10631],[14076,-20242],[25280,-22479]],[[303728,559234],[26650,-17149]],[[330378,542085],[-5527,-11101],[-3139,-25682]],[[321712,505302],[-15846,12233],[-21323,6849],[-17883,-5689],[-19653,7014],[-8650,-1519],[-10786,-5081]],[[227571,519109],[-9885,5440]],[[217686,524549],[-1236,3231],[317,9804],[-10435,11929]],[[206332,549513],[-2188,5606]],[[204144,555119],[4525,6297],[701,5384],[10153,10411],[6712,16597],[14627,17480],[5577,17177],[5143,8506]],[[287699,443250],[-952,525],[1653,497],[-701,-1022]],[[349546,447255],[1102,-7042],[-7230,-24964],[10186,-16293],[-2054,-5220],[-5160,525],[-4157,-2154],[-11655,-12841],[-7631,-2596],[-13325,-14498],[-6628,-11515],[-1303,-8229]],[[301691,342428],[-7196,20131],[-16848,6683],[-6262,10024],[1403,24412]],[[272788,403678],[3323,5109],[-501,6241],[-2772,8091],[-5243,5992],[-18401,12206],[-5043,6076],[-12356,22396],[-7731,3893]],[[224064,473682],[9835,1436],[31024,10632],[8783,-1022],[22291,-9665],[10904,-248],[3606,2485]],[[310507,477300],[385,2375]],[[310892,479675],[19803,-3590],[11772,9002],[9634,4225]],[[352101,489312],[-584,-5053],[1903,-3756],[-284,-4860],[-3456,-5164],[-1904,-15768],[1770,-7456]],[[620247,175936],[-6462,-7456],[-3440,-6904],[-1436,-7815],[2021,-14498],[4525,-15879],[-3874,-3893],[-26967,-6711],[-3089,-4860],[-3990,-18861],[-4258,-9251],[-7113,12868],[-8984,1713],[-30089,14028]],[[527091,108417],[-5727,7484]],[[521364,115901],[-33,7704]],[[521331,123605],[6929,4612],[14727,-663],[7431,3590],[4157,5827],[-501,5054],[-6846,5744],[-1302,3203],[2154,3038]],[[548080,154010],[8416,2402]],[[556496,156412],[-201,3314],[5945,9941],[15812,5993],[10486,9223]],[[588538,184883],[14477,4198]],[[603015,189081],[8983,-9334],[8249,-3811]],[[529345,383436],[-11421,-16072]],[[517924,367364],[551,-7235],[1570,-6048]],[[520045,354081],[6896,-10135]],[[526941,343946],[1737,-9996],[9200,-8230],[885,-2651]],[[538763,323069],[-885,-4087],[-2922,-4114]],[[534956,314868],[-31191,17370],[-14661,3645]],[[489104,335883],[-5794,3424],[-5810,6186]],[[477500,345493],[-4843,8588],[718,7125],[-1135,7401]],[[472240,368607],[-10553,12068],[-7147,3562]],[[454540,384237],[8466,9113],[6579,3038],[12390,-3618],[6712,2126]],[[488687,394896],[-150,-3258]],[[488537,391638],[2104,-4363]],[[490641,387275],[8181,-1961],[14995,828],[15528,-2706]],[[385696,514663],[-651,552],[768,166],[-117,-718]],[[340329,537667],[6913,14249],[3056,13780]],[[350298,565696],[-1854,3921],[-16246,11930],[-6345,11184],[3673,21816],[1352,23639]],[[330878,638186],[2422,13393],[2771,8726]],[[336071,660305],[5678,6103],[21940,11654]],[[363689,678062],[6813,1436],[4692,-5578],[-1369,-9334],[-2772,-6462],[4007,-4612],[16764,-10604],[3891,-4142],[4124,-10080],[-1786,-11847],[-4926,-6931],[-468,-8892],[-2538,-6214],[4308,-8919],[5460,-1961],[12574,11129],[6228,1740],[10953,-2596],[9184,-16901],[8082,-6130],[28018,2402],[6212,3452],[7246,8285],[5127,303],[7547,-7400],[10452,-939],[9451,3037],[14878,-2899],[14343,4860]],[[550184,582265],[11104,-1077],[8115,-2789]],[[569403,578399],[7530,-6269],[3624,-9886],[4926,-7180]],[[585483,555064],[-11906,-2927]],[[573577,552137],[-23894,-11239]],[[549683,540898],[-14043,-3314],[-9634,-4722]],[[526006,532862],[-6128,-8368],[-401,-5219],[1319,-3949],[-10669,-12234]],[[510127,503092],[-368,-5357],[2572,-9058]],[[512331,488677],[12139,-11515],[2387,-5413],[-617,-12896],[-1219,-3673],[-11989,-8616],[-13575,-1988]],[[499457,444576],[-35733,11681]],[[463724,456257],[-57640,33525],[-23310,14995]],[[382774,504777],[-18734,17839],[-23711,15051]],[[534956,314868],[3807,8201]],[[526941,343946],[14928,-7980],[13274,-3480],[6779,12731],[5527,359],[2972,-4198],[-2204,-3645],[-183,-3673],[5026,-9914],[12506,-6241],[11237,-966]],[[596803,316939],[-5493,-2347]],[[591310,314592],[-10837,-10190],[-15211,-18779],[1503,-10300],[7697,-13255],[-1302,-4170]],[[573160,257898],[-17265,-4557]],[[555895,253341],[-17065,-11129],[-15947,5468],[-7246,-2900],[-14193,-13476],[-6763,-14801]],[[494681,216503],[-17148,8892]],[[477533,225395],[-7330,8588],[-4525,9279]],[[465678,243262],[4992,7704]],[[470670,250966],[17165,13891],[3223,5467],[5126,24302]],[[496184,294626],[-9133,7704],[-4275,5689]],[[482776,308019],[-367,4198],[6695,23666]],[[184825,576024],[4742,21181],[-3122,11626],[-9317,-6462],[-8316,5992],[-17,9113],[9000,9859],[-8766,10632],[10019,12178],[6428,1657],[5193,-1850],[6980,6821],[5543,-4861],[7614,-1712],[11255,4750],[584,7235],[29321,1077]],[[251966,663260],[-4258,-8699]],[[247708,654561],[3874,-17590]],[[204144,555119],[-167,2513]],[[203977,557632],[-12640,9693],[-6512,8699]],[[340864,334143],[-39173,8285]],[[349546,447255],[10787,-636],[4959,-4777],[5961,-12261],[5477,-5882],[31608,-21429],[33713,-15824],[12489,-2209]],[[454540,384237],[-3723,-3590],[-1937,-15824],[1202,-7207],[-1319,-8285],[-7647,-6406],[-9234,-635]],[[431882,342290],[-9501,-10218],[-13642,-8561]],[[408739,323511],[-33128,-12509]],[[274474,126864],[-4458,6241],[-12607,-2154],[-2855,-10135],[-19586,-6462]],[[234968,114354],[-21891,14526],[5778,6655],[968,4087],[-2087,3811],[-4809,2264],[-6245,-331],[-9217,-6572],[-5944,552],[-2355,7207],[-384,9914]],[[188782,156467],[15095,-1684]],[[321545,180465],[-23494,-17398],[-13976,-17646],[-9601,-18557]],[[556496,156412],[-24696,-746],[-4592,-1905]],[[527208,153761],[-4258,1685],[-1436,6130],[-17449,14968],[-25413,11405],[83,7594]],[[478735,195543],[4625,5026]],[[483360,200569],[12674,7621],[2070,5772]],[[498104,213962],[-3423,2541]],[[555895,253341],[12640,3397]],[[568535,256738],[8231,-16348],[11839,-9472]],[[588605,230918],[5327,-6462],[1285,-4529],[-1619,-6987],[-12190,-18612],[-50,-4861],[1670,-4722]],[[583028,184745],[5510,138]],[[280402,611178],[-501,663],[935,55],[-434,-718]],[[251966,663260],[14727,2624],[10403,4998],[11053,-1519],[19186,31233]],[[307335,700596],[5594,-994],[3406,-5965],[-1820,-4805],[902,-6048],[14426,-18751],[6228,-3728]],[[336071,660305],[-5193,-22119]],[[350298,565696],[-5794,-20104],[-4175,-7925]],[[340329,537667],[-20120,9610],[-16481,11957]],[[259096,612586],[-9885,32669],[-1503,9306]],[[520045,354081],[-2121,13283]],[[529345,383436],[7982,2347],[23827,1464],[14277,4004],[11721,580]],[[587152,391831],[5627,-3507],[4726,-8726],[3606,-2707],[5160,691]],[[606271,377582],[8232,-4861],[718,-3203],[-3790,-9113],[-5594,-3010],[-5260,-7953],[2922,-5689],[12557,-5247]],[[616056,338506],[-3273,-6268],[-9518,-7346],[-3089,-5716]],[[600176,319176],[-3373,-2237]],[[307335,700596],[-367,6793],[7747,3369],[2037,7898],[-11504,4474],[1102,5578],[-21006,4501],[-2955,4999],[4091,12233],[567,8202],[8616,7760],[-567,3672],[20170,8285],[-4491,9196],[11538,7511],[10252,-6766],[4759,11903],[8015,-4695],[2521,6241],[-5444,6407],[-15161,2485],[-5928,5302],[-1736,6434],[4124,3176],[36284,-5274],[6879,4750],[15412,-1547],[6228,8450],[16314,2513],[8516,8948],[20771,1049]],[[434119,844443],[8650,-19800]],[[442769,824643],[-14043,-5192],[-7397,-31094],[-2321,-15631],[-12373,-7318],[-3373,-11515],[9485,-14194],[-13409,-7650],[1570,-9223],[-21256,-23804],[-7080,-4032],[-8883,-16928]],[[672260,769219],[21857,-13227]],[[694117,755992],[-9034,-8395],[-41126,-3673],[-2404,-3977],[-200,-9306],[-11321,-11515],[-16180,-6131],[-25314,-17039],[-12072,-3065],[-12123,-9555]],[[564343,683336],[-15144,56]],[[549199,683392],[-8032,-3756],[-8248,1850],[-4843,5413],[-9133,-5275],[-6779,4557],[-4475,11184],[2454,5274],[3707,16459],[234,7649],[-8666,7456],[-21356,5330]],[[484062,739533],[-10253,4916],[-8749,6793]],[[465060,751242],[-4308,6407],[15762,4197],[6279,4998]],[[482793,766844],[11003,-7842]],[[493796,759002],[5561,-663],[9200,5164],[1954,10052],[5710,7511],[3206,580],[5761,-5026],[6211,-939],[5544,2348],[11003,12509],[17533,6131],[7948,8533],[1987,4474],[-4575,8615],[6228,8036],[6095,-1684],[11321,-7898],[10202,-1160]],[[604685,815585],[5410,-12178]],[[610095,803407],[9501,-7014],[18784,3534],[6212,-6876],[1102,-7373],[3106,-3590],[23460,-12869]],[[651137,198249],[-6829,-3728],[-13124,-15354],[-10937,-3231]],[[603015,189081],[-19987,-4336]],[[588605,230918],[9301,12786],[15812,12482],[17850,8091],[5477,635],[9116,-3038],[12240,1050],[6144,8919],[1804,5661]],[[666349,277504],[4491,-12785],[6446,-5054]],[[677286,259665],[6712,-9444],[-5711,-19856],[-4925,-11764],[-13542,-5274],[-10269,-6545],[1586,-8533]],[[398236,468546],[-2287,-525],[-1202,2927],[3356,387],[1285,-1353],[-1152,-1436]],[[352101,489312],[17449,21154],[6211,2402]],[[375761,512868],[7013,-8091]],[[382774,504777],[80950,-48520]],[[499457,444576],[-4959,-5523],[-551,-6572],[-3440,-5026],[-5560,-2320],[-2922,-4667],[-618,-6213],[1185,-5303],[7865,-9637]],[[490457,399315],[-1770,-4419]],[[123846,261432],[-1136,-911],[-2304,2651],[3490,1629],[-50,-3369]],[[157491,225588],[-6762,-7705]],[[150729,217883],[1619,-18226]],[[152348,199657],[-6361,-9472],[-7731,-4556],[-3323,83]],[[134933,185712],[-2822,5965],[-384,11156]],[[131727,202833],[-5176,8782],[-4542,2899],[-19236,-2209],[-18968,23362],[-5727,5109],[-16080,8589],[-5210,10549]],[[56788,259914],[1152,2457],[-1703,7567]],[[56237,269938],[9034,-5247],[3439,110]],[[68710,264801],[11755,11047],[26399,3092]],[[106864,278940],[4642,-2154],[5009,-5605],[9084,-1961],[6863,2320],[7513,-1243],[22910,7843],[14243,-1271]],[[416654,36562],[-4692,-193],[-12774,8947],[-7931,9638],[3389,10963],[0,4143],[-5259,5329]],[[389387,75389],[6745,10025],[1620,10631],[-584,5303],[-3891,10051],[-12005,14664],[2104,7843],[4825,9058]],[[388201,142964],[19954,18087],[-1770,4833],[-6612,6186]],[[399773,172070],[10936,6186],[9969,-5744],[17833,-16928],[10419,4832],[2204,3728],[-334,3646],[-9501,10466],[5744,7815],[2371,6158],[4108,1408],[11104,-6600]],[[464626,187037],[9183,3342]],[[473809,190379],[4926,5164]],[[527208,153761],[9952,2347],[15746,-1132],[-4826,-966]],[[521331,123605],[83,-12344]],[[521414,111261],[-4492,-4308],[-6128,-2181],[-11638,10079],[-9133,-3341],[-1069,-10218],[-7998,-5136],[-10820,6351],[-9785,-3175],[-12306,-17481],[-13809,-14829],[-7380,-11405],[-13725,-1629],[734,-8257],[2789,-9169]],[[529345,383436],[-38704,3839]],[[488537,391638],[1920,7677]],[[512331,488677],[-1887,4004],[-317,10411]],[[526006,532862],[3991,2706],[19686,5330]],[[573577,552137],[18919,4142]],[[592496,556279],[14476,-1160]],[[606972,555119],[-4575,-7014],[-1970,-29521],[718,-13697],[2889,-14221],[12756,-5220],[-1202,-5661],[-7631,-8699],[785,-4611],[18902,2485],[7814,-4032],[3523,-4860],[1670,-6213],[-6946,-13394]],[[633705,440461],[-26399,-12288]],[[607306,428173],[-5026,-5054],[-1820,-6324],[10236,-26179],[768,-7069],[-5193,-5965]],[[587152,391831],[-57807,-8395]],[[106864,278940],[-21389,-1491],[-9668,-4501],[-7097,-8147]],[[56237,269938],[-1820,8146],[-5493,8754],[1035,30543],[4659,4694],[2037,4943],[14927,14968],[7381,12730],[5059,1823]],[[84022,356539],[2254,-5137],[19436,-8477],[3557,-4281],[-2972,-13421],[10653,-6434],[21840,497],[6980,-5633],[12923,-829],[7047,5965],[15478,7373],[3089,3977]],[[184307,330139],[1720,-7567]],[[186027,322572],[4475,-3755],[-11287,-20933],[4274,-6351]],[[330378,542085],[4959,-1270],[22107,-13697],[18317,-14250]],[[310892,479675],[10820,25627]],[[219305,402380],[-684,-1022],[-1169,1491],[1853,-469]],[[272788,403678],[-18184,-12675],[-20805,-3287],[-6696,-4584],[-15662,-19717]],[[211441,363415],[-14360,6103],[-7480,13145]],[[189601,382663],[-17683,6379],[584,12289],[-10920,9278],[-7881,1989],[-10937,-1243]],[[142764,411355],[7848,7953],[2137,13863],[-6261,6821],[8582,9444],[19519,4004],[8717,10964],[6679,5274],[1035,11378],[24946,-2210]],[[215966,478846],[8098,-5164]],[[454540,384237],[13342,-9389],[4358,-6241]],[[477500,345493],[11604,-9610]],[[489104,335883],[-5443,-17978],[-885,-9886]],[[482776,308019],[13408,-13393]],[[470670,250966],[-14410,-17756]],[[456260,233210],[-5059,10908],[-11505,2706],[-3306,4722],[-133,4667],[5226,23970],[-1954,2292],[-11220,1436],[-4576,7760],[-1168,7705]],[[422565,299376],[2655,17811],[2805,8920]],[[428025,326107],[668,11626]],[[428693,337733],[3189,4557]],[[321545,180465],[5009,-10604],[11755,-12317],[12440,-7870],[20771,-5523],[16681,-1187]],[[389387,75389],[-7698,221],[-11939,-3617],[-6194,4777],[3189,9776],[-2188,4529],[-41610,4584],[-16781,7069],[-3657,6932],[1420,6600],[5159,9941],[-1770,3369],[-9300,-1298],[-9485,-4335],[-14059,2927]],[[744944,240528],[-7297,-5413],[-27317,-3866]],[[710330,231249],[-10620,5440],[-10736,18834],[-11688,4142]],[[666349,277504],[-12674,7236]],[[653675,284740],[-16230,14912]],[[637445,299652],[100,4418],[7731,6434],[14995,2072]],[[660271,312576],[7297,3949],[1519,2513]],[[669087,319038],[-8165,21926]],[[660922,340964],[2238,7815]],[[663160,348779],[12640,20380],[11037,10687],[6879,4916]],[[693716,384762],[8699,-3452]],[[702415,381310],[9134,2761],[12223,11019]],[[723772,395090],[-201,-14415],[-634,-5634],[-12924,-13007],[-10753,-16679],[-2171,-7429],[2321,-10576],[6428,-9307],[27284,-20821],[36017,-14526],[3172,-5357],[1152,-11295],[-19486,-11350],[-6011,-7235],[-3022,-6931]],[[521414,111261],[-50,4640]],[[527091,108417],[35182,-14995],[-10169,-12013],[718,-17038],[3590,-9417],[-14861,-17536],[1921,-3728],[10469,-5440],[12890,-15437],[-1736,-6876],[-3640,-2706],[-12423,5440],[-23293,-5744],[-13291,9914],[-21123,-3838],[-15863,-9003],[-584,6296],[7698,5192],[3189,8892],[-11572,7097],[-8615,-10577],[-4859,-1242],[-8833,2099],[-18668,17673],[-16564,1132]],[[744944,240528],[-918,-13642],[-16247,-11350],[-5293,-994],[-4091,-4004],[-2555,-7070],[-3323,-4114],[-701,-5579],[1303,-8726],[4859,-7732],[3940,-13338],[-22842,-16128],[-17549,497],[-15379,-5164],[-9100,9417],[6529,11516],[1970,6848],[-250,15161],[2471,8064],[-8332,4031],[-8299,28]],[[710330,231249],[22742,2044],[11872,7235]],[[442769,824643],[14042,-13476]],[[456811,811167],[4876,-13338],[12506,-11875],[1487,-10411]],[[475680,775543],[7113,-8699]],[[465060,751242],[19002,-11709]],[[549199,683392],[7464,-829]],[[556663,682563],[233,-7815],[-13859,-12289],[-11521,-8008],[-19987,414],[-1937,-7898],[585,-6296],[4124,-3038],[8649,-994],[7731,-3756],[4091,-4639],[1586,-6241],[418,-12289],[12039,-20297],[1369,-7152]],[[568535,256738],[4625,1160]],[[591310,314592],[8866,4584]],[[616056,338506],[5026,-580],[18951,14802],[3507,-359],[2070,-3065],[-5293,-12952]],[[640317,336352],[3156,-8533]],[[643473,327819],[10336,3756],[5009,4612]],[[658818,336187],[2104,4777]],[[669087,319038],[-8816,-6462]],[[637445,299652],[4392,-4695],[11838,-10217]],[[873549,986440],[-2655,-7456],[1001,-5192],[-1118,-3369],[3673,-10190],[-15295,-1767],[-9150,-6241],[-3824,-5358],[-4725,-2485],[-10854,-607],[-4141,-5938],[3006,-10659],[3490,-4391],[11638,-6821],[768,-4418],[-2354,-8450],[-4108,-6380],[13008,-14056],[1719,-5385],[-734,-17535],[-4058,-13973]],[[848836,845769],[-13375,5329],[-7313,-138],[-7948,-1353],[-21874,-10190],[-45868,-5689],[-10202,-4004]],[[742256,829724],[6228,29686],[518,6628]],[[749002,866038],[-2371,7428],[-9702,2458],[-8232,-635],[-5226,-2761],[-8649,4722],[-3540,4225],[-4058,10494],[434,9416]],[[707658,901385],[8416,11267]],[[716074,912652],[1353,5082],[-7114,10300],[-14159,4446]],[[696154,932480],[5026,5440],[10452,3894]],[[711632,941814],[12724,-4916],[3991,1326],[9400,9776],[51,6351],[-11388,23142],[-2705,14746]],[[723705,992239],[7814,2983],[25097,773],[11604,4004],[2622,-14387],[11388,6434],[8566,690],[13291,-3396],[69462,-2900]],[[821636,799182],[2571,-9776],[10553,-8754],[8349,-19275],[-10453,-6352],[-5710,-5882],[3122,-8671],[5978,-4197],[-3106,-14360],[-4358,-11212],[4575,-8174],[-3055,-12013],[-2956,8920],[-6479,1795],[-3907,-2016],[-4792,-11930],[-13057,-3286],[-14477,7097],[-20488,3259],[-7564,-2127],[-2922,-3424],[-902,-6683],[-4208,-5633],[-27116,-4695]],[[721234,671793],[5994,11681],[3089,9887],[-735,11957],[-3907,13145],[-6061,11018],[-9685,9417],[101,2541],[7914,9333],[-2588,6628],[-4024,3618]],[[711332,761018],[5627,2789]],[[716959,763807],[7247,27],[27617,-6876]],[[751823,756958],[5060,3286],[8365,10439],[2371,7069],[-868,12648],[7430,6214],[16247,497],[8783,9720],[11171,663],[11254,-8312]],[[408405,231194],[12473,4225],[25013,-6462],[10369,4253]],[[456260,233210],[9418,10052]],[[477533,225395],[20571,-11433]],[[483360,200569],[-9551,-10190]],[[473809,190379],[-4942,-2707],[-4241,-635]],[[399773,172070],[8181,-8588],[-1436,-5330],[-18317,-15188]],[[186027,322572],[-3339,12841],[-5611,11488]],[[177077,346901],[1036,14277],[9534,11102],[6078,1408]],[[193725,373688],[8232,-7070],[9484,-3203]],[[301691,342428],[-8065,2154]],[[607306,428173],[7163,3479]],[[614469,431652],[7013,-1602],[31609,-19330]],[[653091,410720],[36300,-9113],[7397,-2679]],[[696788,398928],[2672,-3314],[768,-3286]],[[700228,392328],[-4976,-8395]],[[695252,383933],[-1536,829]],[[663160,348779],[-4342,-12592]],[[643473,327819],[-2104,4032],[-1052,4501]],[[848836,845769],[-6295,1574],[-9117,-5192],[-2137,-10273],[-10052,-13034],[3473,-10522],[-3072,-9140]],[[751823,756958],[-20504,5634],[-14360,1215]],[[716959,763807],[-14527,-8174]],[[702432,755633],[-8315,359]],[[672260,769219],[40274,36811],[8833,6683],[15278,6435]],[[736645,819148],[5611,10576]],[[873549,986440],[10903,1105],[48907,-5026],[66640,-19856],[-3740,-5108],[-2054,1822],[-3189,-8920],[-10436,-5937],[-10119,-11432],[-4224,-13477],[-2305,-14470],[-2655,-31233],[-6261,-7290],[-6245,-14774],[-10219,-4060],[-19236,15272],[-7280,607],[-23961,-17425],[-13775,-4336],[-25464,3867]],[[610095,803407],[-17349,44985]],[[592746,848392],[401,7042],[4007,11847],[-67,4722]],[[597087,872003],[5377,-1353]],[[602464,870650],[11738,3396],[4893,4143],[1553,9389],[6896,5219],[32059,1629]],[[659603,894426],[16330,13697],[6262,2707],[7230,-4004],[1302,-4391],[4041,-4502]],[[694768,897933],[9618,-248]],[[704386,897685],[3272,3700]],[[749002,866038],[-3457,-24605],[-5093,-16818],[-3807,-5467]],[[84022,356539],[22024,11792],[4475,12537],[3340,19828],[6779,4252],[12005,-1491],[10119,7898]],[[189601,382663],[4124,-8975]],[[177077,346901],[7230,-16762]],[[380587,259582],[-11555,10245],[-3640,6518]],[[369567,310449],[26282,7042],[12890,6020]],[[408739,323511],[19954,14222]],[[428025,326107],[-4692,-18557],[-768,-8174]],[[434119,844443],[13075,11792],[6595,19965],[17416,19635],[24161,-2624],[3273,2928],[217,16210],[11755,7152],[-3707,13669],[6345,1602],[1820,5054]],[[515069,939826],[7481,-2154],[12957,1518],[15712,-22313],[14928,-9554],[3874,-5247],[1185,-11488],[2638,-4778],[16397,-12371]],[[590241,873439],[6846,-1436]],[[592746,848392],[11939,-32807]],[[493796,759002],[-6729,3783],[-9000,8754],[-2387,4004]],[[456811,811167],[-11471,9610],[-11221,23666]],[[515069,939826],[-5477,46780],[7664,9554],[21691,-2651],[7096,4805],[9083,829],[18368,-497],[3005,-7014],[11388,-2182],[5660,-7152],[20455,4943],[10169,-5468],[3106,-12537],[5994,-1491],[2772,-6490],[5493,-4888],[11254,-414],[9635,7318],[1302,12869],[4575,7041],[7013,-828],[5210,7898],[12206,-2955],[15929,5716],[15045,-773]],[[711632,941814],[-13858,-6434],[-1620,-2900]],[[716074,912652],[-11688,-14967]],[[694768,897933],[-8616,12068],[-5160,746],[-17265,-11516],[-4124,-4805]],[[602464,870650],[-12223,2789]],[[203977,557632],[2355,-8119]],[[217686,524549],[5143,-4004],[4742,-1436]],[[321712,505302],[-11205,-28002]],[[215966,478846],[-15295,580],[-29388,5661],[-11855,7705],[-4909,30515],[-6028,8947],[-9734,5192],[3673,9748],[6028,7483],[11788,1851],[11889,-3977],[10453,-138],[5009,3728],[735,11764],[-3507,8119]],[[702415,381310],[-7163,2623]],[[700228,392328],[-3440,6600]],[[696788,398928],[-43697,11792]],[[653091,410720],[-24145,16127],[-14477,4805]],[[614469,431652],[19236,8809]],[[606972,555119],[7097,-883]],[[614069,554236],[9050,4943],[8499,1021],[6929,-1021]],[[638547,559179],[7230,-8147],[12306,746],[9301,3231],[4291,-1381],[4241,-4639],[20655,-11626],[1536,-5026],[234,-12731],[-14777,-13062],[-1753,-6710],[2621,-5717],[16447,-10217],[14193,-4778],[4575,-4970],[1319,-3756],[-3272,-11460],[1553,-6987],[9283,-20463],[-1085,-9499],[-8800,-9555],[5127,-17342]],[[721234,671793],[-16564,-2264],[-6529,-2624],[-10436,-8505],[-2471,-7346],[-167,-8505],[651,-7318],[6094,-23501],[-1235,-3893],[-2672,-5385],[-7731,-1989],[-16514,3259],[-9367,-7594],[-6211,-8616],[-5444,-17508],[-1252,-6987],[685,-7014],[-3524,3176]],[[614069,554236],[-21573,2043]],[[592496,556279],[-7013,-1215]],[[569403,578399],[-19219,3866]],[[556663,682563],[7680,773]],[[702432,755633],[8900,5385]],[[234968,114354],[-9167,-11985],[2037,-5523],[-4809,-12288],[-4224,-166],[-11705,10383],[-5627,-2292],[-14611,-12040],[-7180,-359],[-8065,2485],[-2688,10466],[-2621,3231],[-12641,-1242],[-9818,-11157],[-7013,414],[-12840,9472],[-2705,4557],[-9417,4971],[-2221,9333],[6128,7816],[-4776,12813],[10453,8174],[-4008,3065]],[[117450,144482],[9184,6849],[13525,6462],[13241,3065]],[[153400,160858],[35382,-4391]],[[64987,238153],[-1653,27],[634,1298],[1019,-1325]],[[152348,199657],[-2404,-18447],[-2054,-5274]],[[117450,144482],[-6628,5054],[-8516,-6766],[-6813,5275],[-22892,-14333],[-37787,8534],[-3055,2982],[6478,10991],[-4107,4915],[7464,3866],[-2989,5744],[-25397,-14194],[-13208,14360],[2371,10577],[11855,4363],[2922,11791],[7447,7346],[-2421,5772],[6696,8174],[-651,7014],[3607,15879],[8181,55],[13893,11792],[2888,6241]],[[131727,202833],[-384,-7263],[3590,-9858]]],"bbox":[41.7895,54.4588,47.7784,58.08],"transform":{"scale":[0.0000059889059889059895,0.0000036212036212036234],"translate":[41.7895,54.4588]}}