{"type":"Topology","objects":{"muni":{"type":"GeometryCollection","geometries":[{"type":"MultiPolygon","arcs":[[[0,1,2,3,4,5,6,7,8,9]]],"properties":{"GID_2":"RUS.48.1_1","GID_0":"RUS","COUNTRY":"Russia","GID_1":"RUS.48_1","NAME_1":"NorthOssetia","NL_NAME_1":"РеспубликаСевернаяОсетия-Алани","NAME_2":"Alagirskiyrayon","VARNAME_2":"NA","NL_NAME_2":"Алагирскийрайон","TYPE_2":"Raion","ENGTYPE_2":"District","CC_2":"R41000","HASC_2":"RU.NO.AL"}},{"type":"MultiPolygon","arcs":[[[-9,10,11,12,13,14]]],"properties":{"GID_2":"RUS.48.2_1","GID_0":"RUS","COUNTRY":"Russia","GID_1":"RUS.48_1","NAME_1":"NorthOssetia","NL_NAME_1":"РеспубликаСевернаяОсетия-Алани","NAME_2":"Ardonskiyrayon","VARNAME_2":"NA","NL_NAME_2":"Ардонскийрайон","TYPE_2":"Raion","ENGTYPE_2":"District","CC_2":"R41000","HASC_2":"RU.NO.AR"}},{"type":"MultiPolygon","arcs":[[[15,16,17,-12,18,-7,19,-5,20]]],"properties":{"GID_2":"RUS.48.3_1","GID_0":"RUS","COUNTRY":"Russia","GID_1":"RUS.48_1","NAME_1":"NorthOssetia","NL_NAME_1":"РеспубликаСевернаяОсетия-Алани","NAME_2":"Digorskiyrayon","VARNAME_2":"NA","NL_NAME_2":"Дигорскийрайон","TYPE_2":"Raion","ENGTYPE_2":"District","CC_2":"R41000","HASC_2":"RU.NO.DI"}},{"type":"MultiPolygon","arcs":[[[21,-21,-4,22,-2]]],"properties":{"GID_2":"RUS.48.4_1","GID_0":"RUS","COUNTRY":"Russia","GID_1":"RUS.48_1","NAME_1":"NorthOssetia","NL_NAME_1":"РеспубликаСевернаяОсетия-Алани","NAME_2":"Irafskiyrayon","VARNAME_2":"NA","NL_NAME_2":"Ирафскийрайон","TYPE_2":"Raion","ENGTYPE_2":"District","CC_2":"R41000","HASC_2":"RU.NO.IR"}},{"type":"MultiPolygon","arcs":[[[23,24,-14,25,-17,26,27]]],"properties":{"GID_2":"RUS.48.5_1","GID_0":"RUS","COUNTRY":"Russia","GID_1":"RUS.48_1","NAME_1":"NorthOssetia","NL_NAME_1":"РеспубликаСевернаяОсетия-Алани","NAME_2":"Kirovskiyrayon","VARNAME_2":"NA","NL_NAME_2":"Кировскийрайон","TYPE_2":"Raion","ENGTYPE_2":"District","CC_2":"R41000","HASC_2":"RU.NO.KI"}},{"type":"MultiPolygon","arcs":[[[-28,28]]],"properties":{"GID_2":"RUS.48.6_1","GID_0":"RUS","COUNTRY":"Russia","GID_1":"RUS.48_1","NAME_1":"NorthOssetia","NL_NAME_1":"РеспубликаСевернаяОсетия-Алани","NAME_2":"Mozdokskiyrayon","VARNAME_2":"NA","NL_NAME_2":"Моздокскийрайон","TYPE_2":"Raion","ENGTYPE_2":"District","CC_2":"R41000","HASC_2":"RU.NO.MO"}},{"type":"MultiPolygon","arcs":[[[29,30,31,-15,-25]]],"properties":{"GID_2":"RUS.48.7_1","GID_0":"RUS","COUNTRY":"Russia","GID_1":"RUS.48_1","NAME_1":"NorthOssetia","NL_NAME_1":"РеспубликаСевернаяОсетия-Алани","NAME_2":"Pravoberezhnyyrayon","VARNAME_2":"NA","NL_NAME_2":"Правобережныйрайон","TYPE_2":"Raion","ENGTYPE_2":"District","CC_2":"R41000","HASC_2":"RU.NO.PB"}},{"type":"MultiPolygon","arcs":[[[32,-10,-32,33,34,35]]],"properties":{"GID_2":"RUS.48.8_1","GID_0":"RUS","COUNTRY":"Russia","GID_1":"RUS.48_1","NAME_1":"NorthOssetia","NL_NAME_1":"РеспубликаСевернаяОсетия-Алани","NAME_2":"Prigorodskiyrayon","VARNAME_2":"NA","NL_NAME_2":"Пригородныйрайон","TYPE_2":"Raion","ENGTYPE_2":"District","CC_2":"R41000","HASC_2":"RU.NO.PG"}},{"type":"MultiPolygon","arcs":[[[36,-36]]],"properties":{"GID_2":"RUS.48.9_1","GID_0":"RUS","COUNTRY":"Russia","GID_1":"RUS.48_1","NAME_1":"NorthOssetia","NL_NAME_1":"РеспубликаСевернаяОсетия-Алани","NAME_2":"Vladikavkaz","VARNAME_2":"NA","NL_NAME_2":"Владикавказ","TYPE_2":"Gorsovet","ENGTYPE_2":"District","CC_2":"NA","HASC_2":"RU.NO.VL"}}]}},"arcs":[[[590386,130670],[-53056,-22222],[-22564,-45776],[-7863,-5743],[-38417,-12818],[-22756,2997],[-34007,-10237],[-16236,1914],[-50435,-38785],[-51074,14315],[-11570,9072],[-14510,-7490],[-14127,13150],[-27359,-4661],[-24801,33209],[1086,12318],[21606,18144],[23523,45110],[-1278,16562]],[[246548,149729],[17898,11320],[71529,21057],[26464,43528],[-7926,22223],[7926,6908]],[[362439,254765],[5050,16562],[-64,16147]],[[367425,287474],[-7096,8239]],[[360329,295713],[60918,-37286]],[[421247,258427],[15278,7657],[9588,12318]],[[446113,278402],[13360,53183],[14446,3746],[14638,-19643],[11634,8739],[-3835,44112],[19688,19476]],[[516044,388015],[959,16978]],[[517003,404993],[31641,-12567],[-8182,-40450],[24035,-10653],[18282,24969],[23331,915],[18602,-17228],[39951,-583],[29596,1082],[44362,13983]],[[738621,364461],[575,-18061],[-16108,-16230],[-2876,-38868],[-18794,-12817],[-30171,2497],[-17259,-6076],[-31961,-48023],[-17259,-16063],[64,-13816],[13168,-13067],[-5178,-13650],[-32536,-23471],[10100,-16146]],[[517003,404993],[-3324,10903]],[[513679,415896],[3899,14482],[57786,70246],[11250,29380]],[[586614,530004],[4283,-12901]],[[590897,517103],[24546,-15314],[40271,1415]],[[655714,503204],[54206,-42863],[39376,-83],[5306,-12318],[-28957,-56929],[12976,-26550]],[[465673,515688],[14063,19226],[4922,17728]],[[484658,552642],[20967,2830],[47813,24053],[14127,-4161]],[[567565,575364],[19049,-45360]],[[513679,415896],[2365,-27881]],[[446113,278402],[-24866,-19975]],[[360329,295713],[-15597,2581],[-25249,-8074],[-15149,7574],[-5562,13317],[7224,14898],[30746,27465],[-16747,10654],[1214,8406],[52672,25635],[58617,14814],[22948,31378],[-4667,17395],[39632,40532],[-24738,13400]],[[246548,149729],[-6904,9821],[-43722,19226],[-21414,19310],[-28190,2913],[-18090,18393],[-7607,17062],[-17195,14066],[-103426,32875],[44682,32793],[19368,-999],[31450,-29047],[37075,8323],[21222,16230],[10739,25884],[114101,139492],[19368,33541],[4986,31960],[17835,39368],[9652,7241],[22373,-41615],[12464,-9904],[42637,20225],[23906,-28215],[-32344,-4744],[12976,-20391],[33367,-5993],[19816,18144]],[[367425,287474],[-4986,-32709]],[[746547,699125],[7671,-18809],[25377,-17895]],[[779595,662421],[-55932,-79817],[-5433,-40532],[-40335,-18477],[-22181,-20391]],[[590897,517103],[-23332,58261]],[[484658,552642],[-19113,70578],[24674,27716],[22245,7074],[17835,-22638],[24162,-13983],[40143,34873],[23971,7657],[27679,2164],[31002,-25884],[19049,16147],[10994,18893],[-10291,23137]],[[697008,698376],[21733,-14482],[27806,15231]],[[697008,698376],[-8182,19726],[17195,28547],[9077,38036],[-7991,34207],[5881,26550],[-5561,18810],[-30874,28714],[-24099,5077],[-14127,13400],[-7095,16480],[13871,25468],[-575,22055],[12592,-13732],[16556,-4328],[155075,42613],[87126,-12984],[25505,-14648],[13680,-33209],[32216,-36121],[-6711,-6159],[-4603,-69163],[-9332,-14149],[-12146,-2248],[-10483,8573],[-10355,24386],[-30299,1748],[-8055,-13983],[6520,-22638],[-5497,-36787],[-17578,-8406],[-35605,5742],[-7351,15148],[2429,19559],[-10931,10986],[-41613,2497],[-30171,-11902],[2748,-59425],[-4986,-25718],[-6712,-21973]],[[779595,662421],[16492,-6824],[-3132,-22056],[3707,-95964],[-11633,-18476],[21158,-7574],[16811,7907],[29980,-3080],[15725,-37536]],[[868703,478818],[-2941,-29796],[-7287,-42531]],[[858475,406491],[-7095,-4327],[-28254,31127],[-15405,-1415],[-35285,-26550],[-33815,-40865]],[[707811,160466],[-31514,-6325],[-44170,-26301],[-41741,2830]],[[858475,406491],[10228,72327]],[[868703,478818],[10739,-11403],[28381,-12068],[59640,-50687],[10739,-41864],[-2877,-31627],[14127,-16895],[10547,-42114],[-38545,-40367],[-3899,-16229],[-21734,-18311],[-54909,-4910],[-39888,24552],[-4538,12235],[8821,13067],[-15277,5660],[-16556,-18561],[-9013,-36121],[1662,-35456],[-13040,1582]],[[793083,159301],[-25953,31211],[8182,72492],[-6200,3329],[42125,67166],[27358,12818],[-27230,61340],[-41869,-22306],[-30427,-71410],[-31258,-153475]],[[793083,159301],[-34582,-4994],[-50690,6159]]],"bbox":[43.416,42.5584,44.9804,43.7599],"transform":{"scale":[0.0000015644015644015707,0.0000012015012015012043],"translate":[43.416,42.5584]}}