{"type":"Topology","objects":{"muni":{"type":"GeometryCollection","geometries":[{"type":"MultiPolygon","arcs":[[[0,1,2,3,4]]],"properties":{"GID_2":"RUS.49.1_1","GID_0":"RUS","COUNTRY":"Russia","GID_1":"RUS.49_1","NAME_1":"Novgorod","NL_NAME_1":"Новгородскаяобласть","NAME_2":"Batetskiyrayon","VARNAME_2":"NA","NL_NAME_2":"Батецкийрайон","TYPE_2":"Raion","ENGTYPE_2":"District","CC_2":"R07000","HASC_2":"RU.NG.BA"}},{"type":"MultiPolygon","arcs":[[[5]]],"properties":{"GID_2":"RUS.49.2_1","GID_0":"RUS","COUNTRY":"Russia","GID_1":"RUS.49_1","NAME_1":"Novgorod","NL_NAME_1":"Новгородскаяобласть","NAME_2":"Borovichi","VARNAME_2":"NA","NL_NAME_2":"Боровичи","TYPE_2":"Gorod","ENGTYPE_2":"City","CC_2":"NA","HASC_2":"RU.NG.BG"}},{"type":"MultiPolygon","arcs":[[[6,7,8,9,10,11,12,13,14,15],[-6]]],"properties":{"GID_2":"RUS.49.3_1","GID_0":"RUS","COUNTRY":"Russia","GID_1":"RUS.49_1","NAME_1":"Novgorod","NL_NAME_1":"Новгородскаяобласть","NAME_2":"Borovichskiyrayon","VARNAME_2":"NA","NL_NAME_2":"Боровичскийрайон","TYPE_2":"Raion","ENGTYPE_2":"District","CC_2":"R07000","HASC_2":"RU.NG.BR"}},{"type":"MultiPolygon","arcs":[[[16,17,18,19,20,21,22]]],"properties":{"GID_2":"RUS.49.4_1","GID_0":"RUS","COUNTRY":"Russia","GID_1":"RUS.49_1","NAME_1":"Novgorod","NL_NAME_1":"Новгородскаяобласть","NAME_2":"Chudovskiyrayon","VARNAME_2":"NA","NL_NAME_2":"Чудовскийрайон","TYPE_2":"Raion","ENGTYPE_2":"District","CC_2":"R07002","HASC_2":"RU.NG.CH"}},{"type":"MultiPolygon","arcs":[[[23,24,25,26,27,28,29,30,31,32,33,34]]],"properties":{"GID_2":"RUS.49.5_1","GID_0":"RUS","COUNTRY":"Russia","GID_1":"RUS.49_1","NAME_1":"Novgorod","NL_NAME_1":"Новгородскаяобласть","NAME_2":"Demyanskiyrayon","VARNAME_2":"NA","NL_NAME_2":"Демянскийрайон","TYPE_2":"Raion","ENGTYPE_2":"District","CC_2":"R07000","HASC_2":"RU.NG.DE"}},{"type":"MultiPolygon","arcs":[[[35,36,37]]],"properties":{"GID_2":"RUS.49.6_1","GID_0":"RUS","COUNTRY":"Russia","GID_1":"RUS.49_1","NAME_1":"Novgorod","NL_NAME_1":"Новгородскаяобласть","NAME_2":"Kholmskiyrayon","VARNAME_2":"NA","NL_NAME_2":"Холмскийрайон","TYPE_2":"Raion","ENGTYPE_2":"District","CC_2":"R07001","HASC_2":"RU.NG.KH"}},{"type":"MultiPolygon","arcs":[[[38,39,40,41,-7,42]]],"properties":{"GID_2":"RUS.49.7_1","GID_0":"RUS","COUNTRY":"Russia","GID_1":"RUS.49_1","NAME_1":"Novgorod","NL_NAME_1":"Новгородскаяобласть","NAME_2":"Khvoyninskiyrayon","VARNAME_2":"NA","NL_NAME_2":"Хвойнинскийрайон","TYPE_2":"Raion","ENGTYPE_2":"District","CC_2":"R07001","HASC_2":"RU.NG.KV"}},{"type":"MultiPolygon","arcs":[[[-24,43,44,45,46,47,48,49,50,51,52,53]]],"properties":{"GID_2":"RUS.49.8_1","GID_0":"RUS","COUNTRY":"Russia","GID_1":"RUS.49_1","NAME_1":"Novgorod","NL_NAME_1":"Новгородскаяобласть","NAME_2":"Krestetskiyrayon","VARNAME_2":"NA","NL_NAME_2":"Крестецкийрайон","TYPE_2":"Raion","ENGTYPE_2":"District","CC_2":"R07000","HASC_2":"RU.NG.KR"}},{"type":"MultiPolygon","arcs":[[[-43,-16,54,55,56,57,58]]],"properties":{"GID_2":"RUS.49.9_1","GID_0":"RUS","COUNTRY":"Russia","GID_1":"RUS.49_1","NAME_1":"Novgorod","NL_NAME_1":"Новгородскаяобласть","NAME_2":"Lyubytinskiyrayon","VARNAME_2":"NA","NL_NAME_2":"Любытинскийрайон","TYPE_2":"Raion","ENGTYPE_2":"District","CC_2":"R07000","HASC_2":"RU.NG.LY"}},{"type":"MultiPolygon","arcs":[[[59,-58,60,61,-48,62,-19,63,-17]]],"properties":{"GID_2":"RUS.49.10_1","GID_0":"RUS","COUNTRY":"Russia","GID_1":"RUS.49_1","NAME_1":"Novgorod","NL_NAME_1":"Новгородскаяобласть","NAME_2":"Malovisherskiyrayon","VARNAME_2":"NA","NL_NAME_2":"Маловишерскийрайон","TYPE_2":"Raion","ENGTYPE_2":"District","CC_2":"R07000","HASC_2":"RU.NG.MV"}},{"type":"MultiPolygon","arcs":[[[-33,64,-36,65,66,67]]],"properties":{"GID_2":"RUS.49.11_1","GID_0":"RUS","COUNTRY":"Russia","GID_1":"RUS.49_1","NAME_1":"Novgorod","NL_NAME_1":"Новгородскаяобласть","NAME_2":"Marevskiyrayon","VARNAME_2":"NA","NL_NAME_2":"Маревскийрайон","TYPE_2":"Raion","ENGTYPE_2":"District","CC_2":"R07000","HASC_2":"RU.NG.MA"}},{"type":"MultiPolygon","arcs":[[[-13,68,-11,69,-9,70,-41,71,72]]],"properties":{"GID_2":"RUS.49.12_1","GID_0":"RUS","COUNTRY":"Russia","GID_1":"RUS.49_1","NAME_1":"Novgorod","NL_NAME_1":"Новгородскаяобласть","NAME_2":"Moshenskiyrayon","VARNAME_2":"NA","NL_NAME_2":"Мошенскийрайон","TYPE_2":"Raion","ENGTYPE_2":"District","CC_2":"R07001","HASC_2":"RU.NG.MO"}},{"type":"MultiPolygon","arcs":[[[73,-22,74,-20,-63,-47,75,76,77,-1],[78]]],"properties":{"GID_2":"RUS.49.13_1","GID_0":"RUS","COUNTRY":"Russia","GID_1":"RUS.49_1","NAME_1":"Novgorod","NL_NAME_1":"Новгородскаяобласть","NAME_2":"Novgorodskiyrayon","VARNAME_2":"NA","NL_NAME_2":"Новгородскийрайон","TYPE_2":"Raion","ENGTYPE_2":"District","CC_2":"R07001","HASC_2":"RU.NG.NO"}},{"type":"MultiPolygon","arcs":[[[-15,79,80,-51,81,-49,-62,82,-56,83]]],"properties":{"GID_2":"RUS.49.14_1","GID_0":"RUS","COUNTRY":"Russia","GID_1":"RUS.49_1","NAME_1":"Novgorod","NL_NAME_1":"Новгородскаяобласть","NAME_2":"Okulovskiyrayon","VARNAME_2":"NA","NL_NAME_2":"Окуловскийрайон","TYPE_2":"Raion","ENGTYPE_2":"District","CC_2":"R07001","HASC_2":"RU.NG.OK"}},{"type":"MultiPolygon","arcs":[[[-35,84,85,86,87,88,-44]]],"properties":{"GID_2":"RUS.49.15_1","GID_0":"RUS","COUNTRY":"Russia","GID_1":"RUS.49_1","NAME_1":"Novgorod","NL_NAME_1":"Новгородскаяобласть","NAME_2":"Parfinskiyrayon","VARNAME_2":"NA","NL_NAME_2":"Парфинскийрайон","TYPE_2":"Raion","ENGTYPE_2":"District","CC_2":"R07001","HASC_2":"RU.NG.PA"}},{"type":"MultiPolygon","arcs":[[[-40,89,-72]]],"properties":{"GID_2":"RUS.49.16_1","GID_0":"RUS","COUNTRY":"Russia","GID_1":"RUS.49_1","NAME_1":"Novgorod","NL_NAME_1":"Новгородскаяобласть","NAME_2":"Pestovskiyrayon","VARNAME_2":"NA","NL_NAME_2":"Пестовскийрайон","TYPE_2":"Raion","ENGTYPE_2":"District","CC_2":"R07001","HASC_2":"RU.NG.PE"}},{"type":"MultiPolygon","arcs":[[[-38,90,91,92,93,94,95,-66]]],"properties":{"GID_2":"RUS.49.17_1","GID_0":"RUS","COUNTRY":"Russia","GID_1":"RUS.49_1","NAME_1":"Novgorod","NL_NAME_1":"Новгородскаяобласть","NAME_2":"Poddorskiyrayon","VARNAME_2":"NA","NL_NAME_2":"Поддорскийрайон","TYPE_2":"Raion","ENGTYPE_2":"District","CC_2":"R07001","HASC_2":"RU.NG.PO"}},{"type":"MultiPolygon","arcs":[[[-4,96,-2,-78,97,98,99,100,101,102,103,104]]],"properties":{"GID_2":"RUS.49.18_1","GID_0":"RUS","COUNTRY":"Russia","GID_1":"RUS.49_1","NAME_1":"Novgorod","NL_NAME_1":"Новгородскаяобласть","NAME_2":"Shimskiyrayon","VARNAME_2":"NA","NL_NAME_2":"Шимскийрайон","TYPE_2":"Raion","ENGTYPE_2":"District","CC_2":"R07002","HASC_2":"RU.NG.SH"}},{"type":"MultiPolygon","arcs":[[[-104,105,106,107]]],"properties":{"GID_2":"RUS.49.19_1","GID_0":"RUS","COUNTRY":"Russia","GID_1":"RUS.49_1","NAME_1":"Novgorod","NL_NAME_1":"Новгородскаяобласть","NAME_2":"Soletskiyrayon","VARNAME_2":"NA","NL_NAME_2":"Солецкийрайон","TYPE_2":"Raion","ENGTYPE_2":"District","CC_2":"R07001","HASC_2":"RU.NG.SO"}},{"type":"MultiPolygon","arcs":[[[108]]],"properties":{"GID_2":"RUS.49.20_1","GID_0":"RUS","COUNTRY":"Russia","GID_1":"RUS.49_1","NAME_1":"Novgorod","NL_NAME_1":"Новгородскаяобласть","NAME_2":"StarayaRussa","VARNAME_2":"NA","NL_NAME_2":"СтараяРусса","TYPE_2":"Gorod","ENGTYPE_2":"City","CC_2":"NA","HASC_2":"RU.NG.SG"}},{"type":"MultiPolygon","arcs":[[[-34,-68,109,-95,110,-93,111,112,113,-101,114,115,116,-85],[-109]]],"properties":{"GID_2":"RUS.49.21_1","GID_0":"RUS","COUNTRY":"Russia","GID_1":"RUS.49_1","NAME_1":"Novgorod","NL_NAME_1":"Новгородскаяобласть","NAME_2":"Starorusskiyrayon","VARNAME_2":"NA","NL_NAME_2":"Старорусскийрайон","TYPE_2":"Raion","ENGTYPE_2":"District","CC_2":"R07001","HASC_2":"RU.NG.SR"}},{"type":"MultiPolygon","arcs":[[[-31,117,-29,118,-27,119,-25,-54,120,-52,-81,121]]],"properties":{"GID_2":"RUS.49.22_1","GID_0":"RUS","COUNTRY":"Russia","GID_1":"RUS.49_1","NAME_1":"Novgorod","NL_NAME_1":"Новгородскаяобласть","NAME_2":"Valdayskiyrayon","VARNAME_2":"NA","NL_NAME_2":"Валдайскийрайон","TYPE_2":"Raion","ENGTYPE_2":"District","CC_2":"R07000","HASC_2":"RU.NG.VA"}},{"type":"MultiPolygon","arcs":[[[-79]]],"properties":{"GID_2":"RUS.49.23_1","GID_0":"RUS","COUNTRY":"Russia","GID_1":"RUS.49_1","NAME_1":"Novgorod","NL_NAME_1":"Новгородскаяобласть","NAME_2":"VelikiyNovgorod","VARNAME_2":"NA","NL_NAME_2":"ВеликийНовгород","TYPE_2":"Gorsovet","ENGTYPE_2":"District","CC_2":"NA","HASC_2":"RU.NG.BE"}},{"type":"MultiPolygon","arcs":[[[-92,122,-107,123,-102,-114,124,-112]]],"properties":{"GID_2":"RUS.49.24_1","GID_0":"RUS","COUNTRY":"Russia","GID_1":"RUS.49_1","NAME_1":"Novgorod","NL_NAME_1":"Новгородскаяобласть","NAME_2":"Volotovskiyrayon","VARNAME_2":"NA","NL_NAME_2":"Волотовскийрайон","TYPE_2":"Raion","ENGTYPE_2":"District","CC_2":"R07000","HASC_2":"RU.NG.VO"}},{"type":"MultiPolygon","arcs":[[[-46,125,126,-87,127,-116,128,-99,129,-76]]],"properties":{"GID_2":"RUS.49.25_1","GID_0":"RUS","COUNTRY":"Russia","GID_1":"RUS.49_1","NAME_1":"Novgorod","NL_NAME_1":"Новгородскаяобласть","NAME_2":"Waterbody","VARNAME_2":"NA","NL_NAME_2":"NA","TYPE_2":"Waterbody","ENGTYPE_2":"Waterbody","CC_2":"NA","HASC_2":"NA"}}]}},"arcs":[[[166838,779036],[10863,-33247],[10216,-12087],[13509,-10937],[7144,-12998],[3336,-11571],[-426,-11492],[-4983,-6538],[-11804,-7133],[-3733,-10818],[6203,-26868],[0,-10026],[-2852,-4755],[-4821,1229],[-4160,8757],[-7232,8441],[-5895,-1348],[-7555,-13314],[-5145,-5073]],[[159503,619258],[-4469,7490]],[[155034,626748],[-11803,-4518],[-31839,-29601]],[[111392,592629],[-18815,-9154],[-19565,3804]],[[73012,587279],[-19124,21637],[9275,2694],[8555,15019],[2073,14385],[-1735,18308],[-6952,13235],[-353,14940],[8599,19576],[-5321,7569],[-368,5825],[4542,11531],[4425,4201],[12788,-7965],[15758,-16881],[6879,832],[12701,18030],[5394,2140],[10128,-238],[7291,-8084],[8246,4795],[4616,11136],[-44,18228],[1734,12087],[4719,8757]],[[657988,598494],[-15816,-8441],[-11774,13790],[8658,11413],[9422,-4399],[9510,-12363]],[[643627,719714],[10848,-12285]],[[654475,707429],[41497,-17753]],[[695972,689676],[7202,-6063],[3734,-6934],[-1485,-6460],[-10319,-19695],[5807,-10382],[1631,-8084],[-632,-12007],[19580,-15891],[735,-5785],[-1544,-7094],[-3410,-4319],[-3278,-11452],[2778,-5271],[6336,991]],[[723107,571230],[11112,7965],[1720,119]],[[735939,579314],[2382,-5627]],[[738321,573687],[-1470,-40143]],[[736851,533544],[2116,-8282],[12804,-18387]],[[751771,506875],[-3043,-12285],[6438,-15415],[-9422,-14186],[-24034,15335],[-6703,10660],[-10774,-4597],[-6409,13791],[-12406,-198],[-7791,8004],[-5983,10224],[-17404,-3883],[-1426,9986],[-3660,-436],[-20094,-36576],[-4527,-476],[-6571,4558]],[[617962,491381],[3234,6300],[-10878,21280],[-17492,19378],[-4469,8005],[-4424,18783],[-9555,15574],[-103,8797],[16331,8520],[1132,7886],[-4806,12522],[-2470,11809],[-18359,25837]],[[566103,656072],[15890,17833],[15375,2774],[7600,22112],[5468,871],[19609,-7093],[7379,2338],[5233,7846],[970,16961]],[[430956,870140],[-10363,-2814],[-26826,1506],[-22784,-23103],[-14729,4518],[-6747,-4240],[-10877,3130],[-5909,-4597]],[[332721,844540],[-9878,-18506]],[[322843,826034],[-794,-10620],[6071,-11928],[1911,-17356]],[[330031,786130],[-2088,-14425],[-3439,-11928],[-7512,-6419]],[[316992,753358],[-36278,26352]],[[280714,779710],[-23563,9709],[-7217,9946],[308,5191],[-4351,12602],[-7702,-436],[-5116,8877],[3028,11135]],[[236101,836734],[19257,10620],[5997,11373],[2470,15891],[9304,12086],[2999,13632],[-2808,7727],[7747,5191],[3160,6063],[-4086,7807],[-3954,46998],[5468,1585],[15184,-4557],[7027,-7688],[4057,-12561],[3101,-4161],[7585,-1189],[7688,2893],[5145,35228],[1896,5786],[7717,2893],[48567,-46840],[3146,-17951],[-45,-15653],[3396,-11135],[7526,-9432],[10833,-2536],[16478,-18664]],[[375760,454765],[6439,-1506],[12715,6776],[7878,-5746],[13509,-19932],[8438,-119]],[[424739,434238],[17786,-7886],[6174,-7727],[2969,-8560],[1514,-10977],[-5277,-43630],[1440,-25956]],[[449345,329502],[9026,-14384]],[[458371,315118],[7452,-872]],[[465823,314246],[27665,16049],[11201,-1704],[4659,-5825]],[[509348,322766],[8085,-26075]],[[517433,296691],[3792,-7569],[5204,-6657]],[[526429,282465],[19771,-8996]],[[546200,273469],[441,-8837],[-3175,-5904],[-4807,-2259],[-4278,2853],[-4013,-15217],[-396,-15098],[11436,-11650],[-4307,-20409],[-8129,8164],[1147,2179],[-1941,6143],[-6306,10382],[-10804,-5310],[-1999,-7807],[-5659,-5231],[-11084,14781],[-4586,-4319],[-2175,-7450],[-9893,8797],[-7159,-4438],[-8055,-9154],[-2675,-6221]],[[457783,197464],[-18154,9946],[-10128,11571],[-12230,7014],[-3924,9590],[-24828,21558],[-5615,-1784],[-6967,-7767],[-5909,-13631],[-10834,-8243]],[[359194,225718],[-4042,15415],[-4484,28334],[-5600,49217]],[[345068,318684],[7879,7014],[4057,-1149],[3190,4082],[5336,14503],[4189,4240],[11598,-515],[4850,4121],[-14,8481],[-14729,39905],[-808,8321],[8128,15970],[1073,5707],[-4057,25401]],[[314141,101209],[8305,-37607]],[[322446,63602],[-7115,6182],[-7497,-20804],[-3939,-3369],[6277,-10897],[-9922,-3923],[-8173,-28136],[-29370,1506],[-5174,9709],[-16390,911],[-3013,-7529],[-6277,-7252],[-23710,20210],[-17536,8361],[-18139,-14622],[-8393,5350],[-6409,9154],[-4454,11729],[-1323,10145],[2396,11967],[4718,12245],[1970,10779],[1293,18546],[12216,15534],[-1617,9550],[-3528,6855]],[[169337,135803],[12244,-2457],[12157,8917],[11068,-1348],[2911,21042],[34367,-22746],[13626,-5072],[58431,-32930]],[[658503,879571],[7217,17515],[6806,4835],[17404,476],[16552,-12800],[18624,-7212],[6453,-8916],[14773,-4360],[8040,5905],[8100,-7926],[16331,-5468],[5365,-7054],[-5777,-1347],[-2705,-7926],[6204,-7885],[9069,-7213],[21785,-2140],[5923,-5864],[-2322,-17199],[-3322,-9074],[-867,-16802],[926,-13315],[2851,673],[5924,11809],[4557,-1030],[-970,-22033],[3836,-7410],[5836,6538]],[[835116,754348],[7967,-25876],[10378,-10938],[235,-10857],[-4748,-11849],[-13523,1387],[-5542,-3210],[-4292,-7291]],[[825591,685714],[-23034,-1268],[-13421,3051],[-25738,30632],[-6718,4478],[-11245,-1110],[-22328,-13473],[-31281,0],[-3880,-5310],[-1588,-9075]],[[686358,693639],[-31883,13790]],[[643627,719714],[-1014,6301],[-12480,14147],[-485,4834],[1690,8322],[4307,8718],[1735,12166],[-5997,21755],[-427,12245],[2352,11611],[4337,10580],[16713,23341],[4145,25837]],[[375760,454765],[-11083,28215],[-2425,18823],[-3690,7093],[-32603,-10818],[-10172,-6896]],[[315787,491182],[-3866,13989]],[[311921,505171],[-7026,13988]],[[304895,519159],[29648,26234],[5748,19378],[1852,33802],[2572,11809],[5557,10461],[8775,6935],[2778,6301],[765,18665]],[[362590,652744],[17360,-20924],[12038,-4517],[37513,-1506]],[[429501,625797],[9187,-4835],[4028,-7648],[485,-4081],[6233,-7886],[7629,-515],[11024,10065],[21843,872],[4484,-7411],[-9790,-21002],[-2308,-8718]],[[482316,574638],[1514,-16208]],[[483830,558430],[9893,-19140],[19521,-11373],[10745,-15970]],[[523989,511947],[-5189,-8718],[-7849,-1664],[-14538,5706],[-4145,-4399],[-6615,-11293],[-6306,-18110],[-177,-6539],[-2469,-8004],[-14655,-2774],[-7688,-7886],[-7438,2298],[-8188,9749],[-6129,1664]],[[432603,461977],[-4895,-3567],[-3778,-5825]],[[423930,452585],[-1308,-9391],[2117,-8956]],[[566103,656072],[-17757,14742],[-17272,18109]],[[531074,688923],[-5336,9035],[-500,10700],[-8246,9352],[-10598,2100],[-7879,6301]],[[498515,726411],[4189,10501]],[[502704,736912],[-103,39350],[-3189,10819],[-15979,14860],[-2308,10343],[-19300,14741],[-7452,12205],[-5851,25203]],[[448522,864433],[11289,16089],[3852,13157],[-1441,13631],[-4557,12047],[-323,11175],[4469,12839],[24018,26392],[13744,30236],[8805,-19774],[6732,-2021],[7585,-7648],[10731,-17238],[6424,-3170],[5424,2417],[3101,4914],[3308,12007],[3145,5548],[13303,-6697],[5189,1070],[11995,10065],[6129,-3289],[13700,-33723],[7600,-10699],[3704,-10541],[1338,-11334],[3351,-6142],[12936,-2734],[14111,-16525],[10319,-4914]],[[430956,870140],[9923,-6658],[7643,951]],[[502704,736912],[-8496,-26907]],[[494208,710005],[-13097,-23935],[-9143,-9867],[-13362,-21161],[-22666,-5548],[-824,-8956],[-5615,-14741]],[[362590,652744],[-6189,18149],[-11877,23856],[515,5865],[4101,11214],[2028,28730],[-4468,10699],[-1235,10819],[970,7687],[-2690,10026],[-6130,7886],[-7584,-1545]],[[322843,826034],[5071,10779],[4807,7727]],[[457783,197464],[-10775,-26670],[720,-8321],[-5673,-2378],[-10172,3289],[-4631,-3963],[441,-9946],[-4571,-4993],[-13289,634],[-1028,-11294],[-11128,-2259],[-7291,5508],[-2881,-8321],[4263,-15257],[-3263,-8361],[-13965,4200],[-4130,-11413],[-16199,-6538],[911,-13473],[-7291,-1665],[3484,-14147],[-6115,-3685],[-6085,21399],[-10540,-3329],[-6129,-12879]],[[314141,101209],[1381,23895],[-1029,16089]],[[314493,141193],[5454,52823]],[[319947,194016],[4174,11334],[7776,8718],[22373,5785],[4924,5865]],[[736851,533544],[1866,31266],[-396,8877]],[[735939,579314],[-12832,-8084]],[[695972,689676],[-9614,3963]],[[825591,685714],[4733,-7331],[2043,-10185],[-12847,-45849],[-838,-16326],[1911,-8124],[13641,-14939]],[[834234,582960],[-1837,-3171],[6585,-10580],[-147,-8124],[-4748,-13116],[-9305,-10660],[-6203,-11888],[-15096,-4003],[-5953,-10382],[-11569,9154],[-2440,6776],[-6703,-5231],[-7041,2814],[-8070,8916],[-12083,-17595],[2147,-8995]],[[166838,779036],[10201,7212],[12098,15574],[3013,9788],[5028,34000],[5703,8837],[7864,2457],[8188,-3011],[17168,-17159]],[[280714,779710],[28605,-22548],[7673,-3804]],[[304895,519159],[-6924,18150],[-2278,23420],[808,4121],[8026,-4676],[3440,20329],[-7232,-2418],[-1323,12681],[-2279,40],[-11186,-25164],[-2984,-475],[-338,13315],[-2249,10303],[-26915,5627],[-1220,3963],[103,21200],[-999,2457],[-6056,-20963],[-9290,-20091],[-5880,-7886],[-20197,-15851],[-2852,7569],[-1764,-2179],[-5732,-25084],[-2646,-3448]],[[196928,534099],[-22373,12681]],[[174555,546780],[-8496,11928],[-1279,9391],[1896,20963],[-896,5944],[-12098,12642],[6909,5825],[-1088,5785]],[[248140,633921],[3219,17594],[-11142,25877],[-5630,6816],[-5468,-8045],[-3895,-34991],[7232,-23855],[3895,-3686],[11789,20290]],[[617962,491381],[-7967,5508],[-8070,-3448],[-4601,-6697],[-1191,-9312],[-13876,-17080]],[[582257,460352],[-8893,14187],[-49375,37408]],[[483830,558430],[-1352,7688],[-162,8520]],[[494208,710005],[4307,16406]],[[531074,688923],[35029,-32851]],[[345068,318684],[-26180,5191],[-6247,9115],[-4483,20011],[-14067,15614],[-4557,9788],[-2925,17634],[-4704,12047],[-1411,9114],[-2073,40341]],[[278421,457539],[-8731,22468],[-6939,11691]],[[262751,491698],[427,4081],[6438,4438],[74,6697],[1646,4439],[8173,2774],[4057,5904],[8011,-9471],[12656,-5587],[6159,-16565]],[[310392,488408],[4528,-5111],[1837,4279]],[[316757,487576],[-970,3606]],[[835116,754348],[8511,26907],[5248,5350],[12568,-238],[26062,-21042],[6320,2457],[1794,3487],[7158,-10818],[3205,-8599],[12744,-2378],[15302,-12165],[7703,-9709],[8790,-119],[9981,-17515],[1426,-19339],[9878,-10263],[1176,-17317],[7599,-9749],[19418,-3527],[-9922,-13116],[-3307,6340],[-10657,-2496],[-3837,2496],[-9393,-13671],[-7761,6499],[-10598,-17753],[-13186,7727],[-3586,-25203],[-15111,2060],[-27077,12800],[-11994,-634],[-30605,-27977],[-4894,2734],[-3837,-6617]],[[169337,135803],[-23578,17991],[-20065,19735],[-6409,9629],[9261,37052],[-5233,7727],[9290,14504],[13303,14147],[7805,21438],[10305,5152]],[[164016,283178],[4307,13235],[33353,37250]],[[201676,333663],[5894,-11294],[11951,-12007],[3704,6143],[2587,18902],[9158,-16485]],[[234970,318922],[31471,-40816]],[[266441,278106],[-720,-18506],[3395,-7966],[6497,-6142],[3852,-7371],[3145,-11373],[-205,-8401],[3807,-9669],[29443,-50129]],[[315655,158549],[-1162,-17356]],[[111392,592629],[25430,24688],[18212,9431]],[[174555,546780],[12377,-7569]],[[186932,539211],[-191,-9669],[-5277,-10343],[-5586,-5350],[4131,-2219],[8202,5033]],[[188211,516663],[3425,-2457]],[[191636,514206],[3528,-30949],[896,-19140]],[[196060,464117],[-12626,-4518],[-24093,-14741]],[[159341,444858],[-14464,-1229]],[[144877,443629],[-7085,8005],[-3528,7411],[2367,40142],[-10540,10779],[-23357,3725],[-86991,-5707],[-15743,8798]],[[0,516782],[8026,14424],[21402,15059],[8702,9986],[2440,10778],[647,15415],[-3102,34833],[12642,-4280],[22255,-25718]],[[144877,443629],[-18889,-5746]],[[125988,437883],[-3351,-9114],[-1676,-10580],[11510,-8798],[7629,1229],[2675,-2457],[1132,-14702],[-2249,-8163],[-3131,-4518],[-4719,-1387]],[[133808,379393],[-867,11294],[-3454,2299],[-11289,-4122],[-13039,5548],[-11098,-2853],[-14567,7371],[-12200,11531],[-9790,-3447],[-5571,3249],[-1970,6935],[1279,7925],[-926,6618],[-20520,26709],[-7188,5152],[-13538,1149],[-5233,5033],[4189,28095],[-779,5826],[-7247,13077]],[[255593,438121],[-191,-18862],[-4278,-4994],[-7173,3607],[-1867,4953],[2514,12839],[10995,2457]],[[319947,194016],[-4292,-35467]],[[266441,278106],[-3469,6419],[-28002,34397]],[[201676,333663],[-1764,8679],[-6703,16802],[132,8123],[1485,5350],[5424,8560],[2072,7648],[133,12363],[-2073,19775],[-5953,12086],[-382,5429],[4836,8203]],[[198883,446681],[11642,11373]],[[210525,458054],[-603,5429],[-13862,634]],[[191636,514206],[9084,-2100]],[[200720,512106],[7129,-11413],[11392,-8322],[11187,-3883],[6614,-8560],[8129,9907],[7453,2298],[1572,-9074],[1853,-3012],[5821,159],[8496,-10819],[2822,1585]],[[273188,470972],[5233,-13433]],[[526429,282465],[-8996,14226]],[[509348,322766],[-9157,8480],[-14729,-4716],[-19639,-12284]],[[458371,315118],[-5101,7291],[-3925,7093]],[[423930,452585],[8673,9392]],[[582257,460352],[-4410,-13473],[6453,-10541],[12760,-6420],[3983,-10739],[-4439,-12918],[3219,-7846],[-2469,-13870],[-8541,-5825],[-8173,-11294],[1456,-5350],[-5498,-15573],[1735,-7133],[4189,-2259],[2322,-5825],[-1631,-5152],[-5498,-753],[-3454,-5865],[-882,-7014],[-12715,7252],[-9702,-8995],[-9025,-833],[5880,-10699],[-3572,-6737],[-2176,-10897],[4131,-8124]],[[164016,283178],[-16905,-5786],[-7702,1031],[-11466,9193],[-4674,7688],[206,7529],[4483,10264],[5145,19219],[-13024,9907],[11760,23538],[1969,13632]],[[125988,437883],[33353,6975]],[[210525,458054],[-2147,-4003],[-9495,-7370]],[[311921,505171],[4836,-17595]],[[316757,487576],[-926,-3883],[-5439,4715]],[[262751,491698],[10437,-20726]],[[200720,512106],[-4336,-912],[-8173,5469]],[[186932,539211],[9996,-5112]]],"bbox":[29.669,56.8828,36.472,59.4063],"transform":{"scale":[0.0000068030068030068035,0.000002523502523502522],"translate":[29.669,56.8828]}}