{"type":"Topology","objects":{"muni":{"type":"GeometryCollection","geometries":[{"type":"MultiPolygon","arcs":[[[0,1,2,3]]],"properties":{"GID_2":"RUS.50.1_1","GID_0":"RUS","COUNTRY":"Russia","GID_1":"RUS.50_1","NAME_1":"Novosibirsk","NL_NAME_1":"Новосибирскаяобласть","NAME_2":"Baganskiyrayon","VARNAME_2":"NA","NL_NAME_2":"Баганскийрайон","TYPE_2":"Raion","ENGTYPE_2":"District","CC_2":"R55000","HASC_2":"RU.NS.BA"}},{"type":"MultiPolygon","arcs":[[[4]]],"properties":{"GID_2":"RUS.50.2_1","GID_0":"RUS","COUNTRY":"Russia","GID_1":"RUS.50_1","NAME_1":"Novosibirsk","NL_NAME_1":"Новосибирскаяобласть","NAME_2":"Barabinsk","VARNAME_2":"NA","NL_NAME_2":"Барабинск","TYPE_2":"Gorod","ENGTYPE_2":"City","CC_2":"NA","HASC_2":"RU.NS.BG"}},{"type":"MultiPolygon","arcs":[[[5,6,7,8,9,10,11,12,13,14],[-5]]],"properties":{"GID_2":"RUS.50.3_1","GID_0":"RUS","COUNTRY":"Russia","GID_1":"RUS.50_1","NAME_1":"Novosibirsk","NL_NAME_1":"Новосибирскаяобласть","NAME_2":"Barabinskiyrayon","VARNAME_2":"NA","NL_NAME_2":"Барабинскийрайон","TYPE_2":"Raion","ENGTYPE_2":"District","CC_2":"R55000","HASC_2":"RU.NS.BR"}},{"type":"MultiPolygon","arcs":[[[15]]],"properties":{"GID_2":"RUS.50.4_1","GID_0":"RUS","COUNTRY":"Russia","GID_1":"RUS.50_1","NAME_1":"Novosibirsk","NL_NAME_1":"Новосибирскаяобласть","NAME_2":"Berdsk","VARNAME_2":"NA","NL_NAME_2":"Бердск","TYPE_2":"Gorsovet","ENGTYPE_2":"District","CC_2":"NA","HASC_2":"RU.NS.BE"}},{"type":"MultiPolygon","arcs":[[[16,17,18,19,20]]],"properties":{"GID_2":"RUS.50.5_1","GID_0":"RUS","COUNTRY":"Russia","GID_1":"RUS.50_1","NAME_1":"Novosibirsk","NL_NAME_1":"Новосибирскаяобласть","NAME_2":"Bolotninskiyrayon","VARNAME_2":"NA","NL_NAME_2":"Болотнинскийрайон","TYPE_2":"Raion","ENGTYPE_2":"District","CC_2":"R55000","HASC_2":"RU.NS.BO"}},{"type":"MultiPolygon","arcs":[[[-10,21,-8,22,23,24,25,26,27,28,29,30,31,32,33,34]]],"properties":{"GID_2":"RUS.50.6_1","GID_0":"RUS","COUNTRY":"Russia","GID_1":"RUS.50_1","NAME_1":"Novosibirsk","NL_NAME_1":"Новосибирскаяобласть","NAME_2":"Chanovskiyrayon","VARNAME_2":"NA","NL_NAME_2":"Чановскийрайон","TYPE_2":"Raion","ENGTYPE_2":"District","CC_2":"R55002","HASC_2":"RU.NS.CN"}},{"type":"MultiPolygon","arcs":[[[35,36,37,38,39]]],"properties":{"GID_2":"RUS.50.7_1","GID_0":"RUS","COUNTRY":"Russia","GID_1":"RUS.50_1","NAME_1":"Novosibirsk","NL_NAME_1":"Новосибирскаяобласть","NAME_2":"Cherepanovskiyrayon","VARNAME_2":"NA","NL_NAME_2":"Черепановскийрайон","TYPE_2":"Raion","ENGTYPE_2":"District","CC_2":"R55002","HASC_2":"RU.NS.CR"}},{"type":"MultiPolygon","arcs":[[[40,41,-29,42,43]]],"properties":{"GID_2":"RUS.50.8_1","GID_0":"RUS","COUNTRY":"Russia","GID_1":"RUS.50_1","NAME_1":"Novosibirsk","NL_NAME_1":"Новосибирскаяобласть","NAME_2":"Chistoozernyyrayon","VARNAME_2":"NA","NL_NAME_2":"Чистоозерныйрайон","TYPE_2":"Raion","ENGTYPE_2":"District","CC_2":"R55002","HASC_2":"RU.NS.CS"}},{"type":"MultiPolygon","arcs":[[[44,45,46,47,48,49,50,51]]],"properties":{"GID_2":"RUS.50.9_1","GID_0":"RUS","COUNTRY":"Russia","GID_1":"RUS.50_1","NAME_1":"Novosibirsk","NL_NAME_1":"Новосибирскаяобласть","NAME_2":"Chulymskiyrayon","VARNAME_2":"NA","NL_NAME_2":"Чулымскийрайон","TYPE_2":"Raion","ENGTYPE_2":"District","CC_2":"R55003","HASC_2":"RU.NS.CL"}},{"type":"MultiPolygon","arcs":[[[52,53,54,55,56,57,58]]],"properties":{"GID_2":"RUS.50.10_1","GID_0":"RUS","COUNTRY":"Russia","GID_1":"RUS.50_1","NAME_1":"Novosibirsk","NL_NAME_1":"Новосибирскаяобласть","NAME_2":"Dovolenskiyrayon","VARNAME_2":"NA","NL_NAME_2":"Доволенскийрайон","TYPE_2":"Raion","ENGTYPE_2":"District","CC_2":"R55000","HASC_2":"RU.NS.DO"}},{"type":"MultiPolygon","arcs":[[[59]]],"properties":{"GID_2":"RUS.50.11_1","GID_0":"RUS","COUNTRY":"Russia","GID_1":"RUS.50_1","NAME_1":"Novosibirsk","NL_NAME_1":"Новосибирскаяобласть","NAME_2":"Iskitim","VARNAME_2":"NA","NL_NAME_2":"Искитим","TYPE_2":"Gorod","ENGTYPE_2":"City","CC_2":"NA","HASC_2":"RU.NS.IG"}},{"type":"MultiPolygon","arcs":[[[60,-38,61,62,63,64,65,66],[-16],[-60]]],"properties":{"GID_2":"RUS.50.12_1","GID_0":"RUS","COUNTRY":"Russia","GID_1":"RUS.50_1","NAME_1":"Novosibirsk","NL_NAME_1":"Новосибирскаяобласть","NAME_2":"Iskitimskiyrayon","VARNAME_2":"NA","NL_NAME_2":"Искитимскийрайон","TYPE_2":"Raion","ENGTYPE_2":"District","CC_2":"R55000","HASC_2":"RU.NS.IR"}},{"type":"MultiPolygon","arcs":[[[-4,67,68,69]]],"properties":{"GID_2":"RUS.50.13_1","GID_0":"RUS","COUNTRY":"Russia","GID_1":"RUS.50_1","NAME_1":"Novosibirsk","NL_NAME_1":"Новосибирскаяобласть","NAME_2":"Karasukskiyrayon","VARNAME_2":"NA","NL_NAME_2":"Карасукскийрайон","TYPE_2":"Raion","ENGTYPE_2":"District","CC_2":"R55000","HASC_2":"RU.NS.KS"}},{"type":"MultiPolygon","arcs":[[[70,-47,71,-53,72,73,74]]],"properties":{"GID_2":"RUS.50.14_1","GID_0":"RUS","COUNTRY":"Russia","GID_1":"RUS.50_1","NAME_1":"Novosibirsk","NL_NAME_1":"Новосибирскаяобласть","NAME_2":"Kargatskiyrayon","VARNAME_2":"NA","NL_NAME_2":"Каргатскийрайон","TYPE_2":"Raion","ENGTYPE_2":"District","CC_2":"R55000","HASC_2":"RU.NS.KA"}},{"type":"MultiPolygon","arcs":[[[-51,75,76,77,78,79]]],"properties":{"GID_2":"RUS.50.15_1","GID_0":"RUS","COUNTRY":"Russia","GID_1":"RUS.50_1","NAME_1":"Novosibirsk","NL_NAME_1":"Новосибирскаяобласть","NAME_2":"Kochenevskiyrayon","VARNAME_2":"NA","NL_NAME_2":"Коченевскийрайон","TYPE_2":"Raion","ENGTYPE_2":"District","CC_2":"R55001","HASC_2":"RU.NS.KN"}},{"type":"MultiPolygon","arcs":[[[80,81,82,-54,-72,-46,83,84]]],"properties":{"GID_2":"RUS.50.16_1","GID_0":"RUS","COUNTRY":"Russia","GID_1":"RUS.50_1","NAME_1":"Novosibirsk","NL_NAME_1":"Новосибирскаяобласть","NAME_2":"Kochkovskiyrayon","VARNAME_2":"NA","NL_NAME_2":"Кочковскийрайон","TYPE_2":"Raion","ENGTYPE_2":"District","CC_2":"R55001","HASC_2":"RU.NS.KO"}},{"type":"MultiPolygon","arcs":[[[-20,85,86,87,88,-76,-50,89,90]]],"properties":{"GID_2":"RUS.50.17_1","GID_0":"RUS","COUNTRY":"Russia","GID_1":"RUS.50_1","NAME_1":"Novosibirsk","NL_NAME_1":"Новосибирскаяобласть","NAME_2":"Kolyvanovskiyrayon","VARNAME_2":"NA","NL_NAME_2":"Колывановскийрайон","TYPE_2":"Raion","ENGTYPE_2":"District","CC_2":"R55001","HASC_2":"RU.NS.KL"}},{"type":"MultiPolygon","arcs":[[[-69,91,92,-56,93,-82,94]]],"properties":{"GID_2":"RUS.50.18_1","GID_0":"RUS","COUNTRY":"Russia","GID_1":"RUS.50_1","NAME_1":"Novosibirsk","NL_NAME_1":"Новосибирскаяобласть","NAME_2":"Krasnozerskiyrayon","VARNAME_2":"NA","NL_NAME_2":"Краснозерскийрайон","TYPE_2":"Raion","ENGTYPE_2":"District","CC_2":"R55001","HASC_2":"RU.NS.KZ"}},{"type":"MultiPolygon","arcs":[[[95,-44,96,-27,97,98,-24,99,-6,100,101,102,-2]]],"properties":{"GID_2":"RUS.50.19_1","GID_0":"RUS","COUNTRY":"Russia","GID_1":"RUS.50_1","NAME_1":"Novosibirsk","NL_NAME_1":"Новосибирскаяобласть","NAME_2":"Kupinskiyrayon","VARNAME_2":"NA","NL_NAME_2":"Купинскийрайон","TYPE_2":"Raion","ENGTYPE_2":"District","CC_2":"R55001","HASC_2":"RU.NS.KU"}},{"type":"MultiPolygon","arcs":[[[103]]],"properties":{"GID_2":"RUS.50.20_1","GID_0":"RUS","COUNTRY":"Russia","GID_1":"RUS.50_1","NAME_1":"Novosibirsk","NL_NAME_1":"Новосибирскаяобласть","NAME_2":"Kuybyshev","VARNAME_2":"NA","NL_NAME_2":"Куйбышев","TYPE_2":"Gorod","ENGTYPE_2":"City","CC_2":"NA","HASC_2":"RU.NS.KG"}},{"type":"MultiPolygon","arcs":[[[-12,104,-34,105,-32,106,107,108,109,110,111,112,113,114,115],[-104]]],"properties":{"GID_2":"RUS.50.21_1","GID_0":"RUS","COUNTRY":"Russia","GID_1":"RUS.50_1","NAME_1":"Novosibirsk","NL_NAME_1":"Новосибирскаяобласть","NAME_2":"Kuybyshevskiyrayon","VARNAME_2":"NA","NL_NAME_2":"Куйбышевскийрайон","TYPE_2":"Raion","ENGTYPE_2":"District","CC_2":"R55001","HASC_2":"RU.NS.KR"}},{"type":"MultiPolygon","arcs":[[[116,117,118,119,120,121]]],"properties":{"GID_2":"RUS.50.22_1","GID_0":"RUS","COUNTRY":"Russia","GID_1":"RUS.50_1","NAME_1":"Novosibirsk","NL_NAME_1":"Новосибирскаяобласть","NAME_2":"Kyshtovskiyrayon","VARNAME_2":"NA","NL_NAME_2":"Кыштовскийрайон","TYPE_2":"Raion","ENGTYPE_2":"District","CC_2":"R55001","HASC_2":"RU.NS.KY"}},{"type":"MultiPolygon","arcs":[[[-40,122,-67,123,124]]],"properties":{"GID_2":"RUS.50.23_1","GID_0":"RUS","COUNTRY":"Russia","GID_1":"RUS.50_1","NAME_1":"Novosibirsk","NL_NAME_1":"Новосибирскаяобласть","NAME_2":"Maslyaninskiyrayon","VARNAME_2":"NA","NL_NAME_2":"Маслянинскийрайон","TYPE_2":"Raion","ENGTYPE_2":"District","CC_2":"R55001","HASC_2":"RU.NS.MA"}},{"type":"MultiPolygon","arcs":[[[-18,125,126,127,-87,128]]],"properties":{"GID_2":"RUS.50.24_1","GID_0":"RUS","COUNTRY":"Russia","GID_1":"RUS.50_1","NAME_1":"Novosibirsk","NL_NAME_1":"Новосибирскаяобласть","NAME_2":"Moshkovskiyrayon","VARNAME_2":"NA","NL_NAME_2":"Мошковскийрайон","TYPE_2":"Raion","ENGTYPE_2":"District","CC_2":"R55001","HASC_2":"RU.NS.MO"}},{"type":"MultiPolygon","arcs":[[[-65,129,130,131,-78,132,-88,-128,133,134],[135]]],"properties":{"GID_2":"RUS.50.25_1","GID_0":"RUS","COUNTRY":"Russia","GID_1":"RUS.50_1","NAME_1":"Novosibirsk","NL_NAME_1":"Новосибирскаяобласть","NAME_2":"Novosibirskiyrayon","VARNAME_2":"NA","NL_NAME_2":"Новосибирскийрайон","TYPE_2":"Raion","ENGTYPE_2":"District","CC_2":"R55001","HASC_2":"RU.NS.NG"}},{"type":"MultiPolygon","arcs":[[[-136]]],"properties":{"GID_2":"RUS.50.26_1","GID_0":"RUS","COUNTRY":"Russia","GID_1":"RUS.50_1","NAME_1":"Novosibirsk","NL_NAME_1":"Новосибирскаяобласть","NAME_2":"Ob'","VARNAME_2":"NA","NL_NAME_2":"Обь","TYPE_2":"Gorsovet","ENGTYPE_2":"District","CC_2":"NA","HASC_2":"RU.NS.OB"}},{"type":"MultiPolygon","arcs":[[[136,-85,137,-52,-80,138,-131,139,-63,140]]],"properties":{"GID_2":"RUS.50.27_1","GID_0":"RUS","COUNTRY":"Russia","GID_1":"RUS.50_1","NAME_1":"Novosibirsk","NL_NAME_1":"Новосибирскаяобласть","NAME_2":"Ordynskiyrayon","VARNAME_2":"NA","NL_NAME_2":"Ордынскийрайон","TYPE_2":"Raion","ENGTYPE_2":"District","CC_2":"R55002","HASC_2":"RU.NS.OR"}},{"type":"MultiPolygon","arcs":[[[-114,141,142,-111,143,144,145,-119,146,-117,147,148]]],"properties":{"GID_2":"RUS.50.28_1","GID_0":"RUS","COUNTRY":"Russia","GID_1":"RUS.50_1","NAME_1":"Novosibirsk","NL_NAME_1":"Новосибирскаяобласть","NAME_2":"Severnyyrayon","VARNAME_2":"NA","NL_NAME_2":"Северныйрайон","TYPE_2":"Raion","ENGTYPE_2":"District","CC_2":"R55002","HASC_2":"RU.NS.SE"}},{"type":"MultiPolygon","arcs":[[[-141,-62,-37,149]]],"properties":{"GID_2":"RUS.50.29_1","GID_0":"RUS","COUNTRY":"Russia","GID_1":"RUS.50_1","NAME_1":"Novosibirsk","NL_NAME_1":"Новосибирскаяобласть","NAME_2":"Suzunskiyrayon","VARNAME_2":"NA","NL_NAME_2":"Сузунскийрайон","TYPE_2":"Raion","ENGTYPE_2":"District","CC_2":"R55002","HASC_2":"RU.NS.SU"}},{"type":"MultiPolygon","arcs":[[[150]]],"properties":{"GID_2":"RUS.50.30_1","GID_0":"RUS","COUNTRY":"Russia","GID_1":"RUS.50_1","NAME_1":"Novosibirsk","NL_NAME_1":"Новосибирскаяобласть","NAME_2":"Tatarsk","VARNAME_2":"NA","NL_NAME_2":"Татарск","TYPE_2":"Gorod","ENGTYPE_2":"City","CC_2":"NA","HASC_2":"RU.NS.TG"}},{"type":"MultiPolygon","arcs":[[[-30,-42,151,152,153,154],[-151]]],"properties":{"GID_2":"RUS.50.31_1","GID_0":"RUS","COUNTRY":"Russia","GID_1":"RUS.50_1","NAME_1":"Novosibirsk","NL_NAME_1":"Новосибирскаяобласть","NAME_2":"Tatarskiyrayon","VARNAME_2":"NA","NL_NAME_2":"Татарскийрайон","TYPE_2":"Raion","ENGTYPE_2":"District","CC_2":"R55002","HASC_2":"RU.NS.TR"}},{"type":"MultiPolygon","arcs":[[[-124,-66,-135,155,-126,-17,156]]],"properties":{"GID_2":"RUS.50.32_1","GID_0":"RUS","COUNTRY":"Russia","GID_1":"RUS.50_1","NAME_1":"Novosibirsk","NL_NAME_1":"Новосибирскаяобласть","NAME_2":"Toguchinskiyrayon","VARNAME_2":"NA","NL_NAME_2":"Тогучинскийрайон","TYPE_2":"Raion","ENGTYPE_2":"District","CC_2":"R55002","HASC_2":"RU.NS.TO"}},{"type":"MultiPolygon","arcs":[[[-14,157,-115,-149,158,-90,-49,159,-75,160,-73,-59,161]]],"properties":{"GID_2":"RUS.50.33_1","GID_0":"RUS","COUNTRY":"Russia","GID_1":"RUS.50_1","NAME_1":"Novosibirsk","NL_NAME_1":"Новосибирскаяобласть","NAME_2":"Ubinskiyrayon","VARNAME_2":"NA","NL_NAME_2":"Убинскийрайон","TYPE_2":"Raion","ENGTYPE_2":"District","CC_2":"R55002","HASC_2":"RU.NS.UB"}},{"type":"MultiPolygon","arcs":[[[-153,162,163,164]]],"properties":{"GID_2":"RUS.50.34_1","GID_0":"RUS","COUNTRY":"Russia","GID_1":"RUS.50_1","NAME_1":"Novosibirsk","NL_NAME_1":"Новосибирскаяобласть","NAME_2":"Ust'-Tarkskiyrayon","VARNAME_2":"NA","NL_NAME_2":"Усt.-Таркскийрайон","TYPE_2":"Raion","ENGTYPE_2":"District","CC_2":"R55002","HASC_2":"RU.NS.US"}},{"type":"MultiPolygon","arcs":[[[-31,-155,165,-164,166,-121,167,-145,168,-109,169,-107]]],"properties":{"GID_2":"RUS.50.35_1","GID_0":"RUS","COUNTRY":"Russia","GID_1":"RUS.50_1","NAME_1":"Novosibirsk","NL_NAME_1":"Новосибирскаяобласть","NAME_2":"Vengerovskiyrayon","VARNAME_2":"NA","NL_NAME_2":"Венгеровскийрайон","TYPE_2":"Raion","ENGTYPE_2":"District","CC_2":"R55000","HASC_2":"RU.NS.VE"}},{"type":"MultiPolygon","arcs":[[[-3,-103,170,-101,-15,-162,-58,171,-92,-68]]],"properties":{"GID_2":"RUS.50.36_1","GID_0":"RUS","COUNTRY":"Russia","GID_1":"RUS.50_1","NAME_1":"Novosibirsk","NL_NAME_1":"Новосибирскаяобласть","NAME_2":"Zdvinskiyrayon","VARNAME_2":"NA","NL_NAME_2":"Здвинскийрайон","TYPE_2":"Raion","ENGTYPE_2":"District","CC_2":"R55000","HASC_2":"RU.NS.ZD"}}]}},"arcs":[[[209867,92047],[-21089,25592]],[[188778,117639],[12770,16722],[-6040,12720],[10399,28703],[1870,484],[4480,-7673],[2870,3212],[3360,6628],[-3290,6857],[7999,7316],[1700,6015],[-11119,8412],[370,8744],[7759,-2575],[4050,3798],[-2110,6730],[4400,4486],[16409,102],[5810,2727],[3320,4869],[5379,-3110],[2210,-7902],[4770,3620],[5749,-484],[1910,8743],[9540,-1759],[5729,2371],[1520,4180],[-790,8361],[5680,6245],[4430,-14096],[6889,255],[4440,7316],[-3460,9966],[2790,13052]],[[310571,272674],[2920,-11191],[6319,-4435],[3040,-4588]],[[322850,252460],[1160,-4283],[-4000,-26536],[-70,-11216],[-2009,-6347],[-7280,3671],[-3380,-7520],[9010,-8412],[-20,-7061],[-7840,-255],[-8299,-26051],[-5020,-8871],[-11599,-8055],[-1650,-8386],[-870,-16059],[-3310,-2651],[-4710,6882],[-2110,5506],[-10189,-5480],[-2440,-7087],[-19149,-4282],[-2659,-6042],[-760,-6500],[-10910,-3721],[-5759,6270],[-9120,-7927]],[[334000,522661],[-2220,-306],[-640,3365],[2580,1631],[760,-2728],[-480,-1962]],[[280733,343334],[-6990,-2269],[-7199,2728],[-4360,7800]],[[262184,351593],[-18589,45297],[-8449,27963]],[[235146,424853],[-4290,18353],[-2170,21361],[2860,7801],[20099,11776],[310,9916],[-2750,6449],[-3320,1020],[-440,8106]],[[245445,509635],[7670,8437]],[[253115,518072],[5599,2295],[6730,-332],[4510,-2421]],[[269954,517614],[1699,-2804]],[[271653,514810],[7820,-2753],[32008,1453],[6830,3543],[4509,13331],[3010,2422],[5220,-1147],[21518,8514],[3720,-2855],[2900,-11012],[80,-7010],[3360,-4232],[21099,4283]],[[383727,519347],[-2920,-24395]],[[380807,494952],[3780,-20316],[10989,-40453]],[[395576,434183],[-6250,-4385],[-7589,-1376],[-3260,6245],[-3490,-204],[-7069,-9661],[-13540,3288],[-11489,-16671],[-12649,-12159],[-4280,-6219],[-2100,-4665],[1520,-10936],[-3560,-4894],[-6199,7189],[-24069,-13995],[-3600,-3237],[-680,-4232],[1610,-10400],[-2289,-3084],[-5860,-1453]],[[817750,369436],[-1940,-11878],[-17019,3441],[5370,13561],[8029,2243],[5560,-7367]],[[958772,534182],[-8660,5914],[1570,6679],[-580,4537],[-3990,3900],[-22258,-20979],[-9700,5965],[-3060,-8616]],[[912094,531582],[-11829,-254],[20,10706],[-6550,2957],[-2649,13586],[-5250,4130],[-6740,-5659],[-8699,-2065],[-5930,6959],[-7259,4104],[-9400,1810]],[[847808,567856],[8410,12363]],[[856218,580219],[880,12184],[-3210,19093]],[[853888,611496],[2190,8641],[7479,8310],[5720,13637],[1970,11879],[5280,3696],[11829,26434],[17429,8259],[13229,-14555],[8419,1376],[9910,12542],[9149,-3875],[-1210,-13918],[3670,-9712],[-4440,-8819],[3710,-8999],[2480,-19806],[-3040,-4078],[570,-3391],[7510,-12694],[1670,-10120],[11819,-7519],[3690,-12287],[410,-11726],[-4510,-9278],[1240,-10732],[-3800,-7392],[-7489,-3187]],[[253115,518072],[-3990,-3925],[-3680,-4512]],[[235146,424853],[7029,-23298]],[[242175,401555],[-4869,-5150],[-3640,-8666]],[[233666,387739],[-5000,-6475],[-5970,-6679]],[[222696,374585],[-7039,-2880],[-10909,510]],[[204748,372215],[-6160,-5608]],[[198588,366607],[-19749,26485]],[[178839,393092],[-4050,13561],[-1290,13280],[-2469,3136],[-7130,3390],[-400,13739],[-5040,10630],[-10079,-7979],[490,-12006],[-3670,-943],[-7409,-6347],[-8430,23757],[-4420,-6016]],[[124942,441294],[-4699,9050],[-3910,15855],[300,4818],[7959,4945],[100,8896],[-3329,24293],[-5720,2855],[-390,16772],[10659,5354],[3650,15192]],[[129562,549324],[11629,7061],[4670,-765],[990,-5863],[7840,1606],[-1220,10171],[1720,4078],[7249,6679],[3050,-1122],[1060,-10247],[19839,10655],[11289,3773],[3700,9967],[10499,-1326],[2920,-11751],[14019,2396]],[[228816,574636],[1780,-7927],[7649,-1071],[2560,-9712],[80,-8030]],[[240885,547896],[5240,-8131],[5110,-5532]],[[251235,534233],[12239,-3211],[3710,-5481]],[[267184,525541],[2770,-7927]],[[876877,206678],[-37038,-7545],[-380,-10120],[1820,-11700],[-9170,-15269],[-7919,4869],[-3980,18506],[-4650,2524],[-8469,-561],[-8660,-6832],[-2310,-8972]],[[796121,171578],[-20968,-3773],[-4690,5583],[-520,7443],[1120,17359],[-8550,13383],[2680,12235],[-3639,10298],[3789,8846],[-820,6347]],[[764523,249299],[5400,-1020],[3990,2243],[4180,-560],[8999,-10375],[5720,1682],[10229,11216],[-3850,14504],[6780,8718],[3940,-5659],[3119,7341],[7880,7214],[10879,-14784],[5440,5327],[-4420,9559],[3380,6934],[7060,-10732],[12899,3722],[4450,-4079]],[[860598,280550],[5849,-19245]],[[866447,261305],[8970,-17665],[2359,-11242],[-2259,-11725],[1360,-13995]],[[176469,289345],[-6179,-5532],[-5270,-663],[-2710,-9457],[-5660,-8616],[-9389,255],[-5380,-5251],[-4869,-382],[-10820,1300],[-11319,6551],[-2860,-12414],[2560,-6194],[-370,-2243],[-52867,-36375],[-3060,21233],[140,62350],[1630,18379],[2960,4818],[8150,1784],[1970,6730],[-2270,21157],[-3610,5404]],[[67246,352179],[33638,19271],[-380,11343],[7779,2702],[3730,3977],[1320,8794],[-950,8336],[5800,1886],[2390,3951],[-1490,5837],[110,6195],[7509,5225],[-2190,7928],[430,3670]],[[178839,393092],[16819,-21642],[5400,-8947]],[[201058,362503],[3760,-13944],[879,-13255],[-2429,-8565],[-15929,-8284],[-6790,-9890],[-3610,-7775],[-470,-11445]],[[582814,280015],[-1959,7316]],[[580855,287331],[-3540,4486],[-6230,663],[-10309,16696]],[[560776,309176],[-6130,28397],[-8229,-229],[-1850,14606],[-2920,14147],[6190,4614],[-980,8743],[2329,9661],[560,11802],[-4039,2575],[-2920,5251],[800,16237],[3130,1836],[-2880,14631],[-740,17997],[1580,16594],[3480,10655],[17359,9585],[27278,31991],[3940,-281],[-1470,12108],[5329,11140],[-1260,10272],[390,17971]],[[599723,579479],[4330,42646]],[[604053,622125],[10320,9508],[12319,8106],[12419,15320],[31738,24012],[1330,6271]],[[672179,685342],[6040,-14912],[15969,-61330],[7379,-23936],[4560,-28856]],[[706127,556308],[-9679,-11853],[-31639,-11420],[-8039,-1045],[-11019,-8998],[-5540,-6831],[10889,-64390],[-440,-7137],[-4079,-2141],[-1670,-11012],[-8080,-7163],[-140,-6067],[10889,-15651],[3430,-8183],[30,-8641],[-4999,-12593],[3029,-12184],[10740,-27250]],[[659810,333749],[-640,-4333],[-7080,-4359],[-4480,4384],[-7589,-10094],[3920,-19245],[-5420,-3442],[-6090,6806],[-11049,-9915],[3600,-8336],[-9110,-6245],[-3219,4639],[-4250,1581],[-11349,-8208],[-1850,5200],[-3440,2396],[-8950,-4563]],[[447263,399235],[4689,-4639],[4660,1631],[7630,-2090],[970,-10681],[7149,-8361],[7210,-2523],[17899,5123],[5999,-5557],[-1000,-26714],[2820,-11063],[120,-10782],[7210,-11497],[8249,2447],[5390,-21922],[3790,-10374]],[[530048,282233],[-19489,-10859],[-18599,-18022],[-530,-6042],[520,-4817],[-1540,-6730],[-5600,-6908],[-5929,1657]],[[478881,230512],[-2690,-1223],[-10079,-8973]],[[466112,220316],[-7970,-13357],[-3740,11318],[-3310,4766],[-4389,-2523],[-4870,-7112],[-1530,994],[-1470,6092],[-2590,21030],[-5609,4639],[-5680,-2651],[-10039,-22635],[-20859,28881]],[[394056,249758],[-12509,25822]],[[381547,275580],[-2260,9329],[1090,9253],[1510,4359],[9079,-1274],[4300,2294],[6230,6322],[6099,9176],[-1740,8616],[-4859,15167],[3489,4537],[5090,-9482],[1630,-10375],[2350,-7622],[16239,9993],[-1020,9202],[16289,14530],[7239,1147],[-4529,7825],[1350,4512],[-6790,-204],[-11369,-8157],[-6020,12210],[-1940,8794]],[[423004,375732],[7160,1606],[17099,21897]],[[830199,332347],[-1460,204],[510,3798],[1610,-356],[-660,-3646]],[[863557,272597],[-2959,7953]],[[764523,249299],[-10319,21081],[-4860,6933],[-15589,-4155]],[[733755,273158],[-5559,23146]],[[728196,296304],[830,5735]],[[729026,302039],[17008,25797],[4480,-1148],[6930,14326],[12669,13638],[7660,-1402],[4439,2855],[8910,-3798],[8139,3262],[-2030,19705],[1890,1427],[8110,-1045],[4569,2141],[25029,24803],[5640,9406]],[[842469,412006],[9159,8284],[6190,1479],[3499,-3977],[3310,-17334],[5420,-19220],[5370,-6398],[4479,3722],[4220,-663],[2660,-10910],[5430,1886],[7099,-16951]],[[899305,351924],[-2250,-9074],[-6479,-9381],[-2460,-7749],[-940,-9126],[-2270,-8845],[-4920,-6730],[-7919,510],[-1870,-7316],[430,-9355],[-7070,-12261]],[[322850,252460],[9790,1402],[2280,5251]],[[334920,259113],[4829,-16824],[11150,-21540],[1180,-13280],[-13520,-24599],[-1510,-15065],[610,-10655],[8820,-23859],[-1660,-12236],[7620,-24445],[8349,-7546]],[[360788,89064],[-5320,-6015],[-2590,-8820],[1480,-9483],[-3849,-8233],[-14539,-3085],[-7970,-5709],[-7480,-2779],[-8309,5812],[-2910,7800],[1780,14300],[-2360,4665],[-4370,-3696],[-2929,-8539],[-4670,-2346],[-3090,3544],[-6620,-2396],[290,-18150],[2010,-3135],[7990,-2269],[430,-3925],[-2070,-3008],[-8210,-1020],[-1769,-3594],[3659,-8132],[-2180,-6729],[-4149,2523],[-4410,-16645],[-30138,44481],[-22749,27913],[-15879,19653]],[[601473,599897],[-1750,-20418]],[[560776,309176],[-19549,-4435],[-180,-6347],[3750,-7010],[-2700,-5302],[-8240,-5557],[-3809,1708]],[[447263,399235],[2180,5327],[-7590,13230],[-160,3084],[10899,7622],[7160,1785],[7250,-3238],[4049,4487]],[[471051,431532],[5900,15447]],[[476951,446979],[-2740,14963],[5190,11012],[-1870,7112],[660,7800],[10119,15600],[3910,8489],[200,9278],[1520,4767],[6819,10732],[2140,11317],[7140,14938],[4220,892],[7049,-7571],[8560,2014],[15929,10477],[13979,17486],[15079,9993],[13419,-1606],[13199,5225]],[[706127,556308],[4100,-2013],[2070,-6373],[-890,-9432],[2929,-6525],[4690,-6092],[2970,-10324],[1720,-20597],[5100,-5684],[4289,8310],[3930,-4002],[2030,-9024],[960,-12261],[6909,-5761],[5250,7724],[26948,4104]],[[779132,478358],[-10649,-20163]],[[768483,458195],[-17679,-14275],[-3340,-5328],[-1430,-5786],[4550,-30002],[-5979,-15167],[-520,-9738],[-1420,-8412],[-3650,-6194],[-9090,-6118]],[[729925,357175],[-30428,5532]],[[699497,362707],[-15199,-1759],[-3350,3696],[-1719,-459],[-5970,-6016],[-1010,-3288],[1010,-11318],[-13449,-9814]],[[582744,268901],[-5609,969],[-5510,-5277],[-2050,-6908],[3610,-9737],[170,-7393],[-7030,-892],[-9339,-4817],[-2650,-5481],[-5110,153],[-6989,-9814],[2090,-11853],[-6630,-5098],[-5229,3212],[-6360,-9585],[-5580,-2269],[-4519,-8055],[-5980,-2702],[-2010,3442],[-1950,7800],[-4600,-3059],[-6229,-6934],[2810,-10298],[-21949,-20418]],[[476101,153887],[-2370,6628],[-930,8998],[2860,8081],[1780,19423],[-5430,11752],[2270,10935],[-4480,2549]],[[469801,222253],[9080,8259]],[[580855,287331],[3359,-9381]],[[584214,277950],[-1470,-9049]],[[856218,580219],[-22129,-31634]],[[834089,548585],[-33278,-23885]],[[800811,524700],[-8639,8743],[-3700,-866],[-4500,-4767],[-3650,-6577],[-1280,-8565],[3450,-16135],[350,-10120]],[[782842,486413],[-3710,-8055]],[[672179,685342],[-1810,8157],[-11319,22203],[-3570,16849],[-2300,17308]],[[653180,749859],[11539,2600],[16229,11063],[16589,2498],[11060,6806],[12439,2524],[8819,5225],[23789,5430],[7120,-2906],[8699,3186],[5980,10298],[-290,13281],[6779,5302],[6100,-3059],[6470,4232],[3249,5684],[4680,-1912],[7180,-18965],[5189,-7468],[-250,-6067],[-2000,-4996],[-5019,-5353],[-2660,-9789],[430,-10579],[-6190,-9151],[1280,-5964],[9310,-6730],[410,-9610],[-1750,-9941],[3489,-6857],[4490,2549],[2260,-4920],[-1180,-14020],[190,-6602],[2760,-7622],[1510,-9227],[3680,-11802],[1270,-10758],[-4760,-8335],[750,-7851],[-3790,-8973],[-6750,-3849],[2620,-6933],[4430,-6730],[4220,77],[6299,3415],[2350,-5582],[15609,-433],[4050,1911],[2030,8540]],[[334920,259113],[13469,4129],[2930,-4894],[2219,-7647],[4220,-383],[28928,15575]],[[386686,265893],[7370,-16135]],[[466112,220316],[3689,1937]],[[476101,153887],[-270,-9559],[-2290,-6118],[-6140,-5531],[-3909,2320],[-11960,-7265],[-2019,-12567],[-4720,-6832],[-4160,-994],[-2990,-5021],[-9579,-5991],[-5530,6806],[-4579,1683],[-530,-5073],[-7700,-4894],[-9449,-2116],[-5980,6577],[-3120,-9534],[-3760,1581],[-3309,4715],[-23319,-7010]],[[188778,117639],[-21108,25772],[-21489,31430],[-4040,11419],[-890,10604],[-6679,13485],[-740,7826],[1220,2523],[2140,51],[5239,-917],[4170,-3671],[5720,1580],[2710,-7417],[1899,-1377],[9400,8718],[860,8310],[4400,3594],[4129,7010],[-300,11802],[3200,7316],[-950,11063],[-2120,3976],[-5269,-204],[-570,2601],[15559,13382],[-980,6985],[-7820,-4155]],[[201058,362503],[-2470,4104]],[[204748,372215],[5589,-1504],[12359,3874]],[[222696,374585],[10970,13154]],[[242175,401555],[20009,-49962]],[[280733,343334],[5430,-3161],[7069,-12312],[3710,-11547]],[[296942,316314],[7239,-11751]],[[304181,304563],[-1869,-8463],[430,-8310],[7829,-15116]],[[329490,553173],[-1500,51],[-320,3135],[2870,-178],[-200,-2626],[-850,-382]],[[271653,514810],[-4469,10731]],[[251235,534233],[-10350,13663]],[[228816,574636],[6820,19781],[2639,12312],[690,12567],[-1739,14045],[-9480,33240]],[[227746,666581],[950,8055],[2070,9100]],[[230766,683736],[4600,5940],[5639,-3824],[4300,892],[11409,18532],[17469,23859],[-3100,2677]],[[271083,731812],[7860,1351]],[[278943,733163],[18099,13790],[4060,-10273],[790,-13306],[1869,-13510],[3150,-7290],[6510,-2498],[6359,-7724],[5070,-16849],[-21489,-7036],[-8479,-5047],[-10699,-12235],[-880,-8489]],[[283303,642696],[1680,-4792],[1510,-1963]],[[286493,635941],[2939,714],[18099,7214],[19789,11114]],[[327320,654983],[7460,-22763],[8729,5327],[3450,-7367],[770,-6219],[9139,637],[3390,-4232],[2250,-9635],[6290,969],[4339,4206],[1880,20800],[2680,11445],[4440,9840],[5219,7978],[7950,3645],[-200,9840],[-1510,8794],[7550,10732],[21308,15676],[6000,-16441],[9489,-17589],[16679,13230]],[[454622,693856],[330,-11471],[4100,-21412],[-9329,-17461],[-3100,-9890],[-780,-9534],[2870,-6704],[-470,-9406],[-1410,-5226],[-6330,-4562],[540,-7750],[3740,-6041],[-420,-5047],[-5780,-2345],[-4929,-5379],[-5730,-8667],[-2470,-7162],[-11099,-9687],[-6770,-918],[-5680,7801],[-5079,-867],[-9030,-13408],[-2380,-6679]],[[385416,532041],[-1689,-12694]],[[334790,965357],[-3420,-9406],[-6810,-43436],[-7089,-8667],[-9290,-4818]],[[308181,899030],[-6159,-10221]],[[302022,888809],[-310,-13842],[-9490,-8131],[-630,17563],[-1390,4231],[-3729,2881],[-3530,-11446],[30,-5862],[4229,-7775],[-849,-8718],[-4590,-9279],[-1440,-6321],[1220,-9202],[-2200,-9585],[-15579,-13841],[-90,5353],[-2720,3084],[-7149,-5149],[-2820,2804],[-3240,-1835],[-1520,-10783],[-6850,-7724],[-9019,-5404]],[[230356,789828],[-9839,-13892]],[[220517,775936],[-6170,2829],[-8080,-10374],[-3089,-6424],[3019,-17410],[-9109,-5506],[-9819,-8845],[-6330,13765],[-3880,3441],[-4500,-1529],[-3559,2854],[-3660,6016],[-16789,-7061],[6430,-11216],[-14050,-5964],[-11799,12159],[-1120,5582],[-6239,-1019],[-1200,-13434]],[[120573,733800],[-1390,7928],[-17249,21845],[-1670,22075],[430,3696],[3060,1810],[430,5659],[-4640,6729],[-4290,3442],[-8859,-8565],[-4530,-6832],[-3710,-688],[-4300,5404],[-929,8641],[2809,6679],[13000,14937],[5069,13511],[4430,76],[5100,2880],[12199,18889],[370,13255],[-1150,14224],[1270,15957],[-500,13842],[-2600,6321],[-4130,5302],[580,21795],[-2839,23783],[-4620,23604],[8079,-5786],[24139,-5099],[25478,3850],[7980,-5659],[2710,-4104],[10409,-1989],[112523,-4511],[34418,3951],[3380,-3595],[3760,-11700]],[[866447,261305],[-2890,11292]],[[899305,351924],[6430,-4155],[840,-12031],[11489,6831],[2910,-2778],[4890,6168],[4949,-204],[3860,14581],[4700,-1708],[2000,-5251],[600,-7825],[3349,-1479],[3100,4155],[2850,-13714],[2470,-22585],[3260,-4104],[3009,2677],[4110,-6424],[5270,586],[19439,16391]],[[988830,321055],[5079,-21208],[6090,-19501],[-520,-6066],[-17699,-5150],[-28808,-20851],[-7530,-9661],[50,-8514],[-5569,-10680],[-6600,-8183],[-1700,5557],[-2460,2218],[-8739,51],[-5090,5531],[-24538,-19067],[-4000,-3110],[-6390,-407],[-3529,4664]],[[912094,531582],[-280,-12210],[1350,-14963],[-2000,-16798],[-3799,-4155],[-22049,-10222],[-32338,-22533]],[[852978,450701],[-13379,18506]],[[839599,469207],[-4930,612],[-5780,-11573],[-3389,-1479],[-2480,4589],[-4380,306],[-4310,-11318],[-4849,3925],[-3280,8106],[-5300,3543],[-330,19399],[-1360,13077],[6220,6321],[780,10502],[-7590,-611],[2190,10094]],[[834089,548585],[13719,19271]],[[729026,302039],[1119,7698]],[[730145,309737],[3390,9202],[-500,19628],[-3709,4028],[-14410,1325],[-3929,15651]],[[710987,359571],[18938,-2396]],[[768483,458195],[14359,28218]],[[839599,469207],[8849,-13459]],[[848448,455748],[-2150,-4818],[-11329,-7392],[1570,-9891],[5930,-21641]],[[761854,427147],[1219,484],[620,3059],[-1509,1887],[-2320,-892],[-90,-4563],[2080,25]],[[659260,159979],[-5440,1326],[-5630,-3543],[-1009,13714],[559,9839],[-8979,8692],[-2550,8999],[-9559,-1887],[-7190,1020],[-3800,7749],[-3289,2677],[-9820,-2269],[-1500,5124],[-290,9712],[-1500,5123],[-12969,19195],[-2530,12592],[-1020,10859]],[[584214,277950],[-1400,2065]],[[699497,362707],[11490,-3136]],[[730145,309737],[-1949,-13433]],[[733755,273158],[-29588,-56921],[-3690,2345],[-10329,-20443],[-6900,2192],[-23988,-40352]],[[327320,654983],[-11319,-7545],[-29508,-11497]],[[286493,635941],[-3190,6755]],[[278943,733163],[-13739,-2983]],[[265204,730180],[-11899,-15320],[-3810,1326],[950,8769],[1820,6041],[9279,18940],[-460,5404],[-1870,3976],[-3430,3977],[-4989,994],[-27439,-14887],[-2319,2269],[-2380,10120],[-410,11318]],[[218247,773107],[12109,16721]],[[302022,888809],[2319,4257],[3840,5964]],[[334790,965357],[11489,-6984],[19279,-7596],[39937,-11854],[15189,-2064],[18679,-20240],[8610,-2090],[16849,-15040],[53116,-106092],[13730,1632]],[[531668,795029],[-7800,-29544],[-4760,-7571],[-5139,-2676],[-5480,560],[-4990,-3339],[-5129,-5837],[-1230,-10936],[-2470,-4461],[-40048,-37369]],[[796121,171578],[-10849,-10834],[-18579,-24343],[-5069,-10324],[1889,-14300],[-1210,-8591],[-7609,-9431],[1970,-10197],[-9840,-12974],[-2789,-5889],[3169,-6143],[-10479,-5633],[-9979,3135],[-4620,9610],[-15039,12312],[3110,12745],[-5290,4308],[-11369,-127],[-14909,11088],[-5530,-3976],[-3240,4410],[-6639,19016],[-150,7621],[10359,10069],[-400,8208],[1260,5328],[-4060,2625],[-7449,-3339],[-3520,4027]],[[92174,482921],[-1450,-204],[-380,2549],[1680,306],[150,-2651]],[[67246,352179],[-5770,1988],[-3020,21973],[-8899,13842],[-2030,-4589],[-430,-9329],[-5980,20087],[-389,7927],[-17909,-2523],[-1050,2625],[-530,3900],[7389,18404],[1540,12210],[-3090,9636],[-4589,8794],[-7210,714],[560,10681],[2720,5200],[1130,7290],[-5640,15167],[-3490,3976],[-1300,9916],[100,5991],[-4109,-791],[-3800,3824],[4490,4461],[2859,6041],[1980,9253],[5730,10808],[7700,2269],[1669,2141],[-3639,6398],[-5890,3212]],[[16349,563675],[8140,26],[4289,2090],[12809,-37930],[8960,-1275],[1330,3416],[180,7749],[20169,28142],[22938,-9636],[9110,4818]],[[104274,561075],[120,-7086]],[[104394,553989],[10249,1733],[2770,10579],[8689,1121],[2900,-8565],[560,-9533]],[[848448,455748],[4530,-5047]],[[958772,534182],[-3390,-5862],[20448,1504],[3780,-2779],[1550,-15830],[-130,-11623],[-2210,-6883],[1090,-10986],[4530,-22177],[-1430,-20087],[-3800,-11445],[11210,-16646],[4769,-10476],[4130,-20163],[-1540,-5940],[-3180,-4817],[-7759,-3722],[-1880,-13153],[10519,-11879],[970,-4180],[-1180,-3926],[-6029,-7418],[-410,-4639]],[[380807,494952],[4609,37089]],[[531668,795029],[18718,4282],[55567,20775],[6090,-3339],[33778,-63778],[7359,-3110]],[[604053,622125],[-2580,-22228]],[[476951,446979],[-3030,-9330],[-2870,-6117]],[[423004,375732],[-7969,10350],[-10480,29747],[-5379,3798],[-1120,7954],[-3060,3186],[580,3416]],[[16349,563675],[-9109,5353],[-2590,8208],[-320,6271],[4209,7520],[-7519,13408],[-1020,5633],[980,5991],[3330,1835],[7129,-4996],[5370,-510],[7060,4843],[1019,6500],[-4369,24318],[3110,5914],[11029,12898],[4640,11905],[1230,7086],[-2580,7520],[5209,4766],[9740,-943],[7479,12644],[13270,-357],[18308,15575],[5750,-434],[6370,-4817],[5699,-969],[8220,4767]],[[117993,723604],[6419,-21056],[2660,-37496],[-430,-17691],[-2230,-4129],[-3479,5327],[-5520,1810],[-4690,-2702],[-4199,-12567],[-940,-56589]],[[105584,578511],[-1310,-17436]],[[104394,553989],[1190,24522]],[[117993,723604],[3330,4690],[-750,5506]],[[220517,775936],[-2270,-2829]],[[265204,730180],[5879,1632]],[[230766,683736],[-3020,-17155]],[[304181,304563],[-2109,4792],[-5130,6959]],[[381547,275580],[5139,-9687]]],"bbox":[75.0852,53.3065,85.0858,57.2295],"transform":{"scale":[0.000010000610000610005,0.000003923003923003925],"translate":[75.0852,53.3065]}}