{"type":"Topology","objects":{"muni":{"type":"GeometryCollection","geometries":[{"type":"MultiPolygon","arcs":[[[0,1,2,3,4,5,6,7,8]]],"properties":{"GID_2":"RUS.51.1_1","GID_0":"RUS","COUNTRY":"Russia","GID_1":"RUS.51_1","NAME_1":"Omsk","NL_NAME_1":"Омскаяобласть","NAME_2":"AzovskiyNemetskiyNatsional'nyy","VARNAME_2":"AzovskiyNemets","NL_NAME_2":"Таврическийрайон","TYPE_2":"Raion","ENGTYPE_2":"District","CC_2":"R56002","HASC_2":"RU.OM.AZ"}},{"type":"MultiPolygon","arcs":[[[9,10,11,12,13,14,15]]],"properties":{"GID_2":"RUS.51.2_1","GID_0":"RUS","COUNTRY":"Russia","GID_1":"RUS.51_1","NAME_1":"Omsk","NL_NAME_1":"Омскаяобласть","NAME_2":"Bol'sherechenskiyrayon","VARNAME_2":"NA","NL_NAME_2":"Большереченскийрайон","TYPE_2":"Raion","ENGTYPE_2":"District","CC_2":"R56000","HASC_2":"RU.OM.BR"}},{"type":"MultiPolygon","arcs":[[[16,17,18,19,20,21,22,23]]],"properties":{"GID_2":"RUS.51.3_1","GID_0":"RUS","COUNTRY":"Russia","GID_1":"RUS.51_1","NAME_1":"Omsk","NL_NAME_1":"Омскаяобласть","NAME_2":"Bol'sheukovskiyrayon","VARNAME_2":"NA","NL_NAME_2":"Большеуковскийрайон","TYPE_2":"Raion","ENGTYPE_2":"District","CC_2":"R56000","HASC_2":"RU.OM.BU"}},{"type":"MultiPolygon","arcs":[[[24,25,26,27,28,29,30,31,32,33]]],"properties":{"GID_2":"RUS.51.4_1","GID_0":"RUS","COUNTRY":"Russia","GID_1":"RUS.51_1","NAME_1":"Omsk","NL_NAME_1":"Омскаяобласть","NAME_2":"Cherlakskiyrayon","VARNAME_2":"NA","NL_NAME_2":"Черлакскийрайон","TYPE_2":"Raion","ENGTYPE_2":"District","CC_2":"R56003","HASC_2":"RU.OM.CH"}},{"type":"MultiPolygon","arcs":[[[-10,34,35,36,37,38,39,40,41,42]]],"properties":{"GID_2":"RUS.51.5_1","GID_0":"RUS","COUNTRY":"Russia","GID_1":"RUS.51_1","NAME_1":"Omsk","NL_NAME_1":"Омскаяобласть","NAME_2":"Gor'kovskiyrayon","VARNAME_2":"NA","NL_NAME_2":"Горьковскийрайон","TYPE_2":"Raion","ENGTYPE_2":"District","CC_2":"R56000","HASC_2":"RU.OM.GO"}},{"type":"MultiPolygon","arcs":[[[43]]],"properties":{"GID_2":"RUS.51.6_1","GID_0":"RUS","COUNTRY":"Russia","GID_1":"RUS.51_1","NAME_1":"Omsk","NL_NAME_1":"Омскаяобласть","NAME_2":"Isil'kul'","VARNAME_2":"Isilkul","NL_NAME_2":"Исилькуль","TYPE_2":"Gorod","ENGTYPE_2":"City","CC_2":"NA","HASC_2":"RU.OM.IG"}},{"type":"MultiPolygon","arcs":[[[44,45,46,47],[-44]]],"properties":{"GID_2":"RUS.51.7_1","GID_0":"RUS","COUNTRY":"Russia","GID_1":"RUS.51_1","NAME_1":"Omsk","NL_NAME_1":"Омскаяобласть","NAME_2":"Isil'kul'skiyrayon","VARNAME_2":"NA","NL_NAME_2":"Исилькульскийрайон","TYPE_2":"Raion","ENGTYPE_2":"District","CC_2":"R56000","HASC_2":"RU.OM.IR"}},{"type":"MultiPolygon","arcs":[[[48]]],"properties":{"GID_2":"RUS.51.8_1","GID_0":"RUS","COUNTRY":"Russia","GID_1":"RUS.51_1","NAME_1":"Omsk","NL_NAME_1":"Омскаяобласть","NAME_2":"Kalachinsk","VARNAME_2":"NA","NL_NAME_2":"Калачинск","TYPE_2":"Gorod","ENGTYPE_2":"City","CC_2":"NA","HASC_2":"RU.OM.KG"}},{"type":"MultiPolygon","arcs":[[[49,-30,50,51,-39,52,-37,53,54,55],[-49]]],"properties":{"GID_2":"RUS.51.9_1","GID_0":"RUS","COUNTRY":"Russia","GID_1":"RUS.51_1","NAME_1":"Omsk","NL_NAME_1":"Омскаяобласть","NAME_2":"Kalachinskiyrayon","VARNAME_2":"NA","NL_NAME_2":"Калачинскийрайон","TYPE_2":"Raion","ENGTYPE_2":"District","CC_2":"R56000","HASC_2":"RU.OM.KR"}},{"type":"MultiPolygon","arcs":[[[-12,56,57,-23,58,59,60]]],"properties":{"GID_2":"RUS.51.10_1","GID_0":"RUS","COUNTRY":"Russia","GID_1":"RUS.51_1","NAME_1":"Omsk","NL_NAME_1":"Омскаяобласть","NAME_2":"Kolosovskiyrayon","VARNAME_2":"NA","NL_NAME_2":"Колосовскийрайон","TYPE_2":"Raion","ENGTYPE_2":"District","CC_2":"R56000","HASC_2":"RU.OM.KS"}},{"type":"MultiPolygon","arcs":[[[61,62,-40,-52]]],"properties":{"GID_2":"RUS.51.11_1","GID_0":"RUS","COUNTRY":"Russia","GID_1":"RUS.51_1","NAME_1":"Omsk","NL_NAME_1":"Омскаяобласть","NAME_2":"Kormilovskiyrayon","VARNAME_2":"NA","NL_NAME_2":"Кормиловскийрайон","TYPE_2":"Raion","ENGTYPE_2":"District","CC_2":"R56000","HASC_2":"RU.OM.KM"}},{"type":"MultiPolygon","arcs":[[[-17,63,64,65,66]]],"properties":{"GID_2":"RUS.51.12_1","GID_0":"RUS","COUNTRY":"Russia","GID_1":"RUS.51_1","NAME_1":"Omsk","NL_NAME_1":"Омскаяобласть","NAME_2":"Krutinskiyrayon","VARNAME_2":"NA","NL_NAME_2":"Крутинскийрайон","TYPE_2":"Raion","ENGTYPE_2":"District","CC_2":"R56001","HASC_2":"RU.OM.KT"}},{"type":"MultiPolygon","arcs":[[[67,68,69,70,71,72,73,74]]],"properties":{"GID_2":"RUS.51.13_1","GID_0":"RUS","COUNTRY":"Russia","GID_1":"RUS.51_1","NAME_1":"Omsk","NL_NAME_1":"Омскаяобласть","NAME_2":"Lyubinskiyrayon","VARNAME_2":"NA","NL_NAME_2":"Любинскийрайон","TYPE_2":"Raion","ENGTYPE_2":"District","CC_2":"R56001","HASC_2":"RU.OM.LY"}},{"type":"MultiPolygon","arcs":[[[-1,75,76,77,-71,78]]],"properties":{"GID_2":"RUS.51.14_1","GID_0":"RUS","COUNTRY":"Russia","GID_1":"RUS.51_1","NAME_1":"Omsk","NL_NAME_1":"Омскаяобласть","NAME_2":"Mar'yanovskiyrayon","VARNAME_2":"NA","NL_NAME_2":"Марьяновскийрайон","TYPE_2":"Raion","ENGTYPE_2":"District","CC_2":"R56001","HASC_2":"RU.OM.MA"}},{"type":"MultiPolygon","arcs":[[[-47,79,80,-73,81,-77,82,83,84]]],"properties":{"GID_2":"RUS.51.15_1","GID_0":"RUS","COUNTRY":"Russia","GID_1":"RUS.51_1","NAME_1":"Omsk","NL_NAME_1":"Омскаяобласть","NAME_2":"Moskalenskiyrayon","VARNAME_2":"NA","NL_NAME_2":"Москаленскийрайон","TYPE_2":"Raion","ENGTYPE_2":"District","CC_2":"R56001","HASC_2":"RU.OM.MO"}},{"type":"MultiPolygon","arcs":[[[85,86,87,-14,88,89]]],"properties":{"GID_2":"RUS.51.16_1","GID_0":"RUS","COUNTRY":"Russia","GID_1":"RUS.51_1","NAME_1":"Omsk","NL_NAME_1":"Омскаяобласть","NAME_2":"Muromtsevskiyrayon","VARNAME_2":"NA","NL_NAME_2":"Муромцевскийрайон","TYPE_2":"Raion","ENGTYPE_2":"District","CC_2":"R56001","HASC_2":"RU.OM.MU"}},{"type":"MultiPolygon","arcs":[[[90]]],"properties":{"GID_2":"RUS.51.17_1","GID_0":"RUS","COUNTRY":"Russia","GID_1":"RUS.51_1","NAME_1":"Omsk","NL_NAME_1":"Омскаяобласть","NAME_2":"Nazyvaevsk","VARNAME_2":"Nazyvayevsk","NL_NAME_2":"Называевск","TYPE_2":"Gorod","ENGTYPE_2":"City","CC_2":"NA","HASC_2":"RU.OM.NG"}},{"type":"MultiPolygon","arcs":[[[91,-66,92,93,-75,94,-80,-46],[-91]]],"properties":{"GID_2":"RUS.51.18_1","GID_0":"RUS","COUNTRY":"Russia","GID_1":"RUS.51_1","NAME_1":"Omsk","NL_NAME_1":"Омскаяобласть","NAME_2":"Nazyvaevskiyrayon","VARNAME_2":"NA","NL_NAME_2":"Называевскийрайон","TYPE_2":"Raion","ENGTYPE_2":"District","CC_2":"R56001","HASC_2":"RU.OM.NR"}},{"type":"MultiPolygon","arcs":[[[95,-55,96,-35,-16,97,-87]]],"properties":{"GID_2":"RUS.51.19_1","GID_0":"RUS","COUNTRY":"Russia","GID_1":"RUS.51_1","NAME_1":"Omsk","NL_NAME_1":"Омскаяобласть","NAME_2":"Nizhneomskiyrayon","VARNAME_2":"NA","NL_NAME_2":"Нижнеомскийрайон","TYPE_2":"Raion","ENGTYPE_2":"District","CC_2":"R56001","HASC_2":"RU.OM.NI"}},{"type":"MultiPolygon","arcs":[[[98,99,100,101,102,103,-25]]],"properties":{"GID_2":"RUS.51.20_1","GID_0":"RUS","COUNTRY":"Russia","GID_1":"RUS.51_1","NAME_1":"Omsk","NL_NAME_1":"Омскаяобласть","NAME_2":"Novovarshavskiyrayon","VARNAME_2":"NA","NL_NAME_2":"Нововаршавскийрайон","TYPE_2":"Raion","ENGTYPE_2":"District","CC_2":"R56001","HASC_2":"RU.OM.NO"}},{"type":"MultiPolygon","arcs":[[[104,105,-7,106,107]]],"properties":{"GID_2":"RUS.51.21_1","GID_0":"RUS","COUNTRY":"Russia","GID_1":"RUS.51_1","NAME_1":"Omsk","NL_NAME_1":"Омскаяобласть","NAME_2":"Odesskiyrayon","VARNAME_2":"NA","NL_NAME_2":"Одесскийрайон","TYPE_2":"Raion","ENGTYPE_2":"District","CC_2":"R56001","HASC_2":"RU.OM.OD"}},{"type":"MultiPolygon","arcs":[[[-33,108,-31,-50,109]]],"properties":{"GID_2":"RUS.51.22_1","GID_0":"RUS","COUNTRY":"Russia","GID_1":"RUS.51_1","NAME_1":"Omsk","NL_NAME_1":"Омскаяобласть","NAME_2":"Okoneshnikovskiyrayon","VARNAME_2":"NA","NL_NAME_2":"Оконешниковскийрайон","TYPE_2":"Raion","ENGTYPE_2":"District","CC_2":"R56001","HASC_2":"RU.OM.OK"}},{"type":"MultiPolygon","arcs":[[[-2,-79,-70,110,111,112,-41,-63,113,-28,114,115,116]]],"properties":{"GID_2":"RUS.51.23_1","GID_0":"RUS","COUNTRY":"Russia","GID_1":"RUS.51_1","NAME_1":"Omsk","NL_NAME_1":"Омскаяобласть","NAME_2":"Omskiyrayon","VARNAME_2":"NA","NL_NAME_2":"Омскийрайон","TYPE_2":"Raion","ENGTYPE_2":"District","CC_2":"R56002","HASC_2":"RU.OM.OG"}},{"type":"MultiPolygon","arcs":[[[117,-107,118,-5,119,120,121,-101,122]]],"properties":{"GID_2":"RUS.51.24_1","GID_0":"RUS","COUNTRY":"Russia","GID_1":"RUS.51_1","NAME_1":"Omsk","NL_NAME_1":"Омскаяобласть","NAME_2":"Pavlogradskiyrayon","VARNAME_2":"NA","NL_NAME_2":"Павлоградскийрайон","TYPE_2":"Raion","ENGTYPE_2":"District","CC_2":"R56002","HASC_2":"RU.OM.PA"}},{"type":"MultiPolygon","arcs":[[[123,-48,-85,124,125]]],"properties":{"GID_2":"RUS.51.25_1","GID_0":"RUS","COUNTRY":"Russia","GID_1":"RUS.51_1","NAME_1":"Omsk","NL_NAME_1":"Омскаяобласть","NAME_2":"Poltavskiyrayon","VARNAME_2":"NA","NL_NAME_2":"Полтавскийрайон","TYPE_2":"Raion","ENGTYPE_2":"District","CC_2":"R56002","HASC_2":"RU.OM.PO"}},{"type":"MultiPolygon","arcs":[[[-123,-100,126]]],"properties":{"GID_2":"RUS.51.26_1","GID_0":"RUS","COUNTRY":"Russia","GID_1":"RUS.51_1","NAME_1":"Omsk","NL_NAME_1":"Омскаяобласть","NAME_2":"Russko-Polyanskiyrayon","VARNAME_2":"NA","NL_NAME_2":"Русско-Полянскийрайон","TYPE_2":"Raion","ENGTYPE_2":"District","CC_2":"R56002","HASC_2":"RU.OM.RU"}},{"type":"MultiPolygon","arcs":[[[-11,-43,127,128,-111,-69,129,-57]]],"properties":{"GID_2":"RUS.51.27_1","GID_0":"RUS","COUNTRY":"Russia","GID_1":"RUS.51_1","NAME_1":"Omsk","NL_NAME_1":"Омскаяобласть","NAME_2":"Sargatskiyrayon","VARNAME_2":"NA","NL_NAME_2":"Саргатскийрайон","TYPE_2":"Raion","ENGTYPE_2":"District","CC_2":"R56002","HASC_2":"RU.OM.SA"}},{"type":"MultiPolygon","arcs":[[[-90,130,131,132,133]]],"properties":{"GID_2":"RUS.51.28_1","GID_0":"RUS","COUNTRY":"Russia","GID_1":"RUS.51_1","NAME_1":"Omsk","NL_NAME_1":"Омскаяобласть","NAME_2":"Sedel'nikovskiyrayon","VARNAME_2":"NA","NL_NAME_2":"Седельниковскийрайон","TYPE_2":"Raion","ENGTYPE_2":"District","CC_2":"R56002","HASC_2":"RU.OM.SE"}},{"type":"MultiPolygon","arcs":[[[134,-126,135,-83,-76,-9,136,-105]]],"properties":{"GID_2":"RUS.51.29_1","GID_0":"RUS","COUNTRY":"Russia","GID_1":"RUS.51_1","NAME_1":"Omsk","NL_NAME_1":"Омскаяобласть","NAME_2":"Sherbakul'skiyrayon","VARNAME_2":"NA","NL_NAME_2":"Шербакульскийрайон","TYPE_2":"Raion","ENGTYPE_2":"District","CC_2":"R56003","HASC_2":"RU.OM.SH"}},{"type":"MultiPolygon","arcs":[[[137]]],"properties":{"GID_2":"RUS.51.30_1","GID_0":"RUS","COUNTRY":"Russia","GID_1":"RUS.51_1","NAME_1":"Omsk","NL_NAME_1":"Омскаяобласть","NAME_2":"Tara","VARNAME_2":"NA","NL_NAME_2":"Тара","TYPE_2":"Gorsovet","ENGTYPE_2":"District","CC_2":"NA","HASC_2":"RU.OM.TG"}},{"type":"MultiPolygon","arcs":[[[-13,-61,138,139,140,141,-133,142,-131,-89],[-138]]],"properties":{"GID_2":"RUS.51.31_1","GID_0":"RUS","COUNTRY":"Russia","GID_1":"RUS.51_1","NAME_1":"Omsk","NL_NAME_1":"Омскаяобласть","NAME_2":"Tarskiyrayon","VARNAME_2":"NA","NL_NAME_2":"Тарскийрайон","TYPE_2":"Raion","ENGTYPE_2":"District","CC_2":"R56002","HASC_2":"RU.OM.TR"}},{"type":"MultiPolygon","arcs":[[[-3,-117,143,-115,-27,-103,144,-121,145]]],"properties":{"GID_2":"RUS.51.32_1","GID_0":"RUS","COUNTRY":"Russia","GID_1":"RUS.51_1","NAME_1":"Omsk","NL_NAME_1":"Омскаяобласть","NAME_2":"Tavricheskiyrayon","VARNAME_2":"NA","NL_NAME_2":"Таврическийрайон","TYPE_2":"Raion","ENGTYPE_2":"District","CC_2":"R56002","HASC_2":"RU.OM.TA"}},{"type":"MultiPolygon","arcs":[[[-20,146,147,-141,148,149]]],"properties":{"GID_2":"RUS.51.33_1","GID_0":"RUS","COUNTRY":"Russia","GID_1":"RUS.51_1","NAME_1":"Omsk","NL_NAME_1":"Омскаяобласть","NAME_2":"Tevrizskiyrayon","VARNAME_2":"NA","NL_NAME_2":"Тевризскийрайон","TYPE_2":"Raion","ENGTYPE_2":"District","CC_2":"R56002","HASC_2":"RU.OM.TE"}},{"type":"MultiPolygon","arcs":[[[150]]],"properties":{"GID_2":"RUS.51.34_1","GID_0":"RUS","COUNTRY":"Russia","GID_1":"RUS.51_1","NAME_1":"Omsk","NL_NAME_1":"Омскаяобласть","NAME_2":"Tyukalinsk","VARNAME_2":"NA","NL_NAME_2":"Тюкалинск","TYPE_2":"Gorod","ENGTYPE_2":"City","CC_2":"NA","HASC_2":"RU.OM.TK"}},{"type":"MultiPolygon","arcs":[[[-24,-58,-130,-68,-94,151,-64],[-151]]],"properties":{"GID_2":"RUS.51.35_1","GID_0":"RUS","COUNTRY":"Russia","GID_1":"RUS.51_1","NAME_1":"Omsk","NL_NAME_1":"Омскаяобласть","NAME_2":"Tyukalinskiyrayon","VARNAME_2":"NA","NL_NAME_2":"Тюкалинскийрайон","TYPE_2":"Raion","ENGTYPE_2":"District","CC_2":"R56002","HASC_2":"RU.OM.TY"}},{"type":"MultiPolygon","arcs":[[[-19,152,-147]]],"properties":{"GID_2":"RUS.51.36_1","GID_0":"RUS","COUNTRY":"Russia","GID_1":"RUS.51_1","NAME_1":"Omsk","NL_NAME_1":"Омскаяобласть","NAME_2":"Ust'-Ishimskiyrayon","VARNAME_2":"NA","NL_NAME_2":"Усt.-Ишимскийрайон","TYPE_2":"Raion","ENGTYPE_2":"District","CC_2":"R56003","HASC_2":"RU.OM.US"}},{"type":"MultiPolygon","arcs":[[[-22,153,-149,-140,154,-59]]],"properties":{"GID_2":"RUS.51.37_1","GID_0":"RUS","COUNTRY":"Russia","GID_1":"RUS.51_1","NAME_1":"Omsk","NL_NAME_1":"Омскаяобласть","NAME_2":"Znamenskiyrayon","VARNAME_2":"NA","NL_NAME_2":"Знаменскийрайон","TYPE_2":"Raion","ENGTYPE_2":"District","CC_2":"R56000","HASC_2":"RU.OM.ZN"}}]}},"arcs":[[[403327,240713],[29315,11647],[8286,8409]],[[440928,260769],[-477,-3746],[9749,781],[6789,-2322],[12403,-9189],[7095,-137],[8642,6556],[4016,1034]],[[489145,253746],[23887,-75484]],[[513032,178262],[-10651,-3941]],[[502381,174321],[-10412,0],[-6669,-6809]],[[485300,167512],[-9239,-1405],[-13509,-136]],[[462552,165971],[-15908,7199],[-7401,6516],[6738,11628],[3913,15608],[-6431,8116],[-9136,2809],[-15313,-14983],[-4764,-761],[-3998,3453]],[[410252,205556],[-1548,5502]],[[408704,211058],[1973,3219],[5853,2224],[7639,5775],[-1055,5639],[-8540,1424],[-8388,-1015],[-1736,2185],[-1123,10204]],[[685228,459731],[-15857,-8038],[-58901,-10262]],[[610470,441431],[-6636,566],[-2416,3765],[-4457,2263],[-22782,5112],[-6346,9794],[-7026,17266],[323,7336],[14581,7257],[867,4234],[-9698,527],[-2926,4019],[3199,9443],[-7844,2731]],[[559309,515744],[-1871,7921],[7877,4156],[7367,1716],[5802,-1931],[12760,-7960],[6857,2926],[13458,9580],[-3846,7804],[12199,10184],[-578,4624],[-5360,6848],[-2211,6692],[2177,5521],[-952,14086],[-7520,10126]],[[605468,598037],[37872,3707],[885,9969],[27868,4156],[21642,5814],[6108,3804],[4491,156],[12846,-10535]],[[717180,615108],[6193,-15979],[6006,-7082],[-375,-13793],[11229,-8643],[-8047,-5990],[-1582,-5150],[13662,-4410],[646,-4389],[-5444,-2888],[-10736,-195],[-7061,-1756],[562,-5189],[11008,-8858],[-851,-3434],[-8133,-2419],[-4066,-5014],[936,-4331],[4764,-1854],[9868,2478],[6567,-5209]],[[742326,511003],[-17116,-22514]],[[725210,488489],[-15278,-13365],[-24704,-15393]],[[332244,586740],[-15738,8819],[-9578,449],[-22407,-3297],[-7623,1170],[-4644,3922],[-10957,2770],[-26218,-1912],[-12727,-6497],[-7571,-1561],[-22373,30182],[-9187,7492]],[[183221,628277],[11008,5073],[-2161,5989],[9919,3570],[2093,16525],[-3777,8663],[-8847,11315],[-45104,29734],[-7503,8018],[-15414,9677],[-8490,16349]],[[114945,743190],[74792,351],[5785,7258],[-2552,2614]],[[192970,753413],[23513,5151],[23496,839],[96774,-9794],[37787,-15627],[68038,9111],[36256,-761]],[[478834,742332],[-6975,-22241]],[[471859,720091],[8745,-15999],[10293,-2321],[12999,-5853],[2109,-6751],[-697,-4038],[-4220,-3395],[-9187,-2009],[-8813,-5756],[-24772,-5541],[5529,-13559],[9103,-13364],[6839,-6478],[11433,-448],[8218,3355]],[[499438,637934],[2552,-8799],[102,-8408],[-26609,-10262],[-5581,5053],[-26150,-976],[-7979,-2302],[-3216,-3375],[-6737,-1405],[-4084,3707],[-4355,956],[-7895,-1541],[-3760,-7551],[-1174,-19763]],[[404552,583268],[-6073,-2790],[-6602,-254],[-13219,4917],[-8899,-1854],[-7979,-6223],[-9834,409],[-11399,7102],[-8303,2165]],[[762947,71757],[9817,14262],[85,9482],[-3369,4799],[-5240,2615],[-7418,526],[-4441,5093],[7571,8389],[-3028,4136],[-10753,-2049],[-18834,20642],[-2501,5599],[-7435,7141],[136,4585],[4117,5989],[-595,6282],[-2501,6536],[-5547,3473]],[[713011,179257],[-7639,1229],[-37124,507]],[[668248,180993],[-3096,10731],[-14768,13754],[-17031,7453]],[[633353,212931],[4237,5287],[5240,11257]],[[642830,229475],[28651,4312]],[[671481,233787],[4100,-2907],[-4934,-3765],[10787,-7219],[10038,-1736],[8167,1755],[37838,-13852],[24942,-760]],[[762419,205303],[9358,4097],[18290,4116],[1650,-6184],[-1293,-4117],[-6380,-7687],[1990,-4780]],[[786034,190748],[19362,-722]],[[805396,190026],[34027,5600],[9698,-1893],[24857,1132],[18852,-2263]],[[892830,192602],[-103,-42590],[5207,-16252],[-16623,-5170],[-11977,3375],[-22680,-7824],[14513,-13969],[34,-4038],[-1633,-2068],[-35882,-17169],[-7656,-2322],[-33654,-18378],[-6448,5502],[-12981,58]],[[685228,459731],[2484,-8682],[8388,-18593],[15959,-3160],[2433,-3941],[-3488,-2966],[-11638,-2770],[-7281,2126],[-5275,-2497],[426,-5404],[-9715,-3434],[-545,-9072],[5053,-1932],[4458,-3804],[2705,-4819],[19430,-8877],[3556,-5736]],[[712178,376170],[4781,-17754]],[[716959,358416],[4389,-4760],[-1905,-5034],[-6330,-3531],[-15176,-1600]],[[697937,343491],[-13441,-3473],[-9170,-2751]],[[675326,337267],[-5053,-3199]],[[670273,334068],[-5598,5190],[-12505,-215],[-7299,-2458],[-13066,-761],[-40101,2380],[-13509,4058]],[[578195,342262],[5019,7414],[1140,6594],[-4305,5346],[12301,7628],[-391,7121],[-7776,1015],[-29876,-6575],[-5801,2068],[-4832,5209],[-20842,-2712],[-5359,7356],[-7725,409]],[[509748,383135],[-3624,4566]],[[506124,387701],[7674,7043],[3504,7433],[6006,7706],[8048,6926],[18204,5970],[34385,8292],[8252,4839],[18273,5521]],[[145297,282757],[-2790,-371],[-647,1971],[3403,839],[34,-2439]],[[132316,201966],[-1770,11472],[1821,8838],[4389,3492],[13339,2771],[-204,7784],[-7911,5814],[-18937,3590],[-8881,5931],[-7044,10809],[-680,9481],[-7997,7590],[-153,6809],[3726,5911],[-1140,7004],[1379,13306],[-2978,7804],[-7299,6185]],[[91976,326557],[13458,4760],[851,5131],[-8218,9365],[-1548,6360],[5495,5365],[4781,78],[749,-2302],[2977,-1639],[6414,1561],[7316,4546],[6704,-527],[6499,-2322],[2552,-4877],[8524,-137],[8507,5444],[5325,-742],[16384,-10847],[4543,-6009],[4321,-9170]],[[187610,330595],[-6907,-9813],[-1225,-8897],[7180,-9852],[2824,-7882],[-4219,-3785],[-630,-6770],[14258,-8116],[-2314,-10380],[6873,-3921],[1310,-6204],[11348,-3551],[3505,-5521],[-4151,-2985]],[[215462,242918],[-13798,-1444],[-9953,-3590],[-4458,-4253],[-6959,-12584],[6466,-12369],[-2280,-4000],[-8949,-1951],[-30778,1015],[-12437,-1776]],[[714951,313719],[-2110,-702],[-1463,2029],[1361,819],[2739,-1112],[-527,-1034]],[[830610,282133],[-16384,-2225],[-8898,4176],[-3930,5638],[-1344,7589],[-4390,3434],[-8524,-839],[-3590,4975],[-6482,1580],[-14751,-6028],[-1531,-7570],[-3369,-5034],[-4593,-1541],[-3284,-7082],[-24585,-254],[-6754,-2302],[2024,-5736],[-7043,-5599],[1939,-6516],[4237,-4585],[-3624,-3590],[-7265,-2829],[85,-4916],[2739,-4975],[14632,-3590],[10004,-5561],[5887,-8330],[11688,741],[8915,-15861]],[[671481,233787],[-4985,-351]],[[666496,233436],[-3726,6984],[2909,1912],[12812,2771],[-1634,10203],[-5019,3434],[-3113,5053],[2586,9033],[3113,5366],[5326,3667],[850,2888],[-12199,9326],[-2245,9306],[-5819,5131],[-8949,4487],[15397,13891],[3488,7180]],[[675326,337267],[22611,6224]],[[716959,358416],[-1259,3473]],[[715700,361889],[27783,-2595],[2739,-15022],[2688,-6341],[14496,273],[6414,-2361],[4594,-4702],[7299,527],[4338,2029],[3352,3688],[1021,5540],[-4628,6224],[-5597,2946],[-5326,9248],[-4815,16603],[6551,6184],[29944,14301],[6976,7043]],[[813529,405474],[7860,-1268],[10021,-2458],[6193,-4897],[-2841,-1639],[-13101,-1737],[-9749,-8272],[-3369,-7082],[-4865,-4624],[-7640,-3414],[6466,-2926],[6992,604],[-170,-4584],[2212,-7590],[5938,-3043],[9595,-11609],[-1922,-5579],[-4628,-3980],[-953,-8175],[12267,-546],[7810,-6731],[5257,-7375],[-2620,-9345],[-12573,-14086],[901,-2985]],[[559309,515744],[-3947,1834],[-4389,-5736],[-7503,-3317],[-25215,5619],[-6210,-683],[-2824,-5345],[-42841,-5288]],[[466380,502828],[-17388,14145],[9647,2400],[16384,936],[2331,5600],[-28923,3199],[-7486,7024],[-7656,18515],[-8796,1658],[-19941,26963]],[[499438,637934],[11365,4644]],[[510803,642578],[15432,9189]],[[526235,651767],[8404,-6068],[13969,-6165],[6958,-7218],[13271,1307],[9800,-4585],[14904,-2107],[1531,-3239],[-18596,-1131],[28992,-24524]],[[666496,233436],[-34742,-5756],[-10787,-390]],[[620967,227290],[-8847,6790],[-6823,10906],[-3385,9169],[0,7414],[-2927,2849],[-10599,-352],[-5036,1503],[-17660,18690],[3487,8370],[-3470,9150],[3981,2985],[2007,3765],[-136,5288],[-4781,5209],[-8081,2985],[-5342,-4097],[-2059,-6458],[-2382,-1775],[-3556,955],[-3028,7961],[3845,12837],[19259,1717],[4441,4604],[8320,4507]],[[332244,586740],[-46413,-15139],[-7997,-7453],[-1616,-6438],[5427,-13384],[596,-15686],[-5649,-5053],[-10804,-5560],[-5257,-5541],[-2041,-4058],[2211,-5756],[-50598,-19666],[4746,-7530],[17882,-13657],[-1259,-5970],[5682,-7648],[-11943,-4605],[-13526,11394],[4117,-7511],[-85,-5073],[-4730,-10067]],[[210987,432339],[-14529,800]],[[196458,433139],[-14054,3083],[-7078,3550],[-9884,11297],[-15126,22748],[-7928,390],[-5070,-3999],[-3760,-5385],[-11876,-1366],[-11824,6614],[-37601,9872]],[[72257,479943],[12931,24329],[-85,6399],[-8201,12409],[1140,8135],[-13713,4722],[-1957,3902],[20672,7687],[3573,-1483],[12029,4312],[2654,2731],[-4475,9013],[-7690,7902],[-16929,1853],[-4049,5053],[3182,3688],[8728,2946],[6312,-2634],[6958,273],[18988,8448],[9510,7433],[1123,6965],[-10327,13189],[-2484,8448],[17184,-6341],[8898,2751],[14223,-4487],[11621,1170],[6601,4234],[4730,6789],[9817,-1502]],[[264938,387193],[15040,2185],[52096,16116],[1820,4350],[5122,3551],[9646,3473],[5989,-820],[6925,-5755],[8983,-11921],[5461,-2321],[14377,2243]],[[390397,398294],[6584,4897],[12744,254],[-579,-4955],[1736,-2595],[8847,-1600],[7945,4682],[10804,2185],[4900,-4214],[-4169,-10340],[3080,-2419],[11552,-293],[7571,-4253],[2808,-5170]],[[464220,374473],[-21914,-9619],[-7639,-5560],[-4271,-7472],[528,-6185],[2501,-4663],[32751,4761],[3216,-3532],[-11961,-14749],[1412,-14320],[-5172,-4292],[-17898,3863],[-24211,-9014]],[[411562,303691],[-12250,10009],[-8251,390],[-44627,-5092],[-6891,-2537],[-7078,-4897]],[[332465,301564],[-17405,1190]],[[315060,302754],[-1225,7922],[-5155,13715],[-18698,4273],[-15380,6340],[-5207,11043]],[[269395,346047],[-21046,4897]],[[248349,350944],[1549,6828],[7673,2790],[7724,5307],[2892,9716],[-4542,5248],[1293,6360]],[[403327,240713],[3675,6009],[-5699,2419],[-8371,-4643],[-7163,-1639],[-7214,4273],[-8506,858],[-3760,-3180],[-15347,-3414],[-9544,7238],[-4305,-1053],[-2076,-4819],[-7435,-2517],[-4951,3004],[-3964,-1541],[-10753,-8116],[-21097,761]],[[286817,234353],[-1684,5092],[-7571,5092],[170,4097],[-7078,5638],[11315,11199],[5512,2770],[12743,2147],[4509,5170],[-749,19002],[18392,7024]],[[322376,301584],[10089,-20]],[[411562,303691],[2025,-21832],[3879,-9052],[4475,-5463],[15278,-3590],[3709,-2985]],[[187610,330595],[11502,6692],[15635,2478],[-3164,5853],[18596,6028]],[[230179,351646],[27732,-1990],[11484,-3609]],[[315060,302754],[7316,-1170]],[[286817,234353],[-5767,-3219],[2263,-5112],[-936,-4702],[-5274,-3102],[-7197,-195],[-3488,-1814],[-2059,-8702]],[[264359,207507],[-16163,3473]],[[248196,210980],[-6125,3375],[-6142,6868],[-1225,6965],[-7775,9657],[-11467,5073]],[[978068,623243],[-8677,-5228],[-8677,-2205],[-7537,-58],[-8626,-10341],[-22118,-11432],[-4780,-5112],[1582,-6614],[7316,-4136],[6312,527],[7707,5229],[15074,6555],[7299,-2634],[7894,-5151],[-731,-4331],[-5206,-1385],[-732,-2829],[2841,-16895],[29349,-16720],[3641,-10282],[-5666,-3590],[-13985,-3648],[-9698,741],[-10837,3687],[-9783,332],[-31152,-11920],[-22578,273],[-12726,-9677],[-16571,722],[-8864,-3649],[4389,-5755],[-2093,-5424],[-7894,-9111],[-18766,-9872]],[[833775,473310],[-50667,-2458],[-5359,-3415],[-1600,-6087],[-5240,-1677],[-7044,1268],[-5546,7531],[-8184,3082],[-17,12525],[-10922,4098],[-239,4701],[-8285,2342]],[[730672,495220],[11654,15783]],[[717180,615108],[4457,-800],[13356,5404],[9273,-195],[6601,-3707],[9902,1678],[8507,6848],[4594,6263]],[[773870,630599],[10514,1229],[21641,7336],[4934,-2029],[4747,-4176],[41531,293],[12505,-4994],[85086,-586],[23240,-4429]],[[177896,409044],[-2178,-643],[-2178,2750],[4509,391],[986,-1405],[-1139,-1093]],[[91976,326557],[-2841,2360],[-2297,6946],[-7010,4175],[-10140,13345],[-1752,7940],[-20144,-1814],[-9205,-5053],[-12369,-781],[-8983,3258],[-1633,7492],[-5053,6068],[170,5150],[13151,15589],[8133,546],[3981,-2107],[13254,6009],[10531,17266],[-663,4683],[-12829,-390],[-8643,3433],[-11671,18340],[1957,6067],[8523,6302],[18886,4351],[11450,702],[5002,4038],[-3216,3142],[-42313,-3005],[-5461,6555],[6550,6107],[20927,1229],[11842,-2302],[7486,3609],[4661,4136]],[[196458,433139],[26252,-1483]],[[222710,431656],[13373,-3492],[16009,-13384],[4373,-9735],[1446,-9443],[7027,-8409]],[[248349,350944],[-18170,702]],[[833775,473310],[-5291,-4526],[7435,-18613],[-1736,-4975],[-12012,-3707],[-9136,391],[-12131,3823],[-5665,-1404],[-1668,-4585],[1736,-4312],[12794,-10262],[-7163,-5755],[545,-4800],[4406,-6282],[7640,-2829]],[[715700,361889],[-3522,14281]],[[725210,488489],[5462,6731]],[[762947,71757],[-15925,1230],[-6823,-11745],[-4900,-1678],[-9629,1073],[-7623,-17520],[-26201,2965]],[[691846,46082],[970,1327],[-5138,17598],[3947,2926],[6499,976],[1174,3726],[-11110,5756],[-680,12525],[-6380,3044],[-4577,-1386],[-4526,1815],[-884,3375],[-16146,-137],[-2042,5717],[5393,1444]],[[658346,104788],[-2926,9072],[1616,5365],[-3709,1853],[-14393,2049],[-7044,5892],[-3879,5424],[-17,3785],[5614,1131],[7163,-936],[3522,-2478],[5478,-1015],[8779,2517],[-3743,11335]],[[654807,148782],[3250,3142],[8337,14164]],[[666394,166088],[1854,14905]],[[668248,180993],[44763,-1736]],[[326579,142286],[7179,4175],[10804,-98],[8762,-1853],[6721,800],[3436,6731],[4509,4175],[5632,273],[8166,3512],[4117,3472],[-1088,3902],[15686,7141],[2280,5424],[-5819,4467],[-14461,6966],[-681,4604],[1327,2868],[3709,2770],[8677,-780],[6227,-2829],[8524,2595]],[[410286,200601],[-34,4955]],[[462552,165971],[3879,-4254],[-782,-3277],[11263,-6790],[323,-5053],[19294,-19997],[-1838,-2985],[-13764,-5522],[-25367,-4428],[-6381,-4117]],[[449179,109548],[-3113,7804],[-11008,1210],[528,8701],[-23752,1600],[-4287,2887],[-5717,644],[-30931,1834],[-2007,-2224],[-7554,-2575],[-4101,-12194],[5887,-800],[3165,1541],[7247,273],[8303,-1112],[7895,-10476],[1786,-8429],[-28583,7824],[-10327,-14789],[-3131,-585],[-7758,1834],[-8830,6458],[7213,16661],[-6635,4273],[221,2204],[-3232,3239],[1003,3200],[8252,292],[2841,2459],[10447,-1542],[-562,5522],[-12641,1970],[-13219,5034]],[[805396,190026],[-10429,176],[-8933,546]],[[830610,282133],[1787,-2010],[30471,1932],[664,-6068],[10174,-15374],[732,7141],[3453,3512],[15143,-10594],[5138,-16818],[9817,-1522],[6142,-4136],[3862,-16193],[-3352,-5151],[-13866,-1365],[-5036,-3688],[-2909,-19197]],[[464220,374473],[13219,3004],[8967,9502]],[[486406,386979],[16707,4506]],[[503113,391485],[6635,-8350]],[[620967,227290],[21863,2185]],[[633353,212931],[-26745,2009],[-17218,5268]],[[589390,220208],[-10855,6224],[-9698,7082]],[[568837,233514],[-17592,16798],[-9324,6419],[-12233,4506],[-17932,-1248],[-22611,-6243]],[[565690,113996],[782,4683],[-9391,1131],[-443,2127],[-10089,722],[-919,-625],[2331,-3004],[-1752,-2673],[-7197,-4136],[-13152,-2966],[-34,-1970],[4458,-7004],[-1752,-2010],[-18001,7648],[-2790,137],[731,-5151],[-1344,-1463],[-19106,-468],[-15006,4448],[-19855,2809],[-3982,3317]],[[462552,165971],[22748,1541]],[[502381,174321],[10124,4116],[4849,-1716],[6005,117]],[[523359,176838],[35576,5501],[5410,3376],[596,3199],[3250,4488],[5903,2165],[7367,-1619],[10157,-4702],[2161,-7199],[51,-18242],[4849,-2673],[8286,3356],[9715,-800],[-2195,-3453],[1616,-6400],[11433,586],[7333,5385],[6772,663],[9034,-644],[9749,-3297]],[[660422,156528],[-5615,-7746]],[[658346,104788],[-19872,4545],[-5955,-1014],[-2535,-3336],[-476,-9053],[-7928,-3843],[-9137,2848],[-10701,-214],[-10957,-5444],[-5666,2263],[-527,12019],[-2876,5111],[-5852,683],[-10174,4643]],[[285303,179120],[-10140,-1424],[2926,-4429],[7946,-4175],[4287,-4643],[-4968,-5638],[-2467,-5892],[13271,-4722],[5632,-3980],[-1140,-7238],[-2774,-2946],[-13185,4273],[459,3707],[-5989,2321],[-442,3824],[-6074,3356],[-43606,5053],[-3998,-3941],[-3097,-7063],[3437,-6789],[170,-3668],[-4373,-3609],[-11109,-3376],[-12046,2732],[-11927,-1522],[-1786,2107],[1191,4546],[-1668,2595],[-25078,5306],[-6329,-409],[-5240,-6224],[-12863,-7531],[-4423,-195],[-6397,2517],[-1089,6555],[-2416,3727],[-9647,6223],[6840,7317],[-1055,4350],[-1787,1932],[-11892,3141],[-1566,4136],[222,5072],[2467,1581],[10446,-3649],[19055,-1268],[3488,5990],[1446,7862],[-5699,16954]],[[248196,210980],[23190,-6009]],[[271386,204971],[9647,-15647],[4270,-10204]],[[691846,46082],[-2620,293],[-5155,-17286],[7435,-2438],[-13849,-23705],[-20757,5346],[1123,4506],[-3539,2654],[85,7687],[-6125,1678],[1702,4019],[-12301,1775],[-3148,-10106],[-14887,995],[1804,13520],[-29111,4468],[-11858,-12116],[-15126,6478],[-11892,936],[-4339,-12681],[-8728,1463],[-2943,-8701],[-22084,-14867],[-12182,6048],[3709,7316],[-68,3336],[-6295,1308],[-1786,2282],[-18069,4449],[6125,13793],[-3879,1171],[-153,6165],[11926,1326],[5275,15277],[-1991,5638],[18273,3590],[-4169,6224],[5683,7218],[38485,-3960],[9273,32815]],[[506124,387701],[-3011,3784]],[[503113,391485],[-6108,-682],[-10599,-3824]],[[390397,398294],[-1089,7395],[13730,11257],[-5597,6536],[17762,15608],[9307,-3980],[9340,8506],[-8524,4195],[-7214,12057],[-11297,14008],[23905,4955],[-102,6887],[35762,17110]],[[773870,630599],[-1328,8408],[-7111,7414],[-11876,4702],[-578,12994],[14342,1600],[-748,6496],[-6466,1464],[-3470,3531],[3419,3317],[11961,5384],[-20076,1581],[-9034,7901],[-392,5443],[5530,5346],[10276,5170],[6993,1132],[7979,-2849],[16997,6790],[2739,4448],[-1072,4136],[-14087,6126],[-3794,5951]],[[774074,737084],[10871,4331],[19600,6204]],[[804545,747619],[12675,-4390],[16912,3629],[8796,-195],[12761,-7063],[6329,742],[2007,7687],[21948,2497],[8439,2341],[1225,5034],[-3182,5150],[2093,5619],[6108,3122],[391,5404],[12199,14262]],[[913246,791458],[5615,-5951],[4202,-19919],[10293,858],[8371,2497],[8081,-7628],[17167,-23158],[7861,-18066],[4832,-18203],[-987,-16681],[7026,-4058],[4424,-4839],[851,-10593],[-2161,-12214],[1957,-10886],[-630,-10145],[-12080,-9229]],[[326579,142286],[-7129,3960],[4066,8448],[-7877,3356],[1225,5404],[-3403,7062],[-14649,7551],[-13509,1053]],[[271386,204971],[-7027,2536]],[[408704,211058],[1582,-10457]],[[670426,671589],[-2178,-390],[-1174,2575],[4815,429],[681,-1034],[-2144,-1580]],[[526235,651767],[12352,8760]],[[538587,660527],[7043,10262],[2842,6868],[10361,3043],[11416,5619],[9086,7297],[7520,-8058],[85,-5736],[3045,-5541],[5666,-2965],[8064,897],[16912,6204],[10106,625],[10634,3063],[1071,8292],[-7860,3004],[-3964,8389],[5495,5775],[-9272,10301],[-1838,14106],[-4627,8409],[-9273,6497],[426,-11004],[-2502,-4663],[-12845,605],[-7690,4956],[-1361,10008],[1140,6243],[-7197,3746],[-2977,8663],[7860,10223],[2535,11198],[-1548,10750],[-7588,15940],[16299,-4565],[-4968,14905],[-8796,2790],[-426,5268],[-9136,-1893]],[[572325,830048],[-15585,10867],[3046,10009],[4576,5365],[46006,-1034],[986,6575],[-1191,8350],[24296,40522]],[[634459,910702],[13968,4370],[36205,21793],[22748,3726],[10701,11375],[15891,7413],[30676,5873],[1446,8565],[3794,5482],[22986,15862],[13526,4838],[30539,-25948],[-38161,-14574],[-9545,-5463],[-3964,-5697],[14019,-11803],[19549,-7668],[-24993,-15373],[1020,-7980],[32088,-16525],[20791,-4877],[19498,-6907],[6873,-14398],[5173,-30201],[-7265,-14808],[19634,-956],[8217,-7219],[7231,-11628],[6142,-6516]],[[804545,747619],[-30471,-10535]],[[568837,233514],[20553,-13306]],[[666394,166088],[-5972,-9560]],[[523359,176838],[-10327,1424]],[[192970,753413],[-6568,2459],[-5002,10281],[20536,4936],[1888,3044],[-6584,5970],[3318,6750],[-6142,7063],[-6908,3746],[6397,17364],[16810,-254],[11484,7433],[-357,7492],[-7401,17052],[51926,36639],[-7061,7043],[-3215,6127],[102,2946],[-4577,5384]],[[251616,904888],[16656,195],[12999,-4116],[16469,-14242],[77226,1170],[34061,-7394],[29553,9384],[-6499,4702],[9919,5053],[21845,15062],[26746,1190],[53627,-3473],[34929,820],[55312,-2537]],[[572325,830048],[-4883,-3531],[-12811,-4390],[-21131,-5150],[3198,-7453],[-16146,-3161],[204,-4936],[-13730,-14496],[7554,-6906],[-3981,-1990],[-15772,956],[-15431,-9560],[4117,-11062],[-1123,-9345]],[[482390,749024],[-3556,-6692]],[[308646,474481],[-5206,-1152],[-902,2342],[4083,1756],[2314,-586],[-289,-2360]],[[222710,431656],[-11723,683]],[[114945,743190],[-8048,13130],[-3692,1113],[-5955,-2283],[-9442,4546],[-12794,-2088],[-7555,-3531],[-3453,-7258],[-1412,-12935],[-22067,-683],[-2467,2419],[-17,2537],[-6278,6594],[-9188,-488],[-11127,5385],[-11450,10809],[715,4916],[48540,24231],[3607,4546],[986,4604],[-8626,1639],[-8881,12955],[-2177,9189],[-6193,7238],[-6057,4546],[-9358,3785],[868,10672],[8251,47897],[15449,26923],[25776,34084],[11280,20759],[2807,11745],[6891,-839],[10412,-8858],[7656,722],[13696,-2887],[1515,-11882],[7537,-3024],[15703,19],[7605,-3589],[409,-4000],[-4815,-10496],[-4185,-15198],[2790,-14477],[-1429,-9774],[9323,-12838],[18273,3258],[18137,859],[65111,7706]],[[471859,720091],[3198,12193],[7333,16740]],[[538587,660527],[-27784,-17949]]],"bbox":[70.4209,53.446,76.2985,58.5716],"transform":{"scale":[0.000005877605877605879,0.000005125605125605124],"translate":[70.4209,53.446]}}