{"type":"Topology","objects":{"muni":{"type":"GeometryCollection","geometries":[{"type":"MultiPolygon","arcs":[[[0,1,2,3]]],"properties":{"GID_2":"RUS.52.1_1","GID_0":"RUS","COUNTRY":"Russia","GID_1":"RUS.52_1","NAME_1":"Orel","NL_NAME_1":"Орловскаяобласть","NAME_2":"Bolkhovskiyrayon","VARNAME_2":"NA","NL_NAME_2":"Болховскийрайон","TYPE_2":"Raion","ENGTYPE_2":"District","CC_2":"R15000","HASC_2":"RU.OL.BO"}},{"type":"MultiPolygon","arcs":[[[4,5,6,7,8,9,10]]],"properties":{"GID_2":"RUS.52.2_1","GID_0":"RUS","COUNTRY":"Russia","GID_1":"RUS.52_1","NAME_1":"Orel","NL_NAME_1":"Орловскаяобласть","NAME_2":"Dmitrovskiyrayon","VARNAME_2":"NA","NL_NAME_2":"Дмитровскийрайон","TYPE_2":"Raion","ENGTYPE_2":"District","CC_2":"R15000","HASC_2":"RU.OL.DM"}},{"type":"MultiPolygon","arcs":[[[11,12,13]]],"properties":{"GID_2":"RUS.52.3_1","GID_0":"RUS","COUNTRY":"Russia","GID_1":"RUS.52_1","NAME_1":"Orel","NL_NAME_1":"Орловскаяобласть","NAME_2":"Dolzhanskiyrayon","VARNAME_2":"NA","NL_NAME_2":"Должанскийрайон","TYPE_2":"Raion","ENGTYPE_2":"District","CC_2":"R15000","HASC_2":"RU.OL.DO"}},{"type":"MultiPolygon","arcs":[[[14,15,16,17,18,19,20]]],"properties":{"GID_2":"RUS.52.4_1","GID_0":"RUS","COUNTRY":"Russia","GID_1":"RUS.52_1","NAME_1":"Orel","NL_NAME_1":"Орловскаяобласть","NAME_2":"Glazunovskiyrayon","VARNAME_2":"NA","NL_NAME_2":"Глазуновскийрайон","TYPE_2":"Raion","ENGTYPE_2":"District","CC_2":"R15000","HASC_2":"RU.OL.GL"}},{"type":"MultiPolygon","arcs":[[[21,22,23,24]]],"properties":{"GID_2":"RUS.52.5_1","GID_0":"RUS","COUNTRY":"Russia","GID_1":"RUS.52_1","NAME_1":"Orel","NL_NAME_1":"Орловскаяобласть","NAME_2":"Khotynetskiyrayon","VARNAME_2":"NA","NL_NAME_2":"Хотынецкийрайон","TYPE_2":"Raion","ENGTYPE_2":"District","CC_2":"R15002","HASC_2":"RU.OL.KH"}},{"type":"MultiPolygon","arcs":[[[25,26,27,28,29,-12]]],"properties":{"GID_2":"RUS.52.6_1","GID_0":"RUS","COUNTRY":"Russia","GID_1":"RUS.52_1","NAME_1":"Orel","NL_NAME_1":"Орловскаяобласть","NAME_2":"Kolpnyanskiyrayon","VARNAME_2":"NA","NL_NAME_2":"Колпнянскийрайон","TYPE_2":"Raion","ENGTYPE_2":"District","CC_2":"R15000","HASC_2":"RU.OL.KL"}},{"type":"MultiPolygon","arcs":[[[30,31,32,33,34]]],"properties":{"GID_2":"RUS.52.7_1","GID_0":"RUS","COUNTRY":"Russia","GID_1":"RUS.52_1","NAME_1":"Orel","NL_NAME_1":"Орловскаяобласть","NAME_2":"Korsakovskiyrayon","VARNAME_2":"NA","NL_NAME_2":"Корсаковскийрайон","TYPE_2":"Raion","ENGTYPE_2":"District","CC_2":"R15001","HASC_2":"RU.OL.KS"}},{"type":"MultiPolygon","arcs":[[[35,36,37,38,39]]],"properties":{"GID_2":"RUS.52.8_1","GID_0":"RUS","COUNTRY":"Russia","GID_1":"RUS.52_1","NAME_1":"Orel","NL_NAME_1":"Орловскаяобласть","NAME_2":"Krasnozorenskiyrayon","VARNAME_2":"NA","NL_NAME_2":"Краснозоренскийрайон","TYPE_2":"Raion","ENGTYPE_2":"District","CC_2":"R15000","HASC_2":"RU.OL.KZ"}},{"type":"MultiPolygon","arcs":[[[40,-8,41,42,43,44,45,46,47,48,49]]],"properties":{"GID_2":"RUS.52.9_1","GID_0":"RUS","COUNTRY":"Russia","GID_1":"RUS.52_1","NAME_1":"Orel","NL_NAME_1":"Орловскаяобласть","NAME_2":"Kromskiyrayon","VARNAME_2":"NA","NL_NAME_2":"Кромскийрайон","TYPE_2":"Raion","ENGTYPE_2":"District","CC_2":"R15001","HASC_2":"RU.OL.KR"}},{"type":"MultiPolygon","arcs":[[[-13,-30,50,-37,51],[52]]],"properties":{"GID_2":"RUS.52.10_1","GID_0":"RUS","COUNTRY":"Russia","GID_1":"RUS.52_1","NAME_1":"Orel","NL_NAME_1":"Орловскаяобласть","NAME_2":"Livenskiyrayon","VARNAME_2":"NA","NL_NAME_2":"Ливенскийрайон","TYPE_2":"Raion","ENGTYPE_2":"District","CC_2":"R15001","HASC_2":"RU.OL.LR"}},{"type":"MultiPolygon","arcs":[[[-53]]],"properties":{"GID_2":"RUS.52.11_1","GID_0":"RUS","COUNTRY":"Russia","GID_1":"RUS.52_1","NAME_1":"Orel","NL_NAME_1":"Орловскаяобласть","NAME_2":"Livny","VARNAME_2":"NA","NL_NAME_2":"Ливны","TYPE_2":"Gorod","ENGTYPE_2":"City","CC_2":"NA","HASC_2":"RU.OL.LG"}},{"type":"MultiPolygon","arcs":[[[-21,53,54,-27,55]]],"properties":{"GID_2":"RUS.52.12_1","GID_0":"RUS","COUNTRY":"Russia","GID_1":"RUS.52_1","NAME_1":"Orel","NL_NAME_1":"Орловскаяобласть","NAME_2":"Maloarkhangel'skiyrayon","VARNAME_2":"NA","NL_NAME_2":"Малоархангельскийрайон","TYPE_2":"Raion","ENGTYPE_2":"District","CC_2":"R15001","HASC_2":"RU.OL.MA"}},{"type":"MultiPolygon","arcs":[[[56]]],"properties":{"GID_2":"RUS.52.13_1","GID_0":"RUS","COUNTRY":"Russia","GID_1":"RUS.52_1","NAME_1":"Orel","NL_NAME_1":"Орловскаяобласть","NAME_2":"Mtsensk","VARNAME_2":"NA","NL_NAME_2":"Мценск","TYPE_2":"Gorod","ENGTYPE_2":"City","CC_2":"NA","HASC_2":"RU.OL.MG"}},{"type":"MultiPolygon","arcs":[[[-2,57,58,59,60,61,62],[-57]]],"properties":{"GID_2":"RUS.52.14_1","GID_0":"RUS","COUNTRY":"Russia","GID_1":"RUS.52_1","NAME_1":"Orel","NL_NAME_1":"Орловскаяобласть","NAME_2":"Mtsenskiyrayon","VARNAME_2":"NA","NL_NAME_2":"Мценскийрайон","TYPE_2":"Raion","ENGTYPE_2":"District","CC_2":"R15001","HASC_2":"RU.OL.MR"}},{"type":"MultiPolygon","arcs":[[[-40,63,64,65,66,-32,67]]],"properties":{"GID_2":"RUS.52.15_1","GID_0":"RUS","COUNTRY":"Russia","GID_1":"RUS.52_1","NAME_1":"Orel","NL_NAME_1":"Орловскаяобласть","NAME_2":"Novodereven'kovskiyrayon","VARNAME_2":"NA","NL_NAME_2":"Новодеревеньковскийрайон","TYPE_2":"Raion","ENGTYPE_2":"District","CC_2":"R15001","HASC_2":"RU.OL.ND"}},{"type":"MultiPolygon","arcs":[[[68,-34,69,-66,70,71,72,-60]]],"properties":{"GID_2":"RUS.52.16_1","GID_0":"RUS","COUNTRY":"Russia","GID_1":"RUS.52_1","NAME_1":"Orel","NL_NAME_1":"Орловскаяобласть","NAME_2":"Novosil'skiyrayon","VARNAME_2":"NA","NL_NAME_2":"Новосильскийрайон","TYPE_2":"Raion","ENGTYPE_2":"District","CC_2":"R15001","HASC_2":"RU.OL.NS"}},{"type":"MultiPolygon","arcs":[[[73]]],"properties":{"GID_2":"RUS.52.17_1","GID_0":"RUS","COUNTRY":"Russia","GID_1":"RUS.52_1","NAME_1":"Orel","NL_NAME_1":"Орловскаяобласть","NAME_2":"Orel","VARNAME_2":"Oryol","NL_NAME_2":"Орёл","TYPE_2":"Gorod","ENGTYPE_2":"City","CC_2":"NA","HASC_2":"RU.OL.OG"}},{"type":"MultiPolygon","arcs":[[[-3,-63,74,75,76,-45,77,78,79],[-74]]],"properties":{"GID_2":"RUS.52.18_1","GID_0":"RUS","COUNTRY":"Russia","GID_1":"RUS.52_1","NAME_1":"Orel","NL_NAME_1":"Орловскаяобласть","NAME_2":"Orlovskiyrayon","VARNAME_2":"NA","NL_NAME_2":"Орловскийрайон","TYPE_2":"Raion","ENGTYPE_2":"District","CC_2":"R15001","HASC_2":"RU.OL.OR"}},{"type":"MultiPolygon","arcs":[[[-28,-55,80,81,82]]],"properties":{"GID_2":"RUS.52.19_1","GID_0":"RUS","COUNTRY":"Russia","GID_1":"RUS.52_1","NAME_1":"Orel","NL_NAME_1":"Орловскаяобласть","NAME_2":"Pokrovskiyrayon","VARNAME_2":"NA","NL_NAME_2":"Покровскийрайон","TYPE_2":"Raion","ENGTYPE_2":"District","CC_2":"R15001","HASC_2":"RU.OL.PO"}},{"type":"MultiPolygon","arcs":[[[83,-25,84,85,86,-5]]],"properties":{"GID_2":"RUS.52.20_1","GID_0":"RUS","COUNTRY":"Russia","GID_1":"RUS.52_1","NAME_1":"Orel","NL_NAME_1":"Орловскаяобласть","NAME_2":"Shablykinskiyrayon","VARNAME_2":"NA","NL_NAME_2":"Шаблыкинскийрайон","TYPE_2":"Raion","ENGTYPE_2":"District","CC_2":"R15002","HASC_2":"RU.OL.SH"}},{"type":"MultiPolygon","arcs":[[[-7,87,-86,88,89,-42]]],"properties":{"GID_2":"RUS.52.21_1","GID_0":"RUS","COUNTRY":"Russia","GID_1":"RUS.52_1","NAME_1":"Orel","NL_NAME_1":"Орловскаяобласть","NAME_2":"Soskovskiyrayon","VARNAME_2":"NA","NL_NAME_2":"Сосковскийрайон","TYPE_2":"Raion","ENGTYPE_2":"District","CC_2":"R15001","HASC_2":"RU.OL.SO"}},{"type":"MultiPolygon","arcs":[[[-19,90,-47,91,-76,92,-81,93]]],"properties":{"GID_2":"RUS.52.22_1","GID_0":"RUS","COUNTRY":"Russia","GID_1":"RUS.52_1","NAME_1":"Orel","NL_NAME_1":"Орловскаяобласть","NAME_2":"Sverdlovskiyrayon","VARNAME_2":"NA","NL_NAME_2":"Свердловскийрайон","TYPE_2":"Raion","ENGTYPE_2":"District","CC_2":"R15001","HASC_2":"RU.OL.SV"}},{"type":"MultiPolygon","arcs":[[[-10,94,-50,95,-16,96]]],"properties":{"GID_2":"RUS.52.23_1","GID_0":"RUS","COUNTRY":"Russia","GID_1":"RUS.52_1","NAME_1":"Orel","NL_NAME_1":"Орловскаяобласть","NAME_2":"Trosnyanskiyrayon","VARNAME_2":"NA","NL_NAME_2":"Троснянскийрайон","TYPE_2":"Raion","ENGTYPE_2":"District","CC_2":"R15002","HASC_2":"RU.OL.TR"}},{"type":"MultiPolygon","arcs":[[[-24,97,98,-78,99,100,-89,-85]]],"properties":{"GID_2":"RUS.52.24_1","GID_0":"RUS","COUNTRY":"Russia","GID_1":"RUS.52_1","NAME_1":"Orel","NL_NAME_1":"Орловскаяобласть","NAME_2":"Uritskiyrayon","VARNAME_2":"NA","NL_NAME_2":"Урицкийрайон","TYPE_2":"Raion","ENGTYPE_2":"District","CC_2":"R15002","HASC_2":"RU.OL.UR"}},{"type":"MultiPolygon","arcs":[[[101,-83,102,-71,-65,103,-38,-51]]],"properties":{"GID_2":"RUS.52.25_1","GID_0":"RUS","COUNTRY":"Russia","GID_1":"RUS.52_1","NAME_1":"Orel","NL_NAME_1":"Орловскаяобласть","NAME_2":"Verkhovskiyrayon","VARNAME_2":"NA","NL_NAME_2":"Верховскийрайон","TYPE_2":"Raion","ENGTYPE_2":"District","CC_2":"R15000","HASC_2":"RU.OL.VE"}},{"type":"MultiPolygon","arcs":[[[-62,104,-72,-103,-82,-93,-75]]],"properties":{"GID_2":"RUS.52.26_1","GID_0":"RUS","COUNTRY":"Russia","GID_1":"RUS.52_1","NAME_1":"Orel","NL_NAME_1":"Орловскаяобласть","NAME_2":"Zalegoshchenskiyrayon","VARNAME_2":"NA","NL_NAME_2":"Залегощенскийрайон","TYPE_2":"Raion","ENGTYPE_2":"District","CC_2":"R15000","HASC_2":"RU.OL.ZA"}},{"type":"MultiPolygon","arcs":[[[105,-4,-80,106,-98,-23]]],"properties":{"GID_2":"RUS.52.27_1","GID_0":"RUS","COUNTRY":"Russia","GID_1":"RUS.52_1","NAME_1":"Orel","NL_NAME_1":"Орловскаяобласть","NAME_2":"Znamenskiyrayon","VARNAME_2":"NA","NL_NAME_2":"Знаменскийрайон","TYPE_2":"Raion","ENGTYPE_2":"District","CC_2":"R15000","HASC_2":"RU.OL.ZN"}}]}},"arcs":[[[232486,881028],[17047,50071],[11957,-178],[11867,19007],[9999,-20908],[29095,3148],[10270,26491],[46774,41340],[6627,-1901],[5993,-37122],[17168,6117],[13824,-15086],[43040,-15206],[7680,-28807],[17740,-21205]],[[481567,886789],[-45299,3208],[-24305,-104894],[-35781,-12414]],[[376182,772689],[-3283,-7900],[-27378,18650],[-17650,-534]],[[327871,782905],[1838,59218],[-22649,10573],[-30571,-4217],[-34245,18056],[723,10395],[-10481,4098]],[[84151,441732],[8042,-3267],[8072,10157]],[[100265,448622],[31594,-25957]],[[131859,422665],[11205,-48111],[15119,-8494],[14096,38014],[7108,4277]],[[179387,408351],[20631,-14909],[21294,60],[5180,-8494]],[[226492,385008],[-25149,-36054]],[[201343,348954],[2048,-18234],[10180,-10692],[4428,-12295]],[[217999,307733],[-10271,4217],[-6355,-30351],[-14457,20016],[-13613,-1900],[-2952,-31540],[-23523,2198],[-30,10275],[-21595,6178],[-13252,-23759],[-40088,-5346],[-16294,-7424],[-19246,24827],[-17077,-5048],[1385,34450],[15541,5048],[-5782,13662],[19276,2613],[241,17344],[27167,15680],[-20812,21740],[11565,19838],[-12650,31005],[4669,5761],[14065,-13067],[10240,17582]],[[731823,75255],[25902,33619],[-7560,25421],[13854,2970],[12048,23284]],[[776067,160549],[16294,3266],[11024,-27144],[20721,-8196],[9548,15799],[-2621,18116],[11897,475],[3645,17166],[23733,-297],[3675,-28689],[29757,-22570]],[[903740,128475],[-4217,-9207],[6415,-24293],[-1957,-37657],[-12469,3623],[-6687,-10098],[-5963,-9919],[-512,-22392],[-10542,-3564],[-19637,29758],[-16234,7959],[-10963,-3505],[-15391,-44191],[-12921,-4989],[-44997,49596],[-15842,25659]],[[455876,263483],[-54334,-26550],[-14487,6771]],[[387055,243704],[-20722,32311],[6777,14731],[-4036,20492],[-20662,11701],[23553,27916]],[[371965,350855],[17198,-3386]],[[389163,347469],[66683,32074]],[[455846,379543],[35600,-33677],[19456,15621],[23674,-17997]],[[534576,343490],[-13313,-15028]],[[521263,328462],[-5602,-14433],[-22559,-29282],[-18101,-3861],[-33823,5702],[14698,-23105]],[[131649,636968],[11746,-297],[10812,23818],[-5662,16453],[-24185,10038],[-6506,12473],[-21595,10988],[14819,12355],[-4910,16274],[844,51022],[25630,13364],[15963,-10157],[-1987,26016],[25510,18532]],[[172128,837847],[3102,-45023],[32619,4752],[6264,-8197],[-11234,-30233],[-512,-22808],[34697,-17463]],[[237064,718875],[17047,-19363],[-20571,-25362],[-5542,-19601],[-15451,4039],[-8975,-22511],[5000,-28154],[-12560,-15324],[-17830,5405]],[[178182,598004],[-12529,17284],[-22710,-17522],[-7771,11761],[13674,16215],[-17197,11226]],[[731823,75255],[-2681,6534],[-15511,9563],[-41443,950],[-32468,9147],[-20029,12533],[-23191,27263],[-30691,2257],[-6596,5524],[4096,7899],[-8192,9979],[-20029,-1604]],[[535088,165300],[20029,19126],[17167,-2435],[5693,23640],[15240,15918],[16836,9978],[1265,4396],[-9277,11107]],[[602041,247030],[22830,9028],[12138,-9384],[7801,13661],[2590,17225],[13252,2851],[22107,-22036],[27017,-6950],[9939,15206],[14095,11166]],[[733810,277797],[6627,119],[6264,-4276]],[[746701,273640],[10662,-58981],[18704,-54110]],[[674417,786409],[33401,-3564],[23372,-19897],[28251,11582],[1958,27501],[37438,-713],[8915,-13721],[16354,-5880],[3373,11226],[18463,-6890],[-2198,-52328],[2590,-28273],[7891,-6534]],[[854225,698918],[-34938,-34271],[-10782,13720],[-7078,-1841],[-9759,-16037],[-8885,18888],[-17077,-7009]],[[765706,672368],[3494,-18947]],[[769200,653421],[-4729,0],[-39064,46032]],[[725407,699453],[-50990,13126],[0,73830]],[[934431,550368],[-6054,-9682],[-3404,-20907],[13614,-35163],[-5994,-15503],[-20510,-25303],[632,-22986],[-7770,-11107],[-23553,-1544]],[[881392,408173],[-10662,-6534],[-4879,16928],[-20270,-2554],[-1627,-29639],[-25149,19838]],[[818805,406212],[-542,25719],[-13162,7484],[-9065,39499],[15571,11226]],[[811607,490140],[-8795,14492]],[[802812,504632],[23854,37064],[15873,9028],[22649,-3564],[20752,15028],[10391,-12771],[38100,951]],[[210047,357864],[16445,27144]],[[179387,408351],[13372,16868],[14578,-3207],[14607,30233],[-17348,1841],[8523,21799]],[[213119,475885],[29095,31183]],[[242214,507068],[10662,3266],[11807,-2078]],[[264683,508256],[-2199,-33738],[13433,-5642],[17679,30054],[9638,2257],[17379,-11166],[22468,13423],[17891,2436],[12108,-26075]],[[373080,479805],[-27649,-25184]],[[345431,454621],[2831,-14374],[16143,-26907],[-5029,-9503],[12047,-19839],[21475,-21086],[15511,-8315]],[[408409,354597],[-19246,-7128]],[[389163,347469],[-70297,5643]],[[318866,353112],[-17228,11107],[-7710,15681],[-28703,-1426],[-25842,-30114],[-29336,9504]],[[746701,273640],[9247,29282],[21504,-1544],[-8734,27678],[25420,-11938],[1657,22749],[29877,-8494],[12560,7543],[-2922,17047],[-23040,20373],[6535,29876]],[[881392,408173],[1446,-21324],[25540,2911],[7620,-16156],[10512,2970],[4638,-13602],[13975,-11820],[-17529,-12830],[4909,-14671],[14126,3208],[7138,-13186],[6295,7603],[7620,-11048],[-14939,-17166],[7198,-20551],[19005,772],[5783,-9206],[-8192,-10692],[22317,-21204],[1145,-14137],[-9156,-7484],[783,-23996],[-14698,-12829],[-15300,9325],[-17198,-11761],[783,-11404],[-6114,-9622],[-13192,1544],[-9307,-14136],[-12860,-9206]],[[860550,262592],[2861,14552],[-19216,5524],[-8975,-14315],[6957,-3088],[8132,-14790],[10241,12117]],[[521263,328462],[26143,30708]],[[547406,359170],[14216,-19006],[17318,11938],[17138,-18413],[-12469,-34271],[3313,-20136],[15119,-32252]],[[535088,165300],[-19818,9207],[-13554,13780],[542,7424],[-17559,43182],[-11505,18294],[-17318,6296]],[[546262,799298],[-3102,-13720],[-10542,10572],[5000,7306],[8644,-4158]],[[481567,886789],[39425,-33974],[55569,11641],[-6325,-10751],[11325,-5464],[14607,-46032],[55148,-18591],[13191,14789],[5060,-11463],[4850,-535]],[[674417,786409],[0,-71394]],[[674417,715015],[-29999,-16512],[-29154,-54586]],[[615264,643917],[-11385,17225]],[[603879,661142],[-32167,20848],[-15120,-2851],[-2289,16334],[-23161,11939],[-15963,-32609],[-12740,8553]],[[502439,683356],[-50388,60466],[-12500,-178],[-7017,-17463],[-27890,27560],[-1747,9147],[-26715,9801]],[[802812,504632],[-37588,43597]],[[765224,548229],[-6144,16097],[2319,32371]],[[761399,596697],[16023,12295]],[[777422,608992],[-11716,63376]],[[854225,698918],[17047,-14195],[16927,20135],[17830,-17166],[23733,-56426],[-6867,-19007],[5151,-14077],[-8072,-11167],[14065,-20551],[3042,-4455],[-2650,-11641]],[[674417,715015],[50990,-15562]],[[769200,653421],[8222,-44429]],[[761399,596697],[-18643,31718],[-7861,891],[-10843,-54586],[-24547,15562],[-5090,-29461]],[[694415,560821],[-35811,30055]],[[658604,590876],[-43340,53041]],[[422022,604656],[-40720,-26313],[-19728,17225],[17800,35341],[28493,16275],[1957,-21680],[12198,-20848]],[[502439,683356],[-7981,-20016],[-22529,-15146],[-10421,-18294],[-12590,-6475],[4578,-24293],[39275,-28688],[1084,-20195],[-1988,-20789]],[[491867,529460],[-46804,-35341],[-2500,-32727],[-11686,-11286],[-45178,42410]],[[385699,492516],[-12619,-12711]],[[264683,508256],[12559,23996],[43461,56783],[5060,35163],[-11264,10810],[5933,13186],[-16053,16690],[-10391,18769],[-331,30946]],[[293657,714599],[27408,46804]],[[321065,761403],[6806,21502]],[[547406,359170],[3886,15622],[-19367,35400],[6084,27738],[19547,11939],[-6144,22927],[2289,29045]],[[553701,501841],[14909,2197],[24366,-35697],[13975,832],[9096,-13780],[26474,-3386]],[[642521,452007],[23643,-11463],[13885,34806],[22077,-5227],[13463,-59634],[17137,-13067],[8343,-20076],[-1837,-20017],[3614,-15205],[-18884,-20136],[9848,-44191]],[[84151,441732],[-13884,26966],[10180,16690],[-452,9206],[-22017,-3801],[-8583,18354],[-10903,8553],[-13283,-18294],[-13854,40211],[-11355,15205],[31534,12474],[-3674,30529],[8855,1485],[8162,-9919],[12228,2911],[4548,27975],[15119,-29342],[7229,7544],[27950,5346],[-904,32252],[20602,891]],[[178182,598004],[-4608,-13662],[3072,-12413],[-9126,-8850]],[[167520,563079],[-2440,-23284],[-9849,-10810],[-21474,15681],[-6807,-13008],[5482,-17522],[783,-29164],[-8313,-30351],[-11776,-17166]],[[113126,437455],[-12861,11167]],[[131859,422665],[-18733,14790]],[[167520,563079],[22589,-12771],[5903,-34747],[24999,-1009],[10360,-17701]],[[231371,496851],[-18252,-20966]],[[455846,379543],[-47437,-24946]],[[345431,454621],[40268,37895]],[[491867,529460],[4970,-14908],[56864,-12711]],[[547406,359170],[-12830,-15680]],[[201343,348954],[8704,8910]],[[318866,353112],[53099,-2257]],[[387055,243704],[-13704,-832],[-26595,-21917],[-16595,-2851],[-14849,4158],[-21113,-5168],[-20782,-16393],[-19908,-1604],[-7169,6949],[211,23640],[-7710,31183],[-14638,23818],[4488,18651],[-10692,4395]],[[237064,718875],[-964,30946],[24396,-2257],[6927,11939],[40118,-23224]],[[307541,736279],[-13884,-21680]],[[264683,508256],[-22469,-1188]],[[242214,507068],[-10843,-10217]],[[746701,273640],[-12891,4157]],[[642521,452007],[11355,28867],[10029,1960],[4066,18413],[22439,8197],[4005,51377]],[[765224,548229],[46383,-58089]],[[603879,661142],[54725,-70266]],[[172128,837847],[14336,-2317],[9458,40093],[12529,27679],[20240,7899],[-14517,-36410],[14487,-4989],[3825,11226]],[[321065,761403],[-13524,-25124]]],"bbox":[34.7709,51.9547,38.0911,53.6383],"transform":{"scale":[0.0000033202033202033203,0.000001683601683601682],"translate":[34.7709,51.9547]}}