{"type":"Topology","objects":{"muni":{"type":"GeometryCollection","geometries":[{"type":"MultiPolygon","arcs":[[[0]]],"properties":{"GID_2":"RUS.53.1_1","GID_0":"RUS","COUNTRY":"Russia","GID_1":"RUS.53_1","NAME_1":"Orenburg","NL_NAME_1":"Оренбургскаяобласть","NAME_2":"Abdulino","VARNAME_2":"NA","NL_NAME_2":"Абду́лино","TYPE_2":"Gorod","ENGTYPE_2":"City","CC_2":"NA","HASC_2":"RU.OB.AG"}},{"type":"MultiPolygon","arcs":[[[1,2,3,4,5,6],[-1]]],"properties":{"GID_2":"RUS.53.2_1","GID_0":"RUS","COUNTRY":"Russia","GID_1":"RUS.53_1","NAME_1":"Orenburg","NL_NAME_1":"Оренбургскаяобласть","NAME_2":"Abdulinskiyrayon","VARNAME_2":"NA","NL_NAME_2":"Абдулинскийрайон","TYPE_2":"Raion","ENGTYPE_2":"District","CC_2":"R49000","HASC_2":"RU.OB.AR"}},{"type":"MultiPolygon","arcs":[[[7,8,9,10,11,12,13,14]]],"properties":{"GID_2":"RUS.53.3_1","GID_0":"RUS","COUNTRY":"Russia","GID_1":"RUS.53_1","NAME_1":"Orenburg","NL_NAME_1":"Оренбургскаяобласть","NAME_2":"Adamovskiyrayon","VARNAME_2":"NA","NL_NAME_2":"Адамовскийрайон","TYPE_2":"Raion","ENGTYPE_2":"District","CC_2":"R49000","HASC_2":"RU.OB.AD"}},{"type":"MultiPolygon","arcs":[[[15,16,17]]],"properties":{"GID_2":"RUS.53.4_1","GID_0":"RUS","COUNTRY":"Russia","GID_1":"RUS.53_1","NAME_1":"Orenburg","NL_NAME_1":"Оренбургскаяобласть","NAME_2":"Akbulakskiyrayon","VARNAME_2":"NA","NL_NAME_2":"Акбулакскийрайон","TYPE_2":"Raion","ENGTYPE_2":"District","CC_2":"R49000","HASC_2":"RU.OB.AK"}},{"type":"MultiPolygon","arcs":[[[18,19,20,21,22,23,24,25]]],"properties":{"GID_2":"RUS.53.5_1","GID_0":"RUS","COUNTRY":"Russia","GID_1":"RUS.53_1","NAME_1":"Orenburg","NL_NAME_1":"Оренбургскаяобласть","NAME_2":"Aleksandrovskiyrayon","VARNAME_2":"NA","NL_NAME_2":"Александровскийрайон","TYPE_2":"Raion","ENGTYPE_2":"District","CC_2":"R49000","HASC_2":"RU.OB.AL"}},{"type":"MultiPolygon","arcs":[[[-4,26,27,28,29,30]]],"properties":{"GID_2":"RUS.53.6_1","GID_0":"RUS","COUNTRY":"Russia","GID_1":"RUS.53_1","NAME_1":"Orenburg","NL_NAME_1":"Оренбургскаяобласть","NAME_2":"Asekeevskiyrayon","VARNAME_2":"NA","NL_NAME_2":"Асекеевскийрайон","TYPE_2":"Raion","ENGTYPE_2":"District","CC_2":"R49000","HASC_2":"RU.OB.AS"}},{"type":"MultiPolygon","arcs":[[[-17,31,32,33,34,35,36,37]]],"properties":{"GID_2":"RUS.53.7_1","GID_0":"RUS","COUNTRY":"Russia","GID_1":"RUS.53_1","NAME_1":"Orenburg","NL_NAME_1":"Оренбургскаяобласть","NAME_2":"Belyaevskiyrayon","VARNAME_2":"NA","NL_NAME_2":"Беляевскийрайон","TYPE_2":"Raion","ENGTYPE_2":"District","CC_2":"R49000","HASC_2":"RU.OB.BE"}},{"type":"MultiPolygon","arcs":[[[38]]],"properties":{"GID_2":"RUS.53.8_1","GID_0":"RUS","COUNTRY":"Russia","GID_1":"RUS.53_1","NAME_1":"Orenburg","NL_NAME_1":"Оренбургскаяобласть","NAME_2":"Buguruslan","VARNAME_2":"NA","NL_NAME_2":"Бугуруслан","TYPE_2":"Gorod","ENGTYPE_2":"City","CC_2":"NA","HASC_2":"RU.OB.BN"}},{"type":"MultiPolygon","arcs":[[[-5,39,-30,40,41,42,43,44],[-39],[45]]],"properties":{"GID_2":"RUS.53.9_1","GID_0":"RUS","COUNTRY":"Russia","GID_1":"RUS.53_1","NAME_1":"Orenburg","NL_NAME_1":"Оренбургскаяобласть","NAME_2":"Buguruslanskiyrayon","VARNAME_2":"NA","NL_NAME_2":"Бугурусланскийрайон","TYPE_2":"Raion","ENGTYPE_2":"District","CC_2":"R49000","HASC_2":"RU.OB.BU"}},{"type":"MultiPolygon","arcs":[[[46]]],"properties":{"GID_2":"RUS.53.10_1","GID_0":"RUS","COUNTRY":"Russia","GID_1":"RUS.53_1","NAME_1":"Orenburg","NL_NAME_1":"Оренбургскаяобласть","NAME_2":"Buzuluk","VARNAME_2":"NA","NL_NAME_2":"Бузулук","TYPE_2":"Gorod","ENGTYPE_2":"City","CC_2":"NA","HASC_2":"RU.OB.BG"}},{"type":"MultiPolygon","arcs":[[[-29,47,48,49,50,51,52,53,54,-41],[-47]]],"properties":{"GID_2":"RUS.53.11_1","GID_0":"RUS","COUNTRY":"Russia","GID_1":"RUS.53_1","NAME_1":"Orenburg","NL_NAME_1":"Оренбургскаяобласть","NAME_2":"Buzulukskiyrayon","VARNAME_2":"NA","NL_NAME_2":"Бузулукскийрайон","TYPE_2":"Raion","ENGTYPE_2":"District","CC_2":"R49000","HASC_2":"RU.OB.BR"}},{"type":"MultiPolygon","arcs":[[[55,56,57,58]]],"properties":{"GID_2":"RUS.53.12_1","GID_0":"RUS","COUNTRY":"Russia","GID_1":"RUS.53_1","NAME_1":"Orenburg","NL_NAME_1":"Оренбургскаяобласть","NAME_2":"Dombarovskiyrayon","VARNAME_2":"NA","NL_NAME_2":"Домбаровскийрайон","TYPE_2":"Raion","ENGTYPE_2":"District","CC_2":"R49001","HASC_2":"RU.OB.DO"}},{"type":"MultiPolygon","arcs":[[[59]]],"properties":{"GID_2":"RUS.53.13_1","GID_0":"RUS","COUNTRY":"Russia","GID_1":"RUS.53_1","NAME_1":"Orenburg","NL_NAME_1":"Оренбургскаяобласть","NAME_2":"Gay","VARNAME_2":"NA","NL_NAME_2":"Гай","TYPE_2":"Gorod","ENGTYPE_2":"City","CC_2":"NA","HASC_2":"RU.OB.GG"}},{"type":"MultiPolygon","arcs":[[[60,61,62,63,64,65,66],[-60],[67]]],"properties":{"GID_2":"RUS.53.14_1","GID_0":"RUS","COUNTRY":"Russia","GID_1":"RUS.53_1","NAME_1":"Orenburg","NL_NAME_1":"Оренбургскаяобласть","NAME_2":"Gayskiyrayon","VARNAME_2":"NA","NL_NAME_2":"Гайскийрайон","TYPE_2":"Raion","ENGTYPE_2":"District","CC_2":"R49000","HASC_2":"RU.OB.GR"}},{"type":"MultiPolygon","arcs":[[[-28,68,69,70,71,72,73,74,-48]]],"properties":{"GID_2":"RUS.53.15_1","GID_0":"RUS","COUNTRY":"Russia","GID_1":"RUS.53_1","NAME_1":"Orenburg","NL_NAME_1":"Оренбургскаяобласть","NAME_2":"Grachevskiyrayon","VARNAME_2":"NA","NL_NAME_2":"Грачевскийрайон","TYPE_2":"Raion","ENGTYPE_2":"District","CC_2":"R49001","HASC_2":"RU.OB.GC"}},{"type":"MultiPolygon","arcs":[[[75,76,77,78,79,80,81,82,83,84]]],"properties":{"GID_2":"RUS.53.16_1","GID_0":"RUS","COUNTRY":"Russia","GID_1":"RUS.53_1","NAME_1":"Orenburg","NL_NAME_1":"Оренбургскаяобласть","NAME_2":"Ilekskiyrayon","VARNAME_2":"NA","NL_NAME_2":"Илекскийрайон","TYPE_2":"Raion","ENGTYPE_2":"District","CC_2":"R49001","HASC_2":"RU.OB.IL"}},{"type":"MultiPolygon","arcs":[[[-46]]],"properties":{"GID_2":"RUS.53.17_1","GID_0":"RUS","COUNTRY":"Russia","GID_1":"RUS.53_1","NAME_1":"Orenburg","NL_NAME_1":"Оренбургскаяобласть","NAME_2":"Kinel-Cherk","VARNAME_2":"Kinel'-Cherkasskiy","NL_NAME_2":"NA","TYPE_2":"Gorod","ENGTYPE_2":"City","CC_2":"NA","HASC_2":"RU.SA.KC"}},{"type":"MultiPolygon","arcs":[[[85,-19,86,87,88,89,-73,90,-71,91,92,93]]],"properties":{"GID_2":"RUS.53.18_1","GID_0":"RUS","COUNTRY":"Russia","GID_1":"RUS.53_1","NAME_1":"Orenburg","NL_NAME_1":"Оренбургскаяобласть","NAME_2":"Krasnogvardeyskiyrayon","VARNAME_2":"NA","NL_NAME_2":"Красногвардейскийрайон","TYPE_2":"Raion","ENGTYPE_2":"District","CC_2":"R49001","HASC_2":"RU.OB.KS"}},{"type":"MultiPolygon","arcs":[[[-54,94,95,96,97,98,99]]],"properties":{"GID_2":"RUS.53.19_1","GID_0":"RUS","COUNTRY":"Russia","GID_1":"RUS.53_1","NAME_1":"Orenburg","NL_NAME_1":"Оренбургскаяобласть","NAME_2":"Kurmanaevskiyrayon","VARNAME_2":"NA","NL_NAME_2":"Курманаевскийрайон","TYPE_2":"Raion","ENGTYPE_2":"District","CC_2":"R49001","HASC_2":"RU.OB.KU"}},{"type":"MultiPolygon","arcs":[[[100]]],"properties":{"GID_2":"RUS.53.20_1","GID_0":"RUS","COUNTRY":"Russia","GID_1":"RUS.53_1","NAME_1":"Orenburg","NL_NAME_1":"Оренбургскаяобласть","NAME_2":"Kuvandyk","VARNAME_2":"NA","NL_NAME_2":"Кувандык","TYPE_2":"Gorod","ENGTYPE_2":"City","CC_2":"NA","HASC_2":"RU.OB.KG"}},{"type":"MultiPolygon","arcs":[[[101,-37,102,103,104,-64,105,-62],[-101],[106]]],"properties":{"GID_2":"RUS.53.21_1","GID_0":"RUS","COUNTRY":"Russia","GID_1":"RUS.53_1","NAME_1":"Orenburg","NL_NAME_1":"Оренбургскаяобласть","NAME_2":"Kuvandykskiyrayon","VARNAME_2":"NA","NL_NAME_2":"Кувандыкскийрайон","TYPE_2":"Raion","ENGTYPE_2":"District","CC_2":"R49001","HASC_2":"RU.OB.KR"}},{"type":"MultiPolygon","arcs":[[[-15,107,108,109,110]]],"properties":{"GID_2":"RUS.53.22_1","GID_0":"RUS","COUNTRY":"Russia","GID_1":"RUS.53_1","NAME_1":"Orenburg","NL_NAME_1":"Оренбургскаяобласть","NAME_2":"Kvarkenskiyrayon","VARNAME_2":"NA","NL_NAME_2":"Кваркенскийрайон","TYPE_2":"Raion","ENGTYPE_2":"District","CC_2":"R49001","HASC_2":"RU.OB.KV"}},{"type":"MultiPolygon","arcs":[[[-3,111,112,113,-93,114,-69,-27]]],"properties":{"GID_2":"RUS.53.23_1","GID_0":"RUS","COUNTRY":"Russia","GID_1":"RUS.53_1","NAME_1":"Orenburg","NL_NAME_1":"Оренбургскаяобласть","NAME_2":"Matveevskiyrayon","VARNAME_2":"NA","NL_NAME_2":"Матвеевскийрайон","TYPE_2":"Raion","ENGTYPE_2":"District","CC_2":"R49001","HASC_2":"RU.OB.MA"}},{"type":"MultiPolygon","arcs":[[[-107]]],"properties":{"GID_2":"RUS.53.24_1","GID_0":"RUS","COUNTRY":"Russia","GID_1":"RUS.53_1","NAME_1":"Orenburg","NL_NAME_1":"Оренбургскаяобласть","NAME_2":"Mednogorsk","VARNAME_2":"NA","NL_NAME_2":"Медногорск","TYPE_2":"Gorsovet","ENGTYPE_2":"District","CC_2":"NA","HASC_2":"RU.OB.ME"}},{"type":"MultiPolygon","arcs":[[[115,-67,116,-109,117,-13,118,119,120,-57]]],"properties":{"GID_2":"RUS.53.25_1","GID_0":"RUS","COUNTRY":"Russia","GID_1":"RUS.53_1","NAME_1":"Orenburg","NL_NAME_1":"Оренбургскаяобласть","NAME_2":"Novoorskiyrayon","VARNAME_2":"NA","NL_NAME_2":"Новоорскийрайон","TYPE_2":"Raion","ENGTYPE_2":"District","CC_2":"R49001","HASC_2":"RU.OB.NO"}},{"type":"MultiPolygon","arcs":[[[-26,121,122,-78,123,124,125,126,127,-87]]],"properties":{"GID_2":"RUS.53.26_1","GID_0":"RUS","COUNTRY":"Russia","GID_1":"RUS.53_1","NAME_1":"Orenburg","NL_NAME_1":"Оренбургскаяобласть","NAME_2":"Novosergievskiyrayon","VARNAME_2":"NA","NL_NAME_2":"Новосергиевскийрайон","TYPE_2":"Raion","ENGTYPE_2":"District","CC_2":"R49001","HASC_2":"RU.OB.NS"}},{"type":"MultiPolygon","arcs":[[[-68]]],"properties":{"GID_2":"RUS.53.27_1","GID_0":"RUS","COUNTRY":"Russia","GID_1":"RUS.53_1","NAME_1":"Orenburg","NL_NAME_1":"Оренбургскаяобласть","NAME_2":"Novotroitsk","VARNAME_2":"NA","NL_NAME_2":"Новотроицк","TYPE_2":"Gorsovet","ENGTYPE_2":"District","CC_2":"NA","HASC_2":"RU.OB.NT"}},{"type":"MultiPolygon","arcs":[[[128,129,130,-23,131]]],"properties":{"GID_2":"RUS.53.28_1","GID_0":"RUS","COUNTRY":"Russia","GID_1":"RUS.53_1","NAME_1":"Orenburg","NL_NAME_1":"Оренбургскаяобласть","NAME_2":"Oktyabr'skiy","VARNAME_2":"NA","NL_NAME_2":"Октябрьскийрайон","TYPE_2":"Raion","ENGTYPE_2":"District","CC_2":"R49002","HASC_2":"RU.OB.OK"}},{"type":"MultiPolygon","arcs":[[[132]]],"properties":{"GID_2":"RUS.53.29_1","GID_0":"RUS","COUNTRY":"Russia","GID_1":"RUS.53_1","NAME_1":"Orenburg","NL_NAME_1":"Оренбургскаяобласть","NAME_2":"Orenburg","VARNAME_2":"NA","NL_NAME_2":"Оренбург","TYPE_2":"Gorsovet","ENGTYPE_2":"District","CC_2":"NA","HASC_2":"RU.OB.OG"}},{"type":"MultiPolygon","arcs":[[[-34,133,-32,134,135,-82,136,137,138,139,140],[-133]]],"properties":{"GID_2":"RUS.53.30_1","GID_0":"RUS","COUNTRY":"Russia","GID_1":"RUS.53_1","NAME_1":"Orenburg","NL_NAME_1":"Оренбургскаяобласть","NAME_2":"Orenburgskiyrayon","VARNAME_2":"NA","NL_NAME_2":"Оренбургскийрайон","TYPE_2":"Raion","ENGTYPE_2":"District","CC_2":"R49002","HASC_2":"RU.OB.OR"}},{"type":"MultiPolygon","arcs":[[[141,-24,142,-139,143,-137,-81,144,-79,-123]]],"properties":{"GID_2":"RUS.53.31_1","GID_0":"RUS","COUNTRY":"Russia","GID_1":"RUS.53_1","NAME_1":"Orenburg","NL_NAME_1":"Оренбургскаяобласть","NAME_2":"Perevolotskiyrayon","VARNAME_2":"NA","NL_NAME_2":"Переволоцкийрайон","TYPE_2":"Raion","ENGTYPE_2":"District","CC_2":"R49002","HASC_2":"RU.OB.PT"}},{"type":"MultiPolygon","arcs":[[[145,-99,146,147,148]]],"properties":{"GID_2":"RUS.53.32_1","GID_0":"RUS","COUNTRY":"Russia","GID_1":"RUS.53_1","NAME_1":"Orenburg","NL_NAME_1":"Оренбургскаяобласть","NAME_2":"Pervomayskiyrayon","VARNAME_2":"NA","NL_NAME_2":"Первомайскийрайон","TYPE_2":"Raion","ENGTYPE_2":"District","CC_2":"R49002","HASC_2":"RU.OB.PM"}},{"type":"MultiPolygon","arcs":[[[149,150,-21,151,-94,-114,152,-112,-2]]],"properties":{"GID_2":"RUS.53.33_1","GID_0":"RUS","COUNTRY":"Russia","GID_1":"RUS.53_1","NAME_1":"Orenburg","NL_NAME_1":"Оренбургскаяобласть","NAME_2":"Ponomarevskiyrayon","VARNAME_2":"NA","NL_NAME_2":"Пономаревскийрайон","TYPE_2":"Raion","ENGTYPE_2":"District","CC_2":"R49002","HASC_2":"RU.OB.PO"}},{"type":"MultiPolygon","arcs":[[[-131,153,154,155,156,-140,-143]]],"properties":{"GID_2":"RUS.53.34_1","GID_0":"RUS","COUNTRY":"Russia","GID_1":"RUS.53_1","NAME_1":"Orenburg","NL_NAME_1":"Оренбургскаяобласть","NAME_2":"Sakmarskiyrayon","VARNAME_2":"NA","NL_NAME_2":"Сакмарскийрайон","TYPE_2":"Raion","ENGTYPE_2":"District","CC_2":"R49002","HASC_2":"RU.OB.SM"}},{"type":"MultiPolygon","arcs":[[[157,-104,158,-35,-141,-157,159,160,161]]],"properties":{"GID_2":"RUS.53.35_1","GID_0":"RUS","COUNTRY":"Russia","GID_1":"RUS.53_1","NAME_1":"Orenburg","NL_NAME_1":"Оренбургскаяобласть","NAME_2":"Saraktashskiyrayon","VARNAME_2":"NA","NL_NAME_2":"Саракташскийрайон","TYPE_2":"Raion","ENGTYPE_2":"District","CC_2":"R49002","HASC_2":"RU.OB.SA"}},{"type":"MultiPolygon","arcs":[[[-6,-45,162,-43,163]]],"properties":{"GID_2":"RUS.53.36_1","GID_0":"RUS","COUNTRY":"Russia","GID_1":"RUS.53_1","NAME_1":"Orenburg","NL_NAME_1":"Оренбургскаяобласть","NAME_2":"Severnyyrayon","VARNAME_2":"NA","NL_NAME_2":"Северныйрайон","TYPE_2":"Raion","ENGTYPE_2":"District","CC_2":"R49002","HASC_2":"RU.OB.SE"}},{"type":"MultiPolygon","arcs":[[[-132,-22,-151,164]]],"properties":{"GID_2":"RUS.53.37_1","GID_0":"RUS","COUNTRY":"Russia","GID_1":"RUS.53_1","NAME_1":"Orenburg","NL_NAME_1":"Оренбургскаяобласть","NAME_2":"Sharlykskiyrayon","VARNAME_2":"NA","NL_NAME_2":"Шарлыкскийрайон","TYPE_2":"Raion","ENGTYPE_2":"District","CC_2":"R49003","HASC_2":"RU.OB.SH"}},{"type":"MultiPolygon","arcs":[[[165,-84,166,167,-135,-16]]],"properties":{"GID_2":"RUS.53.38_1","GID_0":"RUS","COUNTRY":"Russia","GID_1":"RUS.53_1","NAME_1":"Orenburg","NL_NAME_1":"Оренбургскаяобласть","NAME_2":"Sol'-Iletskiyrayon","VARNAME_2":"NA","NL_NAME_2":"Соль-Илецкийрайон","TYPE_2":"Raion","ENGTYPE_2":"District","CC_2":"R49002","HASC_2":"RU.OB.SI"}},{"type":"MultiPolygon","arcs":[[[168,-49,-75,169,-89,170,-127,171,172,173,174,175]]],"properties":{"GID_2":"RUS.53.39_1","GID_0":"RUS","COUNTRY":"Russia","GID_1":"RUS.53_1","NAME_1":"Orenburg","NL_NAME_1":"Оренбургскаяобласть","NAME_2":"Sorochinskiyrayon","VARNAME_2":"NA","NL_NAME_2":"Сорочинскийрайон","TYPE_2":"Raion","ENGTYPE_2":"District","CC_2":"R49003","HASC_2":"RU.OB.SR"}},{"type":"MultiPolygon","arcs":[[[176,177,-9,178]]],"properties":{"GID_2":"RUS.53.40_1","GID_0":"RUS","COUNTRY":"Russia","GID_1":"RUS.53_1","NAME_1":"Orenburg","NL_NAME_1":"Оренбургскаяобласть","NAME_2":"Svetlinskiyrayon","VARNAME_2":"NA","NL_NAME_2":"Светлинскийрайон","TYPE_2":"Raion","ENGTYPE_2":"District","CC_2":"R49002","HASC_2":"RU.OB.SV"}},{"type":"MultiPolygon","arcs":[[[-149,179,180,-174,181,182,-125,-76,183]]],"properties":{"GID_2":"RUS.53.41_1","GID_0":"RUS","COUNTRY":"Russia","GID_1":"RUS.53_1","NAME_1":"Orenburg","NL_NAME_1":"Оренбургскаяобласть","NAME_2":"Tashlinskiyrayon","VARNAME_2":"NA","NL_NAME_2":"Ташлинскийрайон","TYPE_2":"Raion","ENGTYPE_2":"District","CC_2":"R49003","HASC_2":"RU.OB.TA"}},{"type":"MultiPolygon","arcs":[[[-53,184,-51,-176,185,-180,-148,186,-97,187,-95]]],"properties":{"GID_2":"RUS.53.42_1","GID_0":"RUS","COUNTRY":"Russia","GID_1":"RUS.53_1","NAME_1":"Orenburg","NL_NAME_1":"Оренбургскаяобласть","NAME_2":"Totskiyrayon","VARNAME_2":"NA","NL_NAME_2":"Тоцкийрайон","TYPE_2":"Raion","ENGTYPE_2":"District","CC_2":"R49003","HASC_2":"RU.OB.TO"}},{"type":"MultiPolygon","arcs":[[[-162,188,-154,-130,189]]],"properties":{"GID_2":"RUS.53.43_1","GID_0":"RUS","COUNTRY":"Russia","GID_1":"RUS.53_1","NAME_1":"Orenburg","NL_NAME_1":"Оренбургскаяобласть","NAME_2":"Tyul'ganskiyrayon","VARNAME_2":"NA","NL_NAME_2":"Тюльганскийрайон","TYPE_2":"Raion","ENGTYPE_2":"District","CC_2":"R49003","HASC_2":"RU.OB.TY"}},{"type":"MultiPolygon","arcs":[[[190,-59,191,-120,192,-11,193,-177],[194]]],"properties":{"GID_2":"RUS.53.44_1","GID_0":"RUS","COUNTRY":"Russia","GID_1":"RUS.53_1","NAME_1":"Orenburg","NL_NAME_1":"Оренбургскаяобласть","NAME_2":"Yasnenskiyrayon","VARNAME_2":"NA","NL_NAME_2":"Ясненскийрайон","TYPE_2":"Raion","ENGTYPE_2":"District","CC_2":"R49003","HASC_2":"RU.OB.YR"}},{"type":"MultiPolygon","arcs":[[[-195]]],"properties":{"GID_2":"RUS.53.45_1","GID_0":"RUS","COUNTRY":"Russia","GID_1":"RUS.53_1","NAME_1":"Orenburg","NL_NAME_1":"Оренбургскаяобласть","NAME_2":"Yasnyy","VARNAME_2":"Yasny","NL_NAME_2":"Ясный","TYPE_2":"Gorod","ENGTYPE_2":"City","CC_2":"NA","HASC_2":"RU.OB.YG"}}]}},"arcs":[[[258928,807432],[-1523,2764],[2482,-26],[-959,-2738]],[[293550,774580],[-17343,-16168]],[[276207,758412],[-3266,3874],[-7463,17072],[-6569,1756],[-5434,6819],[2279,10176],[-15213,25491],[-7823,-4701],[-4778,-568]],[[227940,818331],[-1569,6173],[2095,7567],[-1993,5579],[-517,9969],[-2878,4365],[-8192,1911]],[[214886,853895],[1033,15626],[-1919,18724]],[[214000,888245],[4548,14438],[5268,7076],[7639,6741]],[[231455,916500],[3330,-4571],[969,3228],[4714,-6638],[4446,-10589],[3967,-17071],[9059,-29107],[10056,-15987],[6873,-13172],[18681,-48013]],[[866121,354399],[16486,-19008],[10664,-3849],[295,-4235],[-1134,-2531],[-11043,-19138],[1061,-3435],[6771,-10202],[11357,-7826],[29613,-1136],[563,-1885],[-1126,-7051],[4594,-20584],[2694,-775],[941,-7335],[8091,413]],[[945948,245822],[-14724,-17769],[-1338,-4933],[9097,-34686],[-176,-11493],[-12057,-11725],[-1615,2660],[-1900,13611],[-4410,5062],[-11605,-7877],[9,-6793],[2352,-6327],[157,-5476],[-25480,-12965],[-5692,-6741],[-7021,-1498]],[[871545,138872],[-14677,5321]],[[856868,144193],[-6458,284],[-655,8368],[-2694,7076],[-6411,11803],[-6384,4985],[-2187,-2609],[-1642,2609],[-1420,8652],[-5619,1317],[-1965,-8135],[-3044,-3694],[-4004,2092],[-1522,15471]],[[812863,192412],[2574,6560]],[[815437,198972],[-950,5785],[-9881,8885],[-2454,6276],[-5821,3383],[-4917,20739],[-3948,23090],[-951,22082],[2390,8678],[3330,6327],[2362,12113],[-4696,11803],[-4391,2867],[-12777,-7154],[-2011,1136],[-2519,8549],[-1116,129]],[[767087,333660],[-2214,-6457]],[[764873,327203],[184,6044],[-885,7102],[1808,23167],[4290,12139],[14769,18725],[10157,7360],[6117,-5527],[3718,-6069],[7454,-3952],[5129,-11312],[-1375,-9711],[4761,-7128],[7952,1265],[9401,-7412],[5350,-8704],[10895,-11389],[5766,-8188],[4807,-2427],[4751,4390],[-212,8911],[-5231,16839],[1642,3073]],[[393147,101965],[4115,-2789],[5978,-8988],[6393,6612],[2998,6741],[-4973,14205],[286,12887],[2870,11571],[5535,4055],[3828,413],[8506,-11725],[8211,4054],[2850,-3486],[1947,7696],[-111,4804],[-9096,22108],[1633,15935],[-1264,11907],[-794,27454],[5139,9582]],[[437198,235001],[5425,-6147],[2730,-6173],[3091,-26705],[2306,-6715],[3201,-4262],[3663,3823],[1762,17252],[4659,7619],[3939,1679],[4797,-3332],[4234,-12707],[2030,-10769],[5812,-11803],[10600,4623],[4022,-9272],[8939,-3823],[7501,-8213],[5756,439],[5692,5217],[4825,-2040],[1393,-7903],[-4696,-20352]],[[528879,135437],[-3044,2402],[-830,5243],[-2805,4959],[-3099,-6147],[-157,-5165],[1402,-9066],[83,-7464],[-2094,-3125],[-5618,465],[-987,-11364],[-757,-1834],[-5111,-2866],[-5812,3047],[-4271,4572],[-1928,-1163],[-1467,-3667],[-3626,-21282],[351,-16787],[-489,-2764],[-16449,-21255],[-20342,-17821],[-2832,-9608],[-2767,-981],[-9502,13172],[-5951,5475],[-1900,7981],[-7519,671],[-2841,-4726],[-1679,1110],[-19355,32258],[-7030,9117],[-729,3229],[4309,12887],[-886,7025]],[[302019,577855],[1116,5114],[-6522,18441],[-673,7438],[-6993,-52],[-6135,7051],[-3063,6508],[-415,5372],[1808,9608],[8386,3125]],[[289528,640460],[7897,7180]],[[297425,647640],[5895,-5062],[9733,10770],[6070,-2480]],[[319123,650868],[2869,-9142],[17593,-27325],[2278,-6431],[-3210,-6664],[3137,-5294],[2896,-3255],[3700,2557],[710,4520],[2076,1576],[6282,-10615],[1938,-5734],[1070,-6896],[4354,-4933],[2251,-12474],[3912,-5527],[5765,4080],[7667,-13740],[-803,-5837]],[[383608,539734],[-5517,-6121],[-4234,-10434],[-2676,-10770],[-10018,-21875],[-1541,-5708],[-6900,-10563],[-333,-5295]],[[352389,468968],[-4188,7619],[-3672,3487],[-25194,6560],[-8155,5630]],[[311180,492264],[-3063,6612],[-6209,17847],[-2131,9065]],[[299777,525788],[-673,7438],[1005,9789],[-156,9323],[2721,12113],[-655,13404]],[[227940,818331],[-1652,-6973],[-2693,-4856],[1208,-5449],[-249,-9840],[-5277,-8420],[1910,-12810],[4585,-13869],[-766,-5811],[-2758,-6173],[1909,-6896],[176,-3306],[-1200,-6431],[3100,-6405],[4400,1292],[3949,-5243],[350,-6638],[-9677,-16968]],[[225255,693535],[-8008,9168],[-6014,3539],[-9336,-5837],[-3884,6508],[-11929,-3538],[-4253,-5992],[-3597,-11622]],[[178234,685761],[-1716,2143],[-3810,10125],[-6329,1549],[-4760,5269]],[[161619,704847],[2352,6922],[4557,-1937],[1624,1084],[-461,5347],[-4345,5862],[-3423,8368],[2288,5631],[5194,-4675],[4354,7283],[775,13069],[-4659,13817],[-3109,13611],[3119,12733],[-406,12552],[1005,3796],[6661,5656],[3616,7413],[7611,8110],[7316,-3022],[5646,1808]],[[201334,828275],[13552,25620]],[[437198,235001],[15194,23296],[4982,-620],[5581,-3513]],[[462955,254164],[1421,4391],[1070,5140]],[[465446,263695],[-8164,18518],[-4263,6560],[-2232,8058],[470,8032],[3801,5140],[4078,-3126],[3801,5114]],[[462937,311991],[14179,-15341],[5277,-15031],[8792,-7826],[6494,-13353],[5655,-2221],[-239,8213],[2361,6844],[8820,10486],[1531,5682],[2122,2815],[1863,-1188],[4023,-9297],[8007,-7723],[65,-4752],[-3063,-5269],[157,-3461],[12528,-8987],[7611,3951]],[[549120,255533],[-1033,-3796]],[[548087,251737],[1568,-5217],[4576,4803],[4216,-542],[6328,-8626],[5526,-3668],[1375,-7877],[932,-19344],[6476,-16866],[-2500,-8109],[-4733,-7464],[-9991,-5940],[-4207,-5605],[-2288,-5449],[-369,-5347]],[[554996,156486],[2519,-16297],[-4456,6251],[-9493,-904],[-581,-749],[839,-9117],[1873,-9040],[-719,-6947],[-1154,-1679],[-4354,4236],[-4410,413],[-6181,12784]],[[147080,812184],[-1144,-645],[-1015,2247],[1716,2402],[996,-2480],[-553,-1524]],[[214886,853895],[-10425,-20145],[-3127,-5475]],[[161619,704847],[-2399,-1007],[-12140,12836],[-10591,-7826],[-7242,10150],[-7390,15212]],[[121857,734212],[5794,5889],[3838,-1834],[3819,5476],[-2131,4261],[-10858,2764],[-4853,12577],[-1024,10770],[3109,14205],[7334,11648],[1984,15006],[277,12578],[1291,9142],[12500,32155],[1753,17020]],[[144690,885869],[9106,-310],[2121,-4235],[2371,-310]],[[158288,881014],[1421,-2816],[6218,-2169]],[[165927,876029],[4935,9194],[6006,7051],[2759,12113],[6550,8936],[2739,-6947],[-608,-3203],[5719,-10046],[4373,5940],[2805,258],[9806,-13947],[2989,2867]],[[134136,731217],[1181,5113],[-4142,1188],[-2168,-12887],[3146,-2092],[1983,8678]],[[137910,581109],[-1523,-723],[-756,2066],[590,2816],[1412,77],[904,-2350],[-627,-1886]],[[178234,685761],[-1264,-4830],[-379,-6534],[535,-4029],[-1226,-7748],[-8027,-11416],[-101,-8549],[1771,-16761],[-2260,-12888],[8801,-15135],[-18,-7283],[1245,-5475]],[[177311,585113],[2758,-5682]],[[180069,579431],[1513,-7490],[471,-5372]],[[182053,566569],[-1052,-5140],[-3339,-4804],[-8728,1912],[-3607,4468],[-11587,-1033]],[[153740,561972],[-4437,-4029],[-5941,-11132]],[[143362,546811],[-2445,-18208],[-7436,-10925]],[[133481,517678],[-2629,1007],[-3828,7774],[2315,8317],[867,9814],[-7168,10202],[-5544,-3280],[-9484,10460],[-7804,5578],[-3220,5011],[600,4571],[-868,6044],[-1752,3512],[-2943,2996],[-7888,1885]],[[84135,591569],[-1919,5889],[1181,9169],[4622,8109],[3496,233],[2906,4313],[4890,13378],[3339,4907],[5720,5915],[7085,1756],[1448,5811],[-64,14644],[3782,5501],[683,5915],[-5969,13404],[3506,7516],[4391,24716],[-1375,11467]],[[842486,67125],[-6523,-31277],[-6042,-17924],[-4309,-4029],[-16227,-7387],[-7980,-6508],[-636,17924],[2260,3151],[-19,1989],[-5821,14282],[-8118,-2918],[-7934,3383],[-3044,-3151],[-2473,5269],[-2398,1808],[-10619,2117],[-6623,4236],[-6144,-1834],[-5157,1266],[-2953,4081],[-1909,9116],[-6338,5398],[-757,5527],[1117,8265],[-1098,2738],[-3543,490],[-8090,-5397],[-5019,2789],[-2315,12603],[-665,16917],[1329,9505]],[[714438,119554],[16393,929],[2999,3771],[11171,5785],[8312,-4803],[8054,-7464],[5157,6405],[2353,8703],[2832,5837],[5793,4804],[4179,-4132],[3377,-491]],[[785058,138898],[5498,5579]],[[790556,144477],[-4004,-17640],[-6135,-20274],[4032,-5450],[1310,-9969],[2546,-4933],[6320,6637],[5821,1369],[4013,-5449],[2703,-7051],[2186,-775],[3644,13663],[7879,-724],[3127,-21436],[-2537,-9969],[5295,-7284],[6606,9195],[6808,3693],[2316,-955]],[[702731,243188],[-1485,439],[-249,2195],[959,1188],[1181,-1963],[-406,-1859]],[[693487,150701],[-2555,13869],[-3109,2247],[-1061,-2763],[-2325,129],[-3828,-4701],[682,-7490],[-3349,-3280],[-415,-5811],[-6919,2841],[-858,3719],[388,5579],[-1070,2841],[-8100,-11028],[-1172,3047],[-4050,-180],[-1965,5992]],[[653781,155712],[498,903],[-4252,8807],[-323,5553],[959,7180]],[[650663,178155],[3091,5140],[9825,7800]],[[663579,191095],[3966,6224],[2805,10667],[1734,16451],[8857,18286],[249,12139],[-2768,13120],[784,9272],[2943,11984],[674,7928],[-2141,6819],[1209,5036]],[[681891,309021],[5295,-1679],[14466,14360],[12703,2635],[3930,4829],[3533,9040]],[[721818,338206],[5471,-8601]],[[727289,329605],[682,-9737],[-1033,-7154],[46,-8161],[2731,-8394],[2500,1911],[4281,-4158],[3367,-9943],[350,-30037],[-9871,1937],[-1817,-11648],[1190,-12630],[2463,-11002],[120,-11596],[-4363,-10099],[-10084,-5527],[-4539,-8006],[-1356,-11131],[-4446,-11468],[-14023,-12061]],[[698810,196338],[-22630,10305],[2085,-18777],[757,-878],[1061,2764],[2666,-1163],[3330,-16916],[1329,-3203],[7730,1472],[8331,-2324],[5793,8290],[-10452,20430]],[[225255,693535],[7307,-13689]],[[232562,679846],[-5305,-3796]],[[227257,676050],[-2888,-8781],[-830,-13069],[-4077,-3332],[-4272,0],[-3404,-4752]],[[211786,646116],[-2011,-7645],[-240,-3899]],[[209535,634572],[5591,-10125],[931,-16658],[1901,-6922],[-738,-5837],[-1771,-3693],[-3977,-2040],[-3394,1188],[-6311,-8962]],[[201767,581523],[-5203,3435]],[[196564,584958],[-3865,6508],[-2288,-1214],[-4843,-8962],[-2021,-1033],[-6236,4856]],[[201168,249696],[5055,13999],[-867,16348],[1467,8523],[5507,14592],[2657,233],[2141,-3074],[3228,4830],[3340,16297]],[[223696,321444],[7168,-594],[12583,9918]],[[243447,330768],[3764,-672],[22169,-14980],[6236,2815],[4438,5218],[6125,129]],[[286179,323278],[-2980,-6845],[572,-4184],[4770,-13171],[3266,-4081]],[[291807,294997],[6070,-1266]],[[297877,293731],[8847,8988],[9308,2066]],[[316032,304785],[-1199,-9246],[12085,-38017],[388,-17098],[-849,-18879],[812,-7671],[-2556,-6250]],[[324713,207624],[-8551,-3564]],[[316162,204060],[-3644,-5321],[-2316,-9711],[-6070,-8910],[-3377,10279],[-4151,-8678],[-2685,-13920]],[[293919,167799],[-4123,1756],[-7547,8006],[-4197,-2789],[-3838,5682],[-5452,-2609],[-646,3616],[-4050,3487],[-2002,-1007],[-1679,3667],[369,3332],[-849,4029],[-3616,5940],[-581,3512],[2002,10305],[-2500,5553],[2666,698],[747,1704],[-498,3074],[-2731,2505],[-1956,3926],[-488,3822],[-6375,2169],[-2177,4365],[-3534,2815],[-73,3642],[-2095,3512],[-2417,879],[-1752,4648],[-4355,-671],[-2334,-2325],[-1052,-4054],[-1190,77],[-1522,5475],[-6319,1163],[-508,1188],[1071,4003],[-785,852],[-1798,-3874],[-2464,1137],[-341,-2738],[1854,-3564],[-55,-2505],[-4262,-749],[-3635,3280],[-5664,-5037]],[[294159,645574],[-4631,-5114]],[[302019,577855],[-4871,-9039],[-5101,-1059],[-8156,5475],[-6891,7206],[-2804,-1498],[-1790,-3667],[3404,-7232],[3653,-3306],[3487,-5940],[-2463,-2195],[-7804,-1266],[-1098,-5114],[4843,-8833],[4585,-826],[1697,-3642],[259,-2040],[-2454,-2195],[-17104,-2273]],[[263411,530411],[-21772,9014]],[[241639,539425],[-3496,5888],[-7777,-1395],[-2740,5760],[-4567,723],[-5876,4907],[-3081,6431],[-1569,6199],[-5950,3564],[-2943,9065]],[[203640,580567],[-1873,956]],[[209535,634572],[2251,11544]],[[227257,676050],[7362,5449]],[[234619,681499],[2731,12087],[5913,6974],[8413,-8626],[9180,-2841],[8727,-9427],[5923,981]],[[275506,680647],[6513,-1808],[4363,-4726],[-3376,-9324],[839,-4778],[5452,-11570],[4862,-2867]],[[133481,517678],[-5415,-9246],[-1365,-4468],[2481,-12242],[-5396,-9272],[-766,-8523],[2611,-981],[2740,1627]],[[128371,474573],[2924,-3048],[2768,-5682]],[[134063,465843],[682,-10047],[-2002,-10382],[-1863,-16374],[-2971,-6922],[-978,-5191],[-9105,-155],[-5508,-4598],[-2749,-11622]],[[109569,400552],[-8533,4391]],[[101036,404943],[-12500,9530],[-22418,27893],[-2269,259],[-1624,-2480],[-7021,155]],[[55204,440300],[-1891,10925],[-3210,6405],[646,7283],[2620,9066],[4465,6844],[4271,11545],[5600,6017],[9,10021],[-8238,15006],[-148,6043],[5914,22676],[6623,11209],[6384,-4106],[5047,18750],[1651,11132],[-812,2453]],[[599066,242465],[-987,-801],[-1329,2221],[2067,2635],[830,-2609],[-581,-1446]],[[653781,155712],[-4714,-3952],[-2869,3693],[-2122,5863],[-5895,-2531],[-1393,-44345],[-1430,-9117],[-3874,-2996],[-2556,8239],[-4714,26],[-7620,-6406],[-388,-2066],[1292,-5527],[-1845,-2866],[-6384,3280],[-8367,10072],[-2879,6586],[-175,8962],[-2389,7102],[-6541,6793],[-1642,9840],[-1753,3538],[-14807,-11209],[-2278,853],[-3718,5191],[-5009,-5604],[-1882,594],[-2833,16761]],[[548087,251737],[3330,9246]],[[551417,260983],[1734,13533]],[[553151,274516],[2565,-1834],[3552,1008],[5074,11441],[239,8781],[-4954,17769],[3857,4985],[7094,-4107],[6698,-9452],[6485,-12113],[2251,-11545],[5904,-9246],[15665,17743],[1365,7748],[-74,14309],[4761,1265],[4705,-9582],[5516,1033],[6034,12423],[3754,17872],[1181,9841],[5646,2350],[4032,-8058],[8367,2143],[12602,-8032],[7260,-1627],[9161,-20610]],[[663579,191095],[-7261,-4520],[-5655,-8420]],[[625736,227950],[-1033,3745],[-1375,-1756],[296,-2609],[2112,620]],[[764873,327203],[-1578,-4235]],[[763295,322968],[-21725,-7619],[-7630,5940]],[[733940,321289],[-12122,16917]],[[721818,338206],[1319,14515],[3395,15857],[2279,25078],[3256,9789],[-8062,14876],[-360,8962],[3838,24536],[5784,6896],[4723,-207],[2823,-3641],[5655,13714],[-6845,28074],[1531,7645],[3598,-3926],[9539,4287],[2574,-6302],[4936,-18647],[5618,-7335],[12380,-11002],[74,4726],[-3229,19448],[646,6560],[2325,7361],[4816,4442],[4741,-258],[8432,8626],[4115,1292],[1494,-8678],[1403,-1834],[4418,491],[6956,5708],[10960,-9272],[3303,4933],[3376,-1886],[5618,-10821],[3368,-1886],[5775,2015],[4843,4365],[8866,-2506],[3422,-8703],[388,-11003],[-683,-9943],[1744,-9479],[-7325,-12965],[-5849,-6741],[-3533,-10950],[-655,-9944],[-1864,-10202],[-3856,-6792],[8662,-7180],[3497,-7438],[-3958,-1008],[-1245,-2556],[-609,-7749],[655,-8910],[3865,-9504],[4650,-4856],[2841,465],[-609,9763],[4484,-4107]],[[276207,758412],[-3469,-4674],[-1762,-8265],[8007,-3357]],[[278983,742116],[5139,-27300]],[[284122,714816],[-8478,-15057],[-1043,-3771],[3137,-11131],[-2232,-4210]],[[234619,681499],[-2057,-1653]],[[714438,119554],[1928,4829],[231,3564],[-4475,15393],[-9243,3668],[-7741,-1472],[-1651,5165]],[[727289,329605],[6651,-8316]],[[763295,322968],[3792,10692]],[[815437,198972],[-11190,-23916]],[[804247,175056],[-1513,-7619],[-480,-8678],[-3294,-6328]],[[798960,152431],[-13902,-13533]],[[299777,525788],[4678,-17537],[5027,-12293]],[[309482,495958],[2307,-12501],[452,-11441],[-2463,-21566],[-6154,-19525],[5296,-8446],[4188,5863],[1356,-3590],[-5083,-7722],[-6513,646],[-2851,-2790],[-1374,-17846],[-2777,-8859],[-6218,-8859],[-2758,-8884],[-2067,-2970],[-609,-4597],[5148,-12501],[2177,-10589],[-2961,-14282],[-2399,-2221]],[[243447,330768],[-7140,-6819],[-9253,-3771],[-3358,1266]],[[223696,321444],[-5710,7671],[-8377,-1266],[-2426,5088],[7943,16813],[3884,2041],[4732,-4133],[5849,3694],[4899,7231],[-93,6044],[-5138,3564],[-4474,9453],[-2085,11751],[609,4571],[-711,16168]],[[222598,410134],[3838,697]],[[226436,410831],[6245,10305],[2002,9014],[-1642,4933],[1790,5036],[9391,11106],[2943,-1860],[5480,9066],[5655,-1653],[2759,1498],[3376,12087],[3533,1343],[7519,-2686],[-793,6147],[-3404,7283],[-711,7464],[-2546,2428],[-11891,103],[-3340,8549],[-5000,6173],[3081,6792],[3386,-1240],[1550,13017],[-4087,8678]],[[251732,534414],[11679,-4003]],[[405371,558847],[4169,-7671],[6910,3047],[9650,-13714],[1697,-20558],[4779,-10589],[-729,-10589],[840,-4907],[11854,-5011],[8395,-9556],[5600,1266],[6246,10537],[4465,12991]],[[469247,504093],[2786,-10847],[-3736,-25337],[-2168,-2815],[-6772,4468],[-10009,-14334],[-185,-8729]],[[449163,446499],[-5673,-8704],[-9678,1808],[-9170,-2454],[-3330,-9297],[-2906,-2661],[-4539,2480],[-7906,17459],[-4031,4365],[673,4545],[-1458,7774],[-3597,-1162],[-8543,-11467],[-2574,2634],[-4788,-1575],[-7233,-9763],[-3099,6767],[-3847,878],[-8063,-10951],[-7814,12500],[3136,6715],[-2334,12578]],[[383608,539734],[2297,-6534],[5987,-4055],[4595,9660],[7943,6870],[941,13172]],[[396662,281903],[-5056,-543],[-5618,33911],[6347,22367],[14862,6715],[11135,-7129],[-21670,-55321]],[[465446,263695],[-2491,-9531]],[[437198,235001],[-7943,16348],[-7620,-5553],[-3312,2893],[-3598,-2505],[-3810,-6534],[-3164,5552],[2011,9040],[-1495,7877],[-3810,930],[-5055,-8265],[-5185,-3486],[-3386,1498],[-4769,-2945],[-5840,-16968],[-2251,-14437],[-5323,-15084],[-2371,-9659],[-3348,-6018],[-22132,-284],[-11735,1989],[-2841,4726],[-111,6173]],[[330110,200289],[-5397,7335]],[[316032,304785],[3460,-77],[5074,-6534],[3874,490],[10259,13327],[4096,-2970],[4235,-284],[4013,3151],[3459,7361],[1172,7877]],[[355674,327126],[-7722,30243]],[[347952,357369],[-5009,7903],[-6809,17744],[720,13352],[5544,8911],[-2315,13972],[5526,14954]],[[345609,434205],[9622,-14954],[9493,9298],[4695,284],[3608,-4881],[4409,-11158],[6190,-7541],[4235,5733],[4447,-3770],[2075,-4546],[-10849,-12294],[2583,-16193],[6144,-1472],[7713,-7981],[4954,-1885],[5941,-11648],[6439,3822],[7251,-2505],[2030,1524],[9207,17330],[4862,2815],[6992,-439],[2205,4184],[1190,6457],[2731,-26],[4373,-11313],[3146,517]],[[461295,373563],[-1845,-17149],[2656,-13611],[11846,-22186],[-1356,-3021],[-3737,2350],[-5922,-7955]],[[309482,495958],[1698,-3694]],[[352389,468968],[-1946,-6276],[-5517,-7515],[-4446,3641],[-1587,-7051],[6716,-17562]],[[347952,357369],[5563,-19577],[2159,-10666]],[[297877,293731],[-2685,-103],[-3385,1369]],[[141194,316873],[-1181,4648],[-2417,1628],[-2463,-1963],[184,-5734],[-3893,-4855],[-8081,490],[-1172,-8600],[-1817,-4675],[-3100,-3022],[-3819,801],[-3570,-1885],[-7159,7076],[-8543,982],[-7556,-16581],[-1743,-7335],[3561,-17459],[-13469,-14050],[-1928,413],[-923,2557],[2565,8859],[-1734,5088],[-3801,-78],[-1855,7025],[-2048,-1291],[83,-5992],[-2352,-5734],[-8321,-7257],[-3635,2453],[-9382,620],[-1126,1498],[28,5992],[-2740,4830],[-387,3486],[10922,3797],[498,11235],[-664,10176],[-5858,2479],[-369,3693],[-2242,3229],[-8432,-3022],[-110,-1679],[-5203,1240],[-5176,-2196],[-3644,4546],[-1467,-1834],[-10775,569],[-2481,15212],[-2399,1988],[2417,12423],[11439,16917],[18054,20894],[12768,20042],[7759,15884],[4243,12913],[-1476,22986]],[[101036,404943],[21163,-10047]],[[122199,394896],[4917,26],[8912,4804],[9373,-10641]],[[145401,389085],[175,-4675],[-3284,-14902],[-2224,-35796],[2021,-15703],[-895,-1136]],[[293550,774580],[2934,-7825],[14991,-21179],[10388,2015],[16744,-13094],[3570,-15238],[4068,-8756]],[[346245,710503],[-2573,-8084],[-489,-6534],[-4558,-8368],[-5221,-6922],[-6809,-2014],[-3653,-7232],[3783,-12655],[-3986,-6508],[-3616,-1318]],[[297425,647640],[-3266,-2066]],[[284122,714816],[-1587,10822],[-3552,16478]],[[449163,446499],[1366,-9143],[2906,-3461]],[[453435,433895],[5756,3926]],[[459191,437821],[6061,-9040],[5554,-10925]],[[470806,417856],[3229,-10356],[-6246,-11907],[-2481,-8161],[-600,-9349],[-3413,-4520]],[[499580,431132],[4059,-9247],[5028,-6818],[4843,7490],[2039,12319],[3948,259],[5941,-10486],[5443,-6276],[2085,-9401],[3644,-3745],[5545,-26679],[4695,-10848],[-2712,-10770],[-3441,-4468],[-2426,-6766],[2260,-6767],[5222,-8962],[3210,-15212],[5581,-14541],[-3625,-24122],[2232,-1576]],[[551417,260983],[-2297,-5450]],[[470806,417856],[-11615,19965]],[[459191,437821],[2574,3383]],[[461765,441204],[3432,-1575],[4179,-7878],[7122,827],[4354,-5217],[2390,-5372],[5489,-129],[10849,9272]],[[165927,876029],[-4290,1240],[-3349,3745]],[[144690,885869],[3801,17485],[424,13740],[-8136,17485],[-2740,1007],[-886,11958],[4557,2686],[1190,6431],[-848,6018],[2684,15367],[-341,8006],[9705,7309],[4843,6638],[4484,-8936],[9871,2453],[7583,-1859],[5877,-2919],[5812,-10253],[6670,-3073],[5950,4339],[2472,6895],[6061,-13559],[-1236,-6405],[-15342,-7619],[-1476,-10279],[9789,-9324],[618,-8626],[-2187,-8884],[17658,13146],[9908,-18596]],[[346245,710503],[3054,-6560],[21071,7645],[4253,-6173],[774,-15419],[5859,-26472],[-120,-11932],[10517,-27558],[1060,-6896],[-682,-9168],[7251,-8317],[8773,6690],[6836,1756],[2353,-26602],[3579,-4881],[-4539,-8291],[-5572,4675],[-2085,-1550],[-3256,-12603]],[[393147,101965],[-5000,5398],[-3201,-3073],[433,-5088],[-2205,-5114],[-3514,723],[-775,-1937],[-1513,233],[-600,-2273],[-2122,-956],[166,-4959],[-1946,-1291],[-1532,4158],[-2131,1214],[-1301,6224],[-2693,-1601],[-3192,3074],[-5028,1265],[-4696,-21617],[1522,-18725],[3700,-15160],[1310,-13043],[-1569,-3977],[-3348,-3306],[-5978,-15806],[-4345,3099],[-2039,-2609],[-2842,-335],[-6282,16322],[-1605,7671],[350,4959],[3487,12397],[-1097,9427],[1420,10925],[4447,13197],[-286,4752],[-6412,6096],[-13459,3305],[-5499,18157],[-3339,4778],[442,4339],[-2297,1575],[74,3694],[-1504,2401],[2408,2841],[-129,2351],[-2638,6792],[-1864,-3512],[-295,2996],[1347,6327],[-1236,5553],[-1818,3177],[-5618,3177],[-959,1498],[332,2660],[-2759,3461]],[[316162,204060],[5470,2892],[3081,672]],[[324713,207624],[3654,-3538],[1743,-3797]],[[182053,566569],[-1984,12862]],[[196564,584958],[7076,-4391]],[[241639,539425],[10093,-5011]],[[226436,410831],[-3017,491],[-3219,-3486]],[[220200,407836],[-3635,3254],[-3220,3874]],[[213345,414964],[-1107,8187],[-3090,6483],[-14964,5010],[-8589,10615]],[[185595,445259],[1080,6508],[1015,19784]],[[187690,471551],[-1163,3073],[-2767,2170],[-554,4081],[5720,7102],[3441,155],[1762,-2660],[1264,-5114],[2527,26],[1818,2634],[1863,34247],[-3275,17072],[-1651,4907],[221,3951],[1246,3358],[2933,2634],[-442,4985],[-1827,2634],[-2362,-981],[-4003,3925],[-2390,-1549],[-2841,-9040],[-2832,3823],[-2325,13585]],[[872117,50983],[5545,11028],[2445,8600],[2149,12759],[-3257,18854],[-4502,-6509],[-4511,284],[-1485,7335],[-720,25362],[-1808,11519]],[[865973,140215],[5572,-1343]],[[945948,245822],[2168,-3383],[6208,775],[9927,-11984],[5775,-2686],[3653,1059],[5545,7593],[4806,-3177],[4566,-20842],[11403,-19500],[-489,-258],[-7749,-4623],[-8368,-74382],[-2767,-32103],[-1430,-6793],[-2196,-3331],[-38654,-27971],[-7436,-672],[-9179,-5811],[-14816,1963],[-7629,-1085],[-21191,3875],[-3570,3538],[-2408,4959]],[[145401,389085],[5101,-13378],[4272,-5966],[4040,-2583],[2712,1627],[12575,18854],[4169,51],[5886,-3564],[4355,4029],[1411,5786],[-28,7334],[-4419,10693],[-1190,6844]],[[184285,418812],[1310,26447]],[[213345,414964],[6855,-7128]],[[220200,407836],[2398,2298]],[[201168,249696],[719,-26],[-1356,-1239],[-2611,2169],[351,-4029],[-2519,1731],[619,-3229],[-720,-1033],[-2592,6638],[203,3254],[-1467,77],[-655,-5139],[-1209,1394],[-2002,-2298],[-452,2944],[2676,4313],[-2436,-1653],[-2518,2170],[-2334,-1756],[-259,2918],[-2924,-258],[-507,4390],[-757,-6895],[-2177,2117],[489,-5682],[-6126,-1498],[683,-5165],[-1679,1808],[-978,6637],[-840,-232],[-304,-6302],[-2703,956],[950,-3745],[-2943,361],[111,4546],[-2934,-3926],[-2306,1989],[803,6328],[-3718,4364],[-895,9866],[-3220,5295],[-2546,10589],[-5424,12475],[-1218,12526],[-249,9427]],[[143362,546811],[2620,6276],[7758,8885]],[[187690,471551],[-3405,-52739]],[[122199,394896],[-12630,5656]],[[134063,465843],[-5692,8730]],[[461765,441204],[-8330,-7309]],[[469247,504093],[2057,12268],[8045,12759],[4059,27867],[6116,-2944],[4391,-9918],[5379,-7490],[5581,-4881],[6569,8342],[2804,-4804],[-5277,-17459],[1153,-5708],[6292,-11183],[2011,-26240],[-3672,-17950],[-11790,-16400],[-3385,-9220]],[[872117,50983],[-8847,20016],[-249,11880],[-5018,6095],[-6283,1602],[-3238,-2376],[-2777,-7077],[-3219,-13998]],[[790556,144477],[8404,7954]],[[804247,175056],[8616,17356]],[[856868,144193],[9105,-3978]],[[835068,110307],[-516,2996],[-1338,-1833],[424,-1731],[1430,568]]],"bbox":[50.8366,50.5149,61.6763,54.3868],"transform":{"scale":[0.00001083971083971084,0.000003871903871903876],"translate":[50.8366,50.5149]}}