{"type":"Topology","objects":{"muni":{"type":"GeometryCollection","geometries":[{"type":"MultiPolygon","arcs":[[[0,1,2,3,4]]],"properties":{"GID_2":"RUS.54.1_1","GID_0":"RUS","COUNTRY":"Russia","GID_1":"RUS.54_1","NAME_1":"Penza","NL_NAME_1":"Пензенскаяобласть","NAME_2":"Bashmakovskiyrayon","VARNAME_2":"NA","NL_NAME_2":"Башмаковскийрайон","TYPE_2":"Raion","ENGTYPE_2":"District","CC_2":"R35000","HASC_2":"RU.PZ.BA"}},{"type":"MultiPolygon","arcs":[[[5,6,7,8]]],"properties":{"GID_2":"RUS.54.2_1","GID_0":"RUS","COUNTRY":"Russia","GID_1":"RUS.54_1","NAME_1":"Penza","NL_NAME_1":"Пензенскаяобласть","NAME_2":"Bednodem'yanovskiyrayon","VARNAME_2":"NA","NL_NAME_2":"Беднодемьяновскийрайон","TYPE_2":"Raion","ENGTYPE_2":"District","CC_2":"R35000","HASC_2":"RU.PZ.BD"}},{"type":"MultiPolygon","arcs":[[[9,10,11,12,13,14]]],"properties":{"GID_2":"RUS.54.3_1","GID_0":"RUS","COUNTRY":"Russia","GID_1":"RUS.54_1","NAME_1":"Penza","NL_NAME_1":"Пензенскаяобласть","NAME_2":"Bekovskiyrayon","VARNAME_2":"NA","NL_NAME_2":"Бековскийрайон","TYPE_2":"Raion","ENGTYPE_2":"District","CC_2":"R35000","HASC_2":"RU.PZ.BK"}},{"type":"MultiPolygon","arcs":[[[-1,15,16,17,18,19,20]]],"properties":{"GID_2":"RUS.54.4_1","GID_0":"RUS","COUNTRY":"Russia","GID_1":"RUS.54_1","NAME_1":"Penza","NL_NAME_1":"Пензенскаяобласть","NAME_2":"Belinskiyrayon","VARNAME_2":"NA","NL_NAME_2":"Белинскийрайон","TYPE_2":"Raion","ENGTYPE_2":"District","CC_2":"R35000","HASC_2":"RU.PZ.BL"}},{"type":"MultiPolygon","arcs":[[[21,22,23,24,25,26,27,28]]],"properties":{"GID_2":"RUS.54.5_1","GID_0":"RUS","COUNTRY":"Russia","GID_1":"RUS.54_1","NAME_1":"Penza","NL_NAME_1":"Пензенскаяобласть","NAME_2":"Bessonovskiyrayon","VARNAME_2":"NA","NL_NAME_2":"Бессоновскийрайон","TYPE_2":"Raion","ENGTYPE_2":"District","CC_2":"R35000","HASC_2":"RU.PZ.BS"}},{"type":"MultiPolygon","arcs":[[[-23,29,30,31,32,33,34,35,36,37,38]]],"properties":{"GID_2":"RUS.54.6_1","GID_0":"RUS","COUNTRY":"Russia","GID_1":"RUS.54_1","NAME_1":"Penza","NL_NAME_1":"Пензенскаяобласть","NAME_2":"Gorodishchenskiyrayon","VARNAME_2":"NA","NL_NAME_2":"Городищенскийрайон","TYPE_2":"Raion","ENGTYPE_2":"District","CC_2":"R35000","HASC_2":"RU.PZ.GO"}},{"type":"MultiPolygon","arcs":[[[39,40,41,42]]],"properties":{"GID_2":"RUS.54.7_1","GID_0":"RUS","COUNTRY":"Russia","GID_1":"RUS.54_1","NAME_1":"Penza","NL_NAME_1":"Пензенскаяобласть","NAME_2":"Issinskiyrayon","VARNAME_2":"NA","NL_NAME_2":"Иссинскийрайон","TYPE_2":"Raion","ENGTYPE_2":"District","CC_2":"R35000","HASC_2":"RU.PZ.IS"}},{"type":"MultiPolygon","arcs":[[[43]]],"properties":{"GID_2":"RUS.54.8_1","GID_0":"RUS","COUNTRY":"Russia","GID_1":"RUS.54_1","NAME_1":"Penza","NL_NAME_1":"Пензенскаяобласть","NAME_2":"Kamenka","VARNAME_2":"NA","NL_NAME_2":"Каменка","TYPE_2":"Gorsovet","ENGTYPE_2":"District","CC_2":"NA","HASC_2":"RU.PZ.KM"}},{"type":"MultiPolygon","arcs":[[[-17,44,45,46,47,48,49,50],[-44]]],"properties":{"GID_2":"RUS.54.9_1","GID_0":"RUS","COUNTRY":"Russia","GID_1":"RUS.54_1","NAME_1":"Penza","NL_NAME_1":"Пензенскаяобласть","NAME_2":"Kamenskiyrayon","VARNAME_2":"NA","NL_NAME_2":"Каменскийрайон","TYPE_2":"Raion","ENGTYPE_2":"District","CC_2":"R35001","HASC_2":"RU.PZ.KN"}},{"type":"MultiPolygon","arcs":[[[-38,51,52,53,54,55,56]]],"properties":{"GID_2":"RUS.54.10_1","GID_0":"RUS","COUNTRY":"Russia","GID_1":"RUS.54_1","NAME_1":"Penza","NL_NAME_1":"Пензенскаяобласть","NAME_2":"Kameshkirskiyrayon","VARNAME_2":"NA","NL_NAME_2":"Камешкирскийрайон","TYPE_2":"Raion","ENGTYPE_2":"District","CC_2":"R35001","HASC_2":"RU.PZ.KK"}},{"type":"MultiPolygon","arcs":[[[-50,57,58,59,60]]],"properties":{"GID_2":"RUS.54.11_1","GID_0":"RUS","COUNTRY":"Russia","GID_1":"RUS.54_1","NAME_1":"Penza","NL_NAME_1":"Пензенскаяобласть","NAME_2":"Kolyshleyskiyrayon","VARNAME_2":"NA","NL_NAME_2":"Колышлейскийрайон","TYPE_2":"Raion","ENGTYPE_2":"District","CC_2":"R35001","HASC_2":"RU.PZ.KL"}},{"type":"MultiPolygon","arcs":[[[-58,61,62,63,64]]],"properties":{"GID_2":"RUS.54.12_1","GID_0":"RUS","COUNTRY":"Russia","GID_1":"RUS.54_1","NAME_1":"Penza","NL_NAME_1":"Пензенскаяобласть","NAME_2":"Kondol'skiyrayon","VARNAME_2":"NA","NL_NAME_2":"Кондольскийрайон","TYPE_2":"Raion","ENGTYPE_2":"District","CC_2":"R35001","HASC_2":"RU.PZ.KO"}},{"type":"MultiPolygon","arcs":[[[65]]],"properties":{"GID_2":"RUS.54.13_1","GID_0":"RUS","COUNTRY":"Russia","GID_1":"RUS.54_1","NAME_1":"Penza","NL_NAME_1":"Пензенскаяобласть","NAME_2":"Kuznetsk","VARNAME_2":"NA","NL_NAME_2":"Кузнецк","TYPE_2":"Gorsovet","ENGTYPE_2":"District","CC_2":"NA","HASC_2":"RU.PZ.KG"}},{"type":"MultiPolygon","arcs":[[[-36,66,67,68,-53,69],[-66]]],"properties":{"GID_2":"RUS.54.14_1","GID_0":"RUS","COUNTRY":"Russia","GID_1":"RUS.54_1","NAME_1":"Penza","NL_NAME_1":"Пензенскаяобласть","NAME_2":"Kuznetskiyrayon","VARNAME_2":"NA","NL_NAME_2":"Кузнецкийрайон","TYPE_2":"Raion","ENGTYPE_2":"District","CC_2":"R35001","HASC_2":"RU.PZ.KG"}},{"type":"MultiPolygon","arcs":[[[-56,70,71,72]]],"properties":{"GID_2":"RUS.54.15_1","GID_0":"RUS","COUNTRY":"Russia","GID_1":"RUS.54_1","NAME_1":"Penza","NL_NAME_1":"Пензенскаяобласть","NAME_2":"Lopatinskiyrayon","VARNAME_2":"NA","NL_NAME_2":"Лопатинскийрайон","TYPE_2":"Raion","ENGTYPE_2":"District","CC_2":"R35001","HASC_2":"RU.PZ.LO"}},{"type":"MultiPolygon","arcs":[[[73,74,75,-31,76,-29,77,-41]]],"properties":{"GID_2":"RUS.54.16_1","GID_0":"RUS","COUNTRY":"Russia","GID_1":"RUS.54_1","NAME_1":"Penza","NL_NAME_1":"Пензенскаяобласть","NAME_2":"Luninskiyrayon","VARNAME_2":"NA","NL_NAME_2":"Лунинскийрайон","TYPE_2":"Raion","ENGTYPE_2":"District","CC_2":"R35001","HASC_2":"RU.PZ.LU"}},{"type":"MultiPolygon","arcs":[[[-59,-65,78,79,-72,80]]],"properties":{"GID_2":"RUS.54.17_1","GID_0":"RUS","COUNTRY":"Russia","GID_1":"RUS.54_1","NAME_1":"Penza","NL_NAME_1":"Пензенскаяобласть","NAME_2":"Maloserdobinskiyrayon","VARNAME_2":"NA","NL_NAME_2":"Малосердобинскийрайон","TYPE_2":"Raion","ENGTYPE_2":"District","CC_2":"R35001","HASC_2":"RU.PZ.MA"}},{"type":"MultiPolygon","arcs":[[[81,-43,82,-78,-28,83,-48,84]]],"properties":{"GID_2":"RUS.54.18_1","GID_0":"RUS","COUNTRY":"Russia","GID_1":"RUS.54_1","NAME_1":"Penza","NL_NAME_1":"Пензенскаяобласть","NAME_2":"Mokshanskiyrayon","VARNAME_2":"NA","NL_NAME_2":"Мокшанскийрайон","TYPE_2":"Raion","ENGTYPE_2":"District","CC_2":"R35001","HASC_2":"RU.PZ.MO"}},{"type":"MultiPolygon","arcs":[[[85,-6,86]]],"properties":{"GID_2":"RUS.54.19_1","GID_0":"RUS","COUNTRY":"Russia","GID_1":"RUS.54_1","NAME_1":"Penza","NL_NAME_1":"Пензенскаяобласть","NAME_2":"Narovchatskiyrayon","VARNAME_2":"NA","NL_NAME_2":"Наровчатскийрайон","TYPE_2":"Raion","ENGTYPE_2":"District","CC_2":"R35001","HASC_2":"RU.PZ.NA"}},{"type":"MultiPolygon","arcs":[[[-54,-69,87]]],"properties":{"GID_2":"RUS.54.20_1","GID_0":"RUS","COUNTRY":"Russia","GID_1":"RUS.54_1","NAME_1":"Penza","NL_NAME_1":"Пензенскаяобласть","NAME_2":"Neverkinskiyrayon","VARNAME_2":"NA","NL_NAME_2":"Неверкинскийрайон","TYPE_2":"Raion","ENGTYPE_2":"District","CC_2":"R35002","HASC_2":"RU.PZ.NE"}},{"type":"MultiPolygon","arcs":[[[88,89,-33,90,-75]]],"properties":{"GID_2":"RUS.54.21_1","GID_0":"RUS","COUNTRY":"Russia","GID_1":"RUS.54_1","NAME_1":"Penza","NL_NAME_1":"Пензенскаяобласть","NAME_2":"Nikol'skiyrayon","VARNAME_2":"NA","NL_NAME_2":"Никольскийрайон","TYPE_2":"Raion","ENGTYPE_2":"District","CC_2":"R35002","HASC_2":"RU.PZ.NI"}},{"type":"MultiPolygon","arcs":[[[-85,-47,91,92,-7,-86,93]]],"properties":{"GID_2":"RUS.54.22_1","GID_0":"RUS","COUNTRY":"Russia","GID_1":"RUS.54_1","NAME_1":"Penza","NL_NAME_1":"Пензенскаяобласть","NAME_2":"Nizhnelomovskiyrayon","VARNAME_2":"NA","NL_NAME_2":"Нижнеломовскийрайон","TYPE_2":"Raion","ENGTYPE_2":"District","CC_2":"R35002","HASC_2":"RU.PZ.NR"}},{"type":"MultiPolygon","arcs":[[[-5,94,95,-92,-46,96,-16]]],"properties":{"GID_2":"RUS.54.23_1","GID_0":"RUS","COUNTRY":"Russia","GID_1":"RUS.54_1","NAME_1":"Penza","NL_NAME_1":"Пензенскаяобласть","NAME_2":"Pachelmskiyrayon","VARNAME_2":"NA","NL_NAME_2":"Пачелмскийрайон","TYPE_2":"Raion","ENGTYPE_2":"District","CC_2":"R35002","HASC_2":"RU.PZ.PA"}},{"type":"MultiPolygon","arcs":[[[97]]],"properties":{"GID_2":"RUS.54.24_1","GID_0":"RUS","COUNTRY":"Russia","GID_1":"RUS.54_1","NAME_1":"Penza","NL_NAME_1":"Пензенскаяобласть","NAME_2":"Penza","VARNAME_2":"NA","NL_NAME_2":"Пенза","TYPE_2":"Gorsovet","ENGTYPE_2":"District","CC_2":"NA","HASC_2":"RU.PZ.PG"}},{"type":"MultiPolygon","arcs":[[[-27,98,-25,99,-62,-49,-84],[-98]]],"properties":{"GID_2":"RUS.54.25_1","GID_0":"RUS","COUNTRY":"Russia","GID_1":"RUS.54_1","NAME_1":"Penza","NL_NAME_1":"Пензенскаяобласть","NAME_2":"Penzenskiyrayon","VARNAME_2":"NA","NL_NAME_2":"Пензенскийрайон","TYPE_2":"Raion","ENGTYPE_2":"District","CC_2":"R35002","HASC_2":"RU.PZ.PR"}},{"type":"MultiPolygon","arcs":[[[100]]],"properties":{"GID_2":"RUS.54.26_1","GID_0":"RUS","COUNTRY":"Russia","GID_1":"RUS.54_1","NAME_1":"Penza","NL_NAME_1":"Пензенскаяобласть","NAME_2":"Serdobsk","VARNAME_2":"NA","NL_NAME_2":"Сердобск","TYPE_2":"Gorod","ENGTYPE_2":"City","CC_2":"NA","HASC_2":"RU.PZ.SG"}},{"type":"MultiPolygon","arcs":[[[-13,101,-11,-18,-51,-61,102],[-101]]],"properties":{"GID_2":"RUS.54.27_1","GID_0":"RUS","COUNTRY":"Russia","GID_1":"RUS.54_1","NAME_1":"Penza","NL_NAME_1":"Пензенскаяобласть","NAME_2":"Serdobskiyrayon","VARNAME_2":"NA","NL_NAME_2":"Сердобскийрайон","TYPE_2":"Raion","ENGTYPE_2":"District","CC_2":"R35002","HASC_2":"RU.PZ.SR"}},{"type":"MultiPolygon","arcs":[[[-24,-39,-57,-73,-80,-63,-100]]],"properties":{"GID_2":"RUS.54.28_1","GID_0":"RUS","COUNTRY":"Russia","GID_1":"RUS.54_1","NAME_1":"Penza","NL_NAME_1":"Пензенскаяобласть","NAME_2":"Shemysheyskiyrayon","VARNAME_2":"NA","NL_NAME_2":"Шемышейскийрайон","TYPE_2":"Raion","ENGTYPE_2":"District","CC_2":"R35002","HASC_2":"RU.PZ.SH"}},{"type":"MultiPolygon","arcs":[[[103,-34,-90,104,-67]]],"properties":{"GID_2":"RUS.54.29_1","GID_0":"RUS","COUNTRY":"Russia","GID_1":"RUS.54_1","NAME_1":"Penza","NL_NAME_1":"Пензенскаяобласть","NAME_2":"Sosnovoborskiyrayon","VARNAME_2":"NA","NL_NAME_2":"Сосновоборскийрайон","TYPE_2":"Raion","ENGTYPE_2":"District","CC_2":"R35002","HASC_2":"RU.PZ.SO"}},{"type":"MultiPolygon","arcs":[[[-15,105,-20]]],"properties":{"GID_2":"RUS.54.30_1","GID_0":"RUS","COUNTRY":"Russia","GID_1":"RUS.54_1","NAME_1":"Penza","NL_NAME_1":"Пензенскаяобласть","NAME_2":"Tamalinskiyrayon","VARNAME_2":"NA","NL_NAME_2":"Тамалинскийрайон","TYPE_2":"Raion","ENGTYPE_2":"District","CC_2":"R35002","HASC_2":"RU.PZ.TA"}},{"type":"MultiPolygon","arcs":[[[106,-8,-93,-96,107,108]]],"properties":{"GID_2":"RUS.54.31_1","GID_0":"RUS","COUNTRY":"Russia","GID_1":"RUS.54_1","NAME_1":"Penza","NL_NAME_1":"Пензенскаяобласть","NAME_2":"Vadinskiyrayon","VARNAME_2":"NA","NL_NAME_2":"Вадинскийрайон","TYPE_2":"Raion","ENGTYPE_2":"District","CC_2":"R35000","HASC_2":"RU.PZ.VA"}},{"type":"MultiPolygon","arcs":[[[-109,-3,109]]],"properties":{"GID_2":"RUS.54.32_1","GID_0":"RUS","COUNTRY":"Russia","GID_1":"RUS.54_1","NAME_1":"Penza","NL_NAME_1":"Пензенскаяобласть","NAME_2":"Zemetchinskiyrayon","VARNAME_2":"NA","NL_NAME_2":"Земетчинскийрайон","TYPE_2":"Raion","ENGTYPE_2":"District","CC_2":"R35000","HASC_2":"RU.PZ.ZE"}}]}},"arcs":[[[220823,508738],[-14150,-20739],[-4676,-15437],[-7362,-14215],[-39989,-51788],[-3240,-15554]],[[151406,391005],[-17021,25516],[-9065,19690],[-3794,14156],[-15524,14039],[-6931,12525],[1661,40778],[-11587,19224],[-20774,56565],[-5270,1864]],[[63101,595362],[15729,20273],[22251,17243],[17390,7690],[17780,-1340],[16324,12059],[7956,21787],[6665,32157],[6952,3670]],[[174148,708901],[23481,-9962]],[[197629,698939],[-9515,-27904],[17882,-26972],[6829,-15903],[2071,-31341],[10726,-27613],[2645,-23826],[-7444,-36642]],[[271148,981532],[3671,-62798],[7628,-36934],[2666,-23826],[10685,-24758],[14868,-16894]],[[310666,816322],[-7527,-14097],[-8777,-3671],[-10028,6758],[-14232,-1107],[-12714,-17534]],[[257388,786671],[-9947,3670],[-31376,27438],[-7957,20389],[1026,40661]],[[209134,878829],[6049,9554],[6870,0],[4163,-4777],[8470,23652],[82,6815],[-13658,25691],[861,16253],[15873,43982],[6726,-990],[3425,-10370],[12038,2039],[8203,-4252],[2912,-4894]],[[327400,258418],[43352,-5651]],[[370752,252767],[6665,-24933],[-3076,-15146],[6378,-12991],[7526,-26389],[-2194,-16603]],[[386051,156705],[-31582,-41186]],[[354469,115519],[8244,-21787],[-2112,-19632]],[[360601,74100],[-10582,14156],[-16939,-7282],[-6603,-9496],[-12838,408],[-16037,-8796],[-8018,-18583]],[[289584,44507],[-10582,11010],[-7957,38156],[9823,15787],[6337,18467],[7280,45497],[3897,13806],[9064,14215],[11751,41360],[8203,15613]],[[220823,508738],[6234,-26506],[9044,-8156],[23009,43924],[14212,-4835],[20753,-17768]],[[294075,495397],[29428,-17185],[23666,-31166],[9453,-26215],[-389,-16544],[-5701,-13864],[246,-8972],[6952,-30933],[-3876,-48176],[9044,-14273],[23563,-8738]],[[386461,279331],[-15709,-26564]],[[370752,252767],[-18149,116],[-25203,5535]],[[327400,258418],[-12694,19923],[-32730,22777],[-11177,-2447],[-20979,-21321],[-9966,12642],[-6686,-6583],[-9207,-21438]],[[223961,261971],[-11403,27555],[-22373,39613],[-11053,25573],[-27726,36293]],[[689764,648374],[3835,-23768]],[[693599,624606],[11012,-41535],[-14929,3961],[185,-14972],[18764,-33729],[1087,-19399],[-6686,-27146],[7198,-20681],[9680,-7165]],[[719910,463940],[-37877,-40138],[-8675,-291],[-11402,7049],[-5147,-6175]],[[656809,424385],[-18559,21671],[-17616,14214]],[[620634,460270],[-20672,39438]],[[599962,499708],[-1168,16428],[-8429,34021],[-17985,26098]],[[572380,576255],[-7362,17593],[-19031,30467],[10746,34953],[12694,26098]],[[569427,685366],[13535,-15846],[15032,-3786],[20856,15845],[25983,-27379],[13288,-6933],[15852,-2446],[15791,3553]],[[693599,624606],[-7895,65537]],[[685704,690143],[17697,61924]],[[703401,752067],[-1681,-6058]],[[701720,746009],[58466,-16311],[10726,-11710],[13452,-28078]],[[784364,689910],[-4327,-10603],[19872,-65361],[20692,-84819]],[[820601,529127],[10602,-23768],[2687,-10428]],[[833890,494931],[1845,-20855],[8818,-26797],[5312,-23826],[943,-16428],[-4265,-19515]],[[846543,387510],[-3507,5942]],[[843036,393452],[-13925,5767],[-21512,-34720],[-5188,-3087],[-23522,15903],[-11382,13166]],[[767507,390481],[-1025,22370],[-27951,14272],[2481,16486],[-2789,19341],[-18313,990]],[[541906,811196],[4840,7573],[1107,9088],[-3691,11709],[-14519,23476],[-10643,32448],[-411,12816],[8408,21438],[4307,4719],[16898,2854],[22517,30118],[11218,6291],[7013,-9204],[12407,2913],[12899,-7515],[16755,12408],[16364,-116],[1497,-21322],[3876,-17826]],[[652748,933064],[-9330,-28836],[-8593,-18292],[-697,-10544],[-6788,-18233],[-9700,-4894],[-27644,3321],[-7772,-10836],[-5701,-25748]],[[576523,819002],[-5086,-12234],[-10336,-15437]],[[561101,791331],[-17041,9612],[-2154,10253]],[[408896,502912],[-20549,-8971],[-10171,14564],[1517,7864],[24814,757],[4389,-14214]],[[294075,495397],[45055,43983]],[[339130,539380],[25080,72294]],[[364210,611674],[12715,17360],[10356,6757],[9208,-14389],[13842,9903],[7526,13982],[15750,4019]],[[433607,649306],[410,-14913],[4122,-23710],[26044,-58313],[7281,-11534],[20343,-9321]],[[491807,531515],[-4430,-36118],[10336,-33846],[18210,-37865],[6214,-7107],[410,-20914]],[[522547,395665],[-17123,-12932],[-24609,-26855],[-13166,6699],[-12673,-14273],[-5578,-22777],[-25286,-28603]],[[424112,296924],[-26598,-9321],[-11053,-8272]],[[843036,393452],[8777,-23768]],[[851813,369684],[20918,-35652],[-3405,-26914],[4368,-7398],[11238,1573]],[[884932,301293],[8675,-14855],[17329,-44740]],[[910936,241698],[-9475,-13515],[-11238,10370],[-11217,-4544],[-11156,-16544],[-6829,-30002],[-23255,1224],[-9393,-16603]],[[828373,172084],[-21676,34021],[3404,9029],[-61,14914],[-3507,11883],[-18313,30992],[-6850,-6117],[-8551,-15146],[-11177,-4719],[-5578,14331]],[[756064,261272],[16386,47186],[4983,30001],[-14048,26565],[4122,25457]],[[522547,395665],[12551,-20272],[9515,-47303],[2194,-26797],[6481,-25050],[11730,-30758],[11812,-39730]],[[576830,205755],[-1497,-14971],[-9003,-28836],[534,-35827],[-7465,-16777]],[[559399,109344],[-11853,-9554],[-10315,2447],[-10562,17302],[-9556,6932],[-8552,-524]],[[508561,125947],[-30761,38506],[-13842,5068],[-11361,9729],[-16221,72177],[-12264,45497]],[[522547,395665],[49402,7049],[16714,-12641],[18026,-43982],[13330,-24817],[8797,-8563],[12797,13923]],[[641613,326634],[6091,-4253],[3609,-11767],[15011,-24817],[25306,-24525],[-738,-13457],[-31540,-32448]],[[659352,215367],[-11977,-6466],[-18846,-6757]],[[628529,202144],[-22373,-991],[-11423,15904],[-10971,-13923],[-6932,2621]],[[937944,468950],[-14622,-6700],[-6296,6409],[3876,28777],[9618,-4311],[5783,-8505],[1641,-15670]],[[833890,494931],[13863,18176],[6070,13515],[5311,-17826],[8777,-17884],[12243,-11826],[4368,4544],[841,4486],[-9659,25340],[6932,18001],[2583,16486],[23563,19632],[7834,22428],[23666,4602],[26331,53827]],[[966613,648432],[13166,-10486],[7013,-11942],[-20,-18000],[6972,-14972],[-902,-16428],[-8798,-29884],[862,-10428],[11279,-31457],[-923,-16428],[-5250,-20914],[800,-28428],[-5373,-71770]],[[985439,367295],[-26065,-20855],[-19933,13457],[-17349,23826],[-7814,-4485],[-14724,-25516],[-14622,-52429]],[[851813,369684],[-5270,17826]],[[828373,172084],[-5086,-18001],[-13740,-3204],[-11094,-16660],[10561,-50565],[-6788,-18059],[-9413,-1690],[-26741,33788],[-11197,7224],[-13063,24991],[-9434,1223],[-30371,-60643],[-13699,-408],[-16344,9845]],[[671964,79925],[-13269,39847],[3815,43399],[-246,23885]],[[662264,187056],[37692,16311],[31643,26331],[6726,21088],[4922,30001],[5189,175],[7628,-19690]],[[652748,933064],[9987,-10136],[16714,14039],[38226,11710]],[[717675,948677],[12612,-27671],[11053,-10661],[2851,-13398],[-6030,-16603],[-19174,-30467],[-492,-31458],[-12325,-6408],[-5168,-12117],[7362,-20738]],[[708364,779156],[-4963,-27089]],[[685704,690143],[4060,-41769]],[[569427,685366],[11546,42467],[8818,46837],[-13268,44332]],[[628529,202144],[30823,13223]],[[659352,215367],[2912,-28311]],[[671964,79925],[-13535,-15437],[-14560,932],[-7814,10136],[-13575,-9495],[-5702,-22661],[-8325,-18234],[-19134,25982],[-6316,25049],[-12304,23244],[-11300,9903]],[[446219,810089],[20405,-3787],[32545,13574],[3281,-12234],[8162,-10952],[31294,14506]],[[561101,791331],[15422,27671]],[[572380,576255],[-26659,-26797],[-15463,27671],[-13412,12699],[4307,-38681],[-11013,-17069],[-18333,-2563]],[[433607,649306],[2215,16661],[-10972,14272],[-16118,7981],[-6460,10020],[492,13573],[31971,27555],[6439,24350],[5045,46371]],[[388347,854828],[-7505,-31981],[-17103,-22195],[-18416,-8797],[-34657,24467]],[[271148,981532],[7239,-12175],[4019,2155],[20385,18642],[6726,-1340],[4491,-3320],[4184,-22778],[22947,-3495],[32607,-27962],[6214,-8214],[3978,-13923],[1600,-12001],[-2256,-20797],[841,-10252],[4224,-11244]],[[985439,367295],[2543,-25399],[12017,-38972],[-3527,-26855],[-7793,-7457],[-20794,-32797],[-5209,-32914],[-23276,13457],[-1702,23942],[-6911,14914],[-12100,-3030],[-7751,-10486]],[[717675,948677],[10479,-4136],[25613,6757],[13289,29943],[9249,-7107],[13268,13748],[17842,3321],[12694,-20739],[10787,-5826],[13575,-28253],[123,-17942],[-1702,-12001],[7301,-26855],[12571,-20797],[15257,-40196],[16078,-26797],[6255,-16428],[943,-19457],[-3466,-20972],[-840,-19457]],[[896991,715483],[-10521,-15029],[-17636,5825],[-14950,-7689],[-33570,14447],[-13207,-1748],[-12222,-15204],[-10521,-6175]],[[701720,746009],[6644,33147]],[[364210,611674],[-7300,8447],[-15299,37923],[-7957,874],[-27418,-26098],[-8900,2330],[-10028,9729],[-13925,43924],[-10643,24641],[-6173,23535]],[[256567,736979],[821,49692]],[[388347,854828],[13412,-20389],[6296,-4835],[22373,-14971],[15791,-4544]],[[197629,698939],[24178,-5418]],[[221807,693521],[14027,4195],[6173,24583],[14560,14680]],[[339130,539380],[-37344,-38856],[-7711,-5127]],[[585279,509204],[-36195,-1340],[-6152,24176],[18456,22894],[33263,-21030],[-9372,-24700]],[[599962,499708],[9947,-21962],[10725,-17476]],[[656809,424385],[-8101,-45147],[-17513,11243],[7301,-26623],[3117,-37224]],[[440641,88780],[-4901,-9845],[-8777,816],[-5804,5825],[11238,16836],[8244,-13632]],[[354469,115519],[27480,33438],[4102,7748]],[[508561,125947],[-2276,-16545],[1087,-13340],[-8018,-30351],[-20221,-16136],[-7936,-33322],[-9987,-12583],[-10151,-3670],[-28054,36933],[-42081,10370],[-20323,26797]],[[833890,494931],[-13289,34196]],[[896991,715483],[1825,-14913],[10602,-14913],[12325,58],[14929,13574],[9700,-4486],[2666,-22428],[14950,-10428],[2625,-13515]],[[289584,44507],[-10889,-8447],[-13084,9320],[-12571,19807],[-4758,16020],[-7218,11301],[-13679,-1281],[-11914,-29535],[-8962,-1457],[984,35011],[3835,6991],[-882,10369],[-3219,6350],[7608,23710],[19297,22195],[9700,33438],[-4204,23884],[-15667,39788]],[[122285,875684],[12243,7107],[22825,-8447],[16057,1456],[14991,5826],[7629,11184],[13104,-13981]],[[221807,693521],[-47659,15380]],[[174148,708901],[-24424,30875],[-19851,46312],[-10643,38099],[3055,51497]],[[63101,595362],[-17800,-116],[-5455,5651],[-3322,8621],[7157,46837],[-2482,8796],[-3712,6001],[-25388,16952],[-5742,7573],[-3650,11068],[-2707,27030],[697,13574],[4307,12874],[1476,15962],[-41,15903],[-2830,10836],[-676,11651],[5557,40778],[-7219,11243],[32320,2796],[5291,13515],[11361,-3146],[1497,-12408],[33324,-40370],[3302,6350],[-7998,17301],[944,18117],[13329,22370],[4820,-7049],[-964,-18175],[7710,-11302],[16078,21089]]],"bbox":[42.1082,52.2936,46.9845,54.0102],"transform":{"scale":[0.000004876304876304877,0.0000017166017166017164],"translate":[42.1082,52.2936]}}