{"type":"Topology","objects":{"muni":{"type":"GeometryCollection","geometries":[{"type":"MultiPolygon","arcs":[[[0,1,2,3,4,5,6,7,8]]],"properties":{"GID_2":"RUS.55.1_1","GID_0":"RUS","COUNTRY":"Russia","GID_1":"RUS.55_1","NAME_1":"Perm'","NL_NAME_1":"Пермскаякрай","NAME_2":"Aleksandrovskgorsovet","VARNAME_2":"NA","NL_NAME_2":"Александровск(горсовет)","TYPE_2":"Gorsovet","ENGTYPE_2":"District","CC_2":"R50093","HASC_2":"RU.PE.AL"}},{"type":"MultiPolygon","arcs":[[[9,10,11,12,13,14,15,16]]],"properties":{"GID_2":"RUS.55.2_1","GID_0":"RUS","COUNTRY":"Russia","GID_1":"RUS.55_1","NAME_1":"Perm'","NL_NAME_1":"Пермскаякрай","NAME_2":"Bardymskiyrayon","VARNAME_2":"NA","NL_NAME_2":"Бардымскийрайон","TYPE_2":"Raion","ENGTYPE_2":"District","CC_2":"R50090","HASC_2":"RU.PE.BA"}},{"type":"MultiPolygon","arcs":[[[17,18,19,20]]],"properties":{"GID_2":"RUS.55.3_1","GID_0":"RUS","COUNTRY":"Russia","GID_1":"RUS.55_1","NAME_1":"Perm'","NL_NAME_1":"Пермскаякрай","NAME_2":"Bereznikigorsovet","VARNAME_2":"Berezniki","NL_NAME_2":"Березники(горсовет)","TYPE_2":"Gorsovet","ENGTYPE_2":"District","CC_2":"R50093","HASC_2":"RU.PE.BE"}},{"type":"MultiPolygon","arcs":[[[21,22,23,24]]],"properties":{"GID_2":"RUS.55.4_1","GID_0":"RUS","COUNTRY":"Russia","GID_1":"RUS.55_1","NAME_1":"Perm'","NL_NAME_1":"Пермскаякрай","NAME_2":"Berezovskiyrayon","VARNAME_2":"NA","NL_NAME_2":"Березовскийрайон","TYPE_2":"Raion","ENGTYPE_2":"District","CC_2":"R50090","HASC_2":"RU.PE.BZ"}},{"type":"MultiPolygon","arcs":[[[25,26,27,28,29,30]]],"properties":{"GID_2":"RUS.55.5_1","GID_0":"RUS","COUNTRY":"Russia","GID_1":"RUS.55_1","NAME_1":"Perm'","NL_NAME_1":"Пермскаякрай","NAME_2":"Bol'shesosnovskiyrayon","VARNAME_2":"NA","NL_NAME_2":"Большесосновскийрайон","TYPE_2":"Raion","ENGTYPE_2":"District","CC_2":"R50090","HASC_2":"RU.PE.BO"}},{"type":"MultiPolygon","arcs":[[[-27,31,32,33,34,35]]],"properties":{"GID_2":"RUS.55.6_1","GID_0":"RUS","COUNTRY":"Russia","GID_1":"RUS.55_1","NAME_1":"Perm'","NL_NAME_1":"Пермскаякрай","NAME_2":"Chastinskiyrayon","VARNAME_2":"NA","NL_NAME_2":"Частинскийрайон","TYPE_2":"Raion","ENGTYPE_2":"District","CC_2":"R50092","HASC_2":"RU.PE.CA"}},{"type":"MultiPolygon","arcs":[[[36]]],"properties":{"GID_2":"RUS.55.7_1","GID_0":"RUS","COUNTRY":"Russia","GID_1":"RUS.55_1","NAME_1":"Perm'","NL_NAME_1":"Пермскаякрай","NAME_2":"Chaykovski","VARNAME_2":"Chaykovskiy","NL_NAME_2":"Чайковский","TYPE_2":"Raion","ENGTYPE_2":"District","CC_2":"NA","HASC_2":"RU.PE.CR"}},{"type":"MultiPolygon","arcs":[[[37,38,39],[-37]]],"properties":{"GID_2":"RUS.55.8_1","GID_0":"RUS","COUNTRY":"Russia","GID_1":"RUS.55_1","NAME_1":"Perm'","NL_NAME_1":"Пермскаякрай","NAME_2":"Chaykovskiyrayon","VARNAME_2":"NA","NL_NAME_2":"Чайковскийрайон","TYPE_2":"Raion","ENGTYPE_2":"District","CC_2":"R50092","HASC_2":"RU.PE.CG"}},{"type":"MultiPolygon","arcs":[[[40,41,42,43,44,45,46,47]]],"properties":{"GID_2":"RUS.55.9_1","GID_0":"RUS","COUNTRY":"Russia","GID_1":"RUS.55_1","NAME_1":"Perm'","NL_NAME_1":"Пермскаякрай","NAME_2":"Cherdynskiyrayon","VARNAME_2":"NA","NL_NAME_2":"Чердынскийрайон","TYPE_2":"Raion","ENGTYPE_2":"District","CC_2":"R50092","HASC_2":"RU.PE.CD"}},{"type":"MultiPolygon","arcs":[[[48,49,50,-15,51,52,53,54]]],"properties":{"GID_2":"RUS.55.10_1","GID_0":"RUS","COUNTRY":"Russia","GID_1":"RUS.55_1","NAME_1":"Perm'","NL_NAME_1":"Пермскаякрай","NAME_2":"Chernushinskiyrayon","VARNAME_2":"NA","NL_NAME_2":"Чернушинскийрайон","TYPE_2":"Raion","ENGTYPE_2":"District","CC_2":"R50093","HASC_2":"RU.PE.CN"}},{"type":"MultiPolygon","arcs":[[[55]]],"properties":{"GID_2":"RUS.55.11_1","GID_0":"RUS","COUNTRY":"Russia","GID_1":"RUS.55_1","NAME_1":"Perm'","NL_NAME_1":"Пермскаякрай","NAME_2":"Chusovoy","VARNAME_2":"NA","NL_NAME_2":"Чусовой","TYPE_2":"Gorod","ENGTYPE_2":"City","CC_2":"NA","HASC_2":"RU.PE.CU"}},{"type":"MultiPolygon","arcs":[[[56,57,58,59,60,61,62,63],[-56]]],"properties":{"GID_2":"RUS.55.12_1","GID_0":"RUS","COUNTRY":"Russia","GID_1":"RUS.55_1","NAME_1":"Perm'","NL_NAME_1":"Пермскаякрай","NAME_2":"Chusovskiyrayon","VARNAME_2":"NA","NL_NAME_2":"Чусовскийрайон","TYPE_2":"Raion","ENGTYPE_2":"District","CC_2":"R50093","HASC_2":"RU.PE.CS"}},{"type":"MultiPolygon","arcs":[[[-1,64,-58,65,66,67,68,69,70,71,72]]],"properties":{"GID_2":"RUS.55.13_1","GID_0":"RUS","COUNTRY":"Russia","GID_1":"RUS.55_1","NAME_1":"Perm'","NL_NAME_1":"Пермскаякрай","NAME_2":"Dobryanskiyrayon","VARNAME_2":"NA","NL_NAME_2":"Добрянскийрайон","TYPE_2":"Raion","ENGTYPE_2":"District","CC_2":"R50090","HASC_2":"RU.PE.DR"}},{"type":"MultiPolygon","arcs":[[[-11,73,74,-39,75,-35,76,77]]],"properties":{"GID_2":"RUS.55.14_1","GID_0":"RUS","COUNTRY":"Russia","GID_1":"RUS.55_1","NAME_1":"Perm'","NL_NAME_1":"Пермскаякрай","NAME_2":"Elovskiyrayon","VARNAME_2":"NA","NL_NAME_2":"Еловскийрайон","TYPE_2":"Raion","ENGTYPE_2":"District","CC_2":"R50090","HASC_2":"RU.PE.EL"}},{"type":"MultiPolygon","arcs":[[[78,-47,79,-45,80,81,82,83]]],"properties":{"GID_2":"RUS.55.15_1","GID_0":"RUS","COUNTRY":"Russia","GID_1":"RUS.55_1","NAME_1":"Perm'","NL_NAME_1":"Пермскаякрай","NAME_2":"Gaynskiyrayon","VARNAME_2":"NA","NL_NAME_2":"Гайнскийрайон","TYPE_2":"Raion","ENGTYPE_2":"District","CC_2":"R50010","HASC_2":"RU.PE.GA"}},{"type":"MultiPolygon","arcs":[[[-62,84,85,86,87]]],"properties":{"GID_2":"RUS.55.16_1","GID_0":"RUS","COUNTRY":"Russia","GID_1":"RUS.55_1","NAME_1":"Perm'","NL_NAME_1":"Пермскаякрай","NAME_2":"Gornozavodskiyrayon","VARNAME_2":"NA","NL_NAME_2":"Горнозаводскийрайон","TYPE_2":"Raion","ENGTYPE_2":"District","CC_2":"R50090","HASC_2":"RU.PE.GO"}},{"type":"MultiPolygon","arcs":[[[-61,88,-59,89,90,-85]]],"properties":{"GID_2":"RUS.55.17_1","GID_0":"RUS","COUNTRY":"Russia","GID_1":"RUS.55_1","NAME_1":"Perm'","NL_NAME_1":"Пермскаякрай","NAME_2":"Gremyachinskgorsovet","VARNAME_2":"NA","NL_NAME_2":"Гремячинск(горсовет)","TYPE_2":"Gorsovet","ENGTYPE_2":"District","CC_2":"R50093","HASC_2":"RU.PE.GR"}},{"type":"MultiPolygon","arcs":[[[-9,91,-90,-65]]],"properties":{"GID_2":"RUS.55.18_1","GID_0":"RUS","COUNTRY":"Russia","GID_1":"RUS.55_1","NAME_1":"Perm'","NL_NAME_1":"Пермскаякрай","NAME_2":"Gubakhagorsovet","VARNAME_2":"Gubakha","NL_NAME_2":"Губаха(горсовет)","TYPE_2":"Gorsovet","ENGTYPE_2":"District","CC_2":"R50093","HASC_2":"RU.PE.GU"}},{"type":"MultiPolygon","arcs":[[[-70,92,93,94,95,96]]],"properties":{"GID_2":"RUS.55.19_1","GID_0":"RUS","COUNTRY":"Russia","GID_1":"RUS.55_1","NAME_1":"Perm'","NL_NAME_1":"Пермскаякрай","NAME_2":"Il'inskiyrayon","VARNAME_2":"NA","NL_NAME_2":"Ильинскийрайон","TYPE_2":"Raion","ENGTYPE_2":"District","CC_2":"R50090","HASC_2":"RU.PE.IL"}},{"type":"MultiPolygon","arcs":[[[-96,97,98,99,100,101,102,103]]],"properties":{"GID_2":"RUS.55.20_1","GID_0":"RUS","COUNTRY":"Russia","GID_1":"RUS.55_1","NAME_1":"Perm'","NL_NAME_1":"Пермскаякрай","NAME_2":"Karagayskiyrayon","VARNAME_2":"NA","NL_NAME_2":"Карагайскийрайон","TYPE_2":"Raion","ENGTYPE_2":"District","CC_2":"R50090","HASC_2":"RU.PE.KA"}},{"type":"MultiPolygon","arcs":[[[-22,104,105,106]]],"properties":{"GID_2":"RUS.55.21_1","GID_0":"RUS","COUNTRY":"Russia","GID_1":"RUS.55_1","NAME_1":"Perm'","NL_NAME_1":"Пермскаякрай","NAME_2":"Kishertskiyrayon","VARNAME_2":"NA","NL_NAME_2":"Кишертскийрайон","TYPE_2":"Raion","ENGTYPE_2":"District","CC_2":"R50091","HASC_2":"RU.PE.KS"}},{"type":"MultiPolygon","arcs":[[[-8,107,-86,-91,-92]]],"properties":{"GID_2":"RUS.55.22_1","GID_0":"RUS","COUNTRY":"Russia","GID_1":"RUS.55_1","NAME_1":"Perm'","NL_NAME_1":"Пермскаякрай","NAME_2":"Kizelgorsovet","VARNAME_2":"Kizel","NL_NAME_2":"Кизел(горсовет)","TYPE_2":"Gorsovet","ENGTYPE_2":"District","CC_2":"R50093","HASC_2":"RU.PE.KZ"}},{"type":"MultiPolygon","arcs":[[[108,-84,109,110,111,112,113,114,115]]],"properties":{"GID_2":"RUS.55.23_1","GID_0":"RUS","COUNTRY":"Russia","GID_1":"RUS.55_1","NAME_1":"Perm'","NL_NAME_1":"Пермскаякрай","NAME_2":"Kochevskiyrayon","VARNAME_2":"NA","NL_NAME_2":"Кочевскийрайон","TYPE_2":"Raion","ENGTYPE_2":"District","CC_2":"R50010","HASC_2":"RU.PE.KC"}},{"type":"MultiPolygon","arcs":[[[-44,116,117,118,119,120,121,122,-110,-83,123,-81]]],"properties":{"GID_2":"RUS.55.24_1","GID_0":"RUS","COUNTRY":"Russia","GID_1":"RUS.55_1","NAME_1":"Perm'","NL_NAME_1":"Пермскаякрай","NAME_2":"Kosinskiyrayon","VARNAME_2":"NA","NL_NAME_2":"Косинскийрайон","TYPE_2":"Raion","ENGTYPE_2":"District","CC_2":"R50010","HASC_2":"RU.PE.KS"}},{"type":"MultiPolygon","arcs":[[[124,-68,125,126,127,128,129,130,131,132,-94]]],"properties":{"GID_2":"RUS.55.25_1","GID_0":"RUS","COUNTRY":"Russia","GID_1":"RUS.55_1","NAME_1":"Perm'","NL_NAME_1":"Пермскаякрай","NAME_2":"Krasnokamskgorsovet","VARNAME_2":"Krasnokamsk","NL_NAME_2":"Краснокамск(горсовет)","TYPE_2":"Gorsovet","ENGTYPE_2":"District","CC_2":"R50093","HASC_2":"RU.PE.KK"}},{"type":"MultiPolygon","arcs":[[[133,-6,134,135,136,-41]]],"properties":{"GID_2":"RUS.55.26_1","GID_0":"RUS","COUNTRY":"Russia","GID_1":"RUS.55_1","NAME_1":"Perm'","NL_NAME_1":"Пермскаякрай","NAME_2":"Krasnovisherskiyrayon","VARNAME_2":"NA","NL_NAME_2":"Красновишерскийрайон","TYPE_2":"Raion","ENGTYPE_2":"District","CC_2":"R50091","HASC_2":"RU.PE.KV"}},{"type":"MultiPolygon","arcs":[[[137]]],"properties":{"GID_2":"RUS.55.27_1","GID_0":"RUS","COUNTRY":"Russia","GID_1":"RUS.55_1","NAME_1":"Perm'","NL_NAME_1":"Пермскаякрай","NAME_2":"Kudymkar","VARNAME_2":"NA","NL_NAME_2":"Кудымкар","TYPE_2":"Gorod","ENGTYPE_2":"City","CC_2":"NA","HASC_2":"RU.PE.KM"}},{"type":"MultiPolygon","arcs":[[[138,139,140,141,142,143,144,145,-120,146,147,148,149,-103,150,151],[-138]]],"properties":{"GID_2":"RUS.55.28_1","GID_0":"RUS","COUNTRY":"Russia","GID_1":"RUS.55_1","NAME_1":"Perm'","NL_NAME_1":"Пермскаякрай","NAME_2":"Kudymkarskiyrayon","VARNAME_2":"NA","NL_NAME_2":"Кудымкарскийрайон","TYPE_2":"Raion","ENGTYPE_2":"District","CC_2":"R50010","HASC_2":"RU.PE.KD"}},{"type":"MultiPolygon","arcs":[[[152,-40,-75,153,-17,-50]]],"properties":{"GID_2":"RUS.55.29_1","GID_0":"RUS","COUNTRY":"Russia","GID_1":"RUS.55_1","NAME_1":"Perm'","NL_NAME_1":"Пермскаякрай","NAME_2":"Kuedinskiyrayon","VARNAME_2":"NA","NL_NAME_2":"Куединскийрайон","TYPE_2":"Raion","ENGTYPE_2":"District","CC_2":"R50091","HASC_2":"RU.PE.KU"}},{"type":"MultiPolygon","arcs":[[[154]]],"properties":{"GID_2":"RUS.55.30_1","GID_0":"RUS","COUNTRY":"Russia","GID_1":"RUS.55_1","NAME_1":"Perm'","NL_NAME_1":"Пермскаякрай","NAME_2":"Kungur","VARNAME_2":"NA","NL_NAME_2":"Кунгур","TYPE_2":"Gorod","ENGTYPE_2":"City","CC_2":"NA","HASC_2":"RU.PE.KG"}},{"type":"MultiPolygon","arcs":[[[-13,155,156,157,158,159,-64,160,-23,-107,161,162,163,164],[-155]]],"properties":{"GID_2":"RUS.55.31_1","GID_0":"RUS","COUNTRY":"Russia","GID_1":"RUS.55_1","NAME_1":"Perm'","NL_NAME_1":"Пермскаякрай","NAME_2":"Kungurskiyrayon","VARNAME_2":"NA","NL_NAME_2":"Кунгурскийрайон","TYPE_2":"Raion","ENGTYPE_2":"District","CC_2":"R50091","HASC_2":"RU.PE.KR"}},{"type":"MultiPolygon","arcs":[[[165]]],"properties":{"GID_2":"RUS.55.32_1","GID_0":"RUS","COUNTRY":"Russia","GID_1":"RUS.55_1","NAME_1":"Perm'","NL_NAME_1":"Пермскаякрай","NAME_2":"Lys'va","VARNAME_2":"Lysva","NL_NAME_2":"Лысьва","TYPE_2":"Gorsovet","ENGTYPE_2":"District","CC_2":"NA","HASC_2":"RU.PE.LG"}},{"type":"MultiPolygon","arcs":[[[-24,-161,-63,-88,166],[-166]]],"properties":{"GID_2":"RUS.55.33_1","GID_0":"RUS","COUNTRY":"Russia","GID_1":"RUS.55_1","NAME_1":"Perm'","NL_NAME_1":"Пермскаякрай","NAME_2":"Lys'venskiyrayon","VARNAME_2":"NA","NL_NAME_2":"Лысьвенскийрайон","TYPE_2":"Raion","ENGTYPE_2":"District","CC_2":"R50091","HASC_2":"RU.PE.LR"}},{"type":"MultiPolygon","arcs":[[[-95,-133,167,-131,168,-129,169,170,171,172,173,174,-98]]],"properties":{"GID_2":"RUS.55.34_1","GID_0":"RUS","COUNTRY":"Russia","GID_1":"RUS.55_1","NAME_1":"Perm'","NL_NAME_1":"Пермскаякрай","NAME_2":"Nytvenskiyrayon","VARNAME_2":"NA","NL_NAME_2":"Нытвенскийрайон","TYPE_2":"Raion","ENGTYPE_2":"District","CC_2":"R50091","HASC_2":"RU.PE.NY"}},{"type":"MultiPolygon","arcs":[[[-31,175,-29,176,177,-174,178,179]]],"properties":{"GID_2":"RUS.55.35_1","GID_0":"RUS","COUNTRY":"Russia","GID_1":"RUS.55_1","NAME_1":"Perm'","NL_NAME_1":"Пермскаякрай","NAME_2":"Ocherskiyrayon","VARNAME_2":"NA","NL_NAME_2":"Очерскийрайон","TYPE_2":"Raion","ENGTYPE_2":"District","CC_2":"R50092","HASC_2":"RU.PE.OC"}},{"type":"MultiPolygon","arcs":[[[-26,-180,180,-172,181,182,-32]]],"properties":{"GID_2":"RUS.55.36_1","GID_0":"RUS","COUNTRY":"Russia","GID_1":"RUS.55_1","NAME_1":"Perm'","NL_NAME_1":"Пермскаякрай","NAME_2":"Okhanskiyrayon","VARNAME_2":"NA","NL_NAME_2":"Оханскийрайон","TYPE_2":"Raion","ENGTYPE_2":"District","CC_2":"R50091","HASC_2":"RU.PE.OK"}},{"type":"MultiPolygon","arcs":[[[-55,183,184,185,186]]],"properties":{"GID_2":"RUS.55.37_1","GID_0":"RUS","COUNTRY":"Russia","GID_1":"RUS.55_1","NAME_1":"Perm'","NL_NAME_1":"Пермскаякрай","NAME_2":"Oktyabr'skiy","VARNAME_2":"NA","NL_NAME_2":"Октябрьскийрайон","TYPE_2":"Raion","ENGTYPE_2":"District","CC_2":"R50091","HASC_2":"RU.AM.OK"}},{"type":"MultiPolygon","arcs":[[[-163,187,-186,188,189,190,191]]],"properties":{"GID_2":"RUS.55.38_1","GID_0":"RUS","COUNTRY":"Russia","GID_1":"RUS.55_1","NAME_1":"Perm'","NL_NAME_1":"Пермскаякрай","NAME_2":"Ordinskiyrayon","VARNAME_2":"NA","NL_NAME_2":"Ординскийрайон","TYPE_2":"Raion","ENGTYPE_2":"District","CC_2":"R50091","HASC_2":"RU.PE.OR"}},{"type":"MultiPolygon","arcs":[[[-12,-78,192,-33,-183,193,-156]]],"properties":{"GID_2":"RUS.55.39_1","GID_0":"RUS","COUNTRY":"Russia","GID_1":"RUS.55_1","NAME_1":"Perm'","NL_NAME_1":"Пермскаякрай","NAME_2":"Osinskiyrayon","VARNAME_2":"NA","NL_NAME_2":"Осинскийрайон","TYPE_2":"Raion","ENGTYPE_2":"District","CC_2":"R50091","HASC_2":"RU.PE.OS"}},{"type":"MultiPolygon","arcs":[[[-67,194,195,-126]]],"properties":{"GID_2":"RUS.55.40_1","GID_0":"RUS","COUNTRY":"Russia","GID_1":"RUS.55_1","NAME_1":"Perm'","NL_NAME_1":"Пермскаякрай","NAME_2":"Perm'gorsovet","VARNAME_2":"Perm'","NL_NAME_2":"Пермь(горсовет)","TYPE_2":"Gorsovet","ENGTYPE_2":"District","CC_2":"R50093","HASC_2":"RU.PE.PG"}},{"type":"MultiPolygon","arcs":[[[-57,-160,196,197,-157,-194,-182,-171,198,-127,-196,199]]],"properties":{"GID_2":"RUS.55.41_1","GID_0":"RUS","COUNTRY":"Russia","GID_1":"RUS.55_1","NAME_1":"Perm'","NL_NAME_1":"Пермскаякрай","NAME_2":"Permskiyrayon","VARNAME_2":"NA","NL_NAME_2":"Пермскийрайон","TYPE_2":"Raion","ENGTYPE_2":"District","CC_2":"R50092","HASC_2":"RU.PE.PR"}},{"type":"MultiPolygon","arcs":[[[-152,200,-101,201,202,203]]],"properties":{"GID_2":"RUS.55.42_1","GID_0":"RUS","COUNTRY":"Russia","GID_1":"RUS.55_1","NAME_1":"Perm'","NL_NAME_1":"Пермскаякрай","NAME_2":"Sivinskiyrayon","VARNAME_2":"NA","NL_NAME_2":"Сивинскийрайон","TYPE_2":"Raion","ENGTYPE_2":"District","CC_2":"R50092","HASC_2":"RU.PE.SI"}},{"type":"MultiPolygon","arcs":[[[204]]],"properties":{"GID_2":"RUS.55.43_1","GID_0":"RUS","COUNTRY":"Russia","GID_1":"RUS.55_1","NAME_1":"Perm'","NL_NAME_1":"Пермскаякрай","NAME_2":"Solikamsk","VARNAME_2":"NA","NL_NAME_2":"Соликамск","TYPE_2":"Gorod","ENGTYPE_2":"City","CC_2":"NA","HASC_2":"RU.PE.SG"}},{"type":"MultiPolygon","arcs":[[[205,-4,206,207,-19,208,209,210,-117,-43,211,-136],[-205]]],"properties":{"GID_2":"RUS.55.44_1","GID_0":"RUS","COUNTRY":"Russia","GID_1":"RUS.55_1","NAME_1":"Perm'","NL_NAME_1":"Пермскаякрай","NAME_2":"Solikamskiyrayon","VARNAME_2":"NA","NL_NAME_2":"Солисамскийрайон","TYPE_2":"Raion","ENGTYPE_2":"District","CC_2":"R50092","HASC_2":"RU.PE.SR"}},{"type":"MultiPolygon","arcs":[[[-106,212,-188,-162]]],"properties":{"GID_2":"RUS.55.45_1","GID_0":"RUS","COUNTRY":"Russia","GID_1":"RUS.55_1","NAME_1":"Perm'","NL_NAME_1":"Пермскаякрай","NAME_2":"Suksunskiyrayon","VARNAME_2":"NA","NL_NAME_2":"Суксунскийрайон","TYPE_2":"Raion","ENGTYPE_2":"District","CC_2":"R50092","HASC_2":"RU.PE.SU"}},{"type":"MultiPolygon","arcs":[[[-14,-165,213,-192,214,-190,215,-184,-54,216,-52]]],"properties":{"GID_2":"RUS.55.46_1","GID_0":"RUS","COUNTRY":"Russia","GID_1":"RUS.55_1","NAME_1":"Perm'","NL_NAME_1":"Пермскаякрай","NAME_2":"Uinskiyrayon","VARNAME_2":"NA","NL_NAME_2":"Уинскийрайон","TYPE_2":"Raion","ENGTYPE_2":"District","CC_2":"R50092","HASC_2":"RU.PE.UI"}},{"type":"MultiPolygon","arcs":[[[-3,217,-72,218,-147,-119,219,-210,220,-21,221,-207]]],"properties":{"GID_2":"RUS.55.47_1","GID_0":"RUS","COUNTRY":"Russia","GID_1":"RUS.55_1","NAME_1":"Perm'","NL_NAME_1":"Пермскаякрай","NAME_2":"Usol'skiyrayon","VARNAME_2":"NA","NL_NAME_2":"Усольскийрайон","TYPE_2":"Raion","ENGTYPE_2":"District","CC_2":"R50092","HASC_2":"RU.IR.UO"}},{"type":"MultiPolygon","arcs":[[[-99,-175,-178,222,-203,223]]],"properties":{"GID_2":"RUS.55.48_1","GID_0":"RUS","COUNTRY":"Russia","GID_1":"RUS.55_1","NAME_1":"Perm'","NL_NAME_1":"Пермскаякрай","NAME_2":"Vereshchaginskiyrayon","VARNAME_2":"NA","NL_NAME_2":"Верещагинскийрайон","TYPE_2":"Raion","ENGTYPE_2":"District","CC_2":"R50090","HASC_2":"RU.PE.VE"}},{"type":"MultiPolygon","arcs":[[[224,-116,225,-114,226,-112,-122,227,-145,228,229,-142,230,-140]]],"properties":{"GID_2":"RUS.55.49_1","GID_0":"RUS","COUNTRY":"Russia","GID_1":"RUS.55_1","NAME_1":"Perm'","NL_NAME_1":"Пермскаякрай","NAME_2":"Yurlinskiyrayon","VARNAME_2":"NA","NL_NAME_2":"Юрлинскийрайон","TYPE_2":"Raion","ENGTYPE_2":"District","CC_2":"R50010","HASC_2":"RU.PE.YR"}},{"type":"MultiPolygon","arcs":[[[-71,-97,-104,-150,231,-148,-219]]],"properties":{"GID_2":"RUS.55.50_1","GID_0":"RUS","COUNTRY":"Russia","GID_1":"RUS.55_1","NAME_1":"Perm'","NL_NAME_1":"Пермскаякрай","NAME_2":"Yus'vinskiyrayon","VARNAME_2":"NA","NL_NAME_2":"Юсьвинскийрайон","TYPE_2":"Raion","ENGTYPE_2":"District","CC_2":"R50010","HASC_2":"RU.PE.YS"}}]}},"arcs":[[[707125,511398],[-4266,-4638],[-3684,-1898],[-7860,-72],[-5960,5157],[-1241,7253],[4874,6734],[917,4423],[-3942,3743],[-8352,-2114]],[[677611,529986],[1332,6358]],[[678943,536344],[21111,12535],[-5482,5265],[2069,3474],[9114,5498],[-2521,6787],[-6451,717],[-4214,5103],[20606,18625],[3672,10727]],[[716847,605075],[8467,5085],[4344,4621],[103,6500],[5326,5892],[29398,2686],[7097,16386],[-6671,3080],[4964,12912],[6516,4817],[11777,4208],[6231,663]],[[794399,671925],[15552,-2758]],[[809951,669167],[4576,2257],[47600,-1541],[7808,6967],[11725,877],[10497,-1307],[13820,-6823]],[[905977,669597],[-6994,-8900],[-1926,-4889],[-9877,-7128],[-18279,-43802],[2236,-4460],[12268,-4315],[8080,-10315]],[[891485,585788],[-13613,-9778],[-6916,-11407],[-21343,2166],[-14079,-609],[-14220,-8363],[905,-14218],[-15823,35],[-9231,5749],[-7291,2722],[-11247,-72],[-3826,-6465],[-14944,-644],[-867,-7468],[-12384,-1701],[-4577,-8757]],[[742029,526978],[-10872,-1558],[-10691,-3904],[-10342,-5337],[-2999,-4781]],[[442433,121434],[2017,1200]],[[444450,122634],[-2069,9419],[-14298,17013],[1720,6769],[-582,3224]],[[429221,159059],[9941,1468],[1823,3528],[-1125,4262],[6658,3080],[25299,4101],[13057,4316],[4047,-5014],[1822,-7110],[4202,-4101],[6192,323],[11855,4405],[4602,5086],[11867,4369],[7369,9904]],[[536830,187676],[4357,-6447],[2973,-7235],[362,-7898]],[[544522,166096],[-7330,-13108],[-2547,-7145],[6568,-14058],[1047,-7486],[3426,-10959]],[[545686,113340],[-6309,2023],[-5805,-1737],[-11053,-7199],[-155,-4155],[2069,-5265],[349,-4656]],[[524782,92351],[-6774,-3939],[-4590,-1845]],[[513418,86567],[-11893,1146],[-10096,7898],[-9373,1826],[-9579,4119],[-20542,14846],[-9502,5032]],[[633981,620081],[20710,-9616]],[[654691,610465],[23631,-4871]],[[678322,605594],[8558,-466]],[[686880,605128],[-5610,-4495],[310,-7915],[-13781,-5480],[168,-5587],[17685,-13521],[-19275,-6733],[-7368,2650],[-19237,12733],[-4447,7432],[4266,11156],[-17310,6447],[-2262,8596],[13962,9670]],[[805607,252753],[-13212,-3026],[-5895,-3940],[-5804,-6250],[-12967,-2149],[-9721,-4405],[-5365,1092],[-4046,4191],[-5999,9509],[-12617,5175],[-4447,-3188],[-9334,-11443],[-12876,1003]],[[703324,239322],[-4356,17657],[-6425,2114],[-8390,10673],[814,6858],[7084,3851],[10575,2525],[-258,4656],[-5314,7557],[-8894,5641],[-465,3761],[2379,5300],[18925,11784]],[[708999,321699],[8455,-1898],[9024,-7987],[21692,-7629],[2831,7091],[5740,3045],[6063,-3958],[-297,-4137],[4111,-4208],[8183,2740],[7485,7915],[5236,3564],[3593,-3689],[-1771,-4889],[5326,-4370],[25183,-13753]],[[819853,289536],[-5442,-4441],[-181,-8793],[-12204,-11980],[3581,-11569]],[[381712,290539],[5352,-6017],[9644,-18427],[2560,-7629]],[[399268,258466],[1163,-8435],[-9101,-10297],[-8183,3492],[-6696,1039],[-6283,-376],[-3025,-3457],[13186,-32180],[-6063,1522],[-323,-10154],[-3814,-4745],[-6800,-4048],[-8674,-197],[-23386,7522]],[[331269,198152],[-3374,6285],[969,6376],[-930,6088],[-5973,1451],[-7756,-2113],[-3672,4459],[3684,12159],[10511,7880],[-3129,8112],[-6296,3779],[-3697,4477],[-6709,1038],[-6981,3349],[-1254,4262],[8467,10835],[1642,6805],[-1952,8022],[5637,8310],[3012,7593]],[[313468,307319],[6515,-4638],[5404,-1827],[19068,1200]],[[344455,302054],[25829,-4047]],[[370284,298007],[11428,-7468]],[[399268,258466],[5753,877],[9721,-1791],[3258,-3080],[2068,-10351],[2948,-4906],[7550,-7164],[5132,-2775],[4369,53]],[[440067,229329],[181,-13878],[-3904,2650],[-10316,1415],[-7834,-6232],[-5132,-8775],[-1759,-10960]],[[411303,193549],[1940,-18660]],[[413243,174889],[-6025,-6841],[-18809,-2937],[-9515,2651],[-8739,7235],[-28958,-18302],[-12617,-4979],[-18823,-3868]],[[309757,147848],[983,4065],[4046,6573],[9437,5658],[14169,4298],[6373,5444],[-2391,4352],[-10937,967],[-3206,7199],[4214,3331],[556,3635],[-1732,4782]],[[304897,115865],[-1797,-770],[-1914,1146],[1461,1719],[1681,-126],[569,-1969]],[[368811,79529],[-6542,-3098],[-4447,-5139],[-12979,-20935],[-4266,-4226],[-5921,12016],[-1345,10709],[-11621,2848],[-5378,8291],[-15759,11945],[155,5050],[3206,5265],[-7459,2936],[-5339,-3241],[-7589,-2131],[-2120,-10422],[-5067,2722],[-2935,4853],[-1215,8381],[2521,4871],[-5766,6464],[-414,5570],[2508,4853],[25985,2453],[4822,3743],[7265,11837]],[[309111,145144],[5223,-2883],[6347,-11139],[4835,-4548],[8183,9938],[14505,2937],[12514,5856],[10471,-3671],[-64,-8309],[-4913,-12034],[-1112,-7289],[4667,-1325],[11557,7772],[6400,-1952],[13186,-12697],[-349,-5963]],[[400561,99837],[-21576,-13789],[-4267,-90],[-5907,-6429]],[[899487,967783],[1978,-7038],[-6386,-5247],[1512,-10369],[-7511,-4208],[8830,-78939],[-42726,-22241],[-10380,-13610],[-19896,-4621],[-7550,5982],[-29604,1074],[-10756,-4334],[-33676,10244],[272,4136],[-8662,4656],[-22003,-5014],[-29849,-25035],[-16845,-10709],[-9062,-448],[-5404,-5909],[9217,-5140],[-10005,-4961],[-14027,-1325],[-11505,-9007],[2314,-5319],[-3038,-4782],[-10148,574],[-8003,-8901],[5469,-19985]],[[612043,737307],[-3180,-8954]],[[608863,728353],[-13458,-6035],[2172,-9491],[-3723,-8417],[2921,-9097],[-1848,-5838],[-5262,-2704],[-5507,2865],[-3361,-3367],[5184,-7933],[-2793,-3886],[-13793,1827],[-12049,10906],[-1370,3384],[698,3635],[-13432,11032],[-16935,3474],[-28117,1719]],[[498190,710427],[-13406,4477],[-12488,-1647],[-2702,7646],[-1500,18141],[-5869,5140],[-15655,0]],[[446570,744184],[-2043,3868],[5029,9258],[556,6859],[-2650,4387],[-26127,6841]],[[421335,775397],[672,7772],[2444,6232]],[[424451,789401],[7601,8113],[-439,28563],[1603,9079],[8273,7575],[-491,8793],[-24524,6160]],[[416474,857684],[16393,25788],[14310,-1666],[11648,21544],[58872,-2848],[17362,27417],[50288,-8363],[12980,23728],[7666,13915],[16637,-1612],[7899,13521],[6955,-681],[5753,6805],[9915,-3295],[37452,-7038],[15538,5767],[19857,-251],[32461,-3958],[51762,-644],[89265,1970]],[[612793,47599],[-13303,179],[-18021,-11837],[-14621,-1182],[-6089,-3492],[-7666,3582],[-3090,8596],[-8338,6411],[-1978,5265],[-5520,5623],[-5003,8345],[-8765,1379]],[[520399,70468],[2146,4871],[-439,5372],[-3956,3940],[-4732,1916]],[[513418,86567],[11364,5784]],[[545686,113340],[17400,1916]],[[563086,115256],[10213,-3815],[18331,-8828]],[[591630,102613],[5055,-5140]],[[596685,97473],[982,-4262],[-2107,-7611],[2547,-14559],[15332,-16851],[-646,-6591]],[[784458,386526],[-2172,-36],[-1409,1182],[181,1361],[2443,644],[2043,-2274],[-1086,-877]],[[652687,337243],[-7227,4960],[-13819,13557],[-20413,6876]],[[611228,362636],[14919,3922],[13961,9169],[13665,10602],[5080,9186],[1112,5462],[17362,12482],[8312,2794],[7886,-2274],[9528,-609],[9437,4978],[4796,7360],[-1487,8059],[6141,31375],[-2043,8578]],[[719897,473720],[14311,-3009],[22804,-11461],[10937,-11981],[2922,-12893]],[[770871,434376],[10523,-10530]],[[781394,423846],[9411,1665]],[[790805,425511],[14246,144],[3349,-2257],[4485,-5659],[10666,1487],[4899,-3851],[10963,36],[8338,-2883],[5611,-3492],[2870,-4083],[-11079,-3259],[-11933,-6913],[91,-2328],[12242,-15938],[233,-7002],[-1939,-8130],[-2534,-5265],[-711,-8274]],[[840602,347844],[-13897,3116],[-10484,9653],[-3193,5498],[-1526,7163],[-5675,5802],[-9036,2489],[-13717,-3940],[-9631,-5820],[-25183,-1235],[-7782,-12088],[-14518,-5283],[-10148,215],[-9204,-7307]],[[706608,346107],[-8739,-2256],[-8157,448],[-25132,-7880],[-11893,824]],[[707125,511398],[2999,-34706],[9773,-2972]],[[611228,362636],[1888,5767]],[[613116,368403],[-18202,1432],[-1099,4298],[-15164,-5856]],[[578651,368277],[-6878,10906]],[[571773,379183],[-17943,20362]],[[553830,399545],[12462,11747],[-3296,6358],[-17491,13341],[-815,6125],[5158,6912],[5469,11981],[9644,13413],[9269,18069],[-854,12625]],[[573376,500116],[7770,9885],[3413,7539],[504,5982]],[[585063,523522],[7498,4799],[4227,-1827],[38563,5731],[10471,-3438],[15940,-8686],[10640,717],[2947,1522]],[[675349,522340],[2262,7646]],[[444450,122634],[-16961,-14148]],[[427489,108486],[-8377,771],[-18551,-9420]],[[309111,145144],[646,2704]],[[413243,174889],[-673,11157]],[[412570,186046],[16574,-4262],[4485,-6429],[-5429,-10584],[1021,-5712]],[[243271,680181],[2340,17227],[-1901,10637],[-5067,7199],[-10278,8435],[-3270,5695],[-8377,7843],[-9825,-3026],[-2999,-12589],[-114009,12947],[-22920,8972],[11221,13073],[-944,3689],[-5391,6196],[2534,10816],[-27070,6358],[2301,9008],[-49616,12804],[18176,51575],[56791,-7325],[16237,21938],[39662,-2131],[11647,21668],[73054,-6626],[-12035,-27506],[62905,-7253],[6787,22797],[143250,-14918]],[[424451,789401],[-3077,-9867],[-39,-4137]],[[446570,744184],[-12605,-11712],[-10044,8649]],[[423921,741121],[-43023,1684]],[[380898,742805],[-4589,-3295],[-4564,-7414],[-14673,1146],[-5158,-2812],[-1577,-5820],[5701,-10977],[-2766,-4836],[4343,-6751],[-426,-2722]],[[357189,699324],[-4990,-1898],[-12269,3241],[-15862,-2901],[-10225,-5659],[-7498,-806],[-44846,0],[-18228,-11120]],[[790805,425511],[7227,11694],[6386,13646],[11376,15365],[23373,13431],[23076,3671],[6916,4244],[4512,8704],[12488,4530],[5688,4406],[608,12965],[-8352,14076],[-762,7557]],[[883341,539800],[2844,6142],[7834,10190],[15927,14935]],[[909946,571067],[5171,-2238],[18227,-1415],[8869,-6733],[13082,-13342],[-2960,-16386],[6244,-6411],[4189,-6608],[-427,-4154],[-13225,-10369],[-788,-10619],[620,-5194],[8623,-2077],[4473,-10387],[9152,-4942],[19573,2507],[3076,-3206],[-5416,-10476],[8041,-23459],[-6154,-8489],[-16392,-5712],[-8144,-6376],[-6257,-14075],[-7395,-3671],[-17426,2310],[-14919,-10620],[-9333,-3904],[-7110,-13037],[-5870,-2972],[-14427,-14434],[2495,-10548]],[[885538,344030],[-10704,-4692],[-11324,519],[-22908,7987]],[[781394,423846],[-5469,4369],[-5054,6161]],[[719897,473720],[21512,3133],[13044,-2901],[22726,14076],[26683,2418],[21537,22062],[33560,24731]],[[858959,537239],[24382,2561]],[[742029,526978],[9502,-1558],[9024,-6626],[4977,-7092],[19895,-1862],[9528,7235],[25028,3062],[17814,11318],[21162,5784]],[[553830,399545],[4356,-4137]],[[558186,395408],[-10897,-3546],[-17569,-1504],[-9734,2811],[-11235,5265],[-15836,1057]],[[492915,399491],[-8907,4083],[-19029,5032]],[[464979,408606],[2792,16440],[-6671,6178],[-6657,10351],[-905,6106],[2107,8614],[-4486,15705],[-10342,4191],[905,5480]],[[441722,481671],[10303,3223],[4926,6053],[6321,2650],[12812,-1182],[13302,8954],[43669,13897],[13574,-877],[11273,-6232],[8649,-2722],[6825,-5319]],[[464979,408606],[-24912,-14863],[-4589,-8381],[1125,-12608],[1603,-5712],[-4215,-2400],[-11402,4280],[-4072,-1504],[-2172,-9527]],[[416345,357891],[-7937,2095],[-11803,9832],[-8377,3509],[-21421,14363],[-4357,4996],[-7446,1540]],[[355004,394226],[3503,6196]],[[358507,400422],[-1163,9366],[5352,5569],[-2844,6734],[-4383,4996],[3349,9438],[-1009,6106],[7899,10870]],[[365708,453501],[4408,-2166]],[[370116,451335],[11907,5927],[10768,-5551],[9218,1056],[4149,5641],[-4098,6859],[2469,11372]],[[404529,476639],[-5390,6948],[7433,5856],[35150,-7772]],[[805607,252753],[-3607,-7450],[-9618,-14613],[1461,-7127],[7731,-6984],[9734,-3510],[582,-2847],[-6593,-4298],[90,-10208]],[[805387,195716],[-22377,2275],[-23735,-860],[-11247,-6089],[-9541,4370],[-8648,89],[-5947,3940],[-17336,5695],[-11919,2292]],[[694637,207428],[1370,15132],[5960,10441],[1357,6321]],[[891485,585788],[9864,-11032],[8597,-3689]],[[233291,650167],[9980,30014]],[[357189,699324],[-4512,-7432],[2598,-9383],[-16340,2650],[-8300,-6250],[39507,-25608],[15384,-8148],[16780,895],[11661,-10190],[12526,-4745],[10058,519],[2146,-6572],[-1771,-3134],[-3310,-2185]],[[433616,619741],[-4899,-465],[-4732,555]],[[423985,619831],[-142,3223],[-2896,2561],[-5817,949]],[[415130,626564],[-14246,-6142]],[[400884,620422],[-3348,-4334],[-30471,-4388],[-26191,-7091]],[[340874,604609],[-61897,6089],[-7123,967]],[[271854,611665],[-4034,4423],[1810,3546],[-2249,2919],[-10730,-1075],[362,2740],[6580,4585],[-2133,3814],[-7020,6912],[-581,5552],[-3711,2095],[-16857,2991]],[[498190,710427],[-8054,-18230],[-14117,4083],[-9683,-5140],[-8080,-7593],[1539,-6626],[7239,-8506],[-2172,-8596],[9101,-9169],[-5326,-3671]],[[468637,646979],[-375,-5999]],[[468262,640980],[6929,-6196],[1655,-5695],[-5054,-6035],[607,-7933],[4434,-5032]],[[476833,610089],[-7808,-6196],[-2495,-2991],[-465,-2722]],[[466065,598180],[-5818,-3170]],[[460247,595010],[-8532,305],[-4331,2113],[-4292,9688],[-8958,5856],[-3323,3958],[-6826,2901]],[[423985,619831],[9631,-90]],[[380898,742805],[6826,376],[36197,-2060]],[[558186,395408],[13587,-16225]],[[578651,368277],[-15811,-9527],[-31556,-12607],[-15694,1075]],[[515590,347218],[491,2740],[-10923,2919],[-9425,-10208],[-13974,-3779]],[[481759,338890],[-8261,10978]],[[473498,349868],[-2818,5820]],[[470680,355688],[0,7432],[1137,2614]],[[471817,365734],[5365,2114],[3594,-1505],[4396,-4136],[4822,-8793],[4705,5104],[3400,8488],[1280,7288]],[[499379,374294],[-2469,15079],[-1952,7145]],[[494958,396518],[-2043,2973]],[[899487,967783],[16030,89],[7796,5086],[15694,-54],[5455,1630],[7020,4710],[3064,8434],[23825,8184],[7640,4137],[6839,-8757],[6347,-12858],[-10212,-23298],[-6102,-8990],[-8261,-9169],[1513,-27560],[7433,-26468],[8959,-13216],[7472,-8399],[-246,-28331],[-8777,-16529],[-3620,-18122],[-24601,-39613],[3917,-8417],[-2418,-8989],[-20309,-48119],[-4046,-5068],[-14014,-4262],[-9889,-9456],[-10019,-4781]],[[809951,669167],[-8377,1487]],[[801574,670654],[1099,7736],[-7201,12464],[2043,5784],[-4771,5677],[-4873,2417],[-5831,1146],[-29992,-12374],[-9863,-1665],[-5844,1128],[-14065,-5408],[-8687,501],[-21305,4656],[-13432,-2722],[-9075,1898],[207,4155],[1345,3098],[6088,6304],[-917,5193],[-21796,9276],[-25662,4065],[-19249,8919]],[[609793,732902],[2250,4405]],[[373826,516394],[-4434,-18],[1733,1970],[2637,161],[750,-1056],[-686,-1057]],[[275047,478895],[-1681,3474],[-12320,9635],[-5636,26163],[1887,4459],[9412,7146],[-686,4638],[-2921,2525],[-9399,2972]],[[253703,539907],[-14465,14345],[1654,2650]],[[240892,556902],[18060,7897],[9463,2096]],[[268415,566895],[4951,-2221],[18409,-13771],[5184,-394],[6141,1844]],[[303100,552353],[18008,-2310],[6722,1308]],[[327830,551351],[25907,11300],[8054,1181]],[[361791,563832],[8222,-2059],[15681,-358],[12229,6787],[15268,1003],[26566,9670],[5792,3170]],[[445549,582045],[10342,10601],[10174,5534]],[[476833,610089],[8106,-3063],[672,-3778],[-5119,-10172],[3361,-7270],[10174,-6053],[4395,-5050],[3323,-7271]],[[501745,567432],[-16173,5945],[-10523,36],[-8545,-3832],[-1176,-5874],[3141,-8506],[-1448,-4388],[-4757,-2489],[-10471,18],[-26127,4585]],[[425666,552927],[-6606,-341],[-5455,-1361]],[[413605,551225],[-5611,-6429],[297,-6482],[3284,-8095],[-569,-3653],[-2443,-3009],[-6994,-3080],[866,-6984],[-15254,-10225],[-3116,-3421],[2017,-8005],[6554,-7897],[11893,-7306]],[[370116,451335],[-10213,5032]],[[359903,456367],[-61638,12392],[-23218,10136]],[[520399,70468],[-12346,-1504],[-5390,-3134],[-10653,-2149],[-15991,-11766],[-11945,-2955],[-11467,2955],[-10691,7468],[-8946,394],[-6658,-7199],[-13315,-591],[-12811,9491],[-13406,2597],[-6373,12553],[-5650,2364],[-5946,537]],[[427489,108486],[14944,12948]],[[673668,234147],[-3684,859],[1396,2060],[2301,-341],[-13,-2578]],[[536830,187676],[-1784,7127],[-12889,24408],[-2882,8149],[-1190,10762],[-3464,11909],[-4590,2292]],[[510031,252323],[14854,2722],[4900,-483],[5972,-1522],[28415,-14900],[4525,914],[2960,2471],[2094,4423],[517,2722],[-1758,3886],[1034,5462],[7524,3385],[11208,-3474]],[[592276,257929],[14350,3115],[12113,4280]],[[618739,265324],[19185,11390]],[[637924,276714],[3555,5175],[-5766,5713],[-1383,2471],[543,2722],[7950,1934],[6025,4907],[206,4155],[-1357,5712],[-3659,6877],[1099,5444],[7550,15419]],[[706608,346107],[5042,-6142],[478,-12589],[-3129,-5677]],[[694637,207428],[-7886,-13932],[-7756,-7468]],[[678995,186028],[439,5050],[-1926,17353],[-2495,5838],[-8248,5086],[-13535,555],[-9424,-3600],[-5262,-4530],[-1461,-7235],[1823,-6232],[-11712,-12142],[-8791,2328],[-31117,-7808],[-5882,-4942],[-4162,-8829]],[[577242,166920],[-3271,-1038],[-11867,-1093]],[[562104,164789],[-7421,3062],[-10161,-1755]],[[783204,356190],[-2883,-394],[-595,1916],[3878,286],[-400,-1808]],[[885538,344030],[-1060,-6841],[10097,-10619],[5649,-269],[5973,-4029],[9049,680],[4770,-6214],[1913,-10010],[-3050,-7056],[-7705,-5498],[-17142,-7987],[-14983,-14792],[-3607,-1862],[-4214,3331],[-4577,17299],[-22403,-1343],[-10368,4083],[-7847,1450],[-6180,-4817]],[[494958,396518],[4421,-22224]],[[471817,365734],[-1370,-6124],[233,-3922]],[[473498,349868],[19223,-24534]],[[492721,325334],[-1499,-4942],[-9347,-10226],[-3581,-6160],[-8674,823]],[[469620,304829],[-20374,13951],[-9709,-1433],[-7265,-5820],[-5817,-860],[-8778,8202],[-9050,2239]],[[408627,321108],[104,5032]],[[408731,326140],[-3232,15580],[7162,9079]],[[412661,350799],[3684,7092]],[[370284,298007],[-9114,2166],[-16715,1881]],[[313468,307319],[-1254,4262],[-6671,10279],[543,7808],[-2249,6196]],[[303837,335864],[10949,-7772],[10433,-2239],[15086,8023],[7912,2113],[15009,-1253],[7226,1683],[6399,4549],[2521,3957],[10459,6035],[7368,-1558],[9347,2866],[6115,-1469]],[[408731,326140],[-246,-13395]],[[408485,312745],[-3089,-7611],[-6542,-5444],[-17142,-9151]],[[408485,312745],[142,8363]],[[469620,304829],[7045,-6679],[2146,-9474],[-3102,-3420],[-15061,-5820],[-3400,-3080],[103,-1648],[9619,-12965],[15797,-11873]],[[482767,249870],[595,-3761],[-2702,-4835],[-8610,-6590],[-4899,466],[-4590,2274],[-4822,4620],[-6438,-1253],[-11234,-11462]],[[596685,97473],[48452,20182],[7847,-394],[15151,-9079],[2961,2453],[323,7343]],[[671419,117978],[3400,3778],[10510,7128]],[[685329,128884],[5998,8112],[20361,5157]],[[711688,142153],[-2443,-7199],[711,-5175],[6477,-6751],[17025,-22349],[-917,-6823],[-6723,-8453],[2444,-8148],[-3051,-5641],[1512,-20505],[3516,-10279],[-9824,-6160],[-15126,-13843],[-2301,-7575],[-10924,-6053],[-9023,-304],[-12268,-6841],[-11351,-54],[-6696,4943],[-9929,14953],[-21214,15759],[-827,7467],[-7963,4477]],[[678995,186028],[5882,-15920],[2327,-3510],[15539,-4996],[2934,-6358],[-982,-4513],[6993,-8578]],[[685329,128884],[-5727,-3976]],[[679602,124908],[-13444,2901],[-8365,9706],[-5623,11264],[-6128,2973],[-6412,7629],[-6839,2597]],[[632791,161978],[-6050,-2579],[-17904,-3635],[-18887,608]],[[589950,156372],[-5495,3349],[-7213,7199]],[[412570,186046],[-1267,7503]],[[482767,249870],[18667,3295],[8597,-842]],[[613116,368403],[-12605,-38574]],[[600511,329829],[-37205,-5892],[-7278,1666],[-9683,9312],[-6218,627],[-13174,-9832],[-5907,2436],[-5456,19072]],[[637924,276714],[-7938,-5175],[-11247,-6215]],[[618739,265324],[-20684,-6608],[-5779,-787]],[[492721,325334],[-10962,13556]],[[600511,329829],[10717,32807]],[[359903,456367],[5805,-2866]],[[358507,400422],[-12294,-17961]],[[346213,382461],[1435,-7522],[-4318,-3349],[-13121,-2614],[-6955,-4065],[-9812,2632],[-9166,7217],[-13794,15455],[-17426,429]],[[273056,390644],[1047,7307],[-1047,6107],[-3012,5784],[-5805,4154],[505,3654],[-5301,7825],[-4266,16494],[-762,8846],[4007,5731],[-5546,6876],[3672,8059],[18499,7414]],[[649481,625866],[-3154,-502],[-1552,1433],[155,2650],[3594,734],[2288,-2972],[-1331,-1343]],[[801574,670654],[-7175,1271]],[[716847,605075],[-18254,-1236]],[[698593,603839],[-20271,1755]],[[654691,610465],[-34737,16189]],[[619954,626654],[-10238,-7755],[-13083,1344],[-5080,4674],[-11066,4835],[-10239,9366],[-7873,788],[-4563,4154],[1435,4029],[-7589,5856],[-7446,-3921],[-10769,3366],[-6761,-268],[-3646,-5212],[-16379,2006],[-6916,-1200],[-3710,-1970],[-1138,-6375],[-26437,3671]],[[468456,644042],[181,2937]],[[608863,728353],[930,4549]],[[805387,195716],[9373,-7646],[2547,-4961],[-4667,-4047],[5003,-7593],[-4939,-2633],[-6412,6823],[-6709,376],[-4434,-3169],[-7589,-8811],[-9825,-5283],[-11945,-11980],[-12669,-4495],[-8855,1504],[-6567,3564],[-14466,3993],[-5869,-1629],[-5676,-7576]],[[562104,164789],[15138,2131]],[[589950,156372],[7200,-770],[19947,1594],[15694,4782]],[[679602,124908],[-8183,-6930]],[[591630,102613],[-9321,5139],[-19223,7504]],[[678943,536344],[-3594,-14004]],[[585063,523522],[-10782,12231],[4189,21847],[-1926,7164],[-10847,8972],[-9307,3241],[-7964,-143],[-23476,-12554],[-10653,-4065],[-7446,2561],[-5106,4656]],[[468262,640980],[194,3062]],[[619954,626654],[14027,-6573]],[[686880,605128],[11713,-1289]],[[303837,335864],[-22236,21257],[-1034,6088],[-12682,13521],[-2999,5784],[8170,8130]],[[346213,382461],[2650,4871],[6141,6894]],[[253703,539907],[-8234,-3098],[-20478,8328],[-15642,143],[-5921,4996],[-17116,31429],[7524,7772],[16599,27363],[4550,25376],[16147,1665],[2159,6286]],[[271854,611665],[69020,-7056]],[[400884,620422],[7252,3975],[6994,2167]],[[460247,595010],[-9747,-6948],[-4951,-6017]],[[361791,563832],[-14944,-3402],[-19017,-9079]],[[327830,551351],[-15216,-1111],[-9514,2113]],[[268415,566895],[-19146,-5982],[-8377,-4011]],[[413605,551225],[12061,1702]]],"bbox":[51.7679,56.1142,59.5033,61.6983],"transform":{"scale":[0.000007735407735407742,0.000005584105584105591],"translate":[51.7679,56.1142]}}