{"type":"Topology","objects":{"muni":{"type":"GeometryCollection","geometries":[{"type":"MultiPolygon","arcs":[[[0,1,2,3,4,5,6,7,8,9,10]]],"properties":{"GID_2":"RUS.56.1_1","GID_0":"RUS","COUNTRY":"Russia","GID_1":"RUS.56_1","NAME_1":"Primor'ye","NL_NAME_1":"Приморскийкрай","NAME_2":"Anuchinskiyrayon","VARNAME_2":"NA","NL_NAME_2":"Анучинскийрайон","TYPE_2":"Raion","ENGTYPE_2":"District","CC_2":"R66000","HASC_2":"RU.PR.AN"}},{"type":"MultiPolygon","arcs":[[[-1,11]]],"properties":{"GID_2":"RUS.56.2_1","GID_0":"RUS","COUNTRY":"Russia","GID_1":"RUS.56_1","NAME_1":"Primor'ye","NL_NAME_1":"Приморскийкрай","NAME_2":"Arsen'evgorod","VARNAME_2":"Arsen'ev","NL_NAME_2":"Арсеньев(город)","TYPE_2":"Gorod","ENGTYPE_2":"City","CC_2":"R66002","HASC_2":"RU.PR.AS"}},{"type":"MultiPolygon","arcs":[[[12,13,14,15,16]]],"properties":{"GID_2":"RUS.56.3_1","GID_0":"RUS","COUNTRY":"Russia","GID_1":"RUS.56_1","NAME_1":"Primor'ye","NL_NAME_1":"Приморскийкрай","NAME_2":"Artemgorsovet","VARNAME_2":"Artem","NL_NAME_2":"Артем(горсовет)","TYPE_2":"Gorsovet","ENGTYPE_2":"District","CC_2":"R66002","HASC_2":"RU.PR.AT"}},{"type":"MultiPolygon","arcs":[[[17,18]]],"properties":{"GID_2":"RUS.56.4_1","GID_0":"RUS","COUNTRY":"Russia","GID_1":"RUS.56_1","NAME_1":"Primor'ye","NL_NAME_1":"Приморскийкрай","NAME_2":"Bol'shoyKamen'","VARNAME_2":"BolshoyKamen","NL_NAME_2":"БольшойКамень","TYPE_2":"Gorod","ENGTYPE_2":"City","CC_2":"NA","HASC_2":"RU.PR.BO"}},{"type":"MultiPolygon","arcs":[[[19,20,21,-8,22,23]]],"properties":{"GID_2":"RUS.56.5_1","GID_0":"RUS","COUNTRY":"Russia","GID_1":"RUS.56_1","NAME_1":"Primor'ye","NL_NAME_1":"Приморскийкрай","NAME_2":"Chernigovskiyrayon","VARNAME_2":"NA","NL_NAME_2":"Черниговскийрайон","TYPE_2":"Raion","ENGTYPE_2":"District","CC_2":"R66002","HASC_2":"RU.PR.CR"}},{"type":"MultiPolygon","arcs":[[[-3,24,25,26,27,28,29,30,31,32,33]]],"properties":{"GID_2":"RUS.56.6_1","GID_0":"RUS","COUNTRY":"Russia","GID_1":"RUS.56_1","NAME_1":"Primor'ye","NL_NAME_1":"Приморскийкрай","NAME_2":"Chuguevskiyrayon","VARNAME_2":"NA","NL_NAME_2":"Чугуевскийрайон","TYPE_2":"Raion","ENGTYPE_2":"District","CC_2":"R66002","HASC_2":"RU.PR.CG"}},{"type":"MultiPolygon","arcs":[[[34]]],"properties":{"GID_2":"RUS.56.7_1","GID_0":"RUS","COUNTRY":"Russia","GID_1":"RUS.56_1","NAME_1":"Primor'ye","NL_NAME_1":"Приморскийкрай","NAME_2":"Dal'negorsk","VARNAME_2":"NA","NL_NAME_2":"Дальнегорск","TYPE_2":"Gorsovet","ENGTYPE_2":"District","CC_2":"NA","HASC_2":"RU.PR.DG"}},{"type":"MultiPolygon","arcs":[[[-29,35,36,37,38,39,40,41,42],[-35]]],"properties":{"GID_2":"RUS.56.8_1","GID_0":"RUS","COUNTRY":"Russia","GID_1":"RUS.56_1","NAME_1":"Primor'ye","NL_NAME_1":"Приморскийкрай","NAME_2":"Dal'negorskiyrayon","VARNAME_2":"NA","NL_NAME_2":"Дальнегорскийрайон","TYPE_2":"Raion","ENGTYPE_2":"District","CC_2":"R66000","HASC_2":"RU.PR.DR"}},{"type":"MultiPolygon","arcs":[[[43,44,45]]],"properties":{"GID_2":"RUS.56.9_1","GID_0":"RUS","COUNTRY":"Russia","GID_1":"RUS.56_1","NAME_1":"Primor'ye","NL_NAME_1":"Приморскийкрай","NAME_2":"Dal'nerechenskgorsovet","VARNAME_2":"Dal'nerechenski","NL_NAME_2":"Дальнереченск(горсовет)","TYPE_2":"Gorsovet","ENGTYPE_2":"District","CC_2":"R66002","HASC_2":"RU.PR.DL"}},{"type":"MultiPolygon","arcs":[[[46,47,48,-46,49,50,51,-36,-28,52,53,54,55,56,57]]],"properties":{"GID_2":"RUS.56.10_1","GID_0":"RUS","COUNTRY":"Russia","GID_1":"RUS.56_1","NAME_1":"Primor'ye","NL_NAME_1":"Приморскийкрай","NAME_2":"Dal'nerechenskiyrayon","VARNAME_2":"NA","NL_NAME_2":"Дальнереченскийрайон","TYPE_2":"Raion","ENGTYPE_2":"District","CC_2":"R66000","HASC_2":"RU.PR.DL"}},{"type":"MultiPolygon","arcs":[[[-31,58,-42,59,60]]],"properties":{"GID_2":"RUS.56.11_1","GID_0":"RUS","COUNTRY":"Russia","GID_1":"RUS.56_1","NAME_1":"Primor'ye","NL_NAME_1":"Приморскийкрай","NAME_2":"Kavalerovskiyrayon","VARNAME_2":"NA","NL_NAME_2":"Кавалеровскийрайон","TYPE_2":"Raion","ENGTYPE_2":"District","CC_2":"R66000","HASC_2":"RU.PR.KA"}},{"type":"MultiPolygon","arcs":[[[61,62,63]]],"properties":{"GID_2":"RUS.56.12_1","GID_0":"RUS","COUNTRY":"Russia","GID_1":"RUS.56_1","NAME_1":"Primor'ye","NL_NAME_1":"Приморскийкрай","NAME_2":"Khankayskiyrayon","VARNAME_2":"NA","NL_NAME_2":"Ханкайскийрайон","TYPE_2":"Raion","ENGTYPE_2":"District","CC_2":"R66001","HASC_2":"RU.PR.KK"}},{"type":"MultiPolygon","arcs":[[[64]],[[65]],[[66]],[[67]],[[68]],[[69]],[[70]],[[71]],[[72]],[[73]],[[74]],[[75]],[[76]],[[77]],[[78]],[[79]],[[80]],[[81]],[[82]],[[83]],[[84]],[[85]],[[86,87,88]],[[89]]],"properties":{"GID_2":"RUS.56.13_1","GID_0":"RUS","COUNTRY":"Russia","GID_1":"RUS.56_1","NAME_1":"Primor'ye","NL_NAME_1":"Приморскийкрай","NAME_2":"Khasanskiyrayon","VARNAME_2":"NA","NL_NAME_2":"Хасанскийрайон","TYPE_2":"Raion","ENGTYPE_2":"District","CC_2":"R66002","HASC_2":"RU.PR.KS"}},{"type":"MultiPolygon","arcs":[[[90,-24,91,92,93,94,-63]]],"properties":{"GID_2":"RUS.56.14_1","GID_0":"RUS","COUNTRY":"Russia","GID_1":"RUS.56_1","NAME_1":"Primor'ye","NL_NAME_1":"Приморскийкрай","NAME_2":"Khorol'skiyrayon","VARNAME_2":"NA","NL_NAME_2":"Хорольскийрайон","TYPE_2":"Raion","ENGTYPE_2":"District","CC_2":"R66002","HASC_2":"RU.PR.KO"}},{"type":"MultiPolygon","arcs":[[[95,96,-54,97,-26,98,99,100]]],"properties":{"GID_2":"RUS.56.15_1","GID_0":"RUS","COUNTRY":"Russia","GID_1":"RUS.56_1","NAME_1":"Primor'ye","NL_NAME_1":"Приморскийкрай","NAME_2":"Kirovskiyrayon","VARNAME_2":"NA","NL_NAME_2":"Кировскийрайон","TYPE_2":"Raion","ENGTYPE_2":"District","CC_2":"R66000","HASC_2":"RU.PR.KI"}},{"type":"MultiPolygon","arcs":[[[-38,101,-51,102,103,104,105,106]]],"properties":{"GID_2":"RUS.56.16_1","GID_0":"RUS","COUNTRY":"Russia","GID_1":"RUS.56_1","NAME_1":"Primor'ye","NL_NAME_1":"Приморскийкрай","NAME_2":"Krasnoarmeyskiyrayon","VARNAME_2":"NA","NL_NAME_2":"Красноармейскийрайон","TYPE_2":"Raion","ENGTYPE_2":"District","CC_2":"R66000","HASC_2":"RU.PR.KR"}},{"type":"MultiPolygon","arcs":[[[107]],[[108]],[[109]],[[110]],[[111]],[[112]],[[113]],[[-61,114,115,116,-32]],[[117]],[[118]],[[119]]],"properties":{"GID_2":"RUS.56.17_1","GID_0":"RUS","COUNTRY":"Russia","GID_1":"RUS.56_1","NAME_1":"Primor'ye","NL_NAME_1":"Приморскийкрай","NAME_2":"Lazovskiyrayon","VARNAME_2":"NA","NL_NAME_2":"Лазовскийрайон","TYPE_2":"Raion","ENGTYPE_2":"District","CC_2":"R66000","HASC_2":"RU.PR.LA"}},{"type":"MultiPolygon","arcs":[[[-58,120,-56,121,-96,122]]],"properties":{"GID_2":"RUS.56.18_1","GID_0":"RUS","COUNTRY":"Russia","GID_1":"RUS.56_1","NAME_1":"Primor'ye","NL_NAME_1":"Приморскийкрай","NAME_2":"Lesozavodskiyrayon","VARNAME_2":"NA","NL_NAME_2":"Лесозаводскийрайон","TYPE_2":"Raion","ENGTYPE_2":"District","CC_2":"R66000","HASC_2":"RU.PR.LG"}},{"type":"MultiPolygon","arcs":[[[-7,123,124,125,126,-92,-23]]],"properties":{"GID_2":"RUS.56.19_1","GID_0":"RUS","COUNTRY":"Russia","GID_1":"RUS.56_1","NAME_1":"Primor'ye","NL_NAME_1":"Приморскийкрай","NAME_2":"Mikhaylovskiyrayon","VARNAME_2":"NA","NL_NAME_2":"Михайловскийрайон","TYPE_2":"Raion","ENGTYPE_2":"District","CC_2":"R66000","HASC_2":"RU.PR.MI"}},{"type":"MultiPolygon","arcs":[[[-13,127,128,-88,129]]],"properties":{"GID_2":"RUS.56.20_1","GID_0":"RUS","COUNTRY":"Russia","GID_1":"RUS.56_1","NAME_1":"Primor'ye","NL_NAME_1":"Приморскийкрай","NAME_2":"Nadezhdinskiyrayon","VARNAME_2":"NA","NL_NAME_2":"Надеждинскийрайон","TYPE_2":"Raion","ENGTYPE_2":"District","CC_2":"R66001","HASC_2":"RU.PR.ND"}},{"type":"MultiPolygon","arcs":[[[130,131]],[[132]],[[133]],[[134,135]],[[136,137,138]]],"properties":{"GID_2":"RUS.56.21_1","GID_0":"RUS","COUNTRY":"Russia","GID_1":"RUS.56_1","NAME_1":"Primor'ye","NL_NAME_1":"Приморскийкрай","NAME_2":"Nakhodkagorsovet","VARNAME_2":"Nakhodka","NL_NAME_2":"Находка(горсовет)","TYPE_2":"Gorsovet","ENGTYPE_2":"District","CC_2":"R66003","HASC_2":"RU.PR.NK"}},{"type":"MultiPolygon","arcs":[[[139,140,-93,-127,141,142]]],"properties":{"GID_2":"RUS.56.22_1","GID_0":"RUS","COUNTRY":"Russia","GID_1":"RUS.56_1","NAME_1":"Primor'ye","NL_NAME_1":"Приморскийкрай","NAME_2":"Oktyabr'skiy","VARNAME_2":"NA","NL_NAME_2":"Октябрьскийрайон","TYPE_2":"Raion","ENGTYPE_2":"District","CC_2":"R66001","HASC_2":"RU.PR.OK"}},{"type":"MultiPolygon","arcs":[[[-5,143,144]]],"properties":{"GID_2":"RUS.56.23_1","GID_0":"RUS","COUNTRY":"Russia","GID_1":"RUS.56_1","NAME_1":"Primor'ye","NL_NAME_1":"Приморскийкрай","NAME_2":"Partizanskgorsovet","VARNAME_2":"Partizansk","NL_NAME_2":"Партизанск(горсовет)","TYPE_2":"Gorsovet","ENGTYPE_2":"District","CC_2":"R66003","HASC_2":"RU.PR.PG"}},{"type":"MultiPolygon","arcs":[[[-4,-34,145,-116,146,-131,147,-135,148,-137,149,-144]]],"properties":{"GID_2":"RUS.56.24_1","GID_0":"RUS","COUNTRY":"Russia","GID_1":"RUS.56_1","NAME_1":"Primor'ye","NL_NAME_1":"Приморскийкрай","NAME_2":"Partizanskiyrayon","VARNAME_2":"NA","NL_NAME_2":"Партизанскийрайон","TYPE_2":"Raion","ENGTYPE_2":"District","CC_2":"R66001","HASC_2":"RU.PR.PG"}},{"type":"MultiPolygon","arcs":[[[-64,-95,150,-140,151]]],"properties":{"GID_2":"RUS.56.25_1","GID_0":"RUS","COUNTRY":"Russia","GID_1":"RUS.56_1","NAME_1":"Primor'ye","NL_NAME_1":"Приморскийкрай","NAME_2":"Pogranichnyyrayon","VARNAME_2":"NA","NL_NAME_2":"Пограничныйрайон","TYPE_2":"Raion","ENGTYPE_2":"District","CC_2":"R66001","HASC_2":"RU.PR.PN"}},{"type":"MultiPolygon","arcs":[[[152,153,-105,-48]]],"properties":{"GID_2":"RUS.56.26_1","GID_0":"RUS","COUNTRY":"Russia","GID_1":"RUS.56_1","NAME_1":"Primor'ye","NL_NAME_1":"Приморскийкрай","NAME_2":"Pozharskiyrayon","VARNAME_2":"NA","NL_NAME_2":"Пожарскийрайон","TYPE_2":"Raion","ENGTYPE_2":"District","CC_2":"R66001","HASC_2":"RU.PR.PZ"}},{"type":"MultiPolygon","arcs":[[[154]],[[155]],[[156]],[[157]],[[158]],[[-145,-150,159,160,-15,161,162,-124,-6],[-18,163]]],"properties":{"GID_2":"RUS.56.27_1","GID_0":"RUS","COUNTRY":"Russia","GID_1":"RUS.56_1","NAME_1":"Primor'ye","NL_NAME_1":"Приморскийкрай","NAME_2":"Shkotovskiyrayon","VARNAME_2":"NA","NL_NAME_2":"Шкотовскийрайон","TYPE_2":"Raion","ENGTYPE_2":"District","CC_2":"R66002","HASC_2":"RU.PR.SH"}},{"type":"MultiPolygon","arcs":[[[164]]],"properties":{"GID_2":"RUS.56.28_1","GID_0":"RUS","COUNTRY":"Russia","GID_1":"RUS.56_1","NAME_1":"Primor'ye","NL_NAME_1":"Приморскийкрай","NAME_2":"Spassk-Dal'nyy","VARNAME_2":"NA","NL_NAME_2":"Спасск-Дальний","TYPE_2":"Gorod","ENGTYPE_2":"City","CC_2":"NA","HASC_2":"RU.PR.SD"}},{"type":"MultiPolygon","arcs":[[[-100,165,-10,166,-21,167],[-165]]],"properties":{"GID_2":"RUS.56.29_1","GID_0":"RUS","COUNTRY":"Russia","GID_1":"RUS.56_1","NAME_1":"Primor'ye","NL_NAME_1":"Приморскийкрай","NAME_2":"Spasskiyrayon","VARNAME_2":"NA","NL_NAME_2":"Спасскийрайон","TYPE_2":"Raion","ENGTYPE_2":"District","CC_2":"R66001","HASC_2":"RU.PR.SP"}},{"type":"MultiPolygon","arcs":[[[168,-40,169,-106,-154]]],"properties":{"GID_2":"RUS.56.30_1","GID_0":"RUS","COUNTRY":"Russia","GID_1":"RUS.56_1","NAME_1":"Primor'ye","NL_NAME_1":"Приморскийкрай","NAME_2":"Terneyskiyrayon","VARNAME_2":"NA","NL_NAME_2":"Тернейскийрайон","TYPE_2":"Raion","ENGTYPE_2":"District","CC_2":"R66001","HASC_2":"RU.PR.TE"}},{"type":"MultiPolygon","arcs":[[[-142,-126,170,-162,-14,-130,-87,171]]],"properties":{"GID_2":"RUS.56.31_1","GID_0":"RUS","COUNTRY":"Russia","GID_1":"RUS.56_1","NAME_1":"Primor'ye","NL_NAME_1":"Приморскийкрай","NAME_2":"Ussuriyskiyrayon","VARNAME_2":"NA","NL_NAME_2":"Уссурийскийрайон","TYPE_2":"Raion","ENGTYPE_2":"District","CC_2":"R66001","HASC_2":"RU.PR.UR"}},{"type":"MultiPolygon","arcs":[[[172]],[[173]],[[174]],[[175]],[[176]],[[177]],[[178]],[[179]],[[180]],[[181]],[[182]],[[183]],[[184]],[[185]],[[186]],[[187]],[[188]],[[189]],[[190]],[[191]],[[192,-128,-17]]],"properties":{"GID_2":"RUS.56.32_1","GID_0":"RUS","COUNTRY":"Russia","GID_1":"RUS.56_1","NAME_1":"Primor'ye","NL_NAME_1":"Приморскийкрай","NAME_2":"Vladivostokgorsovet","VARNAME_2":"Vladivostok","NL_NAME_2":"Владивосток(горсовет)","TYPE_2":"Gorsovet","ENGTYPE_2":"District","CC_2":"R66002","HASC_2":"RU.PR.VL"}},{"type":"MultiPolygon","arcs":[[[-2,-12,-11,-166,-99,-25]]],"properties":{"GID_2":"RUS.56.33_1","GID_0":"RUS","COUNTRY":"Russia","GID_1":"RUS.56_1","NAME_1":"Primor'ye","NL_NAME_1":"Приморскийкрай","NAME_2":"Yakovlevskiyrayon","VARNAME_2":"NA","NL_NAME_2":"Яковлевскийрайон","TYPE_2":"Raion","ENGTYPE_2":"District","CC_2":"R66002","HASC_2":"RU.PR.YA"}}]}},"arcs":[[[345449,318841],[-12004,-5171],[-3816,-9191],[844,-3713],[4718,-4149],[7841,-1265]],[[343032,295352],[6788,-6338],[-5146,-12741],[4163,-1978],[7852,5560],[2058,-972]],[[358747,278883],[1041,-3680],[-4232,-16000]],[[355556,259203],[-27836,-16421],[-19138,-6403],[-2001,-6808],[4545,-5950],[4834,-1993],[-405,-5804],[-4961,-6014],[10176,33],[5054,-1800],[4868,-7878]],[[330692,200165],[-3816,-3031],[-4209,-6436],[-6603,1605],[-2244,-4441],[-9483,-1638]],[[304337,186224],[-6765,-3161],[-17485,14444],[2637,14232]],[[282724,211739],[16294,22354],[-810,12466],[-1700,3680],[2070,8818],[-7667,12920],[4291,15805],[-1932,6354]],[[293270,294136],[671,5090],[8084,7214],[786,6922],[-14825,11444]],[[287986,324806],[15715,23181]],[[303701,347987],[14618,10634],[9332,-3210],[9783,4539],[3851,-4668]],[[341285,355282],[-4336,-7003],[-46,-4409],[-7517,-1848],[-2371,-4166],[4799,-227],[2567,-3631],[7494,-4815],[7089,-1183],[-3515,-9159]],[[345449,318841],[15195,-11007],[-960,-8721],[-7251,-4879],[-9401,1118]],[[194569,167453],[3955,19938],[5320,10278]],[[203844,197669],[4498,-1005],[4464,2285],[6892,14249],[4036,-1280],[2093,-6792],[6095,-325]],[[231922,204801],[6649,-18382],[-1145,-4896],[-4833,-4295],[-1735,-6128],[-4337,-5268],[-3295,1750]],[[223226,167582],[-4372,-843],[-185,4134],[-705,-762],[312,-2658],[-1341,-1524],[2058,-3339],[-4660,-3016],[-544,-2917],[-2741,-2383],[162,-1232],[-6580,-2108],[-486,-1621],[-844,276],[-219,7181]],[[203081,156770],[-7934,5382],[833,3696],[-1411,1605]],[[222416,116163],[-35,681]],[[222381,116844],[590,-65],[-555,-616]],[[251627,371330],[3817,4312]],[[255444,375642],[13287,-7035],[1746,-6533],[7251,-4020],[6198,243],[9009,-6371],[6916,-8996]],[[299851,342930],[-11865,-18124]],[[293270,294136],[-14108,4912],[-8107,957],[-14351,-16697],[-4186,697],[-2059,5544],[-11414,9985],[-5030,292]],[[234015,299826],[-4764,10521],[2174,12109],[3665,12352],[-1965,10359],[-4314,3452],[6083,9694],[7817,-2399],[3204,6273],[5828,2189],[-116,6954]],[[358747,278883],[12525,27298],[11911,12012],[12408,14621],[2487,11445],[751,11234],[4002,8024],[5469,6500],[7402,6290],[358,6808],[4510,4312],[5933,-1621],[2902,3145]],[[429405,388951],[4869,10082],[2336,9775],[-1029,10132],[-2244,9256],[-4730,9775],[9067,9726],[5770,4442],[4719,1442],[6221,-9094],[6858,6355]],[[461242,450842],[21683,3274]],[[482925,454116],[7505,-4409],[3435,-6549],[1942,-7068],[8662,-1021],[5435,1848],[2672,10407],[6198,5657],[7228,-3955],[8650,7489],[4082,-2691],[104,-4490]],[[538838,449334],[-5863,-7376],[-231,-9434],[-5944,-9905],[763,-5235],[4452,-1038],[3574,681],[4406,7392],[12200,-2286],[-359,-5284],[-7470,-2853],[-3400,-8316],[-7817,-1978],[-5285,-7943]],[[527864,395759],[-6719,292]],[[521145,396051],[-8488,-12968],[-5424,-12158],[2186,-8332],[11460,-16875],[2220,-5269],[-2752,-6695],[-5701,-6678],[-6118,-2302],[-8685,1102],[-9552,3161],[-7586,-259],[-5921,-9321],[-2266,-18042],[-3285,-9321],[-4706,-9013],[7667,-4377]],[[474194,278704],[-3331,-5771],[12,-3307],[4232,-7327],[6488,-5900],[-3088,-13082],[-5447,-6160],[-7007,-4539],[-7170,-12774],[-1203,-6224],[-6094,-10278],[-11542,2092],[-5146,-5998],[-12084,4101],[-10050,14297],[-4093,-745],[-2741,-7068],[-3678,-810],[-15542,6500]],[[386710,215711],[-17798,15140]],[[368912,230851],[-7088,1589],[5250,14930],[7262,4847],[-4186,5122],[-14594,1864]],[[602303,367829],[-1399,-1735],[-3874,1362],[-301,1783],[2382,1832],[2197,-1022],[995,-2220]],[[538838,449334],[4649,1589],[5551,4928]],[[549038,455851],[2313,-8105]],[[551351,447746],[1908,-762],[6106,10455],[5389,-729],[-844,-6501],[4325,-1313],[10396,3324],[15889,-6549],[4025,-5090],[7505,6857],[3885,810],[10073,12142],[6753,2836]],[[626761,463226],[-1353,-3469]],[[625408,459757],[16110,-11250],[6672,-6370],[2683,-6403],[-8442,-17767],[3076,-3210],[3955,357],[4927,2367],[3388,-2886],[-763,-5414],[-2013,-5139],[1920,-8931],[-7297,-7344],[-1966,-11785],[14987,-4782],[3574,-7732],[2486,1961]],[[668705,365429],[532,-745],[-4868,-6209],[-10108,-5220],[-3006,-2739],[-3285,1037],[-1630,-1199],[-486,-1897],[-12767,-3582],[-1075,-3648],[-2093,-2788],[-2406,-1118],[-358,-2610],[1549,-1102],[-2116,-5658]],[[626588,327951],[-5273,-5057],[-5239,-1881],[-8985,11201],[3677,5804],[-1839,7359],[-12304,-1977],[-3955,2561],[-5019,20522],[-10350,10115],[-17462,13406],[3608,5982],[-2903,4442],[-10107,-616],[-15126,-5625]],[[535311,394187],[-7447,1572]],[[414557,599863],[-2625,-10763]],[[411932,589100],[6175,-2724]],[[418107,586376],[-4186,-9694],[-5771,-5560],[-19914,3340],[602,8526],[9575,14022],[16144,2853]],[[366738,580735],[1735,648],[-46,3064],[2648,2027],[-1619,2966],[879,2626],[3122,908],[3331,-762],[1492,3615],[451,5187],[6291,8932],[-162,4766],[-4499,6208]],[[380361,620920],[3030,2124],[6025,1491],[8696,-1442],[13172,-9840],[6973,-1913]],[[418257,611340],[-3700,-11477]],[[418107,586376],[4105,-1815]],[[422212,584561],[26691,-1443],[6961,-3453],[2082,-7829],[4383,-7765],[-2463,-5350],[-6465,-2982],[-6337,794],[-1931,7246],[-4915,4685],[-4695,-2626],[-3030,-6387],[3226,-2756],[5251,-357],[4533,-9337],[24493,-2075],[7968,-2204],[8904,-7797],[-1769,-4912],[7228,-3858],[7181,1880],[3816,3761],[8292,-421],[4417,-2999],[5609,3242],[5597,-4831],[-381,-7035],[-3562,-3891],[1191,-5916],[-2868,-3275],[-12628,-146],[-810,-6306],[15230,-12336],[-81,-6727],[9021,5382],[4672,-2497],[-1608,-5868],[12385,-18155]],[[547800,460017],[1238,-4166]],[[482925,454116],[-27257,-4215]],[[455668,449901],[-1319,6339],[2510,9791],[-6395,2366],[-11009,-2853],[-11692,-129],[-6418,5236],[-12721,745],[-4221,4507]],[[404403,475903],[-6302,3031]],[[398101,478934],[10512,14573],[890,8624],[5412,6808]],[[414915,508939],[4071,7376],[5551,11591]],[[424537,527906],[-474,3112],[-6187,2367],[-9865,6354],[-15114,11688],[-6245,11542],[-5690,5381],[-3573,5577],[-5817,-81],[-6094,3404],[1260,3485]],[[521145,396051],[14166,-1864]],[[626588,327951],[-2590,-3663],[-798,-3356],[-8523,-4052],[-3967,-7700],[-4348,-2659],[-104,-3518],[1122,-3031]],[[607380,299972],[-1053,-1524],[-18768,12093],[-9379,4280],[-3550,-7976],[-6731,-1345],[-4753,-8997],[-5863,-6922],[-8199,-3452],[-9101,64],[-9402,3356],[-4117,4182],[-7852,1005],[-12443,10472],[-7667,519],[-4846,-2869],[509,-6874],[-1596,-8931],[-5469,-1816],[-8015,-9337],[-4891,2804]],[[130145,441861],[4833,4199],[394,2755],[3804,1200],[9032,8672],[-312,4864],[-2834,194],[-1503,1718],[3666,9872],[3516,1573],[7805,-2383],[1804,7684],[3077,4117],[983,3891],[5319,4004],[4198,-535],[1526,-6517],[1180,-1621],[5215,-1994],[2568,-3031],[6800,-2156],[14455,-45178],[-8326,-35047],[21035,-18075]],[[218380,380067],[-3689,-3777],[-6314,2075],[-23001,-10812],[-7020,3226]],[[178356,370779],[6048,6549],[-17809,13438],[1561,5447],[-1144,8834],[-11264,8008],[-11749,-3550],[-11773,9386],[1538,8316],[-1272,9013],[-2347,5641]],[[121298,89432],[358,-907],[-1260,-860],[-1342,1168],[2244,599]],[[109063,77712],[35,-583],[-451,227],[416,356]],[[120882,85688],[485,-1573],[-1515,-907],[-58,1848],[1088,632]],[[122524,102806],[323,-324],[0,-1394],[-323,1718]],[[161680,171376],[12,-49],[-12,0],[0,49]],[[161680,171376],[-34,0],[0,81],[34,-81]],[[121818,103746],[185,-324],[-439,373],[254,-49]],[[117539,105043],[972,-811],[-1226,957],[254,-146]],[[158211,170484],[740,-2529],[-486,-583],[-346,2107],[-683,-2286],[-613,1929],[1388,1362]],[[48258,28903],[-104,-357],[-289,81],[393,276]],[[61036,30881],[324,-1524],[-3377,-1264],[486,2577],[2567,211]],[[90016,44351],[-34,-502],[-127,551],[161,-49]],[[95382,52959],[-289,-502],[-324,48],[613,454]],[[65477,53802],[-139,-583],[-127,761],[266,-178]],[[65084,54580],[-255,178],[162,82],[93,-260]],[[109930,64663],[162,-357],[-648,130],[486,227]],[[111665,66770],[324,-632],[-1608,-259],[1284,891]],[[126629,72412],[2729,-2432],[-1700,535],[-1029,1897]],[[123009,63220],[764,-810],[-1538,-4863],[-3123,664],[2602,1135],[-509,2480],[1804,1394]],[[118441,62491],[798,-892],[-1283,81],[485,811]],[[117990,63885],[451,-940],[-867,1134],[416,-194]],[[110797,62945],[-543,-859],[-35,680],[578,179]],[[102899,183566],[6592,1896],[6904,4750]],[[116395,190212],[-1134,-8348],[5158,-3291],[6950,243],[9876,2691],[11842,-746],[7043,-2593],[3885,-3712]],[[160015,174456],[-2058,-2675],[-197,1264],[127,-2075],[-867,-1037],[-902,2431],[2058,-7554],[-1896,-1669],[196,-5366],[1087,-1070],[-797,-2934],[-2186,-2431],[-1411,988],[-543,-2334],[-3470,-908],[7806,-1037],[1793,-3112],[-3215,-941],[-417,-1702],[-2185,-97],[-1862,4004],[-2891,2610],[-162,-1167],[-1122,-49],[289,-2286],[-1087,-1848],[-4082,81],[451,-2204],[2024,-227],[4683,5009],[359,-908],[-359,-2512],[-5261,-9321],[-2961,-1946],[-3724,-7116],[-3885,-2788],[254,-2108],[1989,-1005],[-509,-2561],[-4209,-1524],[1249,2967],[-578,-859],[-3273,1977],[-3053,-1167],[1388,-227],[-3018,-4085],[-6592,211],[-382,-2205],[1319,-356],[2949,2204],[3596,-405],[1677,1086],[-740,-1896],[1411,-859],[520,-3275],[-1839,-1313],[-3145,503],[-1087,-2756],[-2579,146],[104,1248],[-3666,3161],[-3504,-2026],[-196,-908],[1769,-940],[-636,-2351],[1411,-2642],[508,1524],[-636,227],[2279,-357],[-35,-1621],[-2602,-4231],[1099,1119],[185,-1168],[2798,811],[995,-1038],[2509,2027],[2186,0],[-3018,-3421],[-1388,130],[-2209,-2561],[-3446,-503],[-2278,-2480],[-1955,-4814],[289,-1670],[3273,-1653],[-1735,-503],[0,-1670],[-1642,2707],[-1376,179],[417,1524],[-2117,599],[-3920,-681],[-3631,-3339],[324,-3599],[-1353,-810],[-613,-5495],[-764,-406],[1735,-2561],[-1318,-908],[-70,-2253],[-1283,1086],[-1573,-1086],[1122,-3323],[-2024,276],[254,-1589],[1064,-81],[-2093,-1346],[1064,-372],[197,-1751],[-1226,-227],[578,-1751],[3018,-324],[-543,-2107],[867,-1394],[-2567,0],[1064,-2124],[-324,-2885],[-4152,907],[-2047,3194],[-1896,454],[1920,48],[2417,3453],[-3632,-989],[-485,1946],[-3238,891],[1630,2886],[-2058,729],[1295,1475],[-1295,632],[451,2205],[-1087,1167],[-1249,0],[-2891,-5349],[1896,-762],[833,-2432],[-3446,3907],[-4302,-1572],[-613,2755],[-3111,-2399],[-58,1589],[-1677,535],[-2312,-1216],[162,-1670],[-2799,-859],[486,-2383],[-1735,0],[-1122,-2918],[-3180,1070],[-3053,-583],[-1284,1572],[1920,405],[-127,1086],[-2602,-810],[231,1751],[-5238,2253],[1318,1540],[4082,989],[127,-908],[3435,-438],[3689,-4863],[3215,2869],[358,3648],[-4568,1361],[-1503,-1945],[-1931,1394],[705,2480],[-670,730],[-1700,-2659],[-1226,1249],[-1608,-1929],[-3018,1167],[-740,-2691],[-2082,-454],[220,1475],[-1445,811],[6360,2528],[220,4410],[3376,-227],[-7354,227],[-4846,-2918],[-4279,3193],[-8291,-7392],[902,-2837],[4949,552],[-92,-1897],[2058,-1443],[2313,730],[-717,-1038],[578,-1994],[-1989,-3647],[-3307,-1394],[-2024,2253],[1446,-1491],[-255,-989],[1157,-843],[219,1346],[2868,761],[2822,4280],[2984,-1167],[2925,5041],[-2821,-5625],[92,-3388],[7737,-2156],[104,-3242],[2694,-989],[740,-2528],[-798,-1297],[-1168,2918],[-2590,-616],[2209,-6809],[-1319,-2788],[-2023,-405],[-1770,1524],[-3203,-1848],[-231,-1297],[1318,-1038],[-2209,-3696],[-1931,-9629],[-6649,-13065],[-2336,-535],[-1400,1767],[301,1897],[-2301,6662],[1734,3129],[-520,3063],[-4938,6874],[-5967,17264],[266,2901],[1561,373],[4695,-1767],[-821,2188],[2278,8252],[-832,2204],[-3262,3485],[-2162,4442],[-5262,4215],[-8199,-2934],[-1295,2772],[-4186,1977],[-833,2189],[3423,3923],[12674,9920],[5702,519],[7852,4539],[2637,810],[3330,-2982],[3065,2626],[3665,-1945],[879,3874],[2810,2642],[2082,324],[3886,-2496],[5088,-503],[1723,1946],[6777,-1735],[5215,227],[1411,1167],[116,1573],[-2556,3420],[197,3663],[11148,-308],[2312,2546],[949,4441],[-2996,1378],[-1422,8754],[2186,7051],[2474,1329],[1700,3534],[5794,6841],[93,6144],[-1353,5495],[1769,3939],[3400,3356],[2717,5754],[798,12223],[4915,5836],[-1561,2788]],[[158724,173275],[2505,-1770],[-162,-4312],[-543,2286],[-1677,-1978],[231,1946],[-1029,1296],[675,2532]],[[218380,380067],[2625,-2269],[28263,-9759],[2359,3291]],[[234015,299826],[-8662,-10763],[-11101,3469],[-10535,907],[-4638,3777],[3435,11137],[-1816,7408],[-3654,3080],[-5747,-4328],[-4753,-1459],[-197,5544],[2995,7959],[-2833,8592],[-6615,502],[1596,-11493],[-2914,-3939],[-10038,-2172]],[[168538,318047],[-5435,11947]],[[163103,329994],[-1388,10018]],[[161715,340012],[393,10293],[5285,7635],[5343,11153],[5620,1686]],[[340696,488806],[3249,-6127],[9899,-1767],[20862,7440],[3169,-2220],[-1585,-3518],[301,-3712],[5586,-3032],[6429,3421],[5378,616]],[[393984,479907],[10419,-4004]],[[455668,449901],[5574,941]],[[429405,388951],[-6961,10228],[-9865,-10877],[-22041,11250],[-8986,26877],[-7644,1313]],[[373908,427742],[-3249,7878],[-8084,-1686],[-7424,-10034],[-8731,-4928],[-5852,8089],[-6025,892],[-4151,3420],[4764,6225],[2255,7927],[-485,3128],[-5251,2999],[-7401,6484],[-5874,17329],[-5759,8608]],[[312641,484073],[-2279,1021],[2568,3566],[-104,1589],[1700,2610],[-706,3128],[2255,3226],[-1110,1443],[1226,2156],[-1087,1637],[740,1573],[-520,1718],[25372,-18934]],[[551351,447746],[-3551,12271]],[[422212,584561],[-10280,4539]],[[411932,589100],[3561,14751],[2764,7489]],[[418257,611340],[3909,227],[2891,3939],[5794,4539],[13010,1475],[3099,4653],[10593,259],[7332,-5982],[4232,535],[3978,9159],[8812,3177],[3701,9808],[6002,2042],[8257,-340],[3284,-3307],[-1353,-6257],[3203,-1427],[12744,8997],[10408,5252],[14686,2707],[14652,-1978],[11437,2124],[24979,18917],[5019,11250],[6650,6809],[5944,8218],[740,-14022],[5990,2983],[5574,4734],[11911,15578],[4730,-8251],[7968,-7441],[416,-6306],[-2023,-10131],[5018,1669],[4985,3696],[7921,-2901],[4996,-5090],[5215,859],[6095,3210],[23776,-4475],[13773,-4409],[2810,-6581],[6337,-7506],[4522,-1167],[69,-3955],[-2231,-6468],[6163,-9985]],[[736275,630177],[-6106,-5836],[-3134,-6274],[2764,-6062],[-6013,-10813],[-11449,-12465],[4013,-8673],[5111,-4085],[1955,-6273],[-4048,-3664],[-3203,1589],[-4695,-3275],[7482,-5025],[-1711,-6938],[-9194,-1248],[-3967,-3550],[-8222,-18447],[-5620,-18010],[-7182,-16567],[-15819,-10926],[-10674,-5203],[-22689,-4410]],[[633874,474022],[-7113,-10796]],[[327790,73028],[-127,-584],[-128,632],[255,-48]],[[327177,73757],[-289,-405],[0,405],[289,0]],[[370832,91410],[162,-584],[-289,82],[127,502]],[[393799,94247],[0,-730],[-833,49],[833,681]],[[394863,95463],[-127,-357],[-394,211],[521,146]],[[402310,98834],[231,-405],[-682,178],[451,227]],[[437651,120589],[-648,178],[648,130],[0,-308]],[[607380,299972],[335,-729],[-1099,-811],[-589,-3744],[-1666,-616],[717,-2740],[-809,-3242],[289,-4328],[-2301,292],[-1839,-2545],[-3724,356],[-4753,-3680],[798,-4863],[-809,-632],[-1538,1800],[520,-2156],[-937,-2302],[1608,-1621],[-162,-3145],[-2729,4360],[-3435,1313],[-1515,-1264],[2383,-4587],[-1481,-1038],[1087,-3518],[-1410,-1086],[254,-1167],[2671,-713],[289,-1491],[2094,2966],[57,2626],[2695,-551],[-2729,-4993],[485,-3290],[-2925,-535],[-1030,-1848],[104,-2529],[-4475,-4539],[35,-3420],[-2116,-1443],[-1966,486],[-2787,-3193],[-868,-2707],[-5597,-2286],[-4811,-3647],[-2509,1475],[-867,2707],[1249,2739],[3446,1848],[-7586,-2691],[-1030,-2026],[-1862,81],[1515,-1880],[2475,-405],[-324,-1767],[-1225,0],[612,-4231],[-1480,-714],[1388,-3469],[-6037,-4328],[891,-940],[-35,-2205],[-1307,-2480],[-138,-2788],[-2498,-1978],[670,-3517],[-1283,-2788],[-5204,-373],[-10501,-6565],[-3885,1086],[-1226,-1767],[1769,-1394],[-959,-1492],[-13438,-7602],[-4198,-6355],[-2671,-664],[-613,-1589],[671,-762],[-926,-178],[706,-1167],[-1538,-811],[832,-583],[-740,-1670],[-5782,357],[-2371,-1929],[-1422,1167],[-3018,-633],[1411,-1394],[-868,-2966],[-3816,-2172],[-1607,356],[-324,-2966],[-2082,-1297],[-2475,1037],[-3284,-1037],[-8349,-8964],[-4210,-1540],[-3793,-4361],[-3434,-405],[-451,-1799],[-3978,-1719],[-579,-1653],[-1121,1702],[-2602,-308],[-1064,-1491],[1734,-1216],[-994,-1086],[-1157,2026],[-2347,-178],[-5112,-4539],[-5585,-1313],[-1342,-1621],[-485,-3242],[670,-584],[-2856,-681],[-2602,-2561],[-324,-3955],[-3272,-1086],[-1932,-2075],[-3850,-308],[-2834,-2399],[-1827,-3048],[-5782,-5139],[-740,-4409],[-2082,-373],[-1064,-1848],[-3272,276],[670,2837],[-1249,907],[4302,130],[-4082,908],[-937,1929],[-2012,-276],[-775,-1831],[-4371,-811],[-925,-2626],[-2093,-405],[-5586,-4458],[-809,-1573],[647,-1799],[-3284,-2885],[-671,2804],[-2370,2205],[439,1394],[-4972,2204],[-359,2513],[104,-2513],[-994,357],[-162,-1702],[-1735,-1038],[-1029,2156],[-2348,-680],[960,-3275],[-1607,0],[-995,-1491],[-1156,2204],[-1608,-907],[289,-2108],[-1179,-178],[-2255,2691],[-3215,-260],[1353,-3339],[-2533,-713],[-2347,-2659],[-3504,633],[-2116,-3567],[-7136,-2058],[-1410,583],[-486,1800],[-5909,-325],[-995,-1215],[220,-2286],[-6777,-178],[-289,-2529],[-2787,-762],[185,-3793],[-1920,-989],[-162,1491],[-1098,49],[-428,-1313],[578,3582],[3088,5674]],[[323731,77064],[4926,2561],[2313,3177],[925,5674],[4533,13114],[4927,8251],[2717,-324],[8257,12385],[5574,1848],[13068,12044],[5736,11915],[4313,291],[706,6339],[2810,7699],[6221,5236],[7297,3583],[648,5317],[-4337,2156],[-1376,4944],[-4787,2918],[-6407,-1848],[-4441,2707],[2984,10731],[-2891,8559],[-8662,6647],[6661,12238]],[[375446,225226],[11264,-9515]],[[563991,226264],[-162,-762],[-613,97],[775,665]],[[555734,230641],[219,-325],[-416,276],[197,49]],[[587408,263548],[671,-1573],[-2082,308],[1411,1265]],[[424537,527906],[-9622,-18967]],[[398101,478934],[-4117,973]],[[340696,488806],[-25326,19112],[1630,649],[139,1540],[1376,1021],[-404,4458],[3053,891],[3804,6225],[2209,973],[1249,-989],[2509,2026],[1735,-2950],[1295,308],[347,-1864],[2521,-81],[497,3679],[1608,1038],[-243,2107],[948,2043],[3470,3971],[3654,-1070],[1133,1005],[-937,5706],[4406,2497],[2730,-1621],[-2637,4214],[23,1654],[3654,908],[636,1459],[-543,3258],[-3839,2026],[-2128,-486],[3122,6063],[3273,1377],[-2070,2578],[173,3193],[2914,-535],[1099,1702],[-428,1151],[-3365,162],[-254,6355],[2602,729],[-717,4085],[2127,470],[787,989],[-139,2464],[1954,1524],[2764,32],[3631,-4117]],[[282724,211739],[-5620,5479],[890,9483],[-809,4572],[-4649,3906],[-11414,5852]],[[261122,241031],[-10616,2286]],[[250506,243317],[-11275,13941],[2867,7019],[-42070,16],[-8824,-3453],[-5967,3615],[1156,5577],[-5366,16615],[-5828,8105],[-8199,3178]],[[167000,297930],[35,9175],[1503,10942]],[[194569,167453],[-2752,194]],[[191817,167647],[-520,1751],[-1354,259],[-4070,-616],[-1897,-5187],[1793,-2334],[-2371,-778],[-2278,-2610],[2405,4603],[-3573,3470],[-9275,1621],[-6811,-4329],[-231,4410],[2891,1215],[162,2075],[-3493,681],[925,-3064],[-1318,487],[-2081,4636],[1572,1362],[-2278,-843]],[[116395,190212],[15635,7343],[4556,7814],[24944,25871],[13415,2173],[2706,-2092],[1561,-6646],[9760,-2691],[-1480,-9872],[3423,-3177],[8130,211],[6175,-4799],[-1376,-6678]],[[307668,90648],[3238,-5755],[-474,-3517],[-7089,2739],[266,3113]],[[303609,87228],[-2833,3226],[451,2626],[6441,-2432]],[[298717,89286],[-254,-583],[-127,583],[381,0]],[[290044,77939],[-1538,-1880],[58,1021],[1480,859]],[[277034,85607],[8084,6662],[9690,2237]],[[294808,94506],[6222,-1750],[-1284,-2967],[-1283,-227],[289,1621],[-995,-2026],[-4602,891],[-4753,-1702],[416,-989],[-1017,-405],[-1030,-3598],[-2347,-2124],[4660,3745],[995,-503],[-683,-1799],[521,-1216],[-2833,-1670],[774,-2480],[-2081,178],[-428,-3955],[-2856,-810],[670,713],[-543,1994],[-1700,-1767],[34,1540],[-1676,227],[196,1848],[-1827,-373],[-197,3064],[1955,0],[-1631,1134],[474,1297],[-1214,3210]],[[253582,110165],[6083,-4863],[7991,5641],[5331,179],[2579,-3810],[5597,714],[2995,-1816],[-162,-4555],[-5701,-7360],[-671,3113]],[[277624,97408],[-2417,-259],[-1099,2771],[486,1119],[-4984,503],[-1538,-503],[127,-1037],[-902,551],[1261,-2124],[867,227],[-35,-1443],[-2764,681],[960,-2204],[-4464,-989],[2406,-730],[393,-989],[-1191,-1491],[-3724,1945],[-4915,-48],[-1966,-1524],[555,-2221],[-1387,1767],[-486,-1394],[-2660,-276],[-543,1394],[670,130],[-34,2075],[-1087,-940],[-3007,3907]],[[246146,96306],[2498,3631],[4938,10228]],[[95509,323818],[16202,421],[13438,-4312],[9286,3323],[6476,-356],[2301,-3534],[4996,-1670],[486,10099],[4117,6403],[9690,162]],[[162501,334354],[602,-4360]],[[167000,297930],[-6754,-4896],[197,-12725],[3435,-11688],[6753,-10828],[-29639,3663],[-19555,-4846],[-5401,4425],[-12767,29616]],[[103269,290651],[-347,-1491],[-7413,34658]],[[330692,200165],[5343,-9207],[2429,-10683],[-2151,-40526],[-14953,-17134],[-2382,9596],[-5112,3891],[-5342,-1167],[-3354,1345],[-1469,4782],[-5539,487],[-3654,-924],[-3539,-2691],[-4857,2496]],[[286112,140430],[4487,12871],[-613,5852],[2382,6452],[5193,2302],[4730,5317],[2046,13000]],[[368912,230851],[6534,-5625]],[[323731,77064],[-4776,-11185],[-8292,-1394],[-92,1167],[-1643,259],[-4267,-3145],[-4625,7246],[5042,0],[-3342,908],[1734,3323],[2313,633],[2984,-2075],[1676,1540],[-2602,1313],[636,988],[-1179,1216],[-1284,-956],[-1226,2756],[-1353,178],[-636,2383],[-4209,2610],[1214,1215],[-1411,1265],[2348,3128],[2868,-3209]],[[307668,90648],[-6545,2642],[4822,6225],[-1608,-778],[-959,-3015],[-2059,-762],[-324,-1832],[-6187,1378]],[[277034,85607],[-3307,1977],[474,1881],[-1573,859],[1515,1135],[-196,4458],[1063,1799],[2614,-308]],[[253582,110165],[671,13731],[20387,3533],[7667,6306],[3805,6695]],[[161715,340012],[786,-5658]],[[95509,323818],[-14837,66365],[-2763,3436],[-1388,4669],[-7725,7894],[0,4215],[-4279,211],[-1422,1734],[405,4199],[1792,843],[5296,1037],[960,1686],[2059,-1054],[4903,3258],[624,1281],[-670,3502],[1943,1766],[5446,1200],[1006,-1637],[4869,-681],[752,-1653],[3758,810],[1353,1589],[2544,-892],[2232,1281],[1874,4101],[4371,4263],[5689,-211],[8824,-3420],[2995,1945],[-2220,1994],[81,1573],[6164,2739]],[[380361,620920],[-705,5107],[1387,1831],[8153,2610],[4869,8122],[1179,-243],[949,-3680],[2116,211],[2949,4393],[-1735,2609],[3874,1330],[1908,2075],[-2116,5576],[3319,3696],[-3620,16],[-2382,2967],[1168,2366],[5840,2189],[1318,1523],[197,2432],[-1677,5058],[-1388,1604],[-5284,1524],[-2198,2724],[-92,1669],[1018,3210],[4047,5349],[3215,10861],[9425,8657],[1700,3161],[8048,2480],[10744,599],[10176,2708],[17439,2139],[5655,3275],[3955,4847],[1307,7765],[-2937,6711],[2023,10196],[-5308,8137],[1261,8268],[5354,-1022],[5458,-5738],[4938,-308],[764,11055],[5100,4588],[3793,11947],[8303,1021],[7066,-1118],[4417,4782],[3007,389],[11680,-4150],[4857,2205],[6904,10796],[10974,-1962],[5898,-5560],[10512,1945],[3168,-2399],[-1630,-7489],[2613,-5787],[8419,-3631],[2209,-3421],[-8118,-12757],[-867,-3891],[2312,-1945],[4996,-1767],[6025,2189],[7968,8996],[5655,33],[139,-3615],[7921,-389],[5435,1167],[5910,-1994],[-116,-4798],[-3203,-2415],[8419,-5074],[2648,-5885],[8442,-4782],[5944,-2366],[3099,421],[3504,7943],[2787,3664],[5701,437],[5574,-8915],[11923,-5350],[9564,-2480],[6002,1945],[8095,5463],[16722,-2464],[12223,8981],[3122,4117],[7066,3680],[7806,6306],[4533,405],[10524,10002],[-1226,4652],[-5135,8494],[4985,14817],[4810,8802],[2579,9418],[3631,2140],[16907,-7100],[5933,-260],[2660,-5706],[13877,-4685],[4845,1897],[1504,3210],[2625,1864],[7829,3210]],[[827541,808750],[3527,-1265],[4568,-10520],[4221,-3242],[1272,-7490],[3481,-3485],[-1989,-7586],[4533,340],[7736,3388],[0,-4490],[-4568,-3761],[-2104,-13552],[7493,746],[2464,-7554],[-2903,-11153],[5898,-7262],[-301,-8786],[6164,-4863],[1931,-5852],[-4591,-9402],[4452,-6403],[-7378,-7668],[-8592,3453],[-10766,-20036],[-9564,-5609],[-7054,762],[-3631,-10828],[-6164,-827],[-14490,-8916],[-2741,-5495],[3099,-6354],[-2128,-4863],[-6348,-1735],[-6939,6630],[-6314,-584],[-4406,-8559],[-5192,-259],[-2718,1313],[-8130,-1880],[-9448,7067],[-13646,-1993]],[[224798,80517],[1423,-2124],[-70,-5139],[1122,-842],[-3527,-422],[-266,4280],[-1920,-1800],[-1549,811],[1353,3874],[3434,1362]],[[226244,86223],[520,-535],[-578,-535],[58,1070]],[[221433,118643],[-324,-129],[0,227],[324,-98]],[[239254,81635],[162,-454],[-324,357],[162,97]],[[233379,100455],[1700,-3144],[-451,-1265],[2544,-1767],[185,-1070],[-2625,-2755],[2186,-4718],[2729,-1264],[-1319,-1799],[-3122,2788],[266,1167],[-2058,2983],[-3377,-1492],[543,1443],[-763,3777],[2498,503],[-740,5495],[1804,1118]],[[253582,110165],[-2880,-7392],[-4556,-6467]],[[246146,96306],[2972,-4312],[-486,762],[-2370,-1395],[-810,2610],[-1792,-681],[1480,1411],[-1550,616],[937,5187],[-3597,1880],[-2509,-486],[-416,1297],[-1642,-32],[-1030,2285],[-1087,-2788],[-2960,4912],[-1157,-1573],[1804,-3615],[-3850,-308],[-2128,-2123],[-2729,2983],[1283,-2075],[-578,-454],[3886,-3194],[-1504,-1264],[-289,-1394],[1191,-989],[-994,-1897],[-1064,49],[-324,-1475],[-740,2966],[-1411,406],[-902,-1621],[775,-1168],[-995,-502],[-994,1670],[670,2285],[-2509,227],[555,811],[-1226,1005],[1573,664],[544,2173],[-891,-422],[-358,2934],[-995,227],[671,1718],[-451,5074],[2278,6047],[-1145,-730],[-520,1670],[2856,2934],[-1896,1021],[-128,2529],[1515,1897],[-2220,2788],[-1665,-405],[0,1086],[832,2204],[0,-2350],[3562,1134],[937,3551],[-1573,3112],[740,713],[1376,-1167],[740,1978],[-1514,-308],[612,1037],[-925,308],[1700,2156],[-3018,3064],[1180,859],[4151,-762],[3469,4182],[1411,-859],[-92,-1831],[636,891],[-3204,5366],[926,664],[-671,1313],[-1839,-2123],[-4556,-405],[-868,145],[995,1119],[-648,1621],[-1861,-130],[1225,3064],[4268,5090],[-255,2821],[-3180,2577],[1446,1021]],[[231922,204801],[4475,6728],[10790,8478],[2104,8672],[-7274,7684],[-8141,2123],[4464,7068]],[[238340,245554],[22782,-4523]],[[222416,116163],[555,162],[-590,519]],[[277740,366580],[-1562,1249],[2117,567],[-555,-1816]],[[373908,427742],[-2301,-6711],[-5366,-3518],[2197,-4944],[5690,-2107],[-1735,-9078],[-8291,-11428],[-4684,-1686],[-2764,-5803],[4175,-19858],[-3539,-3842],[-6522,2059],[-2324,-2302],[-2521,-6630],[-4638,3388]],[[303701,347987],[-3850,-5057]],[[255444,375642],[-2706,-2772],[12292,17069],[17937,59265],[1931,-470],[3053,-3144],[4614,-1119],[810,-2124],[1572,1686],[1978,-632],[1422,4020],[2001,-1134],[3041,2447],[763,2562],[2175,1556],[1260,2658],[1758,114],[2856,4101],[3562,1054],[-1792,5657],[624,2286],[-856,4214],[-1677,3988],[-2127,1540],[1329,5755],[1377,-146]],[[827541,808750],[4174,7116],[4476,4360],[7517,3551],[6464,-1151],[5366,-2918],[12825,5835],[1029,10748],[9101,1183],[1654,4685],[7782,3874],[-115,10602],[-1272,6127],[-10038,3518],[7309,7278],[855,4134],[-7204,-973],[-2764,3745],[-3654,2561],[-3389,324],[-9482,-3582],[-5783,389],[-20110,13568],[-10419,1021],[-5239,-1864],[-3793,2237],[-867,3761],[3781,3939],[12779,3923],[2821,7392],[-3295,4004],[-18353,8056],[-613,5479],[-5828,4588],[-2383,7343],[4291,5496],[12235,9872],[6707,-1038],[6164,5204],[5435,551],[9888,-2415],[2648,-2918],[2856,680],[4822,4280],[6974,-567],[5296,3290],[706,7036],[4047,2172],[5516,1621],[7147,-535],[5539,3631],[6164,-810],[2995,2107],[-3006,4344],[-428,3307],[4221,5252],[10477,5739],[5481,97],[12594,-5236],[3885,-6419],[926,-5820],[-2047,-5560],[1966,-4587],[5978,-2626],[2672,-2983],[-902,-7959],[4383,-3372],[7759,-843],[5817,2042],[544,-8510],[-9171,-3226],[-6013,-11996],[2162,-3728],[5829,-1718],[8176,-7619],[3411,-12758],[3978,-1102],[312,-4490],[-2243,-6679],[-5031,-3388],[-16837,-7392],[-4082,-4701],[-1862,-5576],[8638,-8997],[-2093,-11655],[-6892,-8673],[9170,-729],[10316,-5252],[5470,194],[9702,5317],[4556,-616],[7355,-4847],[3123,-4230],[11402,-3842],[-3782,-3113],[-3793,-5738],[428,-5998],[-4313,-665],[-2498,1216],[-8350,-4782],[-5180,-5933],[-12918,-18966],[-9378,-7846],[-4915,-5981],[-5007,-9500],[-1932,-6305],[-1989,-2545],[-751,-9467],[-1330,-3745],[-2371,-2950],[-2382,-973],[-463,-1880],[-2012,-1718],[-1943,-5544],[-2405,-2756],[-1920,-8543],[-2220,-2367],[578,-4490],[-1607,-5479],[613,-3469],[1769,-1848],[-2764,-9256],[867,-97],[-5134,-4020],[-7517,-3551],[-2440,-3744],[-3816,-3048],[-6858,-15626],[-1226,-7457],[-1480,-2610],[46,-4863],[1353,-1816],[-786,-2285],[-7286,-10148],[-2948,-1394],[-4245,-6857],[-4082,-2869],[-1607,-5415],[-18121,-20360],[-5147,-11574],[-4163,-3663],[-474,-7068],[-4660,-5042],[-11102,-8461],[-7309,-8705],[-4868,-1459],[-9668,-7846],[-4001,-5982],[-3342,-9013],[-2059,-1118],[-4302,-6614],[-4891,-3015],[-1955,-5187],[-2208,-1524],[-1365,-4458],[-1561,-1832],[-5609,-1313],[-3573,-2302],[-9818,-9142],[-3527,-5042],[-11669,-6354],[-4903,-4604],[-1492,-2561],[416,-1038],[-2151,-6354],[-994,-7262],[-7101,-4717],[-2336,-3745],[-1780,-470],[-868,1443],[-2671,729],[-93,-1978],[1180,-1588],[-1399,-195],[-1388,-3453],[-2509,-2026],[-3689,-6468],[-1862,-551],[-232,-2480],[1122,-778],[-35,-1783],[-1989,-2934],[-1792,988],[-497,-1993],[-1908,-779],[-1481,-5624],[-1885,-2464],[-1422,502],[-2683,-2480],[-636,-2010],[1989,-4231],[-382,-2821],[-3180,211],[-4255,5025],[-3435,-681],[-821,-859],[532,-2626],[-1365,-4101],[-4498,-811],[289,-1361],[3712,-1411],[-93,-1507],[-8592,-4782],[-2451,-2723],[-2313,-6598],[-1157,1264],[810,2529],[-960,0],[-648,-2253],[648,-1491],[-1133,227],[1318,-1978],[-555,-2075],[1191,-97],[1399,-4118],[-4244,-1686],[-636,-5852]],[[625408,459757],[8466,14265]],[[250506,243317],[-12166,2237]],[[102899,183566],[-798,3825],[1492,2481],[-12,2042],[-2868,1654],[-3735,3744],[-4984,2707],[-1908,6257],[1943,649],[-509,2464],[2949,1507],[751,2108],[-2174,3890],[1712,1719],[300,1912],[-370,4361],[-1607,2675],[-324,5787],[1261,3404],[-1550,7392],[1272,3258],[-1411,2075],[1908,3145],[926,5560],[2382,3047],[1191,6047],[-2764,5268],[1816,4231],[-23,4328],[5030,4183],[474,5365]],[[140414,88525],[-128,-1119],[-1063,486],[1191,633]],[[141801,90048],[440,-486],[-1122,584],[682,-98]],[[140703,90600],[-578,-276],[485,762],[93,-486]],[[140633,92350],[-254,-810],[-544,275],[798,535]],[[144588,95138],[255,-1750],[-2151,356],[1896,1394]],[[146681,98786],[613,-3648],[-2798,179],[867,2804],[1318,665]],[[143721,99645],[359,-632],[-1157,-130],[798,762]],[[148601,90275],[-474,-32],[220,713],[254,-681]],[[153551,103519],[1572,-3242],[-2336,-1118],[-1711,988],[740,2205],[-1156,940],[2891,227]],[[155285,103292],[197,-178],[-648,0],[451,178]],[[148347,105092],[-289,-49],[162,729],[127,-680]],[[159206,105772],[381,-761],[-960,226],[579,535]],[[159171,106356],[-162,-97],[-23,275],[185,-178]],[[164826,108285],[2278,-1929],[-3342,-1443],[1064,3372]],[[161900,110765],[682,-227],[-1734,-583],[1052,810]],[[157471,107572],[416,-681],[-775,275],[359,406]],[[152938,114964],[1862,-3745],[2127,-1443],[-832,-2075],[-1480,552],[-1388,-1411],[35,-2464],[-2371,3372],[1214,1670],[-1607,2885],[1098,1297],[1538,-1119],[-832,2059],[636,422]],[[155482,113829],[-255,-276],[-265,454],[520,-178]],[[164791,127024],[1550,-1313],[6672,-308],[-994,-4052],[2451,-357],[-867,-1216],[798,-2577],[2371,1540],[-567,1264],[763,-502],[-740,-2383],[740,-1848],[-3215,-3745],[-57,-2383],[-2799,1265],[-1445,-3372],[416,891],[-867,454],[1191,1346],[-868,1215],[-3631,-2512],[-4209,4134],[-2186,810],[-2151,-1394],[-1630,1135],[763,3647],[3284,-2124],[1989,503],[-35,1572],[-1607,-907],[162,1540],[-960,-1038],[-902,1346],[1538,3388],[648,-1816],[1480,454],[-1677,3566],[2059,-275],[-1989,1394],[1630,1750],[1191,-2917],[1480,680],[3632,-1491],[670,-3777],[833,535],[1006,-3874],[1214,-98],[1064,-1929],[220,2027],[-1446,1394],[960,762],[-1179,-211],[23,1572],[-2406,1346],[-381,2123],[1191,211],[-2290,2432],[-3689,680],[798,1443]],[[179027,120848],[196,-308],[-358,-97],[162,405]],[[203081,156770],[196,-7278],[-5909,-2254],[-359,-1702],[-5585,-4960],[-2498,-4814],[-3192,-1265],[-312,-1394],[-4048,-3064],[-1283,-1799],[0,-2886],[-706,0],[347,2578],[-3816,-1540],[-1607,1135],[2208,437],[-1087,1492],[-2602,-989],[-1283,891],[509,1265],[-1631,-454],[1284,3112],[4753,179],[-5308,810],[-3308,-5576],[-1792,129],[2313,4102],[1283,454],[416,3144],[2984,2789],[578,2658],[-1179,1621],[2856,5414],[6939,4718],[3307,680],[416,1443],[-1191,2513],[6141,3825],[-359,2027],[2186,2302],[-925,1134]]],"bbox":[130.4051,42.2846,139.0524,48.4535],"transform":{"scale":[0.00000864730864730865,0.000006168906168906169],"translate":[130.4051,42.2846]}}