{"type":"Topology","objects":{"muni":{"type":"GeometryCollection","geometries":[{"type":"MultiPolygon","arcs":[[[0,1,2,3,4,5,6,7,8,9]]],"properties":{"GID_2":"RUS.57.1_1","GID_0":"RUS","COUNTRY":"Russia","GID_1":"RUS.57_1","NAME_1":"Pskov","NL_NAME_1":"Псковскаяобласть","NAME_2":"Bezhanitskiyrayon","VARNAME_2":"NA","NL_NAME_2":"Бежаницкий","TYPE_2":"Raion","ENGTYPE_2":"District","CC_2":"R08000","HASC_2":"RU.PS.BE"}},{"type":"MultiPolygon","arcs":[[[-9,10,11,12,13,14,15]]],"properties":{"GID_2":"RUS.57.2_1","GID_0":"RUS","COUNTRY":"Russia","GID_1":"RUS.57_1","NAME_1":"Pskov","NL_NAME_1":"Псковскаяобласть","NAME_2":"Dedovichskiyrayon","VARNAME_2":"NA","NL_NAME_2":"Дедовичскийрайон","TYPE_2":"Raion","ENGTYPE_2":"District","CC_2":"R08000","HASC_2":"RU.PS.DE"}},{"type":"MultiPolygon","arcs":[[[16,-15,17,18]]],"properties":{"GID_2":"RUS.57.3_1","GID_0":"RUS","COUNTRY":"Russia","GID_1":"RUS.57_1","NAME_1":"Pskov","NL_NAME_1":"Псковскаяобласть","NAME_2":"Dnovskiyrayon","VARNAME_2":"NA","NL_NAME_2":"Дновскийрайон","TYPE_2":"Raion","ENGTYPE_2":"District","CC_2":"R08000","HASC_2":"RU.PS.DN"}},{"type":"MultiPolygon","arcs":[[[19,20,21,22,23,24,25]]],"properties":{"GID_2":"RUS.57.4_1","GID_0":"RUS","COUNTRY":"Russia","GID_1":"RUS.57_1","NAME_1":"Pskov","NL_NAME_1":"Псковскаяобласть","NAME_2":"Gdovskiyrayon","VARNAME_2":"NA","NL_NAME_2":"Гдовскийрайон","TYPE_2":"Raion","ENGTYPE_2":"District","CC_2":"R08000","HASC_2":"RU.PS.GD"}},{"type":"MultiPolygon","arcs":[[[26,27,28,29,30,31,32,33]]],"properties":{"GID_2":"RUS.57.5_1","GID_0":"RUS","COUNTRY":"Russia","GID_1":"RUS.57_1","NAME_1":"Pskov","NL_NAME_1":"Псковскаяобласть","NAME_2":"Krasnogorodskiyrayon","VARNAME_2":"NA","NL_NAME_2":"Красногородскийрайон","TYPE_2":"Raion","ENGTYPE_2":"District","CC_2":"R08000","HASC_2":"RU.PS.KR"}},{"type":"MultiPolygon","arcs":[[[34,35,36,37,38]]],"properties":{"GID_2":"RUS.57.6_1","GID_0":"RUS","COUNTRY":"Russia","GID_1":"RUS.57_1","NAME_1":"Pskov","NL_NAME_1":"Псковскаяобласть","NAME_2":"Kun'inskiyrayon","VARNAME_2":"NA","NL_NAME_2":"Куньинскийрайон","TYPE_2":"Raion","ENGTYPE_2":"District","CC_2":"R08000","HASC_2":"RU.PS.KU"}},{"type":"MultiPolygon","arcs":[[[39,40,41,42,43,44,-1]]],"properties":{"GID_2":"RUS.57.7_1","GID_0":"RUS","COUNTRY":"Russia","GID_1":"RUS.57_1","NAME_1":"Pskov","NL_NAME_1":"Псковскаяобласть","NAME_2":"Loknyanskiyrayon","VARNAME_2":"NA","NL_NAME_2":"Локнянскийрайон","TYPE_2":"Raion","ENGTYPE_2":"District","CC_2":"R08000","HASC_2":"RU.PS.LO"}},{"type":"MultiPolygon","arcs":[[[45,46,47,48,49,50,51,52,53,54,55,56]]],"properties":{"GID_2":"RUS.57.8_1","GID_0":"RUS","COUNTRY":"Russia","GID_1":"RUS.57_1","NAME_1":"Pskov","NL_NAME_1":"Псковскаяобласть","NAME_2":"Nevel'skiyrayon","VARNAME_2":"NA","NL_NAME_2":"Невельскийрайон","TYPE_2":"Raion","ENGTYPE_2":"District","CC_2":"R08000","HASC_2":"RU.PS.NE"}},{"type":"MultiPolygon","arcs":[[[-8,57,58,59,60,61,62,63,64,65,66,-11]]],"properties":{"GID_2":"RUS.57.9_1","GID_0":"RUS","COUNTRY":"Russia","GID_1":"RUS.57_1","NAME_1":"Pskov","NL_NAME_1":"Псковскаяобласть","NAME_2":"Novorzhevskiyrayon","VARNAME_2":"NA","NL_NAME_2":"Новоржевскийрайон","TYPE_2":"Raion","ENGTYPE_2":"District","CC_2":"R08001","HASC_2":"RU.PS.NR"}},{"type":"MultiPolygon","arcs":[[[-4,67,68,-44,69,70,71,-52,72,73,74,75,76]]],"properties":{"GID_2":"RUS.57.10_1","GID_0":"RUS","COUNTRY":"Russia","GID_1":"RUS.57_1","NAME_1":"Pskov","NL_NAME_1":"Псковскаяобласть","NAME_2":"Novosokol'nicheskiyrayon","VARNAME_2":"NA","NL_NAME_2":"Новосокольническийрайон","TYPE_2":"Raion","ENGTYPE_2":"District","CC_2":"R08001","HASC_2":"RU.PS.NS"}},{"type":"MultiPolygon","arcs":[[[77,78,79,80,81,-33,82,83,84,-59]]],"properties":{"GID_2":"RUS.57.11_1","GID_0":"RUS","COUNTRY":"Russia","GID_1":"RUS.57_1","NAME_1":"Pskov","NL_NAME_1":"Псковскаяобласть","NAME_2":"Opochetskiyrayon","VARNAME_2":"NA","NL_NAME_2":"Опочецкийрайон","TYPE_2":"Raion","ENGTYPE_2":"District","CC_2":"R08001","HASC_2":"RU.PS.OP"}},{"type":"MultiPolygon","arcs":[[[85]]],"properties":{"GID_2":"RUS.57.12_1","GID_0":"RUS","COUNTRY":"Russia","GID_1":"RUS.57_1","NAME_1":"Pskov","NL_NAME_1":"Псковскаяобласть","NAME_2":"Ostrov","VARNAME_2":"NA","NL_NAME_2":"Остров","TYPE_2":"Gorod","ENGTYPE_2":"City","CC_2":"NA","HASC_2":"RU.PS.OG"}},{"type":"MultiPolygon","arcs":[[[86,87,88,89,90,91,92,93,-65,94],[-86]]],"properties":{"GID_2":"RUS.57.13_1","GID_0":"RUS","COUNTRY":"Russia","GID_1":"RUS.57_1","NAME_1":"Pskov","NL_NAME_1":"Псковскаяобласть","NAME_2":"Ostrovskiyrayon","VARNAME_2":"NA","NL_NAME_2":"Островскийрайон","TYPE_2":"Raion","ENGTYPE_2":"District","CC_2":"R08001","HASC_2":"RU.PS.OR"}},{"type":"MultiPolygon","arcs":[[[95,96,97,98,99,-90,100,101,102]]],"properties":{"GID_2":"RUS.57.14_1","GID_0":"RUS","COUNTRY":"Russia","GID_1":"RUS.57_1","NAME_1":"Pskov","NL_NAME_1":"Псковскаяобласть","NAME_2":"Palkinskiyrayon","VARNAME_2":"NA","NL_NAME_2":"Палкинскийрайон","TYPE_2":"Raion","ENGTYPE_2":"District","CC_2":"R08001","HASC_2":"RU.PS.PA"}},{"type":"MultiPolygon","arcs":[[[103,104,105,106,107,-98,108,-96,109]]],"properties":{"GID_2":"RUS.57.15_1","GID_0":"RUS","COUNTRY":"Russia","GID_1":"RUS.57_1","NAME_1":"Pskov","NL_NAME_1":"Псковскаяобласть","NAME_2":"Pechorskiyrayon","VARNAME_2":"NA","NL_NAME_2":"Печорскийрайон","TYPE_2":"Raion","ENGTYPE_2":"District","CC_2":"R08001","HASC_2":"RU.PS.PE"}},{"type":"MultiPolygon","arcs":[[[110,-21,111]]],"properties":{"GID_2":"RUS.57.16_1","GID_0":"RUS","COUNTRY":"Russia","GID_1":"RUS.57_1","NAME_1":"Pskov","NL_NAME_1":"Псковскаяобласть","NAME_2":"Plyusskiyrayon","VARNAME_2":"NA","NL_NAME_2":"Плюсскийрайон","TYPE_2":"Raion","ENGTYPE_2":"District","CC_2":"R08001","HASC_2":"RU.PS.PL"}},{"type":"MultiPolygon","arcs":[[[112,-19,113,-13,114,115,-93,116,117,118]]],"properties":{"GID_2":"RUS.57.17_1","GID_0":"RUS","COUNTRY":"Russia","GID_1":"RUS.57_1","NAME_1":"Pskov","NL_NAME_1":"Псковскаяобласть","NAME_2":"Porkhovskiyrayon","VARNAME_2":"NA","NL_NAME_2":"Порховскийрайон","TYPE_2":"Raion","ENGTYPE_2":"District","CC_2":"R08001","HASC_2":"RU.PS.PO"}},{"type":"MultiPolygon","arcs":[[[119]]],"properties":{"GID_2":"RUS.57.18_1","GID_0":"RUS","COUNTRY":"Russia","GID_1":"RUS.57_1","NAME_1":"Pskov","NL_NAME_1":"Псковскаяобласть","NAME_2":"Pskov","VARNAME_2":"NA","NL_NAME_2":"Псков","TYPE_2":"Gorod","ENGTYPE_2":"City","CC_2":"NA","HASC_2":"RU.PS.PG"}},{"type":"MultiPolygon","arcs":[[[120,-24,121,122,123,-117,-92,-99,-108,124,125],[-120]]],"properties":{"GID_2":"RUS.57.19_1","GID_0":"RUS","COUNTRY":"Russia","GID_1":"RUS.57_1","NAME_1":"Pskov","NL_NAME_1":"Псковскаяобласть","NAME_2":"Pskovskiyrayon","VARNAME_2":"NA","NL_NAME_2":"Псковскийрайон","TYPE_2":"Raion","ENGTYPE_2":"District","CC_2":"R08001","HASC_2":"RU.PS.PR"}},{"type":"MultiPolygon","arcs":[[[126,127,-30,-95,-64,128,129,-61,130,-84]]],"properties":{"GID_2":"RUS.57.20_1","GID_0":"RUS","COUNTRY":"Russia","GID_1":"RUS.57_1","NAME_1":"Pskov","NL_NAME_1":"Псковскаяобласть","NAME_2":"Pushkino-Gorskiyrayon","VARNAME_2":"NA","NL_NAME_2":"Пушкино-Горскийрайон","TYPE_2":"Raion","ENGTYPE_2":"District","CC_2":"R08002","HASC_2":"RU.PS.PU"}},{"type":"MultiPolygon","arcs":[[[-5,-77,131,-75,132,133,-48,134,135,136,137,-80,138]]],"properties":{"GID_2":"RUS.57.21_1","GID_0":"RUS","COUNTRY":"Russia","GID_1":"RUS.57_1","NAME_1":"Pskov","NL_NAME_1":"Псковскаяобласть","NAME_2":"Pustoshkinskiyrayon","VARNAME_2":"NA","NL_NAME_2":"Пустошкинскийрайон","TYPE_2":"Raion","ENGTYPE_2":"District","CC_2":"R08001","HASC_2":"RU.PS.PS"}},{"type":"MultiPolygon","arcs":[[[-102,139,-88,140,-28,141]]],"properties":{"GID_2":"RUS.57.22_1","GID_0":"RUS","COUNTRY":"Russia","GID_1":"RUS.57_1","NAME_1":"Pskov","NL_NAME_1":"Псковскаяобласть","NAME_2":"Pytalovskiyrayon","VARNAME_2":"NA","NL_NAME_2":"Пыталовскийрайон","TYPE_2":"Raion","ENGTYPE_2":"District","CC_2":"R08002","HASC_2":"RU.PS.PY"}},{"type":"MultiPolygon","arcs":[[[142,-34,-82,143,-137,144,-135,-47]]],"properties":{"GID_2":"RUS.57.23_1","GID_0":"RUS","COUNTRY":"Russia","GID_1":"RUS.57_1","NAME_1":"Pskov","NL_NAME_1":"Псковскаяобласть","NAME_2":"Sebezhskiyrayon","VARNAME_2":"NA","NL_NAME_2":"Себежскийрайон","TYPE_2":"Raion","ENGTYPE_2":"District","CC_2":"R08002","HASC_2":"RU.PS.SE"}},{"type":"MultiPolygon","arcs":[[[145,-119,146,-123,147,-22,-111]]],"properties":{"GID_2":"RUS.57.24_1","GID_0":"RUS","COUNTRY":"Russia","GID_1":"RUS.57_1","NAME_1":"Pskov","NL_NAME_1":"Псковскаяобласть","NAME_2":"Strugo-Krasnenskiyrayon","VARNAME_2":"NA","NL_NAME_2":"Струго-Красненскийрайон","TYPE_2":"Raion","ENGTYPE_2":"District","CC_2":"R08002","HASC_2":"RU.PS.ST"}},{"type":"MultiPolygon","arcs":[[[-57,148,149,-36,150,151]]],"properties":{"GID_2":"RUS.57.25_1","GID_0":"RUS","COUNTRY":"Russia","GID_1":"RUS.57_1","NAME_1":"Pskov","NL_NAME_1":"Псковскаяобласть","NAME_2":"Usvyatskiyrayon","VARNAME_2":"NA","NL_NAME_2":"Усвятскийрайон","TYPE_2":"Raion","ENGTYPE_2":"District","CC_2":"R08002","HASC_2":"RU.PS.US"}},{"type":"MultiPolygon","arcs":[[[152]]],"properties":{"GID_2":"RUS.57.26_1","GID_0":"RUS","COUNTRY":"Russia","GID_1":"RUS.57_1","NAME_1":"Pskov","NL_NAME_1":"Псковскаяобласть","NAME_2":"VelikieLuki","VARNAME_2":"NA","NL_NAME_2":"ВеликиеЛуки","TYPE_2":"Gorod","ENGTYPE_2":"City","CC_2":"NA","HASC_2":"RU.PS.VG"}},{"type":"MultiPolygon","arcs":[[[-38,153,-149,-56,154,155,-53,-72,156,157,-42,158,159],[-153]]],"properties":{"GID_2":"RUS.57.27_1","GID_0":"RUS","COUNTRY":"Russia","GID_1":"RUS.57_1","NAME_1":"Pskov","NL_NAME_1":"Псковскаяобласть","NAME_2":"Velikolukskiyrayon","VARNAME_2":"NA","NL_NAME_2":"Великолукскийрайон","TYPE_2":"Raion","ENGTYPE_2":"District","CC_2":"R08000","HASC_2":"RU.PS.VR"}},{"type":"MultiPolygon","arcs":[[[-26,160,-126,161,-106,162,-104,163]]],"properties":{"GID_2":"RUS.57.28_1","GID_0":"RUS","COUNTRY":"Russia","GID_1":"RUS.57_1","NAME_1":"Pskov","NL_NAME_1":"Псковскаяобласть","NAME_2":"Waterbody","VARNAME_2":"NA","NL_NAME_2":"NA","TYPE_2":"Waterbody","ENGTYPE_2":"Waterbody","CC_2":"NA","HASC_2":"NA"}}]}},"arcs":[[[814337,454681],[-3040,-4967],[-11383,-3791],[-28987,-16046],[-14730,-28096],[-9992,-8229],[-8979,-1382],[-15036,7024],[-6622,-734],[-6693,-5731],[-1414,-5349],[-6741,-7024],[-25358,-4849],[-20315,-7759],[-34219,-19838],[-34573,-34238],[-12231,-4820]],[[574024,308852],[-34832,-177]],[[539192,308675],[-11525,-2997],[-9851,-5173]],[[517816,300505],[-5020,-7083],[-10251,-4790]],[[502545,288632],[-21376,7964],[-13291,9611]],[[467878,306207],[19631,29565]],[[487509,335772],[28822,28008],[14494,9581],[14141,12785]],[[544966,386146],[11123,15635],[4454,11197],[-2804,11579],[-14800,15635],[-2498,11844],[2993,7436],[-566,19661]],[[542868,479133],[24062,1205],[10982,-1969],[11336,-6613],[10794,-29],[6033,7700],[-3111,19838],[7141,9404],[9710,4232],[16638,-999],[14541,2204],[49939,-16281],[11241,3144],[12750,7318],[20503,5202]],[[745427,513489],[10275,-7141],[32170,-14636],[37801,-13343],[5656,-5084],[2593,-7083],[-19585,-11521]],[[542868,479133],[-2710,6495],[-7400,7641]],[[532758,493269],[-15743,4350]],[[517015,497619],[12113,6965],[-8107,32681],[-24981,12814],[1414,4173],[16969,8729],[18618,-1852],[28822,5320],[30425,-1646],[14871,5613],[8579,7935]],[[615738,578351],[-1697,21249]],[[614041,599600],[16944,-7935],[15720,-3615],[23920,3321],[25052,-853],[44943,13020],[11524,-1293]],[[752144,602245],[-330,-5584],[7494,-5702],[18383,-6818],[22765,-500],[-12349,-15694],[-21328,-10491],[-14894,-10757],[8390,-5731],[-14848,-27479]],[[619697,706253],[15153,-8405],[1485,-4908],[-2050,-5878],[3158,-5143],[8932,-2410],[15695,2557],[19561,-8552],[23355,-5467],[17793,2116],[20904,-4114],[18100,3056],[5538,-1704],[1391,-8376],[-3158,-10110],[-18854,-17457],[20880,-7348],[-8248,-14253],[-7188,-7612]],[[614041,599600],[-354,10639]],[[613687,610239],[-6033,5113],[-3959,7965],[-1108,10639],[4525,16810],[6292,8905],[-2427,6437],[-30166,10991],[5279,9081],[33607,20073]],[[106005,979221],[6057,2615],[11547,11345],[15154,6818],[34974,-2968],[30802,-9699],[23001,-31329],[8390,-2968],[30048,558],[28116,-5348]],[[294094,948245],[-14353,-37795],[-4949,-20573],[-1084,-21395]],[[273708,868482],[14400,-34885],[3464,-14371],[-2734,-10845],[-7400,-11609]],[[281438,796772],[-22035,-9287]],[[259403,787485],[-49868,5496],[-30849,-1058],[-45909,-7083],[-45013,-13225]],[[87764,771615],[-26796,-1029]],[[60968,770586],[1438,27391],[2050,1881],[10817,-1910],[10818,4496],[-3583,10081],[7872,5525],[6057,15136],[4666,6495],[14164,4849],[1909,-7994],[4784,-1029],[8649,19280],[-142,9492],[-2945,6466],[-13269,16840],[-5043,13519],[-2074,15371],[9003,22776],[1861,10081],[-5679,16399],[-7047,4702],[731,8788]],[[206259,237965],[-1720,1264],[919,5231],[-1885,176],[-755,6701],[-11948,8993],[448,2616],[-1909,176],[1155,6524],[-3818,324],[-1202,4114],[-1909,147],[6622,4761],[3818,-323],[-542,8023],[-5255,3086],[-18854,2910],[683,3938],[-1909,147],[448,2645],[-1909,147],[-1013,5407],[-1909,147],[1131,6554],[-1909,147],[684,3938],[-7212,3262],[1367,7847],[-5750,471],[-13528,11755],[1909,-147],[683,3909],[8343,3321],[448,2616],[-1909,147],[1131,6554],[5751,-471],[6763,12167]],[[161717,367189],[17228,15518],[8131,5760],[14682,2675],[30543,23129],[259,6377],[-4643,9875],[4455,2498]],[[232372,433021],[41501,-2263]],[[273873,430758],[24534,-21424]],[[298407,409334],[10110,-19074]],[[308517,390260],[-33984,-55105]],[[274533,335155],[-21069,-17340],[-17581,-18985],[-10087,-21836],[-377,-11785],[1909,-9640]],[[227328,255569],[-21069,-17604]],[[875235,34914],[-5326,7936],[-3512,5613]],[[866397,48463],[-1390,8934],[-3842,7847],[684,8494],[-6929,14665],[-2286,13548]],[[852634,101951],[5703,10140],[849,13372]],[[859186,125463],[-4219,6847],[-12255,9464],[-2380,5731],[2380,19926],[-4831,6201],[-20833,7994],[-896,6348],[5091,11520],[8554,10433],[3913,21866],[10086,17369],[33301,9463]],[[877097,258625],[612,-3820],[49185,-8082],[8555,-15136],[-10818,-9081],[22295,-10933],[14352,2058],[25995,-1999],[12726,-8053],[-17935,-1910],[-1343,-14695],[14235,-4790],[2097,-5143],[-17440,-11785],[1839,-15106],[13480,-14401],[-5538,-10698],[-28116,-12990],[-1532,-12108],[8320,-6289],[-7518,-13079],[15884,-25656],[-778,-9816],[-14776,-3175],[-5067,-3497],[-11477,4320],[-21800,-7435],[-22766,7494],[-15483,-3468],[-9050,-4438]],[[814337,454681],[-2073,-13754],[-3158,-7994],[-7566,-9081],[-3841,-8876],[2121,-7523],[7141,-8700],[10275,-6788],[13457,-3968],[29082,10845],[11218,-3938],[-9074,-1940],[-2898,-16870],[-7377,-6318],[-4548,-9405],[-849,-7141],[-9615,-735],[-5892,-6877],[-13763,5731]],[[816977,351349],[-10817,-3233],[-11760,-6495],[-13716,-4144]],[[780684,337477],[-8320,-7524],[-4124,-7847],[636,-20161],[-5821,-5731]],[[763055,296214],[-38273,-9140]],[[724782,287074],[-29364,8406],[-10794,88],[-20527,-5114],[-14541,-7465],[-25876,4027],[-27220,-1940],[-11878,2674],[-3794,8788],[-5327,5319],[-12655,5672]],[[562806,307529],[11218,1323]],[[733243,61571],[-5255,235],[1296,3850],[-2710,2380],[-10747,-2322],[-3865,5614],[-9498,323],[-5962,7553],[-4619,1587],[-19443,1205],[-943,-1587],[2522,-2351],[-6599,-4026],[566,-2557],[-1886,-1734],[-5726,-1000],[-9168,6789],[-4619,-117],[-4596,4144],[-16968,6230],[-3559,-1557],[896,-3145],[-2451,-1675],[-10228,3233],[-10818,-3762],[-1225,-10463],[-13410,-16664],[-9285,1352],[-1249,5496],[-26867,-5378],[-16261,-6260],[-118,-6319],[-20739,-9287],[-11713,10933],[-11618,3762],[-2428,3145],[3040,4232],[-1154,4202],[8390,14342],[-2428,5908],[4360,5877],[-4878,5937],[5632,3350],[12679,2440],[-1296,1851],[-7306,4938],[-6881,29],[4972,4526],[-2121,3056],[-17274,823],[-12632,6201],[-19514,-1469]],[[447539,115441],[12373,10933]],[[459912,126374],[13480,-206],[14518,5966],[1932,23335],[11336,13431],[27950,6995],[8909,11109]],[[538037,187004],[17534,9404]],[[555571,196408],[40182,-9434],[48948,-18045]],[[644701,168929],[15861,-3467],[12773,-2234]],[[673335,163228],[33678,5878]],[[707013,169106],[10252,-5231],[1013,-4879],[-5821,-13166],[-25547,-11580],[-4289,-4144],[-1556,-5202]],[[681065,124904],[5939,-13577]],[[687004,111327],[6057,-6496],[27126,-20014]],[[720187,84817],[8861,-9845]],[[729048,74972],[3606,-5907],[589,-7494]],[[544966,386146],[-37496,-31006]],[[507470,355140],[-18523,6319],[-11855,-236],[-31368,-10345]],[[445724,350878],[-29576,-1851]],[[416148,349027],[13975,10345],[1555,11050],[-10275,23188],[7188,19015]],[[428591,412625],[-1437,7612],[-3253,7083]],[[423901,427320],[-6999,5701],[-25358,11756],[-6552,5349]],[[384992,450126],[2805,7347]],[[387797,457473],[48006,25246],[43764,19455]],[[479567,502174],[22554,-793]],[[502121,501381],[30637,-8112]],[[517816,300505],[21376,8170]],[[539192,308675],[23614,-1146]],[[724782,287074],[-5726,-2116]],[[719056,284958],[-15201,-19338],[-3606,-7377]],[[700249,258243],[-1602,-14547],[4737,-5849],[20362,-14312],[5915,-7524],[3252,-22365],[-8932,-11109],[-16968,-13431]],[[673335,163228],[-28634,5701]],[[644701,168929],[-59884,21073]],[[584817,190002],[-4359,10021]],[[580458,200023],[3487,36149]],[[583945,236172],[-2309,9816],[-6033,7142],[-12349,7376],[-34385,13284],[-26324,14842]],[[507470,355140],[-19961,-19368]],[[487509,335772],[-13433,-21836],[-17581,-21043]],[[456495,292893],[-10040,-7200],[-29129,-7759],[-11029,-6377],[-6434,-8406]],[[399863,263151],[-4124,-1616],[-30213,-6965]],[[365526,254570],[-17511,-9052],[-45343,10257],[-44471,-5232],[-30873,5026]],[[274533,335155],[26112,42703]],[[300645,377858],[11760,-2175],[11690,-5555],[16167,-14724],[6292,-19720],[10935,-5261],[9498,206],[19961,10845],[24109,7935]],[[411057,349409],[34667,1469]],[[233503,498971],[-6481,470],[23,2645],[1249,1940],[5067,-412],[1603,-1557],[-1461,-3086]],[[273873,430758],[-13244,-470],[-59484,6231]],[[201145,436519],[-16850,6730],[-4337,19250],[-754,18486],[-3276,7935],[-7635,8493],[4124,3733],[1555,14841],[-13315,10051]],[[160657,526038],[17369,7730],[21022,4114]],[[199048,537882],[10699,5907],[7636,24452],[6339,3116],[17746,147]],[[241468,571504],[21282,6524]],[[262750,578028],[12066,-6348],[3888,-5202],[236,-6260],[-2144,-5261],[21728,-1528],[9781,3409],[17133,647],[3983,4085]],[[329421,561570],[10864,-13166],[14023,-5849],[15106,-3115],[16639,-11932],[36104,-5819],[9899,-8376],[30048,-11374]],[[462104,501939],[17463,235]],[[387797,457473],[-46946,-6906],[-66978,-19809]],[[76805,551019],[7047,12373],[12372,15283]],[[96224,578675],[15272,13519],[12726,8758]],[[124222,600952],[24439,11814],[7848,6525]],[[156509,619291],[13504,1381],[21540,-6054],[21635,-412],[11666,-5554],[9002,-8053],[25853,-7700],[6882,-6289],[-3841,-8582]],[[262750,578028],[-8343,-3350],[-12939,-3174]],[[199048,537882],[-32358,-8346],[-32499,-19603]],[[134191,509933],[-14140,-558]],[[120051,509375],[2781,-4262],[-11925,3615],[-4714,6995],[-20574,6936],[-3441,2939],[448,2615],[-5208,4379],[-3889,294],[3276,18133]],[[111402,681390],[-13811,17252],[4455,18191]],[[102046,716833],[3605,1441],[8013,-3380],[22648,-18457]],[[136312,696437],[10157,5232],[2805,-706],[2310,-6260],[-1768,-2762],[-11689,-7201],[7329,-9257],[12561,-9346],[16097,-2998],[14823,676]],[[188937,663815],[-10699,-11697]],[[178238,652118],[-7353,-14107],[-14376,-18720]],[[124222,600952],[-27998,-22277]],[[76805,551019],[-3464,-16781],[-9380,735],[-18429,8052],[1084,6554],[6104,852],[4572,3645],[1531,9169],[-5656,1764],[872,5231],[-11760,911],[-8484,-3350],[-10016,-588],[-19348,5437],[-1367,7112],[-3064,2792],[9215,5231],[4972,-499],[6387,4849],[-3771,999],[-306,1705],[3040,705],[-330,3674],[-4878,2351],[1579,3056],[-2051,3997],[3677,2792],[-636,2234],[3158,294],[2757,2703],[-754,1323],[3700,-176],[495,2557],[4265,2586],[3512,-2998],[7235,4614],[1037,-4349],[2333,1645],[4124,-1381],[519,6495],[4454,647],[-4148,2380],[-141,3027],[-3771,-294],[3889,1029],[-4714,2733],[-471,2586],[1579,1000],[-4289,3879],[9874,1558],[-919,3673],[5138,2234],[-2616,735],[-330,1881],[2993,1116],[-1202,1852],[17157,2263],[15083,-1705],[5185,3880],[23,-2175],[5208,-3057],[5185,588],[8296,-264],[9191,8111],[-94,9434],[-8437,7318]],[[567048,771615],[-25783,9463],[-4548,3556],[-3700,13813],[1320,6143],[-19113,8581],[-47299,3263],[-23827,9434],[-34832,3174],[-80481,25950],[-55077,13490]],[[294094,948245],[26348,-4820],[51895,-9229],[26560,1529],[19584,-17957],[29694,-13372],[11737,-7788],[3299,-9787],[-2639,-9875],[4737,-5966],[11359,-5172],[51211,-7700],[4360,-4879],[2168,-9787],[7141,-6994],[20692,-8317],[27126,-1852],[25924,9170],[4972,-25834],[-1037,-11432],[-3912,-7994],[-13951,-7406],[-34314,-11168]],[[564715,741109],[-4384,-15047],[8390,-3733],[21705,-852],[11525,-3821],[17746,-11403]],[[613687,610239],[2051,-31888]],[[517015,497619],[-14894,3762]],[[502121,501381],[-40017,558]],[[329421,561570],[2899,10198],[7753,6554],[35162,2204],[10535,3292],[8390,15899],[8814,4996],[9073,8729],[2970,9228],[4784,6201],[18288,10492],[10299,10345],[4289,9376],[13268,11550],[990,8787],[-18430,23335]],[[448505,702756],[15178,3233]],[[463683,705989],[29930,15047],[51470,12696],[19632,7377]],[[244862,644859],[-8343,1822],[-777,3439],[2663,1440],[8319,-2322],[-1862,-4379]],[[66601,769470],[21163,2145]],[[259403,787485],[14824,5173]],[[274227,792658],[2026,-9346],[7801,-13402],[2168,-17927],[13764,-11432],[3582,-11080],[-1886,-21983],[14306,-12608],[2238,-7465],[19161,-9669],[21658,-4144],[19772,88],[17417,3556],[25476,17193],[14988,6407]],[[436698,700846],[11807,1910]],[[178238,652118],[16073,17075]],[[194311,669193],[-1674,6084],[2145,29],[6245,9934],[-5986,17751],[825,9317],[-12302,12431],[-9380,13078],[-10581,7965],[-13174,14254],[-18854,-2763],[-8437,5790],[-5515,1146],[-24344,-11609],[-19420,-4673],[-4171,2675],[-919,3350],[3323,8552],[-5491,6966]],[[300645,377858],[5963,6965],[1909,5437]],[[308517,390260],[-3936,8699],[-6174,10375]],[[384992,450126],[38909,-22806]],[[423901,427320],[4690,-14695]],[[416148,349027],[-5091,382]],[[583945,236172],[-589,-14048],[-3205,-14019],[307,-8082]],[[584817,190002],[-29246,6406]],[[555571,196408],[-9686,-3703],[-7848,-5701]],[[459912,126374],[2074,13489]],[[461986,139863],[-3276,8229],[-4808,6437]],[[453902,154529],[-16237,13519],[-2758,8288],[1673,17045],[8437,18398],[-3134,11403],[-9992,7553],[-26443,10551],[-19678,17575]],[[385770,258861],[14093,4290]],[[456495,292893],[11383,13314]],[[134191,509933],[26466,16105]],[[201145,436519],[31227,-3498]],[[161717,367189],[-6221,-9022],[-3229,3732],[-13692,-205],[-13127,14342],[-11784,-382],[-2592,-3792],[-5774,471],[-2357,-2469],[-9615,764],[-4949,-6260],[-5539,1763],[1556,21131],[8154,2028],[4525,3615],[1555,9199],[-1720,1440],[1932,-147],[1108,6554],[-5350,3086],[1556,9169],[4313,2322],[2215,13107],[-7754,618],[448,2615],[6481,3468],[3064,6407],[12750,5643],[659,3909],[1956,-147],[1579,9169],[1933,-147],[1367,7847],[1932,-147],[2734,15723],[-1956,177],[684,3909],[-1933,176],[-825,6701],[-5750,5819]],[[447539,115441],[-3370,764],[-1060,4585],[-7471,6289],[-13198,-1616],[-2521,2351],[-7919,764],[-24180,-5555],[-8201,-5143],[-5892,88],[-10747,-4202],[-2498,-5878],[-10817,2498],[-16968,-1910],[-4714,6730],[-895,11609],[-10794,5260],[1249,1411],[-3323,5231],[7707,4585],[-3559,2322],[-8908,-882],[-11431,3762],[-31273,-3556],[-3158,2821],[-4548,59],[-6199,-4849],[2711,-5026],[-2451,-2233],[-6364,2850],[-12302,-1734],[-2710,6642],[-3535,-2292],[-5397,1381],[4690,6789],[-6622,1382],[-2215,3673],[-19962,9346],[5562,3938],[-7777,-2498],[1414,2792],[3771,-323],[1602,9199],[1886,-177],[2757,4879],[-3276,3145],[1885,-177],[920,5261],[1885,-176],[5161,7553],[1886,-177],[1154,6554],[-3558,1646],[471,2615],[-1909,147],[471,2616],[-1909,176],[472,2616],[-3323,2939],[-990,5408],[-3559,1645],[448,2616],[-4996,4408],[1885,-176],[5232,7759]],[[365526,254570],[20244,4291]],[[453902,154529],[8084,-14666]],[[567048,771615],[-12868,-10698],[11619,-9698],[1249,-4320],[-2333,-5790]],[[463683,705989],[-26985,-5143]],[[274227,792658],[7211,4114]],[[729048,74972],[6340,-1910],[17369,4144],[20550,15400],[8013,3350],[8649,-382],[28398,10815],[25759,-2557],[12420,4144]],[[856546,107976],[-3912,-6025]],[[866397,48463],[8838,-13549]],[[875235,34914],[-10252,-4996],[7235,-5819],[-16025,-5819],[-8202,-8082],[142,-1910],[-11218,3997],[-778,-3909],[-13622,-8376],[-11053,2910],[-353,7317],[-5515,7759],[-4713,-441],[-1320,-3291],[-6787,147],[-1792,4261],[-6645,2528],[-1273,2909],[1885,8641],[-4265,6201],[-3488,2821],[-19726,3086],[-3511,2792],[-3041,11374],[-3511,2586],[-14164,-29]],[[762914,216158],[-4996,-2851],[-6081,4938],[1391,4085],[4431,1410],[5137,-1116],[118,-6466]],[[859186,125463],[-2640,-17487]],[[720187,84817],[-19160,12579],[-14023,13931]],[[687004,111327],[-4030,7229],[-1909,6348]],[[700249,258243],[11053,18075],[7754,8640]],[[719056,284958],[18924,6760],[25075,4496]],[[780684,337477],[36293,13872]],[[816977,351349],[13716,-5702],[-5774,-6701],[18335,-1058],[-15201,-10021],[14918,-14195],[8626,-265],[33041,-14489],[-8531,-34562],[990,-5731]],[[60968,770586],[5633,-1116]],[[194311,669193],[-5374,-5378]],[[136312,696437],[-27597,21484],[-6669,-1088]],[[111402,681390],[-14400,-235],[-1296,4085],[-5939,470],[-4030,7024],[4007,8729],[-1933,8258],[-11289,4174],[1626,4261],[3630,852],[3276,4732],[-118,5496],[-4454,4761],[-21211,9757],[-18453,26450],[-2710,21484],[4171,5114],[-683,1528],[13999,13019],[1013,7377],[-943,11726],[-16709,70828],[-6528,37060],[11407,20250],[31509,25539],[21069,13166],[2757,676],[-5302,-7083],[2639,-9698],[9498,-1969]]],"bbox":[27.3175,55.5978,31.5607,59.0004],"transform":{"scale":[0.000004243204243204245,0.0000034026034026034022],"translate":[27.3175,55.5978]}}