{"type":"Topology","objects":{"muni":{"type":"GeometryCollection","geometries":[{"type":"MultiPolygon","arcs":[[[0,1,2,3,4,5,6,7,8],[9]]],"properties":{"GID_2":"RUS.58.1_1","GID_0":"RUS","COUNTRY":"Russia","GID_1":"RUS.58_1","NAME_1":"Rostov","NL_NAME_1":"Ростовскаяобласть","NAME_2":"Aksayskiyrayon","VARNAME_2":"NA","NL_NAME_2":"Аксайскийрайон","TYPE_2":"Raion","ENGTYPE_2":"District","CC_2":"R45000","HASC_2":"RU.RO.AK"}},{"type":"MultiPolygon","arcs":[[[10,11]]],"properties":{"GID_2":"RUS.58.2_1","GID_0":"RUS","COUNTRY":"Russia","GID_1":"RUS.58_1","NAME_1":"Rostov","NL_NAME_1":"Ростовскаяобласть","NAME_2":"Azov","VARNAME_2":"NA","NL_NAME_2":"Азо́в","TYPE_2":"Gorod","ENGTYPE_2":"City","CC_2":"NA","HASC_2":"RU.RO.AG"}},{"type":"MultiPolygon","arcs":[[[12,13,14,15,16],[-11,17]],[[18]]],"properties":{"GID_2":"RUS.58.3_1","GID_0":"RUS","COUNTRY":"Russia","GID_1":"RUS.58_1","NAME_1":"Rostov","NL_NAME_1":"Ростовскаяобласть","NAME_2":"Azovskiyrayon","VARNAME_2":"NA","NL_NAME_2":"Азовскийрайон","TYPE_2":"Raion","ENGTYPE_2":"District","CC_2":"R45000","HASC_2":"RU.RO.AR"}},{"type":"MultiPolygon","arcs":[[[-1,19,20,21,22,23,24,25,26]]],"properties":{"GID_2":"RUS.58.4_1","GID_0":"RUS","COUNTRY":"Russia","GID_1":"RUS.58_1","NAME_1":"Rostov","NL_NAME_1":"Ростовскаяобласть","NAME_2":"Bagaevskiyrayon","VARNAME_2":"NA","NL_NAME_2":"Багаевскийрайон","TYPE_2":"Raion","ENGTYPE_2":"District","CC_2":"R45000","HASC_2":"RU.RO.BA"}},{"type":"MultiPolygon","arcs":[[[-10]]],"properties":{"GID_2":"RUS.58.5_1","GID_0":"RUS","COUNTRY":"Russia","GID_1":"RUS.58_1","NAME_1":"Rostov","NL_NAME_1":"Ростовскаяобласть","NAME_2":"Bataysk","VARNAME_2":"NA","NL_NAME_2":"Батайск","TYPE_2":"Gorod","ENGTYPE_2":"City","CC_2":"NA","HASC_2":"RU.RO.BT"}},{"type":"MultiPolygon","arcs":[[[27]]],"properties":{"GID_2":"RUS.58.6_1","GID_0":"RUS","COUNTRY":"Russia","GID_1":"RUS.58_1","NAME_1":"Rostov","NL_NAME_1":"Ростовскаяобласть","NAME_2":"BelayaKalitva","VARNAME_2":"NA","NL_NAME_2":"БелаяКалитва","TYPE_2":"Gorsovet","ENGTYPE_2":"District","CC_2":"NA","HASC_2":"RU.RO.BG"}},{"type":"MultiPolygon","arcs":[[[28,29,30,31,32,33,34,35],[-28]]],"properties":{"GID_2":"RUS.58.7_1","GID_0":"RUS","COUNTRY":"Russia","GID_1":"RUS.58_1","NAME_1":"Rostov","NL_NAME_1":"Ростовскаяобласть","NAME_2":"Belokalitvinskiyrayon","VARNAME_2":"NA","NL_NAME_2":"Белокалитвинскийрайон","TYPE_2":"Raion","ENGTYPE_2":"District","CC_2":"R45000","HASC_2":"RU.RO.BR"}},{"type":"MultiPolygon","arcs":[[[36,37,38,39,40,41,42,43,44,45]]],"properties":{"GID_2":"RUS.58.8_1","GID_0":"RUS","COUNTRY":"Russia","GID_1":"RUS.58_1","NAME_1":"Rostov","NL_NAME_1":"Ростовскаяобласть","NAME_2":"Bokovskiyrayon","VARNAME_2":"NA","NL_NAME_2":"Боковскийрайон","TYPE_2":"Raion","ENGTYPE_2":"District","CC_2":"R45000","HASC_2":"RU.RO.BO"}},{"type":"MultiPolygon","arcs":[[[46,47,48,49,50,51,52]]],"properties":{"GID_2":"RUS.58.9_1","GID_0":"RUS","COUNTRY":"Russia","GID_1":"RUS.58_1","NAME_1":"Rostov","NL_NAME_1":"Ростовскаяобласть","NAME_2":"Chertkovskiyrayon","VARNAME_2":"NA","NL_NAME_2":"Чертковскийрайон","TYPE_2":"Raion","ENGTYPE_2":"District","CC_2":"R45004","HASC_2":"RU.RO.CH"}},{"type":"MultiPolygon","arcs":[[[53,54]]],"properties":{"GID_2":"RUS.58.10_1","GID_0":"RUS","COUNTRY":"Russia","GID_1":"RUS.58_1","NAME_1":"Rostov","NL_NAME_1":"Ростовскаяобласть","NAME_2":"Donetsk","VARNAME_2":"NA","NL_NAME_2":"Донецк","TYPE_2":"Gorsovet","ENGTYPE_2":"District","CC_2":"NA","HASC_2":"RU.RO.DO"}},{"type":"MultiPolygon","arcs":[[[55,56,57,58,59]]],"properties":{"GID_2":"RUS.58.11_1","GID_0":"RUS","COUNTRY":"Russia","GID_1":"RUS.58_1","NAME_1":"Rostov","NL_NAME_1":"Ростовскаяобласть","NAME_2":"Dubovskiyrayon","VARNAME_2":"NA","NL_NAME_2":"Дубовскийрайон","TYPE_2":"Raion","ENGTYPE_2":"District","CC_2":"R45001","HASC_2":"RU.RO.DU"}},{"type":"MultiPolygon","arcs":[[[60,61,62,63,64,65]]],"properties":{"GID_2":"RUS.58.12_1","GID_0":"RUS","COUNTRY":"Russia","GID_1":"RUS.58_1","NAME_1":"Rostov","NL_NAME_1":"Ростовскаяобласть","NAME_2":"Egorlykskiyrayon","VARNAME_2":"NA","NL_NAME_2":"Егорлыкскийрайон","TYPE_2":"Raion","ENGTYPE_2":"District","CC_2":"R45001","HASC_2":"RU.RO.EG"}},{"type":"MultiPolygon","arcs":[[[66]]],"properties":{"GID_2":"RUS.58.13_1","GID_0":"RUS","COUNTRY":"Russia","GID_1":"RUS.58_1","NAME_1":"Rostov","NL_NAME_1":"Ростовскаяобласть","NAME_2":"Gukovo","VARNAME_2":"NA","NL_NAME_2":"Гуково","TYPE_2":"Gorsovet","ENGTYPE_2":"District","CC_2":"NA","HASC_2":"RU.RO.GU"}},{"type":"MultiPolygon","arcs":[[[67,-16,68,-2,-27,69]]],"properties":{"GID_2":"RUS.58.14_1","GID_0":"RUS","COUNTRY":"Russia","GID_1":"RUS.58_1","NAME_1":"Rostov","NL_NAME_1":"Ростовскаяобласть","NAME_2":"Kagal'nitskiyrayon","VARNAME_2":"NA","NL_NAME_2":"Кагальницкийрайон","TYPE_2":"Raion","ENGTYPE_2":"District","CC_2":"R45001","HASC_2":"RU.RO.KA"}},{"type":"MultiPolygon","arcs":[[[70,71,72]]],"properties":{"GID_2":"RUS.58.15_1","GID_0":"RUS","COUNTRY":"Russia","GID_1":"RUS.58_1","NAME_1":"Rostov","NL_NAME_1":"Ростовскаяобласть","NAME_2":"Kamensk-Shakhtinskiy","VARNAME_2":"NA","NL_NAME_2":"Каменск-Шахтинский","TYPE_2":"Gorsovet","ENGTYPE_2":"District","CC_2":"NA","HASC_2":"RU.RO.KG"}},{"type":"MultiPolygon","arcs":[[[-29,73,-73,74,75,76,-54,77,78,79,80]]],"properties":{"GID_2":"RUS.58.16_1","GID_0":"RUS","COUNTRY":"Russia","GID_1":"RUS.58_1","NAME_1":"Rostov","NL_NAME_1":"Ростовскаяобласть","NAME_2":"Kamenskiyrayon","VARNAME_2":"NA","NL_NAME_2":"Каменскийрайон","TYPE_2":"Raion","ENGTYPE_2":"District","CC_2":"R45001","HASC_2":"RU.RO.KR"}},{"type":"MultiPolygon","arcs":[[[81,-39,82,-37,83,84,85,86,87,88,89,90,-49,91,-47,92]]],"properties":{"GID_2":"RUS.58.17_1","GID_0":"RUS","COUNTRY":"Russia","GID_1":"RUS.58_1","NAME_1":"Rostov","NL_NAME_1":"Ростовскаяобласть","NAME_2":"Kasharskiyrayon","VARNAME_2":"NA","NL_NAME_2":"Кашарскийрайон","TYPE_2":"Raion","ENGTYPE_2":"District","CC_2":"R45001","HASC_2":"RU.RO.KH"}},{"type":"MultiPolygon","arcs":[[[93,94,95,96,97,98,99,100,101]]],"properties":{"GID_2":"RUS.58.18_1","GID_0":"RUS","COUNTRY":"Russia","GID_1":"RUS.58_1","NAME_1":"Rostov","NL_NAME_1":"Ростовскаяобласть","NAME_2":"Konstantinovskiyrayon","VARNAME_2":"NA","NL_NAME_2":"Константиновскийрайон","TYPE_2":"Raion","ENGTYPE_2":"District","CC_2":"R45001","HASC_2":"RU.RO.KO"}},{"type":"MultiPolygon","arcs":[[[-36,102,103,104,105,106,107,108,-76,109,-71,-74],[-67],[110]]],"properties":{"GID_2":"RUS.58.19_1","GID_0":"RUS","COUNTRY":"Russia","GID_1":"RUS.58_1","NAME_1":"Rostov","NL_NAME_1":"Ростовскаяобласть","NAME_2":"Krasnosulinskiyrayon","VARNAME_2":"NA","NL_NAME_2":"Красносулинскийрайон","TYPE_2":"Raion","ENGTYPE_2":"District","CC_2":"R45001","HASC_2":"RU.RO.KN"}},{"type":"MultiPolygon","arcs":[[[-105,111]]],"properties":{"GID_2":"RUS.58.20_1","GID_0":"RUS","COUNTRY":"Russia","GID_1":"RUS.58_1","NAME_1":"Rostov","NL_NAME_1":"Ростовскаяобласть","NAME_2":"KrasnyySulin","VARNAME_2":"NA","NL_NAME_2":"КрасныйСулин","TYPE_2":"Gorsovet","ENGTYPE_2":"District","CC_2":"NA","HASC_2":"RU.RO.KS"}},{"type":"MultiPolygon","arcs":[[[112,113,114,115]]],"properties":{"GID_2":"RUS.58.21_1","GID_0":"RUS","COUNTRY":"Russia","GID_1":"RUS.58_1","NAME_1":"Rostov","NL_NAME_1":"Ростовскаяобласть","NAME_2":"Kuybyshevskiyrayon","VARNAME_2":"NA","NL_NAME_2":"Куйбышевскийрайон","TYPE_2":"Raion","ENGTYPE_2":"District","CC_2":"R45002","HASC_2":"RU.RO.KU"}},{"type":"MultiPolygon","arcs":[[[116,117,118,119,120,121,122,123,124]]],"properties":{"GID_2":"RUS.58.22_1","GID_0":"RUS","COUNTRY":"Russia","GID_1":"RUS.58_1","NAME_1":"Rostov","NL_NAME_1":"Ростовскаяобласть","NAME_2":"Martynovskiyrayon","VARNAME_2":"NA","NL_NAME_2":"Мартыновскийрайон","TYPE_2":"Raion","ENGTYPE_2":"District","CC_2":"R45002","HASC_2":"RU.RO.MA"}},{"type":"MultiPolygon","arcs":[[[-113,125,126,127]]],"properties":{"GID_2":"RUS.58.23_1","GID_0":"RUS","COUNTRY":"Russia","GID_1":"RUS.58_1","NAME_1":"Rostov","NL_NAME_1":"Ростовскаяобласть","NAME_2":"Matveevo-Kurganskiyrayon","VARNAME_2":"NA","NL_NAME_2":"Матвеево-Курганскийрайон","TYPE_2":"Raion","ENGTYPE_2":"District","CC_2":"R45002","HASC_2":"RU.RO.MK"}},{"type":"MultiPolygon","arcs":[[[128]]],"properties":{"GID_2":"RUS.58.24_1","GID_0":"RUS","COUNTRY":"Russia","GID_1":"RUS.58_1","NAME_1":"Rostov","NL_NAME_1":"Ростовскаяобласть","NAME_2":"Millerovo","VARNAME_2":"NA","NL_NAME_2":"Миллерово","TYPE_2":"Gorod","ENGTYPE_2":"City","CC_2":"NA","HASC_2":"RU.RO.MG"}},{"type":"MultiPolygon","arcs":[[[-51,129,-90,130,-88,131,132,133],[-129]]],"properties":{"GID_2":"RUS.58.25_1","GID_0":"RUS","COUNTRY":"Russia","GID_1":"RUS.58_1","NAME_1":"Rostov","NL_NAME_1":"Ростовскаяобласть","NAME_2":"Millerovskiyrayon","VARNAME_2":"NA","NL_NAME_2":"Миллеровскийрайон","TYPE_2":"Raion","ENGTYPE_2":"District","CC_2":"R45002","HASC_2":"RU.RO.MR"}},{"type":"MultiPolygon","arcs":[[[-31,-85,134,135,136,137,138,139,140,141]]],"properties":{"GID_2":"RUS.58.26_1","GID_0":"RUS","COUNTRY":"Russia","GID_1":"RUS.58_1","NAME_1":"Rostov","NL_NAME_1":"Ростовскаяобласть","NAME_2":"Milyutinskiyrayon","VARNAME_2":"NA","NL_NAME_2":"Милютинскийрайон","TYPE_2":"Raion","ENGTYPE_2":"District","CC_2":"R45002","HASC_2":"RU.RO.MI"}},{"type":"MultiPolygon","arcs":[[[-97,142,143,144,145,-141,146,147,148]]],"properties":{"GID_2":"RUS.58.27_1","GID_0":"RUS","COUNTRY":"Russia","GID_1":"RUS.58_1","NAME_1":"Rostov","NL_NAME_1":"Ростовскаяобласть","NAME_2":"Morozovskiyrayon","VARNAME_2":"NA","NL_NAME_2":"Морозовскийрайон","TYPE_2":"Raion","ENGTYPE_2":"District","CC_2":"R45002","HASC_2":"RU.RO.MO"}},{"type":"MultiPolygon","arcs":[[[-5,149,150,-14,151,152,153]]],"properties":{"GID_2":"RUS.58.28_1","GID_0":"RUS","COUNTRY":"Russia","GID_1":"RUS.58_1","NAME_1":"Rostov","NL_NAME_1":"Ростовскаяобласть","NAME_2":"Myasnikovskiyrayon","VARNAME_2":"NA","NL_NAME_2":"Мясниковскийрайон","TYPE_2":"Raion","ENGTYPE_2":"District","CC_2":"R45002","HASC_2":"RU.RO.MY"}},{"type":"MultiPolygon","arcs":[[[154]],[[-127,155,156,-153,157],[158,159]]],"properties":{"GID_2":"RUS.58.29_1","GID_0":"RUS","COUNTRY":"Russia","GID_1":"RUS.58_1","NAME_1":"Rostov","NL_NAME_1":"Ростовскаяобласть","NAME_2":"Neklinovskiyrayon","VARNAME_2":"NA","NL_NAME_2":"Неклиновскийрайон","TYPE_2":"Raion","ENGTYPE_2":"District","CC_2":"R45002","HASC_2":"RU.RO.NE"}},{"type":"MultiPolygon","arcs":[[[160]]],"properties":{"GID_2":"RUS.58.30_1","GID_0":"RUS","COUNTRY":"Russia","GID_1":"RUS.58_1","NAME_1":"Rostov","NL_NAME_1":"Ростовскаяобласть","NAME_2":"Novocherkassk","VARNAME_2":"NA","NL_NAME_2":"Новочеркасск","TYPE_2":"Gorsovet","ENGTYPE_2":"District","CC_2":"NA","HASC_2":"RU.RO.NC"}},{"type":"MultiPolygon","arcs":[[[161]]],"properties":{"GID_2":"RUS.58.31_1","GID_0":"RUS","COUNTRY":"Russia","GID_1":"RUS.58_1","NAME_1":"Rostov","NL_NAME_1":"Ростовскаяобласть","NAME_2":"Novoshakhtinsk","VARNAME_2":"NA","NL_NAME_2":"Новошахтинск","TYPE_2":"Gorsovet","ENGTYPE_2":"District","CC_2":"NA","HASC_2":"RU.RO.NS"}},{"type":"MultiPolygon","arcs":[[[-140,162,163,164,-147]]],"properties":{"GID_2":"RUS.58.32_1","GID_0":"RUS","COUNTRY":"Russia","GID_1":"RUS.58_1","NAME_1":"Rostov","NL_NAME_1":"Ростовскаяобласть","NAME_2":"Oblivskiyrayon","VARNAME_2":"NA","NL_NAME_2":"Обливскийрайон","TYPE_2":"Raion","ENGTYPE_2":"District","CC_2":"R45002","HASC_2":"RU.RO.OB"}},{"type":"MultiPolygon","arcs":[[[-9,165,166,-107,167,-103,-35,168,-20],[-161],[-162],[169]]],"properties":{"GID_2":"RUS.58.33_1","GID_0":"RUS","COUNTRY":"Russia","GID_1":"RUS.58_1","NAME_1":"Rostov","NL_NAME_1":"Ростовскаяобласть","NAME_2":"Oktyabr'skiy","VARNAME_2":"NA","NL_NAME_2":"Октябрьскийрайон","TYPE_2":"Raion","ENGTYPE_2":"District","CC_2":"R45002","HASC_2":"RU.RO.OK"}},{"type":"MultiPolygon","arcs":[[[170,171,172,173,-117,174,175,176]]],"properties":{"GID_2":"RUS.58.34_1","GID_0":"RUS","COUNTRY":"Russia","GID_1":"RUS.58_1","NAME_1":"Rostov","NL_NAME_1":"Ростовскаяобласть","NAME_2":"Orlovskiyrayon","VARNAME_2":"NA","NL_NAME_2":"Орловскийрайон","TYPE_2":"Raion","ENGTYPE_2":"District","CC_2":"R45003","HASC_2":"RU.RO.OR"}},{"type":"MultiPolygon","arcs":[[[177,178,179,180]]],"properties":{"GID_2":"RUS.58.35_1","GID_0":"RUS","COUNTRY":"Russia","GID_1":"RUS.58_1","NAME_1":"Rostov","NL_NAME_1":"Ростовскаяобласть","NAME_2":"Peschanokopskiyrayon","VARNAME_2":"NA","NL_NAME_2":"Песчанокопскийрайон","TYPE_2":"Raion","ENGTYPE_2":"District","CC_2":"R45003","HASC_2":"RU.RO.PE"}},{"type":"MultiPolygon","arcs":[[[181,182,183,184,185,186,187,-118,-174,188,-172]]],"properties":{"GID_2":"RUS.58.36_1","GID_0":"RUS","COUNTRY":"Russia","GID_1":"RUS.58_1","NAME_1":"Rostov","NL_NAME_1":"Ростовскаяобласть","NAME_2":"Proletarskiyrayon","VARNAME_2":"NA","NL_NAME_2":"Пролетарскийрайон","TYPE_2":"Raion","ENGTYPE_2":"District","CC_2":"R45003","HASC_2":"RU.RO.PR"}},{"type":"MultiPolygon","arcs":[[[-177,189,190,191,192,193,194,195]]],"properties":{"GID_2":"RUS.58.37_1","GID_0":"RUS","COUNTRY":"Russia","GID_1":"RUS.58_1","NAME_1":"Rostov","NL_NAME_1":"Ростовскаяобласть","NAME_2":"Remontnenskiyrayon","VARNAME_2":"NA","NL_NAME_2":"Ремонтненскийрайон","TYPE_2":"Raion","ENGTYPE_2":"District","CC_2":"R45003","HASC_2":"RU.RO.RE"}},{"type":"MultiPolygon","arcs":[[[-7,196,-154,-157,197,-116,198,199,-108,-167,200]]],"properties":{"GID_2":"RUS.58.38_1","GID_0":"RUS","COUNTRY":"Russia","GID_1":"RUS.58_1","NAME_1":"Rostov","NL_NAME_1":"Ростовскаяобласть","NAME_2":"Rodionovo-Nesvetayskiyrayon","VARNAME_2":"NA","NL_NAME_2":"Родионово-Несветайскийрайон","TYPE_2":"Raion","ENGTYPE_2":"District","CC_2":"R45003","HASC_2":"RU.RO.RN"}},{"type":"MultiPolygon","arcs":[[[-4,201,202,-150]]],"properties":{"GID_2":"RUS.58.39_1","GID_0":"RUS","COUNTRY":"Russia","GID_1":"RUS.58_1","NAME_1":"Rostov","NL_NAME_1":"Ростовскаяобласть","NAME_2":"Rostov-na-Donugorod","VARNAME_2":"Rostov-na-Donu","NL_NAME_2":"Ростов-на-Дону(город)","TYPE_2":"Gorod","ENGTYPE_2":"City","CC_2":"R45000","HASC_2":"RU.RO.RD"}},{"type":"MultiPolygon","arcs":[[[203]]],"properties":{"GID_2":"RUS.58.40_1","GID_0":"RUS","COUNTRY":"Russia","GID_1":"RUS.58_1","NAME_1":"Rostov","NL_NAME_1":"Ростовскаяобласть","NAME_2":"Sal'sk","VARNAME_2":"NA","NL_NAME_2":"Сальск","TYPE_2":"Gorod","ENGTYPE_2":"City","CC_2":"NA","HASC_2":"RU.RO.SG"}},{"type":"MultiPolygon","arcs":[[[-181,204,205,206,207,208,209,-183,210],[-204]]],"properties":{"GID_2":"RUS.58.41_1","GID_0":"RUS","COUNTRY":"Russia","GID_1":"RUS.58_1","NAME_1":"Rostov","NL_NAME_1":"Ростовскаяобласть","NAME_2":"Sal'skiyrayon","VARNAME_2":"NA","NL_NAME_2":"Сальскийрайон","TYPE_2":"Raion","ENGTYPE_2":"District","CC_2":"R45003","HASC_2":"RU.RO.SR"}},{"type":"MultiPolygon","arcs":[[[-24,211,-101,212,-122,213,-120,214,-187,215]]],"properties":{"GID_2":"RUS.58.42_1","GID_0":"RUS","COUNTRY":"Russia","GID_1":"RUS.58_1","NAME_1":"Rostov","NL_NAME_1":"Ростовскаяобласть","NAME_2":"Semikarakorskiyrayon","VARNAME_2":"NA","NL_NAME_2":"Семикаракорскийрайон","TYPE_2":"Raion","ENGTYPE_2":"District","CC_2":"R45003","HASC_2":"RU.RO.SE"}},{"type":"MultiPolygon","arcs":[[[-170]]],"properties":{"GID_2":"RUS.58.43_1","GID_0":"RUS","COUNTRY":"Russia","GID_1":"RUS.58_1","NAME_1":"Rostov","NL_NAME_1":"Ростовскаяобласть","NAME_2":"Shakhty","VARNAME_2":"NA","NL_NAME_2":"Шахты","TYPE_2":"Gorsovet","ENGTYPE_2":"District","CC_2":"NA","HASC_2":"RU.RO.SH"}},{"type":"MultiPolygon","arcs":[[[-42,216,217]]],"properties":{"GID_2":"RUS.58.44_1","GID_0":"RUS","COUNTRY":"Russia","GID_1":"RUS.58_1","NAME_1":"Rostov","NL_NAME_1":"Ростовскаяобласть","NAME_2":"Sholokhovskiyrayon","VARNAME_2":"NA","NL_NAME_2":"Шолоховскийрайон","TYPE_2":"Raion","ENGTYPE_2":"District","CC_2":"R45004","HASC_2":"RU.RO.SK"}},{"type":"MultiPolygon","arcs":[[[-46,218,-44,219,-164,220,-138,221,-136,222]]],"properties":{"GID_2":"RUS.58.45_1","GID_0":"RUS","COUNTRY":"Russia","GID_1":"RUS.58_1","NAME_1":"Rostov","NL_NAME_1":"Ростовскаяобласть","NAME_2":"Sovetskiyrayon","VARNAME_2":"NA","NL_NAME_2":"Советскийрайон","TYPE_2":"Raion","ENGTYPE_2":"District","CC_2":"R45002","HASC_2":"RU.RO.SO"}},{"type":"MultiPolygon","arcs":[[[-159,223]]],"properties":{"GID_2":"RUS.58.46_1","GID_0":"RUS","COUNTRY":"Russia","GID_1":"RUS.58_1","NAME_1":"Rostov","NL_NAME_1":"Ростовскаяобласть","NAME_2":"Taganrog","VARNAME_2":"NA","NL_NAME_2":"Таганрог","TYPE_2":"Gorod","ENGTYPE_2":"City","CC_2":"NA","HASC_2":"RU.RO.TG"}},{"type":"MultiPolygon","arcs":[[[-30,-81,224,-79,225,-133,226,-86]]],"properties":{"GID_2":"RUS.58.47_1","GID_0":"RUS","COUNTRY":"Russia","GID_1":"RUS.58_1","NAME_1":"Rostov","NL_NAME_1":"Ростовскаяобласть","NAME_2":"Tarasovskiyrayon","VARNAME_2":"NA","NL_NAME_2":"Тарасовскийрайон","TYPE_2":"Raion","ENGTYPE_2":"District","CC_2":"R45003","HASC_2":"RU.RO.TR"}},{"type":"MultiPolygon","arcs":[[[-32,-142,-146,227,-144,228,-95]]],"properties":{"GID_2":"RUS.58.48_1","GID_0":"RUS","COUNTRY":"Russia","GID_1":"RUS.58_1","NAME_1":"Rostov","NL_NAME_1":"Ростовскаяобласть","NAME_2":"Tatsinskiyrayon","VARNAME_2":"NA","NL_NAME_2":"Тацинскийрайон","TYPE_2":"Raion","ENGTYPE_2":"District","CC_2":"R45003","HASC_2":"RU.RO.TT"}},{"type":"MultiPolygon","arcs":[[[229,-66,230,231,232,233,234,-206,235,-179]]],"properties":{"GID_2":"RUS.58.49_1","GID_0":"RUS","COUNTRY":"Russia","GID_1":"RUS.58_1","NAME_1":"Rostov","NL_NAME_1":"Ростовскаяобласть","NAME_2":"Tselinskiyrayon","VARNAME_2":"NA","NL_NAME_2":"Целинскийрайон","TYPE_2":"Raion","ENGTYPE_2":"District","CC_2":"R45004","HASC_2":"RU.RO.TS"}},{"type":"MultiPolygon","arcs":[[[-98,-149,236,237,238,239,240,241,242,243]]],"properties":{"GID_2":"RUS.58.50_1","GID_0":"RUS","COUNTRY":"Russia","GID_1":"RUS.58_1","NAME_1":"Rostov","NL_NAME_1":"Ростовскаяобласть","NAME_2":"Tsimlyanskiyrayon","VARNAME_2":"NA","NL_NAME_2":"Цимлянскийрайон","TYPE_2":"Raion","ENGTYPE_2":"District","CC_2":"R45004","HASC_2":"RU.RO.TM"}},{"type":"MultiPolygon","arcs":[[[-23,244,-21,-169,-34,245,-102,-212]]],"properties":{"GID_2":"RUS.58.51_1","GID_0":"RUS","COUNTRY":"Russia","GID_1":"RUS.58_1","NAME_1":"Rostov","NL_NAME_1":"Ростовскаяобласть","NAME_2":"Ust'-Donetskiyrayon","VARNAME_2":"NA","NL_NAME_2":"Усt.-Донецкий","TYPE_2":"Raion","ENGTYPE_2":"District","CC_2":"R45003","HASC_2":"RU.RO.UD"}},{"type":"MultiPolygon","arcs":[[[-41,246,-93,-53,247,-217]]],"properties":{"GID_2":"RUS.58.52_1","GID_0":"RUS","COUNTRY":"Russia","GID_1":"RUS.58_1","NAME_1":"Rostov","NL_NAME_1":"Ростовскаяобласть","NAME_2":"Verkhnedonskoyrayon","VARNAME_2":"NA","NL_NAME_2":"Верхнедонскойрайон","TYPE_2":"Raion","ENGTYPE_2":"District","CC_2":"R45000","HASC_2":"RU.RO.VK"}},{"type":"MultiPolygon","arcs":[[[-25,-216,-186,248,-208,249]]],"properties":{"GID_2":"RUS.58.53_1","GID_0":"RUS","COUNTRY":"Russia","GID_1":"RUS.58_1","NAME_1":"Rostov","NL_NAME_1":"Ростовскаяобласть","NAME_2":"Veselovskiyrayon","VARNAME_2":"NA","NL_NAME_2":"Веселовскийрайон","TYPE_2":"Raion","ENGTYPE_2":"District","CC_2":"R45000","HASC_2":"RU.RO.VS"}},{"type":"MultiPolygon","arcs":[[[250]]],"properties":{"GID_2":"RUS.58.54_1","GID_0":"RUS","COUNTRY":"Russia","GID_1":"RUS.58_1","NAME_1":"Rostov","NL_NAME_1":"Ростовскаяобласть","NAME_2":"Volgodonsk","VARNAME_2":"NA","NL_NAME_2":"Волгодонск","TYPE_2":"Gorsovet","ENGTYPE_2":"District","CC_2":"NA","HASC_2":"RU.RO.VG"}},{"type":"MultiPolygon","arcs":[[[-56,251,252,253,-123,-213,-100,254,255,-242,256,257],[-251]]],"properties":{"GID_2":"RUS.58.55_1","GID_0":"RUS","COUNTRY":"Russia","GID_1":"RUS.58_1","NAME_1":"Rostov","NL_NAME_1":"Ростовскаяобласть","NAME_2":"Volgodonskiyrayon","VARNAME_2":"NA","NL_NAME_2":"Волгодонскийрайон","TYPE_2":"Raion","ENGTYPE_2":"District","CC_2":"R45000","HASC_2":"RU.RO.VR"}},{"type":"MultiPolygon","arcs":[[[-57,-258,258,-240,259,-238,260]]],"properties":{"GID_2":"RUS.58.56_1","GID_0":"RUS","COUNTRY":"Russia","GID_1":"RUS.58_1","NAME_1":"Rostov","NL_NAME_1":"Ростовскаяобласть","NAME_2":"Waterbody","VARNAME_2":"NA","NL_NAME_2":"NA","TYPE_2":"Waterbody","ENGTYPE_2":"Waterbody","CC_2":"NA","HASC_2":"NA"}},{"type":"MultiPolygon","arcs":[[[-195,261,262,-59,263]]],"properties":{"GID_2":"RUS.58.57_1","GID_0":"RUS","COUNTRY":"Russia","GID_1":"RUS.58_1","NAME_1":"Rostov","NL_NAME_1":"Ростовскаяобласть","NAME_2":"Zavetinskiyrayon","VARNAME_2":"NA","NL_NAME_2":"Заветинскийрайон","TYPE_2":"Raion","ENGTYPE_2":"District","CC_2":"R45001","HASC_2":"RU.RO.ZA"}},{"type":"MultiPolygon","arcs":[[[264,-70,-26,-250,-207,265,-234,266,-232,267,-64,268,-62]]],"properties":{"GID_2":"RUS.58.58_1","GID_0":"RUS","COUNTRY":"Russia","GID_1":"RUS.58_1","NAME_1":"Rostov","NL_NAME_1":"Ростовскаяобласть","NAME_2":"Zernogradskiyrayon","VARNAME_2":"NA","NL_NAME_2":"Зерноградскийрайон","TYPE_2":"Raion","ENGTYPE_2":"District","CC_2":"R45001","HASC_2":"RU.RO.ZE"}},{"type":"MultiPolygon","arcs":[[[-60,-263,269,-193,270,-191,271,-175,-125,272,273,-252]]],"properties":{"GID_2":"RUS.58.59_1","GID_0":"RUS","COUNTRY":"Russia","GID_1":"RUS.58_1","NAME_1":"Rostov","NL_NAME_1":"Ростовскаяобласть","NAME_2":"Zimovnikovskiyrayon","VARNAME_2":"NA","NL_NAME_2":"Зимовниковскийрайон","TYPE_2":"Raion","ENGTYPE_2":"District","CC_2":"R45001","HASC_2":"RU.RO.ZI"}},{"type":"MultiPolygon","arcs":[[[-111]]],"properties":{"GID_2":"RUS.58.60_1","GID_0":"RUS","COUNTRY":"Russia","GID_1":"RUS.58_1","NAME_1":"Rostov","NL_NAME_1":"Ростовскаяобласть","NAME_2":"Zverevo","VARNAME_2":"NA","NL_NAME_2":"Зверево","TYPE_2":"Gorsovet","ENGTYPE_2":"District","CC_2":"NA","HASC_2":"RU.RO.ZV"}}]}},"arcs":[[[289926,322840],[2306,-33250],[-633,-9399]],[[291599,280191],[-7356,-7249],[-18964,-874],[-5764,-10816],[-14094,13177],[-10181,13319],[-3068,732]],[[232172,288480],[5407,2315]],[[237579,290795],[1169,22694],[-1998,6872],[-5764,6730]],[[230986,327091],[-65,4534],[7794,7297],[325,4369],[-2338,4227],[-6284,4534],[-341,3046]],[[230077,355098],[30672,-3495]],[[260749,351603],[3344,3472],[-958,4911],[-4595,7463],[-1851,7509],[7453,7014]],[[264142,381972],[292,-3094]],[[264434,378878],[22229,-30132],[2711,-12918],[552,-12988]],[[261966,266707],[1251,1819],[-6333,24158],[-6348,6116],[-7859,-5502],[4822,-14453],[10652,-14948],[3815,2810]],[[209148,270840],[-5294,-16672],[-12340,2243],[455,11076]],[[191969,267487],[17179,3353]],[[168702,308270],[4156,283],[5797,-1653]],[[178655,306900],[9969,-12091]],[[188624,294809],[32507,-11571]],[[221131,283238],[3750,-4133],[-1136,-9092],[3377,-3731],[14954,-3778],[3053,-4770],[-98,-3897],[-10180,-9068],[1997,-3991],[12389,-6447],[2760,-6376],[-130,-9729],[-2565,-5361],[568,-7604]],[[249870,205261],[-5748,1275],[-43758,2881],[-5326,3307],[227,3211],[-7030,2716],[-7859,-3141],[-5780,-7014],[-13315,-3542],[-4611,-4062],[-1478,-5738],[877,-4534],[-1104,-4936],[-9807,-6824],[-6543,-8596],[-9808,-1346],[-24079,4156],[-6982,-10698],[-4221,-2692],[-1689,6707],[1672,8903],[8265,12421],[-65,12870],[6073,5078],[178,2715],[-14678,3708],[-5001,-3684],[-14824,-638],[-2517,9517],[7713,-330],[20880,8265],[9645,14027],[5813,-1771],[28106,19742],[130,-2361],[1851,-1181],[11918,1842],[8021,-3731],[8573,330],[2517,9305],[-2793,-331],[130,2503],[-536,-2834],[-5277,6164],[-3150,590],[5180,921],[-6365,-260],[6121,3425],[-5082,5242],[1851,4062],[-2923,-1181],[2614,6305],[-1266,921],[812,1630],[-3248,850],[2014,4274],[-2696,591],[1949,10225],[5261,3755]],[[209148,270840],[-4352,-850],[-12827,-2503]],[[162272,293699],[990,-401],[-2354,-2173],[1364,2574]],[[289926,322840],[11236,1393],[7778,-3589],[21968,11477],[15604,4581],[6365,4487],[1835,4841]],[[354712,346030],[5017,1181],[4140,4699]],[[363869,351910],[5878,756],[8005,-1441]],[[377752,351225],[7534,2716]],[[385286,353941],[4514,-4227],[958,-7344],[12518,-6660]],[[403276,335710],[-10749,-8501],[-13801,425],[-4092,-2669],[-1282,-6990],[-3767,-5053],[-11805,-5573],[-1948,-4841],[19939,-28929],[4660,-10933],[1753,-10722],[-5812,-11429]],[[376372,240495],[-7047,3282],[-33,9399],[-3344,5809],[-27278,15846],[-8184,-827],[-5082,-4250],[-10846,3802]],[[314558,273556],[-22764,1110],[-195,5525]],[[411102,524748],[5683,-16956],[-10472,3732],[-244,8123],[5033,5101]],[[381616,537240],[10717,13248],[535,8147],[-3393,12304],[11577,6329],[3637,4699],[1721,5620],[13087,11784],[4562,6801],[1348,11666]],[[425407,617838],[3686,-6494],[4579,-4274],[3280,1842],[4546,8784],[13785,-708],[11236,11264],[5163,9635],[9775,-6754],[11853,17003]],[[493310,648136],[6592,-4014],[4222,-7935],[130,-7486],[-3361,-5833]],[[500893,622868],[-10441,-9776],[-2906,-9753],[-18559,-11690],[-16204,-59108],[2938,-4888],[8785,-4416],[-4595,-8384],[2549,-3188],[7193,1157],[-504,-19600],[6852,-4227]],[[476001,488995],[-45853,-22529],[-5845,-4369]],[[424303,462097],[-1429,-8973],[-3653,-4747],[-26450,15421],[-4839,-4511]],[[387932,459287],[-6819,402]],[[381113,459689],[584,18467],[-3296,26094],[-698,21301],[3913,11689]],[[604744,733032],[-7112,7155],[-10408,4133],[-7323,-472],[-10619,5478],[-14418,11524],[-13574,5739],[-5163,5360],[-5472,2456],[-10700,-2857]],[[519955,771548],[-5521,3896],[-5488,6117]],[[508946,781561],[-6657,3872],[-617,2858],[10456,6541],[-1136,4015],[-7355,6116]],[[503637,804963],[-9889,13012]],[[493748,817975],[812,2999],[5521,4510],[2338,6825],[7193,2598],[3133,3518],[-64,3637]],[[512681,842062],[6722,-5620],[10375,-1653],[23284,3022],[3815,-944],[2144,-4676],[-4206,-2054],[504,-3991],[9352,-8100],[6251,1440],[13071,-2597],[3621,-2338],[9093,-13791],[5991,-3732],[3816,3850],[2727,5903],[585,6235],[9271,11949],[9937,1086]],[[629034,826051],[-2370,-11335],[7875,-25150],[-7096,-11170],[2955,-11760],[-1526,-9045],[2598,-2219],[7550,-756],[7989,4629],[11852,2479]],[[658861,761724],[-2062,-9777],[-11317,-10201],[-1331,-3920],[6673,-9942],[-6300,-9493]],[[644524,718391],[-14840,1062],[-11464,1653]],[[618220,721106],[-9271,3613],[-4205,8313]],[[491102,806097],[-1916,-5314],[-7762,-11618],[-4854,-331]],[[476570,788834],[-9434,6234],[-5082,9895]],[[462054,804963],[-4076,2527],[-4546,-1134],[-4790,-5620],[-4449,-15491]],[[444193,785245],[-14645,-18538]],[[429548,766707],[-3362,-520],[-12356,5999],[-21465,2644],[-13282,10178],[-2614,7982],[-2419,-47],[-7096,-6163],[-2127,-3684],[-974,-6069],[-5456,-5762],[-5066,-3991],[-12405,-4039],[-3555,-9304],[-3865,-378],[-6722,6660],[-5634,2645],[-5407,-1488],[-7745,11736]],[[307998,773106],[4839,3377],[7875,638],[811,2834],[-3685,9517],[1087,4770],[-4286,19813],[179,13838],[8784,11548],[-1608,13130],[12129,14547],[43531,-10769],[13818,3424],[13655,9328]],[[405127,869101],[13136,-17097],[15928,-4156],[2209,-11572],[10570,-3235],[4140,-2857],[2825,-5786],[6690,-1889],[17065,-9352],[8914,-6824],[4498,-236]],[[278236,568601],[28999,-8997],[990,-3495],[-18705,-7911]],[[289520,548198],[-3426,9871],[-9579,-4062],[-12519,5620],[-633,1889],[14873,7085]],[[667824,364568],[-10489,5431],[439,7274],[-1121,3920]],[[656653,381193],[18770,5384],[487,5502],[3686,3708],[6771,2101],[18283,-10390],[2809,-142],[-3004,9659],[1591,3235],[8151,4463],[12973,16507],[9953,6234]],[[737123,427454],[31711,-55093],[8443,-10627],[11983,2149],[2647,7722],[2809,2810],[12112,165],[6706,-1983],[2907,-4180],[-6122,-7273],[-389,-3850],[4416,-8714],[4936,-4416],[7274,-2007],[6592,614],[24437,5148]],[[857585,347919],[-2111,-26874],[8038,-1464],[-228,-3188],[-6283,-11500],[1298,-13437],[6252,-31786],[1672,-14877],[-438,-15657],[-2436,-3684],[-4010,-1181],[-9678,-9186],[-6478,-7769],[-552,-10438]],[[842631,196878],[-12064,-2314],[-11058,3872],[2274,3165],[-1624,1299],[-24437,-402],[-4059,4440],[8979,18963],[-2630,5195],[6689,1488],[13997,-1464],[1932,29802],[-2062,15373],[2922,4794],[-5715,13720],[-32766,1063],[990,-9116],[-3637,-4628],[-35104,7769],[-13184,18585],[-10912,4416],[-2808,3566],[2987,5455],[-3182,4841],[-30396,6825],[-8005,3731],[-2013,4298],[438,4345],[-1510,4038],[5423,4629],[699,2385],[-14971,7557]],[[395320,81637],[-10424,1511],[-18867,-5431],[-17358,4062],[-14434,-95],[-4482,7486],[-10407,11099],[-244,4558],[5927,7793],[-1186,6824]],[[323845,119444],[16286,7817],[1948,5101],[-2728,11382],[-649,6967],[1380,14428],[-1494,4298],[-11025,1748],[18283,21726],[15864,-307],[519,-8336],[19679,-189],[4563,-2740]],[[386471,181339],[1234,-15963]],[[387705,165376],[3069,-1606],[12567,1275]],[[403341,165045],[2858,-3424]],[[406199,161621],[2679,-17900],[-4368,-3613],[-4351,-11005],[-4563,-1181],[-7842,-14405],[8751,-7462],[-1185,-24418]],[[286387,488900],[-16497,-70],[8313,16176],[19095,-9989],[-10911,-6117]],[[292135,186818],[422,2503],[-16107,12115],[-8963,3353],[-17617,472]],[[221131,283238],[11041,5242]],[[314558,273556],[2013,-6046],[12145,-11807],[4904,-7321],[-4725,-8171],[-11577,1157],[-6479,-6942],[-178,-1701],[7225,-9091],[-10294,-4346],[-2484,-7887],[-33,-7675],[5261,-16176],[-18201,-732]],[[330925,532352],[-5667,-3660]],[[325258,528692],[-11886,16294]],[[313372,544986],[9840,16129],[23105,-8100],[-4514,-13626],[-10878,-7037]],[[381616,537240],[-11106,-4817],[-13460,-2149],[-14484,-1086],[-11641,3164]],[[313372,544986],[9548,-13083]],[[322920,531903],[-6836,-1393],[-18948,-11619],[-11107,-2503],[-12859,1889]],[[273170,518277],[617,4960],[4806,2999],[1153,11099],[7972,-1087],[3264,3968],[-260,6305],[-1202,1677]],[[278236,568601],[1299,2361],[-845,3944],[-2857,-1063],[-1770,1701],[893,3141],[-3800,7981],[244,2811],[-3864,2928]],[[267536,592405],[17519,22765],[10408,-1016],[1965,3377],[11284,-1110]],[[308712,616421],[5489,5573],[1786,3401]],[[315987,625395],[-2063,3023],[-5195,2715],[1461,5573],[3946,5125],[4562,-945],[8654,7321],[4417,-1488],[-5780,-10083],[4562,-1819],[8427,3070],[20150,1228],[16513,-1865],[5472,-3944],[-4189,-4463],[10537,-7345],[4287,5621],[13704,-9989],[13460,16058],[11918,-2999],[-3734,-3897],[-1689,-8454]],[[497645,813205],[5992,-8242]],[[508946,781561],[11009,-10013]],[[604744,733032],[-5050,-15279],[-1835,-2739]],[[597859,715014],[-2435,921],[-1413,5903],[-1672,1748],[-10376,4440],[-7793,-3826],[-12016,-12280],[-5439,-2692],[-12925,2669],[-5958,-2055],[-13997,-16294],[-30525,-45412]],[[493310,648136],[-7745,638],[-9223,4345],[-4075,7816],[-22959,-708],[-1721,3070]],[[447587,663297],[763,4841],[10099,23686]],[[458449,691824],[-1396,2810],[-24485,15751],[-423,4109],[7648,18821]],[[439793,733315],[-5017,8124],[1964,5880]],[[436740,747319],[10165,1771],[2533,3708],[-4092,4274],[97,3944],[3849,6305],[-179,2739],[-10716,7085]],[[438397,777145],[5796,8100]],[[462054,804963],[8037,-12965],[6479,-3164]],[[491102,806097],[5001,3282],[1542,3826]],[[455299,478227],[20702,10768]],[[476001,488995],[5683,236],[-146,-7084],[6300,-6636],[-6901,-10910],[2988,-6683],[-1559,-10391],[17942,3377],[11561,16105],[2906,1323],[3621,-1653],[3881,11571],[5910,2362],[3539,8761]],[[531726,489373],[4920,6824]],[[536646,496197],[1949,-30486],[4221,-4180],[11740,2125],[4400,-2574],[1364,-5219]],[[560320,455863],[-6690,-26401],[2793,-6754],[14581,-5951],[3978,-4629],[860,-18042]],[[575842,394086],[-10473,4275]],[[565369,398361],[-8459,0],[-8021,-3070],[-4189,-4865],[-7583,-1251],[-27976,4061],[-8930,-1369],[-1933,-3920],[-4497,-945]],[[493781,387002],[-13867,1039],[-15425,6707],[-14045,-2740],[-11300,543],[-5683,4322]],[[433461,396873],[6105,4676],[2792,5833],[569,5714],[4644,3566],[5991,-1936],[6219,6659],[1331,5668],[-9677,10556],[-3280,7202],[5829,5786],[3085,7462],[-3036,13437],[1266,6731]],[[381113,459689],[-14126,-7982],[-12551,7226],[-7242,-1464],[-5131,-3070],[-5017,-7179],[-34309,-28787]],[[302737,418433],[-2240,284],[6153,4983]],[[306650,423700],[-7534,24134],[16302,1960],[-1834,16365],[-24697,-330],[-1542,-24796],[4790,283],[763,-2574],[-1429,-12893],[6040,70],[2176,-7108]],[[299685,418811],[-3670,425]],[[296015,419236],[-12551,11052],[-6154,-614],[-4140,-4062],[-5050,-1983],[-19728,1606]],[[248392,425235],[-3685,8029],[-1040,10130]],[[243667,443394],[3150,-2267],[3004,1110],[98,1394],[-1462,94],[325,2692],[3004,1228],[568,5101],[6186,3212],[-925,8076],[1315,142],[-503,6541],[4351,4416],[828,6659],[-941,2527],[-5066,2456],[-2209,5479],[14841,2125],[325,2669],[-5131,-591],[-2290,2433],[4060,1723],[-634,5172],[6138,8572],[471,3920]],[[322920,531903],[2338,-3211]],[[308469,484390],[552,3023],[-2728,-1039],[-65,-1653],[2241,-331]],[[306650,423700],[-6965,-4889]],[[139784,392457],[-2257,5833],[-4644,6281],[-16042,8053],[779,5597],[-15035,3377],[-7112,-3991],[-4027,4652]],[[91446,422259],[893,15279],[5570,2220],[1948,9375],[-747,1865],[3053,-1582],[2760,874],[1526,3920],[3020,-2172],[22683,-355],[5066,-992],[8005,-5266],[5082,3519],[9775,-520],[2533,3495],[4173,567],[9320,-1299]],[[176106,451187],[3880,-5242],[3491,-7439]],[[183477,438506],[-5423,-9044],[3994,-1937],[-860,-5431],[-18803,-10958],[-6218,-6753],[-2663,897],[-2241,4912],[-7258,1771],[-2305,-4841],[-1916,-14665]],[[592793,288787],[666,-4298],[-3393,-3306],[-7810,8407],[-24323,-6730]],[[557933,282860],[-3572,-6919],[-14646,6990],[-23706,-5054],[-22017,13036],[-4709,-2480],[-3751,-4747],[-1526,-6281],[-4660,-1984],[-6154,10296],[-23592,17239]],[[449600,302956],[3410,7628]],[[453010,310584],[4465,2243],[3312,-1605],[3053,2833],[3166,7368],[-11203,10627]],[[455803,332050],[341,2975],[5130,8880],[2745,10083],[2679,4416]],[[466698,358404],[4627,709],[31565,-6920]],[[502890,352193],[2857,-4274],[3849,-2243],[21822,-3708],[28593,2810],[9499,-5053],[2792,2054],[3102,8738],[5179,283],[6187,-7132],[2776,-17097],[6089,-3920]],[[595635,322651],[32084,1299]],[[627719,323950],[-97,-4676],[-4530,-7297],[-13136,-1629],[-8248,1700],[-5050,-11335],[-3686,189],[-179,-12115]],[[139784,392457],[14045,-8714]],[[153829,383743],[-10327,-6943],[-7940,-1653],[-4173,-5762],[-15084,-1913],[-3734,-5856],[-40301,1629],[-15571,-17971],[-20377,2315],[-21173,-355]],[[15149,347234],[-4416,23025],[4043,10863],[6868,3023],[-114,5762],[2371,1818],[15441,-354],[-1510,6565],[25476,307],[2825,3707],[5098,2196],[601,7486],[15117,-3140],[4497,13767]],[[356741,708378],[13996,-20333],[-31272,6093],[-5829,8785],[23105,5455]],[[429548,766707],[8849,10438]],[[436740,747319],[-1915,-4298],[4968,-9706]],[[458449,691824],[-5878,-15279],[-2857,-4015]],[[449714,672530],[-7875,6754],[-10505,5715],[-6950,-1464],[-6689,-4558],[-11480,-13082],[-5991,-213],[-17325,9635],[-6641,-1275],[-4092,-5125],[-4514,-2550],[-15311,4038],[-13590,7037],[-2777,7014],[-9287,3589],[-30769,-5880]],[[295918,682165],[4660,3495],[3409,5219],[-2971,5597],[98,2692],[-9418,-567],[-3604,-7934],[-7583,2101],[-1315,2905],[-4352,3212],[-6381,-3519],[-3020,307],[-1299,2905],[-1510,141],[-341,-4109],[-1624,-1204],[-2679,4416],[-1510,142],[1624,1228],[-5829,3306],[-1283,2881],[3248,2432],[-1283,2881],[-4319,3094],[227,2715],[-1526,142],[114,1346],[-4579,331],[113,1369],[-2938,1535],[-4823,-2408],[-1331,1487],[1851,5243],[-1364,1464],[1591,1228],[-1266,2810],[3328,2527],[10440,-3377],[4693,1039],[5050,5125],[10684,519],[8881,-2196],[1624,1252],[357,4109],[-1364,1511],[8784,14429],[4660,2314],[260,2739],[1624,1417],[6917,1653],[7355,8997]],[[597859,715014],[942,1393]],[[598801,716407],[4043,-4723]],[[602844,711684],[341,-16176]],[[603185,695508],[-2841,-11383],[3003,-5644],[7307,-2526],[2777,-7321],[-12470,-7155],[-1056,-3141],[666,-3684]],[[600571,654654],[10879,-5125],[2386,-3849]],[[613836,645680],[-2175,-16176],[1023,-11453]],[[612684,618051],[-37930,-13059],[-24761,4770],[-11431,-1700]],[[538562,608062],[-10814,9186],[-13103,7108],[-10310,-10225],[-3751,1298],[309,7439]],[[536646,496197],[7388,12989]],[[544034,509186],[1867,7934],[-6154,18137]],[[539747,535257],[-7030,9753]],[[532717,545010],[-17796,5903],[-276,3826],[3264,4440],[13752,8052],[1965,5125],[-211,12185],[5553,2999],[1007,10249],[-1413,10273]],[[612684,618051],[3068,-2527],[5927,-14523],[4043,-4723],[14353,-3283]],[[640075,592995],[-13216,-10556],[-764,-6990],[2517,-7675],[7826,-13318],[-178,-4015],[-14906,-4510],[-2971,-3684],[8102,-17428],[-6933,-10981],[-4043,-3708],[698,-15845],[3978,-3472]],[[620185,490813],[-12567,-7934],[-1884,-5172],[4953,-5195],[-1754,-6258],[-2793,-3802],[-519,-16247],[-25606,-3023],[-3426,5195],[-14224,1441],[-2045,6045]],[[230986,327091],[-18055,-9706],[-18332,-19482],[-2240,-4818]],[[192359,293085],[-3735,1724]],[[178655,306900],[-9953,1370]],[[168702,308270],[-293,10768],[-2338,3283],[-9385,5856],[-4562,6045],[3231,18302],[6527,2362],[3523,4109],[-4254,6683],[17975,6447]],[[179126,372125],[7322,-5692],[22424,10958],[2874,-1512],[-910,-4014],[-5455,-6282],[1932,-3920],[22764,-6565]],[[41924,280782],[503,-402],[-942,189],[439,213]],[[153829,383743],[14678,-8501]],[[168507,375242],[10619,-3117]],[[168702,308270],[-1251,-1842],[-2127,-284],[536,1464],[-1348,591],[910,1039],[-2939,-591],[-130,2362],[-4368,3684],[-18234,708],[-7891,-5762],[-7664,2220],[-5959,-1181],[-2971,-6565],[1218,-6281],[2533,-1913],[-552,-1299],[-11090,-661],[-3296,-5384],[-5992,1440],[-31126,-9517],[-11496,284],[-1217,-3684],[1396,-1771],[2614,1251],[-1169,-2031],[-10733,3070],[-4432,3873],[3523,921],[-49,5975],[3475,3542],[-1753,1039],[81,-2102],[-2663,520],[-5537,-6541],[1494,-2102],[1299,661],[-991,-2172],[-4059,1700],[-8703,-3472],[-14077,780],[-12308,-4464],[1591,8573],[-1347,8430],[1591,8572],[7193,1961],[617,2692],[6527,1157],[357,8289],[-1753,2999],[-15036,496],[-1396,2408],[4563,13012],[7436,1819],[1884,13932],[1266,-2881]],[[99889,299107],[12324,7368],[2127,8832],[-14174,11925],[-6073,-4061]],[[94093,323171],[2403,-18680],[3393,-5384]],[[312106,349431],[-2760,-22576],[-15003,11004],[422,20711],[-1932,4203],[7063,5975],[8264,-4204],[3946,-15113]],[[277505,427738],[10863,-15657],[10164,708],[779,-2574],[-11382,-3400],[7388,-11973],[5098,-1370],[98,-5171],[-26012,4227],[-1380,13791],[-14029,10745],[18413,10674]],[[613836,645680],[-3361,4274]],[[610475,649954],[128792,41870]],[[739267,691824],[4530,-6140],[-942,-7297],[-2858,-6730],[-10911,-12469],[-5228,-10461],[308,-6022],[2874,-5975],[309,-6045],[-6609,-8100],[-8621,-6329],[-30802,-8927],[-22082,-2692],[-9726,-7651],[-9434,-3991]],[[264434,378878],[-990,8667]],[[263444,387545],[1364,6919],[5423,3944],[243,4652],[-10651,6022],[-3052,4888],[-7291,3897],[-1088,7368]],[[296015,419236],[6722,-803]],[[387932,459287],[3410,-6730],[-65,-5904],[-2630,-9517],[2224,-17852],[-11268,-6872],[-5310,-20309],[-5715,-2952],[-3832,-10745],[-13054,1299],[-6852,-4322],[-3053,-10697],[-357,-8147],[10976,-3684],[2306,-6825]],[[338897,397794],[4871,12563],[18900,5904],[763,3400],[-26953,1606],[-13250,3542],[-3215,-921],[-2468,-6446],[-828,-11147],[11058,-14735],[11122,6234]],[[773803,104756],[-8135,708],[-8313,-2503],[-22943,-10768],[-17877,4841],[-12535,7722],[-17633,18160]],[[686367,122916],[2354,7675]],[[688721,130591],[-1007,4699],[-3182,5880]],[[684532,141170],[-10716,9517],[-1413,5951],[-18559,10391],[-3328,4817],[-8590,1653],[-1672,3353],[3329,1181],[162,3235],[-12243,3094],[-21579,-3306],[-11577,94],[-31418,32872],[-97,4747],[9661,15680],[162,4416],[-2549,14665],[-5066,14476],[-6316,11194],[-4790,3660]],[[592793,288787],[9661,-10083],[23024,-8761],[3524,-2763],[2598,-5644],[4124,-969],[3069,11572],[-1998,6588],[14727,2385],[10717,-19010],[-5943,-3565],[-601,-4842],[5212,-5407],[14159,-31148],[-844,-5290],[-6771,-5526],[17211,-12540],[12275,4983],[5082,-4274],[6462,-9470],[7128,968],[6008,-2125],[13931,-11217],[1819,-2976],[-1640,-4982],[13525,-3047],[1738,-1936],[-1527,-4676],[14013,-4180],[-796,-4652]],[[762680,146200],[19403,-11477]],[[782083,134723],[130,-17616],[-8410,-12351]],[[558387,47726],[10489,-18136],[2063,-6589],[-2923,-9352],[-41453,1913],[-8200,-8879],[-2435,-6683],[-27327,4156],[-8248,3519],[-9401,15019],[-2062,8950],[-4011,5975],[-17763,12020],[-2874,7108],[3101,13980],[-438,5715],[-4287,3849]],[[442618,80291],[1218,5549],[6576,2999],[4920,5975],[6251,-614],[3702,5266]],[[465285,99466],[-1461,17617]],[[463824,117083],[10294,-708],[5244,-6636],[7242,-803],[5991,-5314],[15328,-4274],[-860,-2574],[4384,-3849],[28479,4983],[2955,-3236],[-9969,-11099],[1932,-10130],[-13737,-11477],[2696,-4086],[4497,-2220],[24534,-2149],[5553,-5785]],[[686367,122916],[-31159,15326],[-41420,15491]],[[613788,153733],[-22099,2362],[-28512,7250],[-17665,6258],[-11269,7273],[-7972,7321],[-6722,8997],[-1250,7368],[-4660,11996]],[[513639,212558],[-34325,44680]],[[479314,257238],[-32539,15775]],[[446775,273013],[-17325,5030],[-5001,5289],[3118,5668],[130,5172]],[[427697,294172],[4838,-4511],[15360,8360]],[[447895,298021],[1705,4935]],[[684532,141170],[4189,-10579]],[[782083,134723],[-5390,4393]],[[776693,139116],[6413,28031],[7015,-803],[32,-5880],[3491,-2197],[6544,119]],[[800188,158386],[2240,-3708],[780,-3896]],[[803208,150782],[-8249,-4251],[471,-3117],[4384,-3047],[11918,591],[2030,-5196],[6608,-2172],[3053,5904],[4968,-2149],[2176,5738],[-2306,19128],[2225,9753],[3507,5762]],[[833993,177726],[779,4605]],[[834772,182331],[9028,-5974],[9531,2455],[12551,8573],[25719,-1890],[8103,992],[8297,-1912],[3945,-4960],[17552,-4746]],[[929498,174869],[-1721,-8147],[-15376,-18916],[9515,-5738],[9368,-1087],[-5861,-12067],[-1153,-6707],[1072,-7060],[10927,-21773],[-3556,-6188],[-17357,-9233],[747,11807],[-1494,5408],[-11528,9541],[-1997,-9399],[-7291,-13602],[-2614,-15940],[-4773,-9730],[-6300,-7745],[-11220,-3377],[-10619,141],[-13866,2527],[-13233,5715],[-40041,38469],[-17324,12988]],[[260749,351603],[-4125,-94],[-26547,3589]],[[168507,375242],[-28723,17215]],[[183477,438506],[-7371,12681]],[[176106,451187],[4936,2999],[4936,426],[7517,-7888],[7534,4204],[10895,-7699],[16302,2645],[15441,-2480]],[[263444,387545],[698,-5573]],[[237579,290795],[-16448,-7557]],[[221131,283238],[-9629,4605],[-19143,5242]],[[551292,121877],[-5748,-12658],[-12925,5526],[10311,13413],[8362,-6281]],[[463824,117083],[-910,5738]],[[462914,122821],[1575,17853],[6154,3401],[3540,20356],[2305,2503],[4985,-307],[7550,10839],[2290,19837],[-2046,6730],[-4741,4204],[-9580,-189],[-5017,4628],[-487,10155],[-2046,2574]],[[467396,225405],[-1770,13248]],[[465626,238653],[5991,3424],[1705,8147],[-32,10485]],[[473290,260709],[6024,-3471]],[[479314,257238],[8443,-10037],[5878,-9989],[20004,-24654]],[[613788,153733],[15246,-6588],[-3832,-3826],[7486,-18939],[14743,-18916],[4254,-9091],[-2761,-4180],[-5163,-3424],[-9693,873],[-9954,4062],[-6023,-1984],[-9678,-6517],[-990,-9423],[4384,-5903],[-1445,-6306],[-5375,-5218],[-11073,-7179],[-8005,2149],[-8054,7981],[-6040,-118],[-7452,-4935],[-5976,-8525]],[[385286,353941],[1575,16932],[8492,4652],[5942,6872],[6804,17664],[17503,-5219],[7859,2031]],[[493781,387002],[7388,-4015],[3068,-9753],[-3036,-5974],[1689,-15067]],[[466698,358404],[-10895,-26354]],[[453010,310584],[-5115,-12563]],[[427697,294172],[2386,6139],[8833,5881],[812,4345],[-3426,2526],[-15035,1512],[-4108,3849],[-4254,11808],[-9629,5478]],[[512681,842062],[-2501,6565],[-503,10155],[2598,9446],[13769,9327],[9969,37855],[9482,2999],[-1981,4534],[7096,17192],[-2468,4888],[-5001,3094],[2614,3164],[6056,2078],[6057,-4203]],[[557868,949156],[1477,-7958],[13607,-3495],[13054,-7345],[13039,2480],[5553,-3896],[3296,-6754],[38010,-28078],[3978,-10297],[-1120,-8383],[-9028,-14145],[-1055,-8950],[-7323,-14122],[-2322,-12162]],[[618220,721106],[26304,-2715]],[[658861,761724],[8233,-1346],[7030,-2621],[11756,-10178],[1461,-4700],[-3588,-4982],[-893,-9635],[4595,-3968],[11869,3543],[8248,-213],[13639,-7226],[7258,-6329],[7453,-9965],[373,-8431],[2972,-3849]],[[610475,649954],[-9904,4700]],[[603185,695508],[617,8855],[-958,7321]],[[598801,716407],[5943,16625]],[[99889,299107],[-4270,6825],[-1526,17239]],[[315987,625395],[-7275,-8974]],[[267536,592405],[-3280,2645],[-698,4888],[162,1653],[3329,1535],[113,3188],[-3199,12044],[-10781,5266],[-15425,-520],[-3686,6494],[-1493,24],[1834,3991],[3215,2243],[228,2692],[3101,851],[-942,6990],[3118,897],[-1283,2928],[1624,1157],[-2891,1772],[325,4038],[3004,-402],[341,4062],[1737,2527],[-1282,2904],[6137,614],[-1283,2905],[3134,1015],[796,9565],[1510,-166],[341,4086],[5829,-3401],[7599,-803],[13411,-6919],[4660,-401],[9077,9398]],[[449714,672530],[-2127,-9233]],[[532717,545010],[3637,-3495],[3393,-6258]],[[544034,509186],[-12308,-19813]],[[442618,80291],[-23235,-11501],[-7095,-47],[-11252,7486],[-942,4227],[-4774,1181]],[[406199,161621],[-6641,8076],[-3069,8053],[3053,6706]],[[399542,184456],[5244,1087],[2484,-3259]],[[407270,182284],[3426,2692],[10928,15421]],[[421624,200397],[-5115,6824],[-5829,1889],[1234,8998],[23414,6258],[6186,-4416],[5927,-1559]],[[447441,218391],[19955,7014]],[[462914,122821],[2371,-23355]],[[620185,490813],[19030,-2810],[35867,331],[14191,-4676],[7177,-3684],[16188,-18207],[19419,-10414],[3686,-7746],[-13947,-661]],[[721796,442946],[-14727,-4015],[-6641,1441],[-5699,4581]],[[694729,444953],[-5537,13437],[-3946,5597],[-974,2739]],[[684272,466726],[1543,12162],[-5034,2054],[-3880,-992],[-2144,-7155],[-2175,-1252],[-6073,5432],[-2728,-260],[7583,-15680],[731,-5384],[-1429,-4865],[-2306,-3755],[-5228,-1889],[-4335,2220],[-7908,-142],[-114,-4156],[4936,-5951],[33,-3731],[-4855,-756],[-4985,2267],[-1916,-1535],[5716,-7982],[925,-4628],[-3296,-6235],[-7160,-6258],[-8817,-4156]],[[631356,404099],[2046,-13035]],[[633402,391064],[-12048,-3047]],[[621354,388017],[-17114,685],[-17292,1464]],[[586948,390166],[-11106,3920]],[[377752,351225],[-13883,685]],[[424303,462097],[17585,11336],[13411,4794]],[[493748,817975],[3897,-4770]],[[405127,869101],[19663,3920],[9515,5337],[13330,2055],[4742,4676],[1542,8170],[4514,11265],[6868,11052],[6284,17380],[13298,15586],[4189,3046],[10554,3141],[11366,9611],[7794,12233],[-2355,8053],[1267,10390],[4692,4983],[6138,-1488],[6559,-4864],[3362,-8667],[893,-10769],[24858,-11854],[1186,-3920],[-7518,-9281]],[[446775,273013],[26515,-12304]],[[465626,238653],[-38059,7438],[-5083,3519],[-3961,6848],[-14354,1960],[-1347,5975],[-5342,921],[-4271,-6069],[-389,-5101],[4838,-3944],[2890,-4817],[-2273,-3944],[-21903,-944]],[[636747,367213],[-3556,354],[-1088,3164],[3637,1819],[2517,-2811],[-1510,-2526]],[[667824,364568],[-1770,-11241],[-6381,472],[-8833,-7391],[-10651,1086],[-4611,-6258],[7014,-3235]],[[642592,338001],[-6884,-12185]],[[635708,325816],[-36322,-3377],[-3751,212]],[[565369,398361],[21579,-8195]],[[586948,390166],[34406,-2149]],[[633402,391064],[3621,-16956]],[[637023,374108],[4335,-4062],[15295,11147]],[[637023,374108],[-5602,25150],[-65,4841]],[[684272,466726],[10457,-21773]],[[721796,442946],[12356,708],[2971,-16200]],[[834772,182331],[1056,6258]],[[835828,188589],[6803,8289]],[[857585,347919],[11544,7722],[3897,-1582],[21125,4298],[10765,-15657],[3036,-10957],[-292,-8596],[1656,-2692],[13428,-6565],[8232,-331],[1201,4440],[-795,7840],[1737,6329],[4222,7179],[6235,5101],[21806,6022],[519,20497],[5229,3661],[7631,1842],[5683,-4275],[-4384,-9091],[10928,-1630],[4335,-3164],[3052,-6187],[-308,-10249],[1932,-12965],[-3751,-40759],[-2581,-14736],[-8444,-18986],[-1558,-10155],[2695,-13862],[-2517,-7627],[-10651,-10816],[-7794,-6069],[-5618,2102],[-4286,-1488],[-8492,-11949],[-15003,-13461],[-2501,-6234]],[[323845,119444],[-8443,7510],[-97,7887],[-15848,7250],[-10635,709],[-7469,7202],[-48,6258],[4205,7604],[6625,22954]],[[467396,225405],[-11317,-4700],[-8638,-2314]],[[421624,200397],[-1494,-3543],[-12860,-14570]],[[399542,184456],[-2890,-8879],[6689,-10532]],[[387705,165376],[-260,13129],[-974,2834]],[[835828,188589],[-1835,-10863]],[[803208,150782],[-3020,7604]],[[776693,139116],[-14013,7084]],[[627719,323950],[7989,1866]],[[635708,325816],[6332,10981],[552,1204]]],"bbox":[38.2244,45.9523,44.3832,50.1869],"transform":{"scale":[0.0000061588061588061584,0.000004234604234604235],"translate":[38.2244,45.9523]}}