{"type":"Topology","objects":{"muni":{"type":"GeometryCollection","geometries":[{"type":"MultiPolygon","arcs":[[[0,1,2,3,4,5]]],"properties":{"GID_2":"RUS.59.1_1","GID_0":"RUS","COUNTRY":"Russia","GID_1":"RUS.59_1","NAME_1":"Ryazan'","NL_NAME_1":"Рязанскаяобласть","NAME_2":"Chuchkovskiyrayon","VARNAME_2":"NA","NL_NAME_2":"Чучковскийрайон","TYPE_2":"Raion","ENGTYPE_2":"District","CC_2":"R16002","HASC_2":"RU.RZ.CH"}},{"type":"MultiPolygon","arcs":[[[6,7,8,9],[10]]],"properties":{"GID_2":"RUS.59.2_1","GID_0":"RUS","COUNTRY":"Russia","GID_1":"RUS.59_1","NAME_1":"Ryazan'","NL_NAME_1":"Рязанскаяобласть","NAME_2":"Ermishevskiyrayon","VARNAME_2":"NA","NL_NAME_2":"Ермишевскийрайон","TYPE_2":"Raion","ENGTYPE_2":"District","CC_2":"R16000","HASC_2":"RU.RZ.ER"}},{"type":"MultiPolygon","arcs":[[[11,12,13,-7]]],"properties":{"GID_2":"RUS.59.3_1","GID_0":"RUS","COUNTRY":"Russia","GID_1":"RUS.59_1","NAME_1":"Ryazan'","NL_NAME_1":"Рязанскаяобласть","NAME_2":"Kadomskiyrayon","VARNAME_2":"NA","NL_NAME_2":"Кадомскийрайон","TYPE_2":"Raion","ENGTYPE_2":"District","CC_2":"R16000","HASC_2":"RU.RZ.KA"}},{"type":"MultiPolygon","arcs":[[[14]]],"properties":{"GID_2":"RUS.59.4_1","GID_0":"RUS","COUNTRY":"Russia","GID_1":"RUS.59_1","NAME_1":"Ryazan'","NL_NAME_1":"Рязанскаяобласть","NAME_2":"Kasimov","VARNAME_2":"NA","NL_NAME_2":"Касимов","TYPE_2":"Gorod","ENGTYPE_2":"City","CC_2":"NA","HASC_2":"RU.RZ.KG"}},{"type":"MultiPolygon","arcs":[[[-9,15,16,17,18,19],[-15]]],"properties":{"GID_2":"RUS.59.5_1","GID_0":"RUS","COUNTRY":"Russia","GID_1":"RUS.59_1","NAME_1":"Ryazan'","NL_NAME_1":"Рязанскаяобласть","NAME_2":"Kasimovskiyrayon","VARNAME_2":"NA","NL_NAME_2":"Касимовскийрайон","TYPE_2":"Raion","ENGTYPE_2":"District","CC_2":"R16000","HASC_2":"RU.RZ.KR"}},{"type":"MultiPolygon","arcs":[[[20,-19,21,22,23]]],"properties":{"GID_2":"RUS.59.6_1","GID_0":"RUS","COUNTRY":"Russia","GID_1":"RUS.59_1","NAME_1":"Ryazan'","NL_NAME_1":"Рязанскаяобласть","NAME_2":"Klepikovskiyrayon","VARNAME_2":"NA","NL_NAME_2":"Клепиковскийрайон","TYPE_2":"Raion","ENGTYPE_2":"District","CC_2":"R16000","HASC_2":"RU.RZ.KL"}},{"type":"MultiPolygon","arcs":[[[24,25,26,27,28,29,30]]],"properties":{"GID_2":"RUS.59.7_1","GID_0":"RUS","COUNTRY":"Russia","GID_1":"RUS.59_1","NAME_1":"Ryazan'","NL_NAME_1":"Рязанскаяобласть","NAME_2":"Korablinskiyrayon","VARNAME_2":"NA","NL_NAME_2":"Кораблинскийрайон","TYPE_2":"Raion","ENGTYPE_2":"District","CC_2":"R16000","HASC_2":"RU.RZ.KO"}},{"type":"MultiPolygon","arcs":[[[31,32,33,34,35]],[[36]],[[37]]],"properties":{"GID_2":"RUS.59.8_1","GID_0":"RUS","COUNTRY":"Russia","GID_1":"RUS.59_1","NAME_1":"Ryazan'","NL_NAME_1":"Рязанскаяобласть","NAME_2":"Mikhaylovskiyrayon","VARNAME_2":"NA","NL_NAME_2":"Михайловскийрайон","TYPE_2":"Raion","ENGTYPE_2":"District","CC_2":"R16000","HASC_2":"RU.RZ.MK"}},{"type":"MultiPolygon","arcs":[[[38,39,40]]],"properties":{"GID_2":"RUS.59.9_1","GID_0":"RUS","COUNTRY":"Russia","GID_1":"RUS.59_1","NAME_1":"Ryazan'","NL_NAME_1":"Рязанскаяобласть","NAME_2":"Miloslavskiyrayon","VARNAME_2":"NA","NL_NAME_2":"Милославскийрайон","TYPE_2":"Raion","ENGTYPE_2":"District","CC_2":"R16000","HASC_2":"RU.RZ.ML"}},{"type":"MultiPolygon","arcs":[[[41,42,43]]],"properties":{"GID_2":"RUS.59.10_1","GID_0":"RUS","COUNTRY":"Russia","GID_1":"RUS.59_1","NAME_1":"Ryazan'","NL_NAME_1":"Рязанскаяобласть","NAME_2":"Novoderevenskiyrayon","VARNAME_2":"NA","NL_NAME_2":"Новодеревенскийрайон","TYPE_2":"Raion","ENGTYPE_2":"District","CC_2":"R16000","HASC_2":"RU.RZ.NO"}},{"type":"MultiPolygon","arcs":[[[44,-3,45,-16,-8,-14,46]]],"properties":{"GID_2":"RUS.59.11_1","GID_0":"RUS","COUNTRY":"Russia","GID_1":"RUS.59_1","NAME_1":"Ryazan'","NL_NAME_1":"Рязанскаяобласть","NAME_2":"Pitelinskiyrayon","VARNAME_2":"NA","NL_NAME_2":"Пителинскийрайон","TYPE_2":"Raion","ENGTYPE_2":"District","CC_2":"R16001","HASC_2":"RU.RZ.PI"}},{"type":"MultiPolygon","arcs":[[[-26,47,48,49,-33,50,51,52]]],"properties":{"GID_2":"RUS.59.12_1","GID_0":"RUS","COUNTRY":"Russia","GID_1":"RUS.59_1","NAME_1":"Ryazan'","NL_NAME_1":"Рязанскаяобласть","NAME_2":"Pronskiyrayon","VARNAME_2":"NA","NL_NAME_2":"Пронскийрайон","TYPE_2":"Raion","ENGTYPE_2":"District","CC_2":"R16001","HASC_2":"RU.RZ.PR"}},{"type":"MultiPolygon","arcs":[[[-1,53,54,55,56,57]]],"properties":{"GID_2":"RUS.59.13_1","GID_0":"RUS","COUNTRY":"Russia","GID_1":"RUS.59_1","NAME_1":"Ryazan'","NL_NAME_1":"Рязанскаяобласть","NAME_2":"Putyatinskiyrayon","VARNAME_2":"NA","NL_NAME_2":"Путятинскийрайон","TYPE_2":"Raion","ENGTYPE_2":"District","CC_2":"R16001","HASC_2":"RU.RZ.PU"}},{"type":"MultiPolygon","arcs":[[[58]]],"properties":{"GID_2":"RUS.59.14_1","GID_0":"RUS","COUNTRY":"Russia","GID_1":"RUS.59_1","NAME_1":"Ryazan'","NL_NAME_1":"Рязанскаяобласть","NAME_2":"Ryazan'","VARNAME_2":"NA","NL_NAME_2":"Рязань","TYPE_2":"Gorsovet","ENGTYPE_2":"District","CC_2":"NA","HASC_2":"RU.RZ.RG"}},{"type":"MultiPolygon","arcs":[[[-23,59,60,-52,61,62],[-59]]],"properties":{"GID_2":"RUS.59.15_1","GID_0":"RUS","COUNTRY":"Russia","GID_1":"RUS.59_1","NAME_1":"Ryazan'","NL_NAME_1":"Рязанскаяобласть","NAME_2":"Ryazanskiyrayon","VARNAME_2":"NA","NL_NAME_2":"Рязанскийрайон","TYPE_2":"Raion","ENGTYPE_2":"District","CC_2":"R16001","HASC_2":"RU.RZ.RR"}},{"type":"MultiPolygon","arcs":[[[63,-41,64,-30,65,-42]]],"properties":{"GID_2":"RUS.59.16_1","GID_0":"RUS","COUNTRY":"Russia","GID_1":"RUS.59_1","NAME_1":"Ryazan'","NL_NAME_1":"Рязанскаяобласть","NAME_2":"Ryazhskiyrayon","VARNAME_2":"NA","NL_NAME_2":"Ряжскийрайон","TYPE_2":"Raion","ENGTYPE_2":"District","CC_2":"R16001","HASC_2":"RU.RZ.RZ"}},{"type":"MultiPolygon","arcs":[[[-24,-63,66,67]]],"properties":{"GID_2":"RUS.59.17_1","GID_0":"RUS","COUNTRY":"Russia","GID_1":"RUS.59_1","NAME_1":"Ryazan'","NL_NAME_1":"Рязанскаяобласть","NAME_2":"Rybnovskiyrayon","VARNAME_2":"NA","NL_NAME_2":"Рыбновскийрайон","TYPE_2":"Raion","ENGTYPE_2":"District","CC_2":"R16001","HASC_2":"RU.RZ.RB"}},{"type":"MultiPolygon","arcs":[[[-28,68,69,-57,70,71,72]]],"properties":{"GID_2":"RUS.59.18_1","GID_0":"RUS","COUNTRY":"Russia","GID_1":"RUS.59_1","NAME_1":"Ryazan'","NL_NAME_1":"Рязанскаяобласть","NAME_2":"Sapozhkovskiyrayon","VARNAME_2":"NA","NL_NAME_2":"Сапожковскийрайон","TYPE_2":"Raion","ENGTYPE_2":"District","CC_2":"R16001","HASC_2":"RU.RZ.SK"}},{"type":"MultiPolygon","arcs":[[[73,-55,74,75,76,-72]]],"properties":{"GID_2":"RUS.59.19_1","GID_0":"RUS","COUNTRY":"Russia","GID_1":"RUS.59_1","NAME_1":"Ryazan'","NL_NAME_1":"Рязанскаяобласть","NAME_2":"Saraevskiyrayon","VARNAME_2":"NA","NL_NAME_2":"Сараевскийрайон","TYPE_2":"Raion","ENGTYPE_2":"District","CC_2":"R16001","HASC_2":"RU.RZ.SA"}},{"type":"MultiPolygon","arcs":[[[77]]],"properties":{"GID_2":"RUS.59.20_1","GID_0":"RUS","COUNTRY":"Russia","GID_1":"RUS.59_1","NAME_1":"Ryazan'","NL_NAME_1":"Рязанскаяобласть","NAME_2":"Sasovo","VARNAME_2":"NA","NL_NAME_2":"Сасово","TYPE_2":"Gorod","ENGTYPE_2":"City","CC_2":"NA","HASC_2":"RU.RZ.SV"}},{"type":"MultiPolygon","arcs":[[[78]]],"properties":{"GID_2":"RUS.59.21_1","GID_0":"RUS","COUNTRY":"Russia","GID_1":"RUS.59_1","NAME_1":"Ryazan'","NL_NAME_1":"Рязанскаяобласть","NAME_2":"Sasovskiy","VARNAME_2":"NA","NL_NAME_2":"NA","TYPE_2":"Gorod","ENGTYPE_2":"City","CC_2":"NA","HASC_2":"RU.RZ.SS"}},{"type":"MultiPolygon","arcs":[[[79,80,-5,81,-47,-13],[-78],[-79]]],"properties":{"GID_2":"RUS.59.22_1","GID_0":"RUS","COUNTRY":"Russia","GID_1":"RUS.59_1","NAME_1":"Ryazan'","NL_NAME_1":"Рязанскаяобласть","NAME_2":"Sasovskiyrayon","VARNAME_2":"NA","NL_NAME_2":"Сасовскийрайон","TYPE_2":"Raion","ENGTYPE_2":"District","CC_2":"R16001","HASC_2":"RU.RZ.SS"}},{"type":"MultiPolygon","arcs":[[[82,-75,-54,-6,-81]]],"properties":{"GID_2":"RUS.59.23_1","GID_0":"RUS","COUNTRY":"Russia","GID_1":"RUS.59_1","NAME_1":"Ryazan'","NL_NAME_1":"Рязанскаяобласть","NAME_2":"Shatskiyrayon","VARNAME_2":"NA","NL_NAME_2":"Шацкийрайон","TYPE_2":"Raion","ENGTYPE_2":"District","CC_2":"R16002","HASC_2":"RU.RZ.ST"}},{"type":"MultiPolygon","arcs":[[[-2,-58,-70,83,84,-17,-46]]],"properties":{"GID_2":"RUS.59.24_1","GID_0":"RUS","COUNTRY":"Russia","GID_1":"RUS.59_1","NAME_1":"Ryazan'","NL_NAME_1":"Рязанскаяобласть","NAME_2":"Shilovskiyrayon","VARNAME_2":"NA","NL_NAME_2":"Шиловскийрайон","TYPE_2":"Raion","ENGTYPE_2":"District","CC_2":"R16002","HASC_2":"RU.RZ.SL"}},{"type":"MultiPolygon","arcs":[[[85]]],"properties":{"GID_2":"RUS.59.25_1","GID_0":"RUS","COUNTRY":"Russia","GID_1":"RUS.59_1","NAME_1":"Ryazan'","NL_NAME_1":"Рязанскаяобласть","NAME_2":"Skopin","VARNAME_2":"NA","NL_NAME_2":"Скопин","TYPE_2":"Gorsovet","ENGTYPE_2":"District","CC_2":"NA","HASC_2":"RU.RZ.SG"}},{"type":"MultiPolygon","arcs":[[[-31,-65,-40,86,-35,87,-49,88],[-86]]],"properties":{"GID_2":"RUS.59.26_1","GID_0":"RUS","COUNTRY":"Russia","GID_1":"RUS.59_1","NAME_1":"Ryazan'","NL_NAME_1":"Рязанскаяобласть","NAME_2":"Skopinskiyrayon","VARNAME_2":"NA","NL_NAME_2":"Скопинскийрайон","TYPE_2":"Raion","ENGTYPE_2":"District","CC_2":"R16001","HASC_2":"RU.RZ.SR"}},{"type":"MultiPolygon","arcs":[[[-18,-85,89,-60,-22]]],"properties":{"GID_2":"RUS.59.27_1","GID_0":"RUS","COUNTRY":"Russia","GID_1":"RUS.59_1","NAME_1":"Ryazan'","NL_NAME_1":"Рязанскаяобласть","NAME_2":"Spasskiyrayon","VARNAME_2":"NA","NL_NAME_2":"Спасскийрайон","TYPE_2":"Raion","ENGTYPE_2":"District","CC_2":"R16002","HASC_2":"RU.RZ.SP"}},{"type":"MultiPolygon","arcs":[[[-27,-53,-61,-90,90]]],"properties":{"GID_2":"RUS.59.28_1","GID_0":"RUS","COUNTRY":"Russia","GID_1":"RUS.59_1","NAME_1":"Ryazan'","NL_NAME_1":"Рязанскаяобласть","NAME_2":"Starozhilovskiyrayon","VARNAME_2":"NA","NL_NAME_2":"Старожиловскийрайон","TYPE_2":"Raion","ENGTYPE_2":"District","CC_2":"R16002","HASC_2":"RU.RZ.SZ"}},{"type":"MultiPolygon","arcs":[[[-29,-73,-77,91,-43,-66]]],"properties":{"GID_2":"RUS.59.29_1","GID_0":"RUS","COUNTRY":"Russia","GID_1":"RUS.59_1","NAME_1":"Ryazan'","NL_NAME_1":"Рязанскаяобласть","NAME_2":"Ukholovskiyrayon","VARNAME_2":"NA","NL_NAME_2":"Ухоловскийрайон","TYPE_2":"Raion","ENGTYPE_2":"District","CC_2":"R16002","HASC_2":"RU.RZ.UK"}},{"type":"MultiPolygon","arcs":[[[-11]]],"properties":{"GID_2":"RUS.59.30_1","GID_0":"RUS","COUNTRY":"Russia","GID_1":"RUS.59_1","NAME_1":"Ryazan'","NL_NAME_1":"Рязанскаяобласть","NAME_2":"Yermishinsk","VARNAME_2":"Yermish","NL_NAME_2":"Ермишинский","TYPE_2":"Gorod","ENGTYPE_2":"City","CC_2":"NA","HASC_2":"NA"}},{"type":"MultiPolygon","arcs":[[[92,-67,-62,-51,-32]]],"properties":{"GID_2":"RUS.59.31_1","GID_0":"RUS","COUNTRY":"Russia","GID_1":"RUS.59_1","NAME_1":"Ryazan'","NL_NAME_1":"Рязанскаяобласть","NAME_2":"Zakharovskiyrayon","VARNAME_2":"NA","NL_NAME_2":"Захаровскийрайон","TYPE_2":"Raion","ENGTYPE_2":"District","CC_2":"R16000","HASC_2":"RU.RZ.ZA"}}]}},"arcs":[[[709740,396248],[-7707,-842],[-9542,4801],[-14205,-8909],[-44113,63112]],[[634173,454410],[435,24948],[12103,8019],[5871,12771],[-2029,16880],[3116,13563],[18312,15147],[5097,35788],[25777,35788]],[[702855,617314],[6788,-27967]],[[709643,589347],[25294,-71775]],[[734937,517572],[21500,8217],[13529,-37076],[-2078,-11682],[-15727,-11780],[580,-21781]],[[752741,443470],[-15896,-14057],[-20510,-11534],[-6595,-21631]],[[929288,690179],[-25221,-25641],[-18746,-9455],[-10074,-2029],[-18916,3316],[-7851,-8464],[-10074,-693],[-5653,-6485],[-10243,-2030]],[[822510,638698],[-8117,9554],[-1305,14949],[11427,32472],[-13142,14603],[-14954,24255],[6982,29452]],[[803401,763983],[-4228,27225],[11403,16187],[18843,16632]],[[829419,824027],[47036,-13564],[33120,25691],[9857,-9454],[12320,12127],[15389,-14553],[-15123,-14652],[6909,-22968],[-8866,-14008],[3213,-16731],[2175,-11435],[-15606,2871],[-13481,-16434],[10968,-11484],[2416,-18860],[9542,-10394]],[[904695,699584],[-1159,8118],[-12297,15889],[-3575,-1534],[7610,-23315],[9421,842]],[[929288,690179],[15872,-17375],[7296,10395],[5146,-17176],[9663,-4505],[11475,10445],[4179,-9801],[-5339,-15543],[4325,-15494],[13673,-6880],[4034,-6931],[-10557,-3761],[-9615,-11781],[5291,-16682],[-5170,-12474],[-15147,10445],[-8793,-34650],[16065,-6782],[10509,-24601],[-3987,-6881],[-19254,4158],[-9880,-4356],[-4059,-24799]],[[945015,485150],[-34280,24749],[-5967,34700],[-14712,26631],[-22202,12969],[-14253,13910],[-18118,7078]],[[835483,605187],[-8842,15840],[-4131,17671]],[[674010,786951],[-7561,-2722],[-9664,2574],[2972,12375],[6619,4207],[3890,-148],[7344,-9109],[-3600,-7177]],[[803401,763983],[-23385,-15296],[2899,-12325],[-7272,-9751],[-12127,-5594],[-11379,-11137],[-1787,-18365],[-10268,-10692],[-16620,18365],[-4131,-5445],[-10606,-56331]],[[708725,637412],[-63246,59004],[-22225,79299],[-10775,3465],[7997,-57420],[-7030,-6633],[-26840,15691]],[[586606,730818],[-70976,16880]],[[515630,747698],[4686,17077],[27372,5396],[7537,8019],[-4180,11731],[-17659,10841],[12490,5197],[11185,12276],[4831,16088],[-4855,11236],[-12538,11534],[33821,5445],[24303,18760],[-2078,17969]],[[600545,899267],[11282,-2475],[-314,24255],[6112,13860],[13070,8118],[14736,-2327],[23651,-20047],[5484,-16682],[15606,-11137],[17176,14008],[9325,-7079],[14688,10396],[13456,-20543],[8262,10494],[21767,-4009],[-3431,-18959],[19109,-25740],[36745,25443],[4324,-10296],[-10799,-6930],[5943,-8811],[-9373,-19701],[4421,-5346],[7634,-1732]],[[307701,870309],[2537,4455],[-2319,2178],[2271,9405],[-6547,2129],[-4566,9701],[-13577,-10543],[-7489,2030],[13504,23561],[508,6683],[3140,5742],[4494,1436],[4082,-3762],[22540,11335],[15461,-2574],[5919,7722],[33410,22127],[6112,20295],[4904,3514],[-3744,6336],[41431,7920],[5025,-11979],[-16403,-6088],[7078,-15841],[19689,842],[15872,24998],[14180,-5000],[-3986,-29056],[14012,-30988],[36382,1485],[7078,14801],[8746,-2376],[2536,-11583],[11113,2227],[6015,29899],[22878,-3317],[3962,-16285],[7948,-7079],[4324,-23908],[4324,-11484]],[[515630,747698],[-25439,841],[-5435,29057],[-4832,7821],[-18336,2821],[-18843,-23067]],[[442745,765171],[-13118,14058],[-33241,-1435],[-20148,20295],[-12732,5890],[-18746,-5940]],[[344760,798039],[-23023,15642],[-3430,25443],[-10606,31185]],[[271150,332145],[37421,-4356]],[[308571,327789],[1594,7227],[-10581,18117],[8456,21681],[10073,10643]],[[318113,385457],[13408,-9604],[7755,8515],[26260,-7129],[15654,16187],[18312,-4109],[13069,7178],[20946,1930]],[[433517,398425],[11209,-33264],[749,-14354],[-18844,-20790],[8915,-20642]],[[435546,309375],[-18844,-36432],[-12779,2920],[-3020,-12622],[-13287,-7375]],[[387616,255866],[-21645,5296],[-45587,-12820]],[[320384,248342],[-30729,-2773],[-5266,42422],[-11161,15147],[-2078,29007]],[[96922,527868],[71484,-46926],[12006,-14949]],[[180412,465993],[170,-25245],[-6958,-27176],[8987,-31581],[-10243,-37520],[10001,-14553]],[[182369,329918],[-10098,-16830]],[[172271,313088],[-18263,11335],[-57545,-17275],[-15437,3217]],[[81026,310365],[-23312,-5495],[-9277,9406],[1715,21829],[-13553,7425],[7030,10494],[-19495,9801],[314,26779],[19496,-296],[8576,24354],[-25294,12226],[266,27819],[-6330,1733],[11790,7276],[1063,7821],[-3552,2178],[4542,30690],[4324,1881],[12877,-7970],[7561,22523],[5339,-297],[4445,-6039],[2126,5693],[8165,-16533],[4760,19651],[12320,4554]],[[18505,457182],[-121,0],[-555,396],[676,-396]],[[1232,470052],[11886,-4257],[3309,-7277],[-16427,11138],[1232,396]],[[282794,132017],[-43557,-32621],[-6788,-45639],[-23772,-1485],[-14180,-8267],[-17032,9604],[-17007,-4406],[-13988,-11385],[-14108,23018],[-580,19701],[-14615,16780],[-387,18909],[-11403,11385],[-16958,-9157],[-11717,8117],[1715,37917]],[[78417,164488],[17998,9604],[14785,22423],[8286,22176],[48292,3911],[4566,-8564],[-2851,-22424],[5001,-12919],[33604,7078],[34183,-8810],[7175,7424],[16452,-20394],[18795,-2821]],[[284703,161172],[-2174,-11137],[265,-18018]],[[329540,70587],[13843,34600],[5194,1634],[8189,-14999],[4784,17870],[12707,9603],[26332,3366],[9204,13761],[39354,10593]],[[449147,147015],[21790,-37274],[40224,-7771]],[[511161,101970],[-3020,-12573],[-18529,-4703],[1207,-25393],[-11909,6089],[-6958,22968],[-16017,-13168],[8625,-11236],[-628,-21830],[-31841,-22176],[-13263,17870],[-8286,-37818],[-12055,7970],[-12103,-2525],[-5073,14801],[-13045,2821],[-1498,10989],[-12103,-3614],[-4397,13464],[-10944,-2970],[-2995,12177],[-16500,14652],[9711,2822]],[[720683,557964],[-11040,31383]],[[702855,617314],[5774,10198],[96,9900]],[[835483,605187],[-7079,-8910],[-7344,-16978],[-10460,-12128],[-14205,-742],[-9446,4702],[-13698,-9504],[-11330,4010],[-13021,-9702],[-15316,19354],[-12901,-17325]],[[308571,327789],[-57931,9900]],[[250640,337689],[-16331,-12226],[-15606,6385],[-13504,17325],[-13964,-4702]],[[191235,344471],[-8866,-14553]],[[180412,465993],[48220,27869],[-14785,29304],[4880,19404],[7489,3910],[11838,-14652],[16065,12227]],[[254119,544055],[3189,-12474],[10339,-4010]],[[267647,527571],[14036,-13365],[-8600,-18018],[-5774,-19305],[4276,-13415],[8069,-10196],[-4542,-15940],[-121,-14354],[31623,-22325],[11499,-15196]],[[709740,396248],[2343,-17227],[-10750,-12869],[-21791,-15940],[-16089,-1633],[-6885,-8613],[918,-13365]],[[657486,326601],[-34135,-8662],[-11210,37273],[-4203,2376]],[[607938,357588],[-33387,-25295]],[[574551,332293],[-3599,4703],[15630,30393],[-1449,7425],[-20994,11236],[-16234,-11830],[-20873,-1139],[-8238,13167],[-10557,-12869],[-15292,23710]],[[492945,397089],[22153,19107],[6330,-4109],[7875,1188],[6789,16385],[18408,4653],[9446,17721],[28506,-2623],[9591,9503],[2923,14207],[8287,1436],[20920,-20147]],[[294535,619295],[-14495,-17325],[-22128,12721],[-29353,26334],[6571,18810],[14519,5495],[42760,-16187],[2126,-29848]],[[442745,765171],[-7851,-22225],[-11162,-15395],[-11740,7326],[-12321,-198],[6378,-25097],[-435,-23363],[-12997,-25542],[-28652,-33660],[19593,-43610],[-43002,-36135],[-21694,-4603],[-11209,-9901]],[[307653,532768],[-22974,14603],[-12973,-2079],[-4059,-17721]],[[254119,544055],[-15679,35244],[-13021,10147],[-19496,-12523],[-11740,11632],[-7755,-6781],[-18336,15444],[4010,25690]],[[172102,622908],[13674,15345],[-3987,5346],[25173,27473],[38774,33907],[15509,31977],[14229,-7227],[42953,53213],[26333,15097]],[[329540,70587],[-4348,17721],[4203,18265],[-12393,3663],[-15654,16880],[-12997,-11583],[-5557,16484]],[[284703,161172],[12127,5742],[27106,25987],[4179,27572],[-11451,10791],[3720,17078]],[[387616,255866],[23192,-27324],[14446,-23563],[23893,-57964]],[[172102,622908],[-15896,11286],[-17466,-23908],[8866,-6584],[5121,-16533],[-23046,-19156],[-38653,52172],[-10751,4208],[-16161,-6781]],[[64116,617612],[-4494,3762],[3527,2326],[-2247,10494],[24134,10296],[4301,-10643],[6232,-3069],[3310,842],[7561,13910],[13746,1732],[5049,5198],[5388,-7574],[2271,6485],[4469,-149],[3261,6930],[5701,-9355],[11669,1386],[5315,17226],[-5581,5049],[1933,4405],[-1015,6287],[8383,7128],[9011,-3168],[6498,2672],[-604,3911],[9036,9950],[-11910,3663],[2802,3811],[145,5346],[6112,4554],[1498,8910],[9156,10296],[-1740,4851],[4324,4653],[-5266,9257],[18191,20394],[-2730,15394],[19858,25097],[15123,247],[1111,3515],[-3140,7573],[5170,-3069],[2053,15444],[9760,-1584],[5701,-9405],[17974,495],[169,7178],[3237,1782],[7948,-7970],[11185,36234]],[[433517,398425],[23409,-24205]],[[456926,374220],[20075,3812],[13553,9850],[2391,9207]],[[574551,332293],[11016,10346]],[[585567,342639],[10751,-18315],[-4228,-15395],[-34087,-29799]],[[558003,279130],[-20438,-2326],[-13480,13563],[-22153,-6138],[-15074,-13761],[-6064,17374],[-32614,34007],[-12634,-12474]],[[585567,342639],[22371,14949]],[[657486,326601],[15727,-10692],[4131,-8267],[5170,-21680],[9180,-11534],[13456,-60044]],[[705150,214384],[-20269,-742],[-11668,-107762],[-16017,-4504],[5725,-20196],[-12779,-8514],[-12224,7920],[-1111,-20840],[-7779,-2029],[1787,-13216],[-15340,2573],[-10340,28859],[-35657,18810],[-14350,-20097],[-7996,4009],[-3092,19157],[-8504,3812],[-1739,13117],[-10123,743]],[[523674,115484],[2537,94594],[31792,69052]],[[799680,514552],[-5411,-11335],[-5677,2475],[-677,6782],[3117,7573],[3527,1089],[5121,-6584]],[[966395,414810],[-3334,-2326],[-2657,8217],[3551,544],[2440,-6435]],[[945015,485150],[-11064,-12623],[-14326,-1832],[-11620,-14602],[-13601,-8761],[-23965,11632],[14229,-39699],[9664,-4603],[26549,14602],[-5991,12771],[14761,11286],[9156,2524],[13238,-24007],[19762,8860],[18384,-6138],[6450,-10048],[3358,-17671],[-3044,-6634],[-28917,8267],[-15993,-11385],[9712,-18315],[-5194,-10048],[-11789,594],[-3890,13018],[-6426,4455],[-18529,-16236],[-7731,5990],[4808,15246],[-10122,7870],[-7393,-14454]],[[895491,385209],[-21645,24453],[-8504,2326],[-7851,-7524],[-34112,-2524],[-7175,13365],[-18360,4653],[-6667,15593],[-12321,8414],[-10412,-19403],[-15703,18908]],[[734937,517572],[-14254,40392]],[[895491,385209],[-4735,-9257],[22516,-22274],[-1015,-10296],[29183,-16979],[7658,-15395],[-12152,-6187],[-17828,-26928],[-11524,-31333],[-13383,2672],[-6233,-11483],[-52882,-3267],[-29835,3563],[-28168,-13117],[-5653,11830],[-15679,-2524],[-3986,-12276],[-20317,545],[-4904,17919],[-8359,-25542],[-13045,-496]],[[456926,374220],[-32493,37521]],[[424433,411741],[15920,23810],[5967,50094],[32251,32373],[20196,841],[8552,24899],[40224,24799],[2125,7227],[10968,-9058],[12466,5296],[9011,104693],[7899,8019],[-3406,46084]],[[253007,235719],[-2440,-3119],[-6281,1931],[-48,5049],[6644,5445],[3502,-6088],[-1377,-3218]],[[78417,164488],[5267,32967],[15557,22424],[-28458,-1139],[-6498,15940],[8914,10345],[-821,7326],[-12756,-1683],[-7610,4455],[11765,10395],[-4276,26086],[21525,18761]],[[172271,313088],[18964,31383]],[[250640,337689],[20510,-5544]],[[424433,411741],[-21960,11534],[-4976,6138],[1208,23314],[-8504,23018],[-20389,22720],[-54428,20641],[-7731,13662]],[[424433,411741],[9084,-13316]],[[523674,115484],[-9083,593],[-3430,-14107]],[[96922,527868],[-1594,17969],[-9035,5395],[-15655,-149],[-6498,6782],[-4083,-644],[-7054,9752],[10726,24305],[-3575,2623],[6450,2128],[-1426,5297],[-10653,-2277],[-870,9207],[8431,5495],[-2681,7276],[4711,-3415]]],"bbox":[38.5963,53.3057,42.7357,55.3259],"transform":{"scale":[0.000004139404139404141,0.0000020202020202020155],"translate":[38.5963,53.3057]}}