{"type":"Topology","objects":{"muni":{"type":"GeometryCollection","geometries":[{"type":"MultiPolygon","arcs":[[[0,1,2,3,4,5]]],"properties":{"GID_2":"RUS.61.1_1","GID_0":"RUS","COUNTRY":"Russia","GID_1":"RUS.61_1","NAME_1":"Sakhalin","NL_NAME_1":"Сахалинскаяобласть","NAME_2":"Aleksandrovsk-Sakhalinskiyrayon","VARNAME_2":"NA","NL_NAME_2":"Александровск-Сахалинскийрайон","TYPE_2":"Raion","ENGTYPE_2":"District","CC_2":"R71000","HASC_2":"RU.SL.AR"}},{"type":"MultiPolygon","arcs":[[[6,7,8,9,10,11,12]]],"properties":{"GID_2":"RUS.61.2_1","GID_0":"RUS","COUNTRY":"Russia","GID_1":"RUS.61_1","NAME_1":"Sakhalin","NL_NAME_1":"Сахалинскаяобласть","NAME_2":"Anivskiyrayon","VARNAME_2":"NA","NL_NAME_2":"Анивскийрайон","TYPE_2":"Raion","ENGTYPE_2":"District","CC_2":"R71000","HASC_2":"RU.SL.AN"}},{"type":"MultiPolygon","arcs":[[[13]]],"properties":{"GID_2":"RUS.61.3_1","GID_0":"RUS","COUNTRY":"Russia","GID_1":"RUS.61_1","NAME_1":"Sakhalin","NL_NAME_1":"Сахалинскаяобласть","NAME_2":"Dolinsk","VARNAME_2":"NA","NL_NAME_2":"Долинск","TYPE_2":"Gorod","ENGTYPE_2":"City","CC_2":"NA","HASC_2":"RU.SL.DG"}},{"type":"MultiPolygon","arcs":[[[-8,14,15,16,17,18,19],[-14]]],"properties":{"GID_2":"RUS.61.4_1","GID_0":"RUS","COUNTRY":"Russia","GID_1":"RUS.61_1","NAME_1":"Sakhalin","NL_NAME_1":"Сахалинскаяобласть","NAME_2":"Dolinskiyrayon","VARNAME_2":"NA","NL_NAME_2":"Долинскийрайон","TYPE_2":"Raion","ENGTYPE_2":"District","CC_2":"R71000","HASC_2":"RU.SL.DR"}},{"type":"MultiPolygon","arcs":[[[20]]],"properties":{"GID_2":"RUS.61.5_1","GID_0":"RUS","COUNTRY":"Russia","GID_1":"RUS.61_1","NAME_1":"Sakhalin","NL_NAME_1":"Сахалинскаяобласть","NAME_2":"Kholmsk","VARNAME_2":"NA","NL_NAME_2":"Холмск","TYPE_2":"Gorod","ENGTYPE_2":"City","CC_2":"NA","HASC_2":"RU.SL.KG"}},{"type":"MultiPolygon","arcs":[[[-13,21,22,23,24,25,-16,26],[-21]]],"properties":{"GID_2":"RUS.61.6_1","GID_0":"RUS","COUNTRY":"Russia","GID_1":"RUS.61_1","NAME_1":"Sakhalin","NL_NAME_1":"Сахалинскаяобласть","NAME_2":"Kholmskiyrayon","VARNAME_2":"NA","NL_NAME_2":"Холмскийрайон","TYPE_2":"Raion","ENGTYPE_2":"District","CC_2":"R71001","HASC_2":"RU.SL.KR"}},{"type":"MultiPolygon","arcs":[[[27,28]]],"properties":{"GID_2":"RUS.61.7_1","GID_0":"RUS","COUNTRY":"Russia","GID_1":"RUS.61_1","NAME_1":"Sakhalin","NL_NAME_1":"Сахалинскаяобласть","NAME_2":"Korsakov","VARNAME_2":"NA","NL_NAME_2":"Корсаков","TYPE_2":"Gorod","ENGTYPE_2":"City","CC_2":"NA","HASC_2":"RU.SL.KO"}},{"type":"MultiPolygon","arcs":[[[-9,-20,29],[-28,30]],[[31]],[[32]],[[33]],[[34]]],"properties":{"GID_2":"RUS.61.8_1","GID_0":"RUS","COUNTRY":"Russia","GID_1":"RUS.61_1","NAME_1":"Sakhalin","NL_NAME_1":"Сахалинскаяобласть","NAME_2":"Korsakovskiyrayon","VARNAME_2":"NA","NL_NAME_2":"Корсаковскийрайон","TYPE_2":"Raion","ENGTYPE_2":"District","CC_2":"R71000","HASC_2":"RU.SL.KK"}},{"type":"MultiPolygon","arcs":[[[35]],[[36]],[[37]],[[38]],[[39]],[[40]],[[41]],[[42]],[[43]],[[44]],[[45]],[[46]],[[47]],[[48]],[[49]],[[50]],[[51]],[[52]],[[53]],[[54]],[[55]],[[56]],[[57]],[[58]],[[59]],[[60]],[[61]],[[62]],[[63]],[[64]],[[65]],[[66]],[[67]],[[68]],[[69]],[[70]],[[71]],[[72]],[[73]],[[74]],[[75]],[[76]],[[77]],[[78]],[[79]],[[80]],[[81]],[[82]],[[83]],[[84]],[[85]],[[86]],[[87]],[[88]],[[89]],[[90]],[[91]],[[92]]],"properties":{"GID_2":"RUS.61.9_1","GID_0":"RUS","COUNTRY":"Russia","GID_1":"RUS.61_1","NAME_1":"Sakhalin","NL_NAME_1":"Сахалинскаяобласть","NAME_2":"Kuril'skiyrayon","VARNAME_2":"NA","NL_NAME_2":"Курильскийрайон","TYPE_2":"Raion","ENGTYPE_2":"District","CC_2":"R71000","HASC_2":"RU.SL.KU"}},{"type":"MultiPolygon","arcs":[[[-18,93,94,95,96,97,98,99]]],"properties":{"GID_2":"RUS.61.10_1","GID_0":"RUS","COUNTRY":"Russia","GID_1":"RUS.61_1","NAME_1":"Sakhalin","NL_NAME_1":"Сахалинскаяобласть","NAME_2":"Makarovskiyrayon","VARNAME_2":"NA","NL_NAME_2":"Макаровскийрайон","TYPE_2":"Raion","ENGTYPE_2":"District","CC_2":"R71000","HASC_2":"RU.SL.MA"}},{"type":"MultiPolygon","arcs":[[[100,101]]],"properties":{"GID_2":"RUS.61.11_1","GID_0":"RUS","COUNTRY":"Russia","GID_1":"RUS.61_1","NAME_1":"Sakhalin","NL_NAME_1":"Сахалинскаяобласть","NAME_2":"Nevel'sk","VARNAME_2":"Nevelsk","NL_NAME_2":"Невельск","TYPE_2":"Gorod","ENGTYPE_2":"City","CC_2":"NA","HASC_2":"RU.SL.NG"}},{"type":"MultiPolygon","arcs":[[[102]],[[103]],[[104]],[[105]],[[106,-23,107,-11],[108,109]]],"properties":{"GID_2":"RUS.61.12_1","GID_0":"RUS","COUNTRY":"Russia","GID_1":"RUS.61_1","NAME_1":"Sakhalin","NL_NAME_1":"Сахалинскаяобласть","NAME_2":"Nevel'skiyrayon","VARNAME_2":"NA","NL_NAME_2":"Невельскийрайон","TYPE_2":"Raion","ENGTYPE_2":"District","CC_2":"R71000","HASC_2":"RU.SL.NR"}},{"type":"MultiPolygon","arcs":[[[110]],[[111]],[[112]],[[113]],[[114]],[[115]],[[116]],[[117]],[[118]],[[119]],[[120]],[[121]],[[122]],[[123]],[[124]],[[125]],[[126,127,128,129,-6]],[[130]],[[131]],[[132]],[[133]],[[134]],[[135]],[[136]],[[137]],[[138]]],"properties":{"GID_2":"RUS.61.13_1","GID_0":"RUS","COUNTRY":"Russia","GID_1":"RUS.61_1","NAME_1":"Sakhalin","NL_NAME_1":"Сахалинскаяобласть","NAME_2":"Noglikskiyrayon","VARNAME_2":"NA","NL_NAME_2":"Ногликскийрайон","TYPE_2":"Raion","ENGTYPE_2":"District","CC_2":"R71000","HASC_2":"RU.SL.OR"}},{"type":"MultiPolygon","arcs":[[[139,140]]],"properties":{"GID_2":"RUS.61.14_1","GID_0":"RUS","COUNTRY":"Russia","GID_1":"RUS.61_1","NAME_1":"Sakhalin","NL_NAME_1":"Сахалинскаяобласть","NAME_2":"Okha","VARNAME_2":"NA","NL_NAME_2":"Оха","TYPE_2":"Gorod","ENGTYPE_2":"City","CC_2":"NA","HASC_2":"RU.SL.OG"}},{"type":"MultiPolygon","arcs":[[[141]],[[142]],[[143]],[[144]],[[145]],[[146]],[[147]],[[148]],[[149,-127,-5],[150,151]],[[152]],[[153]],[[154]]],"properties":{"GID_2":"RUS.61.15_1","GID_0":"RUS","COUNTRY":"Russia","GID_1":"RUS.61_1","NAME_1":"Sakhalin","NL_NAME_1":"Сахалинскаяобласть","NAME_2":"Okhinskiyrayon","VARNAME_2":"NA","NL_NAME_2":"Охинскийрайон","TYPE_2":"Raion","ENGTYPE_2":"District","CC_2":"R71000","HASC_2":"RU.SL.OR"}},{"type":"MultiPolygon","arcs":[[[155,156]]],"properties":{"GID_2":"RUS.61.16_1","GID_0":"RUS","COUNTRY":"Russia","GID_1":"RUS.61_1","NAME_1":"Sakhalin","NL_NAME_1":"Сахалинскаяобласть","NAME_2":"Poronaysk","VARNAME_2":"NA","NL_NAME_2":"Поронайск","TYPE_2":"Gorod","ENGTYPE_2":"City","CC_2":"NA","HASC_2":"RU.SL.PG"}},{"type":"MultiPolygon","arcs":[[[157]],[[158]],[[159,-97,160,161,162,163,-99],[164,-156]],[[165]],[[166]],[[167]],[[168]],[[169]],[[170]],[[171]],[[172]],[[173]],[[174]]],"properties":{"GID_2":"RUS.61.17_1","GID_0":"RUS","COUNTRY":"Russia","GID_1":"RUS.61_1","NAME_1":"Sakhalin","NL_NAME_1":"Сахалинскаяобласть","NAME_2":"Poronayskiyrayon","VARNAME_2":"NA","NL_NAME_2":"Поронайскийрайон","TYPE_2":"Raion","ENGTYPE_2":"District","CC_2":"R71001","HASC_2":"RU.SL.PR"}},{"type":"MultiPolygon","arcs":[[[175,176,-129,177,-163,178,179,180,-3]],[[181]]],"properties":{"GID_2":"RUS.61.18_1","GID_0":"RUS","COUNTRY":"Russia","GID_1":"RUS.61_1","NAME_1":"Sakhalin","NL_NAME_1":"Сахалинскаяобласть","NAME_2":"Smirnykhovskiyrayon","VARNAME_2":"NA","NL_NAME_2":"Смирныковскийрайон","TYPE_2":"Raion","ENGTYPE_2":"District","CC_2":"R71001","HASC_2":"RU.SL.SM"}},{"type":"MultiPolygon","arcs":[[[-17,-26,182,183,184,185,186,187,-94]]],"properties":{"GID_2":"RUS.61.19_1","GID_0":"RUS","COUNTRY":"Russia","GID_1":"RUS.61_1","NAME_1":"Sakhalin","NL_NAME_1":"Сахалинскаяобласть","NAME_2":"Tomarinskiyrayon","VARNAME_2":"NA","NL_NAME_2":"Томаринскийрайон","TYPE_2":"Raion","ENGTYPE_2":"District","CC_2":"R71001","HASC_2":"RU.SL.TO"}},{"type":"MultiPolygon","arcs":[[[-1,-130,-177]]],"properties":{"GID_2":"RUS.61.20_1","GID_0":"RUS","COUNTRY":"Russia","GID_1":"RUS.61_1","NAME_1":"Sakhalin","NL_NAME_1":"Сахалинскаяобласть","NAME_2":"Tymovskiyrayon","VARNAME_2":"NA","NL_NAME_2":"Тымовскийрайон","TYPE_2":"Raion","ENGTYPE_2":"District","CC_2":"R71001","HASC_2":"RU.SL.TY"}},{"type":"MultiPolygon","arcs":[[[188]]],"properties":{"GID_2":"RUS.61.21_1","GID_0":"RUS","COUNTRY":"Russia","GID_1":"RUS.61_1","NAME_1":"Sakhalin","NL_NAME_1":"Сахалинскаяобласть","NAME_2":"Uglegorsk","VARNAME_2":"NA","NL_NAME_2":"Углегорск","TYPE_2":"Gorod","ENGTYPE_2":"City","CC_2":"NA","HASC_2":"RU.SL.UG"}},{"type":"MultiPolygon","arcs":[[[-96,189,-187,190,-185,191,-180,192,-161],[-189]]],"properties":{"GID_2":"RUS.61.22_1","GID_0":"RUS","COUNTRY":"Russia","GID_1":"RUS.61_1","NAME_1":"Sakhalin","NL_NAME_1":"Сахалинскаяобласть","NAME_2":"Uglegorskiyrayon","VARNAME_2":"NA","NL_NAME_2":"Углегорскийрайон","TYPE_2":"Raion","ENGTYPE_2":"District","CC_2":"R71001","HASC_2":"RU.SL.UR"}}]}},"arcs":[[[85329,723086],[-3495,-5206],[-1934,-6725],[692,-8451],[1503,-8649],[268,-8821],[-1379,-6219],[-4391,-4546],[-3933,-2730],[-2732,-3850],[-228,-14127],[3045,-7763],[4659,-7376],[3071,-6787],[993,-4863]],[[81468,626973],[-634,-4148],[-863,-2775]],[[79971,620050],[-3770,-1989],[-2705,-2313],[-3176,-6752],[-6017,1654],[-1529,-515]],[[62774,610135],[-366,6254],[-863,3399],[484,443],[-111,3244],[-1974,3272],[1163,533],[706,1419],[-189,4492],[-3529,5478],[-3365,8161],[-255,3055],[451,1410],[523,-127],[-641,1826],[536,4790],[1261,5767],[1137,1943],[-398,1473],[529,5026],[-660,2340],[1059,1013],[712,1853],[176,3588],[1627,587],[2731,3335],[2072,3191],[2202,5007],[581,3914],[-405,7510],[-1379,3137],[-2247,2033],[-1568,4067],[-419,1709],[1007,903],[-510,3209],[-1777,1256],[-4065,5694],[288,1139],[-1124,1781],[1052,479],[320,1247],[-830,2269],[-10415,9137],[2287,2585],[-1379,425],[582,705],[-876,1030],[399,678],[-1013,-732],[-1261,-2350],[-738,235],[-2104,1817],[-3078,4962],[-6985,4185],[-2013,2006],[5652,-3100],[5071,1247],[0,-551],[895,-100],[-594,-1373],[673,1455],[-2627,1003],[895,967],[-503,1374],[954,569],[-438,-27],[261,1772],[-751,1310],[-1516,904],[-189,949],[-3241,3109],[-3339,723],[-4130,2459],[1797,1166],[1346,2286]],[[30338,774079],[1431,-913],[3065,-497],[5201,-2919],[4240,-3570],[2320,696],[6273,4076],[3097,1265],[4437,-1220],[3776,-3389],[2516,-389],[4352,1808],[4345,3281]],[[75391,772308],[-418,-11289],[2450,-16901],[2346,-3977],[712,-7267],[1830,-8062],[3018,-1726]],[[79775,351967],[4169,-796]],[[83944,351171],[1640,-2160],[4888,-99],[4809,949],[9703,-1139],[3300,-2350],[7580,-2467]],[[115864,343905],[-2497,-6191],[-2744,-10774],[856,-4763],[-2372,-9915],[-5031,-7683],[-3790,-3027]],[[100286,301552],[-1098,2892],[255,976],[-614,81],[-39,814],[-183,-714],[-1065,1193],[-752,-1067],[131,1112],[-235,-660],[-66,732],[-1280,597],[934,-796],[-444,64],[647,-1175],[-177,-985],[-3829,-136],[-3600,-1058],[-5423,-3678],[-2483,-2793],[-2614,-4872],[-3849,-12382],[-2822,-5848],[-1242,-4483],[-2444,-5621],[-509,-4312],[235,-3326],[-484,-397],[-111,-2432],[-1267,-2612],[72,-1220],[-2000,-3895],[327,-778],[-882,-3732],[-647,-1085],[-3039,-1103]],[[59689,238853],[-934,2829],[-216,11705],[-1437,7149],[1026,5134],[2574,6634],[1157,6607],[-712,6019],[-3222,9590],[-1143,9083],[1405,5007],[3992,5432],[-575,3073]],[[61604,317115],[3849,3724]],[[65453,320839],[9918,-1654],[3921,4456],[1529,14271],[-2254,5902],[2901,5143],[-1693,3010]],[[111048,359026],[-1137,-1365],[-1438,81],[-980,931],[693,2178],[2293,-370],[569,-1455]],[[83944,351171],[-6645,1817]],[[77299,352988],[-2509,2377],[-1026,5703],[-2235,2992],[2228,3923],[366,8071],[1177,5558],[-79,1772]],[[75221,383384],[2986,4564],[1784,7303],[-2993,11198],[-457,5270],[4495,4781],[1007,3823]],[[82043,420323],[1561,-2323],[954,-3100],[1582,-922]],[[86140,413978],[-1196,-3886],[183,-2296],[1156,-1256],[-751,-1338],[327,-5251],[1777,-7484],[2620,-7122],[5221,-9562],[3979,-5460],[4143,-3353],[3319,-1003],[2059,-2585],[2195,-795],[1888,-1736],[2150,-5992],[2967,-3172],[-654,-452],[1340,-4040],[196,-3408]],[[119059,343787],[-3195,118]],[[57664,333890],[-327,-795],[-817,325],[-633,1392],[575,642],[744,-244],[458,-1320]],[[65453,320839],[-6789,-6697]],[[58664,314142],[-3660,-922],[-7383,1247]],[[47621,314467],[1464,2115],[855,3046],[902,181],[739,4085],[463,90],[98,2224],[1667,3995],[-320,1825],[1202,1429],[954,5142],[-627,1573],[339,3950],[-666,1229],[287,786],[-601,1989],[-1196,2883],[-3907,4944],[2267,6227],[-954,2341],[-601,3760],[-712,1130],[-203,5874],[-496,1112],[594,2187],[-98,6327],[543,796],[568,442]],[[50182,386149],[5208,-5160],[2522,-3082]],[[57912,377907],[1333,-3489],[3698,-1031],[4398,1636],[2744,5279],[2359,2304],[2777,778]],[[77299,352988],[2476,-1021]],[[106768,294321],[-1255,1202],[1105,1401]],[[106618,296924],[1274,-1220],[-1124,-1383]],[[119059,343787],[516,-759],[0,-3543],[-1372,-1934],[-33,-1546],[5397,-12536],[-549,-2467],[2673,-2883],[-1398,506],[-1418,-1238],[2091,-1356],[1326,434],[-327,1599],[1052,-226],[379,-1021],[-111,-2485],[-4535,2033],[-307,-1988],[-1110,-1961],[4155,-2007],[-490,-777],[693,-3489],[1614,-606],[-347,-1934],[438,-524],[2307,-750],[1013,1048],[2672,208],[3901,-1437],[2065,-1853],[1784,877],[869,2061],[-2634,3687],[-2287,280],[-1685,805],[-798,1175],[419,-877],[-3725,1455],[-1326,-551],[-2464,1509],[-91,1925],[1143,931],[-1110,1636],[104,995],[4946,-3733],[6129,-2188],[3072,-72],[2940,1003],[451,4068],[2809,-1763],[569,-1247],[-255,-1401],[680,-1988],[-138,-1456],[1510,-4166],[-869,-2061],[340,-3489],[1274,-2512],[-817,-1428],[91,-1465],[1431,-3208],[-163,-2359],[784,-2314],[-59,-2404],[1908,-4402],[-300,-1916],[-987,-461],[-693,452],[438,-958],[-888,-777],[1450,551],[961,-651],[-151,2088],[1804,-2567],[1071,299],[360,-1455],[-3431,-2387],[-248,-2431],[523,-1988],[-1719,190],[-1058,-886],[-1340,-6056],[-2816,-3236],[-327,-4998],[615,-2738],[-2594,-3842],[-758,-3389],[-1235,7032],[993,1934],[-320,3136],[941,1736],[-40,3814],[-3280,10873],[-2437,5775],[-216,2432],[765,1509],[-183,2061],[-2379,3461],[327,579],[2163,-1257],[1013,100],[1418,2937],[-549,1781],[-2718,1636],[-2183,-1284],[-359,633],[-1124,-1130],[-549,552],[836,596],[-888,434],[-124,-1157],[1940,-1934],[797,-2016],[-5717,6011],[-4848,2838],[-1235,18],[-1196,-1229],[-2450,54],[-3666,1328],[-2391,-343],[-5260,1835],[98,587],[-3673,-1844],[-3887,-659],[-804,524],[111,1328],[-784,181],[242,1663],[-726,1202],[138,1049],[-758,1374],[-438,3009],[823,-2069]],[[106768,294321],[987,1130],[-294,1039],[-843,434]],[[127880,313871],[-340,352],[412,-289],[-72,-63]],[[101338,294692],[144,-73],[-471,36],[327,37]],[[126390,311683],[144,-180],[-268,-91],[124,271]],[[127488,316338],[32,172],[59,-271],[-91,99]],[[314279,1573],[-921,-1573],[-1235,705],[2156,868]],[[305844,2196],[300,-117],[-202,-172],[-98,289]],[[323166,4537],[170,-190],[-588,-90],[418,280]],[[323891,5423],[-287,-804],[-569,307],[856,497]],[[319801,7104],[137,-578],[-791,-127],[-718,-1609],[-1418,308],[-1359,-1456],[-1105,552],[177,1102],[686,-81],[608,1238],[646,-840],[419,1039],[555,-958],[843,100],[-52,1482],[1039,678],[333,-850]],[[324721,6164],[-183,-27],[-59,145],[242,-118]],[[306105,8360],[1542,-551],[1000,949],[869,-126],[314,-326],[-1111,-976],[1267,-1536],[-2482,126],[-1000,-922],[111,922],[-784,208],[581,1473],[-2443,985],[1849,416],[287,-642]],[[322238,16920],[1294,-1184],[2849,-73],[-1719,-2368],[248,-949],[870,-235],[-1124,-1383],[-3849,-1617],[-91,-751],[-830,3625],[-1111,714],[-836,1663],[-1072,397],[5371,2161]],[[339410,18528],[-157,37],[-59,126],[216,-163]],[[339161,18899],[118,-36],[-91,-145],[-27,181]],[[339488,18908],[131,-18],[-248,-90],[117,108]],[[333516,26220],[928,-1030],[1431,36],[470,-1862],[-5684,741],[1868,262],[778,841],[-301,1030],[510,-18]],[[365546,35873],[-72,-723],[-999,-407],[457,1410],[614,-280]],[[368742,38946],[-216,-308],[-144,371],[360,-63]],[[367467,47586],[2594,-1572],[1255,-2007],[1418,-27],[-235,-578],[601,-443],[-1274,-859],[326,-1365],[-614,-542],[-1130,859],[-1150,-769],[-935,479],[-1124,-569],[-339,-940],[1646,-795],[-960,-425],[-1614,985],[-294,-1112],[-523,615],[-693,-461],[432,-1175],[-543,-1139],[-999,1003],[183,-795],[-595,-660],[-876,407],[-85,-723],[-1326,-109],[418,-497],[-346,-533],[-2431,913],[-692,-1148],[418,-1021],[-797,-579],[32,-750],[-2267,-479],[-144,633],[614,596],[-1123,253],[-706,1257],[-183,1681],[849,877],[1183,-570],[-451,796],[-2091,-498],[-235,-831],[529,-452],[-457,-651],[-1019,27],[222,1004],[-706,-226],[307,1202],[1104,858],[-32,949],[-1366,1962],[137,795],[1673,1175],[5613,895],[640,-696],[0,614],[778,208],[1280,-578],[569,-1103],[-72,1302],[-1758,705],[-19,904],[3443,2765],[1876,-1835],[-961,2007],[1137,-669],[555,642],[46,-1003],[477,-82],[379,579],[-510,153],[-124,1058],[1065,108]],[[367794,39813],[65,73],[223,-226],[-288,153]],[[358352,33460],[614,-136],[-496,-786],[-797,777],[679,145]],[[359711,33785],[-352,-118],[124,299],[228,-181]],[[324205,104491],[-131,-651],[1072,-325],[542,-1130],[1999,-904],[941,-2512],[1111,-226],[307,-805],[1235,-72],[53,-705],[3848,-1636],[3777,479],[2921,-551],[529,-678],[-712,-1085],[581,-569],[706,1329],[-1196,1256],[5953,1148],[2522,1690],[-1235,-2016],[-1235,-4437],[-2810,-2387],[-2326,2206],[-1849,-199],[-2470,-1428],[-1450,-1763],[111,-1708],[-1366,-172],[-1176,-2033],[-784,0],[-1359,-1907],[-11906,-1003],[-3142,-2866],[-1157,-2883],[431,-533],[-705,-371],[183,-632],[-4222,-1184],[-1032,-1591],[-1313,36],[-1614,-1563],[-1405,-2296],[255,-1419],[-863,-18],[-1476,-2603],[-262,-2892],[882,-1221],[-1509,-9],[13,895],[-823,235],[-1431,-804],[-1758,-3688],[-889,-4600],[-4266,-1935],[-4261,-244],[-2979,-3615],[-837,36],[-960,-2277],[-203,-6192],[-1646,-10900],[-510,127],[-216,2052],[856,4031],[-58,-1166],[542,-27],[-72,1681],[-3156,578],[-4861,-1455],[-1007,3010],[490,2711],[-1757,4212],[385,1057],[2457,1004],[2026,4293],[3940,1943],[26,913],[1705,1148],[1915,596],[562,1935],[5188,3660],[-26,1211],[4227,2314],[412,850],[-190,4012],[2849,4068],[3215,2982],[3221,6002],[3823,2720],[2947,3850],[1267,4411],[-163,1157],[2816,3082],[1902,5052],[3215,3164],[2816,750]],[[372466,41269],[52,307],[98,-181],[-150,-126]],[[376681,116756],[235,81],[-137,-253],[-98,172]],[[495595,198208],[2876,-307],[1979,-1410],[1555,-2142],[-235,-2259],[-3705,-2260],[-490,-1410],[268,-1609],[1725,-822],[1379,-2142],[-1523,-3308],[-705,-326],[385,-840],[-385,-642],[-2522,-181],[-1725,-1202],[-2418,1356],[-7893,-353],[72,-650],[-3320,-1058],[-3561,-3362],[-594,280],[124,-759],[-582,-127],[144,-949],[-503,-379],[-1163,425],[-1124,-1004],[-1490,226],[-2032,-1952],[-6430,-1211],[-1770,-1356],[267,-425],[-1097,-1184],[-1915,-144],[-2777,-2992],[-1653,-99],[-640,-1004],[-811,100],[-3123,-2205],[-2378,-2811],[-183,-1085],[-1980,-1256],[-3058,-4908],[-3476,-1491],[-582,-1437],[-1124,-841],[-764,642],[-771,-561],[-1843,253],[-4423,-1599],[-3522,2585],[-510,2566],[-2176,199],[-2483,-1129],[-1692,-1772],[-980,-2847],[2659,-2142],[-2424,-2928],[-1209,-3173],[-2914,-3181],[-2588,-461],[-1659,-2811],[-4287,-1401],[-2809,-2251],[-575,-1590],[-2183,-714],[-4587,-7050],[-856,-3290],[-712,-81],[-2228,-2793],[-1039,443],[-2960,-1248],[-2516,868],[-1601,-723],[-4227,-4591],[-1980,-4619],[163,-678],[-1960,-2006],[-3594,-55],[-2920,1555],[-216,777],[1104,3995],[1470,1961],[1765,480],[1829,2078],[144,579],[-1522,2585],[999,4094],[477,-244],[373,-2847],[1091,-1428],[1163,-325],[2084,2060],[536,1799],[-33,1771],[-1770,1220],[202,940],[2379,-171],[921,-398],[-91,-615],[1097,-1057],[1425,145],[1914,1048],[4038,4492],[726,2350],[-131,2883],[-451,669],[-4064,407],[-961,831],[-843,2025],[-65,1319],[549,633],[1738,669],[1346,-515],[2581,-2504],[2575,750],[816,705],[1235,4998],[7586,3833],[5829,6507],[2346,624],[13,660],[738,171],[-484,2513],[817,913],[98,2639],[614,497],[-496,2458],[-1928,904],[556,859],[2091,-1085],[1744,55],[1379,-2007],[4633,-569],[2561,1798],[203,2359],[-471,1320],[889,1175],[6,1437],[1457,831],[419,1483],[2117,189],[614,1139],[2751,850],[1620,-895],[1843,1537],[-216,804],[1072,2178],[-1144,579],[360,3018],[-993,2061],[-536,4140],[1490,3326],[1992,2422],[1464,859],[2705,-1763],[0,-2160],[706,-578],[-418,-651],[509,-1681],[1830,-2558],[-653,-506],[803,-1663],[72,-1934],[745,-100],[-137,-859],[496,181],[183,-849],[1667,-1230],[11493,651],[7096,2061],[778,1753],[3796,2188],[510,-525],[-510,-533],[1176,-1130],[347,534],[-922,45],[360,605],[-438,1465],[2888,2178],[-346,849],[1529,1184],[-549,1528],[856,1554],[1176,633],[1222,2007],[2287,903],[1522,3037],[3228,750],[765,1004],[-92,1310],[1052,1383],[3568,163],[2888,1238],[2711,-127]],[[537976,206750],[-144,144],[360,-18],[-216,-126]],[[610087,257761],[-5228,-3389],[-3123,-3416],[-2594,-922],[-3574,-3317],[-1379,-1835],[39,-759],[-1254,-145],[-4247,-3814],[-1778,-2287],[-1267,-3154],[202,-1229],[1046,-497],[-1640,-199],[111,-741],[-2137,-904],[575,-1103],[-1196,-1536],[-1574,-380],[-1889,-2097],[-1130,-163],[-1111,-1798],[-993,-82],[-183,-1283],[-3463,-497],[-1255,606],[-1777,-1058],[-1072,-1184],[458,-1048],[-3169,-868],[-236,-1166],[-4874,-3841],[-1816,-2938],[-4032,-3290],[-216,-985],[-1692,-1835],[-4280,-2051],[-1758,54],[-418,-759],[307,-425],[-2247,-72],[-765,-1510],[-4757,1031],[-2104,-877],[-1672,343],[980,705],[-268,525],[1398,189],[1921,1926],[294,2476],[1033,1302],[-399,1111],[2601,1004],[1182,1319],[2111,3534],[1280,3651],[1935,1166],[274,1284],[725,1130],[726,72],[392,1518],[1280,1392],[3104,579],[1549,-723],[3456,1355],[3829,4068],[673,3127],[1000,632],[1111,2893],[3156,2937],[2450,877],[1163,2910],[2124,2115],[2378,1681],[4790,-506],[1274,985],[719,-461],[405,985],[705,-189],[432,3380],[-1046,1726],[2901,2549],[3084,1021],[765,-433],[1575,1093],[575,1419],[137,-822],[647,27],[1091,1175],[5299,-253],[2529,-2070],[7423,2494],[-1601,-1455]],[[593967,243924],[52,-73],[-143,-36],[91,109]],[[573777,244312],[-334,-72],[-65,244],[399,-172]],[[606578,258620],[-111,-262],[-307,325],[418,-63]],[[606911,258765],[-170,-100],[-85,217],[255,-117]],[[611929,259235],[281,-91],[-196,-54],[-85,145]],[[612681,259424],[-124,-81],[0,99],[124,-18]],[[613759,259632],[-621,-63],[327,325],[294,-262]],[[627389,282345],[2104,-3642],[-1254,-181],[-909,832],[-686,-398],[-1293,1030],[-105,1058],[2143,1301]],[[628422,281586],[72,307],[248,-180],[-320,-127]],[[632956,287813],[1327,-777],[-941,506],[-771,-723],[607,-488],[-313,-370],[496,-1076],[-1123,90],[-621,-1175],[-1366,-479],[-1712,1157],[1640,2739],[2777,596]],[[622005,305284],[1333,-1048],[-555,-2151],[-2150,1780],[438,1248],[934,171]],[[720716,343552],[-2757,-1356],[196,-2259],[1372,-1039],[327,2485],[2274,344],[-124,949],[-987,732],[732,370],[287,-651],[2065,-479],[-327,-1789],[-927,-687],[254,-768],[-6985,-5053],[-836,-1636],[340,-1645],[-595,-2422],[-849,-976],[-3333,-1039],[-4057,-6734],[-5345,-3516],[-3039,-1139],[-5240,-6661],[-2757,-307],[-2719,1934],[-692,1681],[59,1618],[-1314,949],[673,371],[46,795],[3979,687],[1059,-705],[1431,633],[2176,-859],[1293,606],[634,804],[-307,904],[1895,2359],[1588,3814],[2966,1057],[2091,2368],[3378,1438],[974,1979],[-314,587],[3104,3046],[653,2359],[752,389],[209,1121],[582,171],[2959,5026],[2157,705],[999,-561]],[[735033,363102],[3058,-344],[1548,-1328],[882,-2513],[-522,-1762],[-2692,-1645],[-915,587],[-3280,-153],[509,768],[-1221,669],[26,2449],[-569,624],[1052,1726],[2124,922]],[[758275,375403],[242,-118],[-183,-99],[-59,217]],[[759092,375900],[-451,-1419],[-562,569],[601,317],[-562,316],[-333,-434],[470,-605],[-790,-353],[-595,1519],[2097,813],[125,-723]],[[756524,375837],[-151,9],[432,108],[-281,-117]],[[760555,377861],[-1470,-1120],[-307,379],[1790,1501],[-13,-760]],[[763260,381974],[236,-136],[-216,0],[-20,136]],[[763456,382706],[-509,63],[183,154],[326,-217]],[[773571,401243],[778,-1762],[91,-2178],[-1267,-3869],[-2673,-1627],[-1614,-99],[-751,-1537],[-347,2847],[811,1194],[-288,2593],[412,986],[2150,3073],[2241,967],[457,-588]],[[783614,430193],[4528,-3091],[-601,-769],[922,-3615],[-1405,497],[-1529,-479],[-4470,3127],[-444,2721],[379,1003],[1124,850],[1496,-244]],[[789188,426342],[784,-397],[-954,-425],[-366,777],[536,45]],[[786960,446543],[895,-253],[-438,-1365],[-1712,678],[294,895],[961,45]],[[848276,500899],[2359,-1717],[-1398,-1645],[-556,-2414],[-1967,-2087],[-2842,-1492],[-1392,27],[-2025,-1762],[-549,-2974],[-1699,-1563],[-2509,-1004],[-1425,1338],[-189,1374],[1366,2558],[2241,1039],[660,-705],[1431,398],[1228,1292],[-59,949],[856,1067],[-287,1681],[823,2323],[78,2070],[5855,1247]],[[832307,507018],[2404,-1148],[1588,217],[-327,-931],[438,-1645],[-2509,-913],[-3829,352],[118,1004],[-954,605],[183,1853],[2888,606]],[[802335,509178],[869,-407],[-144,-1609],[-928,-515],[-1072,624],[275,1708],[1000,199]],[[867206,524968],[470,-778],[1692,606],[3228,-1772],[2248,-1645],[340,-1979],[-1895,-1961],[-4215,-1184],[-2247,2133],[-419,3019],[-1222,2105],[602,1248],[1418,208]],[[891258,567077],[686,-759],[-216,-570],[1307,-868],[2646,-126],[-1039,-1401],[-673,-5324],[-1757,-714],[-1823,-1852],[-497,-1998],[-1156,-1753],[0,-4465],[405,-1085],[758,-126],[-347,-1058],[667,-379],[-634,-1356],[1653,-1708],[-621,-371],[-176,-1437],[438,-723],[-1131,-895],[-470,-1943],[-1921,-1130],[-980,506],[-1778,-641],[-1999,-1745],[-6044,1754],[-823,4763],[450,1437],[-535,1193],[1254,389],[1542,4699],[1163,760],[1993,2901],[451,2485],[3548,5984],[301,2558],[2894,2205],[249,2739],[2215,54]],[[864827,583617],[2215,-732],[921,-2197],[-1352,-1238],[-1183,-2106],[20,-1238],[-837,-678],[-3659,2413],[634,660],[-470,1184],[666,2811],[3045,1121]],[[901242,618658],[706,-389],[-981,-1184],[-2267,-180],[-418,506],[52,1265],[980,696],[1928,-714]],[[969432,669552],[4463,-1826],[1235,552],[1477,-1076],[-569,-858],[399,-678],[-399,-1989],[-1163,-1373],[1163,-1239],[-1457,-2106],[693,-1934],[908,-452],[216,-1482],[1163,-578],[-1595,-3860],[72,-2259],[1451,-2441],[-2470,-1979],[-1085,723],[-1712,-352],[-3443,-2504],[0,-931],[-1019,-1509],[365,-2938],[-398,-876],[-2078,-1130],[-2483,-5053],[-1718,-1364],[326,-470],[-640,-1058],[216,-488],[-883,-461],[-1372,-3172],[-2313,-172],[-2045,-1048],[-1705,-2522],[-125,-1365],[-2594,-786],[-1248,913],[-2646,-136],[-2228,-1112],[-1438,760],[-1666,-181],[-3646,-2974],[-3058,-1066],[-2130,-2151],[-2633,-4203],[-752,-4745],[-2202,-1564],[144,2784],[-2810,2142],[-2960,624],[-5514,-732],[-673,2133],[1280,1491],[1941,5341],[-379,3137],[431,1925],[-353,1057],[-2796,2242],[-902,2766],[895,1825],[1673,841],[2522,-54],[4541,-1862],[2111,1590],[1045,2224],[-509,1193],[1424,1094],[9089,1048],[2169,2368],[1771,-1744],[2607,768],[7070,6869],[1666,3715],[-294,2042],[3503,3127],[1947,9391],[1601,1094],[2685,3579],[6567,5323],[1274,172]],[[984409,646315],[294,-154],[-242,-117],[-52,271]],[[998111,677515],[1450,-1555],[-621,-226],[255,-1184],[-431,-551],[471,-3543],[764,-1229],[-1836,-2124],[-177,-1618],[-1078,-470],[-143,-1030],[-719,-380],[431,-651],[-660,73],[-987,-2052],[-1979,-1546],[575,-1771],[-719,-570],[-732,615],[-562,-515],[-2672,190],[-510,-678],[-2679,1066],[-1098,-361],[-1705,1907],[-4463,2657],[-582,2106],[1379,1283],[-248,1130],[869,1338],[-307,1717],[4744,1085],[6776,5884],[3646,587],[3391,1591],[157,-1175]],[[936814,683182],[7246,-1790],[752,-3344],[-562,-840],[385,-687],[869,199],[-1006,-705],[451,-2115],[-837,-814],[-2156,-343],[-5815,217],[-3503,2503],[-1751,4402],[1301,1771],[-223,1049],[4849,497]],[[82043,420323],[2823,7267],[-641,4401],[-2346,3986],[-934,4809],[732,5106],[3221,9517],[1993,9753]],[[86891,465162],[-4574,21239]],[[82317,486401],[-647,5812],[915,5893],[4685,8885],[1130,3651]],[[88400,510642],[3111,-1979],[2091,-4248],[1006,-3688],[2431,-3995],[4665,-2404]],[[101704,494328],[3352,-181],[3738,145]],[[108794,494292],[2953,994],[1836,1753]],[[113583,497039],[-5985,-10168],[-7142,-17877],[-2235,-9734],[-2862,-7583],[-614,-3688],[-921,-786],[-1314,-3200],[216,-759],[-1594,-5486],[-1007,-1067],[504,-813],[-530,-1817],[-712,479],[386,-1356],[-2483,-6932],[339,-4519],[-124,-841],[-1091,-578],[-261,-1329],[-13,-5007]],[[46366,299590],[-1365,-262],[-92,1663]],[[44909,300991],[1209,45],[484,-569],[-236,-877]],[[3019,259921],[137,109],[0,-109],[-137,0]],[[1888,264016],[386,-190],[-124,-1229],[1241,-1736],[-1757,-1654],[-1235,-235],[-399,2260],[588,1518],[-425,1456],[961,-118],[353,597],[411,-669]],[[3156,262534],[-346,-28],[385,181],[-39,-153]],[[3065,259696],[0,153],[163,-63],[-163,-90]],[[59689,238853],[-2156,-2684],[-692,-7213],[-1020,1573],[-2470,1880],[-3495,6950],[-2006,1889],[-621,-334],[19,949],[-1150,895],[974,1283],[52,3688],[-738,1392],[294,1410],[-1882,10086],[-575,6472],[-4175,15030],[-863,5830],[843,1853],[-836,2964],[2685,2631],[340,5612],[1653,2034],[-261,687],[1555,2693],[-150,1555],[1261,2115],[196,2006],[1150,2368]],[[58664,314142],[2940,2973]],[[44909,300991],[-189,-1148],[1045,-723],[601,470]],[[46366,299590],[-32,1193],[-1425,208]],[[176331,611563],[143,-81],[-143,-46],[0,127]],[[149802,710532],[137,226],[327,-28],[-464,-198]],[[149612,713342],[-398,-253],[-39,452],[437,-199]],[[139596,749016],[104,380],[255,-127],[-359,-253]],[[139047,748944],[-216,425],[510,-154],[-294,-271]],[[141412,747760],[1738,-5803],[-1163,2088],[-470,2938],[-1052,1030],[254,1329],[-1195,2964],[-2509,4818],[1672,-1428],[2725,-7936]],[[139047,750020],[183,-624],[-543,-127],[-72,904],[582,298],[-150,-451]],[[138942,751701],[-653,199],[830,-949],[-1085,1075],[908,-325]],[[138106,749468],[-294,-849],[-432,1102],[726,-253]],[[135348,749947],[-764,172],[72,1410],[692,-1582]],[[136145,750797],[72,-145],[-215,-54],[143,199]],[[136217,752885],[111,-2133],[-111,1482],[-725,1103],[725,-452]],[[138034,752704],[287,27],[-143,-154],[-144,127]],[[128991,768476],[254,126],[-326,-253],[72,127]],[[128814,769000],[-183,126],[360,281],[-177,-407]],[[128376,776520],[-222,307],[255,-199],[-33,-108]],[[75391,772308],[745,4935],[-3823,4907],[909,2748],[2672,1916],[405,1365],[-7540,14208],[-1072,7023],[876,6055],[2640,4836],[-125,4600],[-5403,9608],[1052,3778],[2287,985],[13636,-2503],[9795,894],[6783,-1093],[3678,-2513],[7560,-262],[3940,3308],[5293,913],[6214,-633],[3424,-3570],[1274,1365],[-157,2666],[2235,3245],[921,-4158],[-320,-2305]],[[133290,834626],[-1503,100],[980,-1049],[980,19],[-581,-1374],[-1666,325],[1124,-1582],[-1889,-452],[1372,-921],[-65,-742],[-2463,-262],[1385,91],[-954,-886],[817,-425],[1104,-144],[510,931],[170,-696],[-641,-1591],[-1450,-696],[-981,370],[406,-1102],[-1823,144],[869,-1039],[-1745,-416],[1091,100],[98,-741],[-529,-64],[771,100],[719,-1130],[-1346,-1781],[-1353,-289],[1281,-235],[-876,-551],[-1339,-4194],[-1745,-2287],[399,-2684],[-726,-199],[1634,-551],[-725,-732],[-144,-1383],[2431,-99],[1163,6905],[398,-299],[-359,-2892],[797,-976],[-1601,-2784],[-980,-5450],[111,-12075],[-797,5423],[-510,777],[1366,9174],[-967,-2648],[-288,-2260],[399,-379],[-457,-298],[-340,-3363],[-908,479],[-589,1302],[-1424,-850],[1248,-280],[268,-3290],[-1575,-2006],[1595,-940],[-543,-868],[1209,-181],[680,-2205],[-2104,-1283],[1418,-353],[431,-1401],[1529,-1184],[104,-723],[-712,-253],[752,-624],[614,-2115],[-941,-1175],[-438,579],[255,470],[-1706,777],[1490,-2458],[-1712,-1329],[39,-1030],[3228,-1708],[-614,-1428],[288,-2106],[1816,-407],[111,-750],[1490,750],[758,-1455],[1091,1753],[-1744,5080],[-758,795],[-477,2793],[8135,-19938],[-366,-1103],[1672,-3561],[-764,-308],[-216,1989],[-1888,72],[144,479],[-2032,-2738],[-33,-3010],[-804,244],[366,-2657],[-764,199],[366,-1356],[-1889,-145],[1091,-632],[830,-2459],[-2032,-3091],[-542,-3263],[509,-804],[2320,831],[797,-732],[1562,1112],[-72,-678],[621,425],[-222,-380],[1306,-976],[654,45],[294,832],[1267,-72],[981,2078],[-1235,4745],[294,1663],[-510,-81],[0,1356],[255,1030],[1196,877],[366,-2359],[1234,-850],[1235,-6579],[2392,-7611],[-941,5830],[-908,1835],[255,1600],[-477,1545],[477,-940],[1816,-5974],[2705,-14796],[-568,1989],[-2104,2566],[-2398,-1581],[-2117,-27],[777,-1284],[-725,-551],[653,-624],[2647,172],[-797,-651],[725,-1130],[-908,-1057],[1346,750],[2685,-1130],[-144,-1075],[909,-624],[-1092,-253],[543,-732],[908,606],[144,-751],[-758,-81],[-438,-949],[1921,-985],[-470,-805],[-1235,208],[281,-714],[-922,9],[46,-922],[3065,344],[725,732],[-1706,3633],[0,1004],[-1411,759],[1202,379],[1640,-4284],[5731,-22686],[2953,-14614],[1170,-2296],[-327,-1229],[340,-4294],[1954,-7790],[-164,-1022],[-542,-217],[647,-5748],[4195,-17543],[-294,-407],[4796,-12952],[4946,-10141],[5829,-9544],[-517,-1808],[-10252,-1310]],[[171325,598774],[-4430,-1293],[-6279,-4410],[-4724,-2206],[-5188,1148],[-3836,-117],[-5953,-2034],[157,5297],[3489,9598],[1079,4465],[411,5441],[-3071,4664],[-2744,2223],[-9684,3941],[-660,3272]],[[129892,628763],[2817,7492],[1705,6978],[-196,9725],[-3006,5739],[-2907,3941],[235,4600],[-3627,3227],[-509,6643],[-11161,16730],[-2241,5956],[-20,5965],[-1332,5658],[-2222,3299],[104,3950],[-2045,3805],[-3430,3236],[-10004,5061],[-6724,-7682]],[[128520,780252],[-215,-759],[-765,-171],[-255,2232],[-895,1600],[137,5079],[1248,-6399],[745,-1582]],[[124966,785901],[137,-316],[-464,136],[327,180]],[[124639,787076],[72,199],[143,-352],[-215,153]],[[128305,778092],[-183,579],[542,-181],[-359,-398]],[[125220,788586],[327,578],[0,-633],[-327,55]],[[125253,790746],[-327,-1889],[582,-1754],[-1124,2983],[183,832],[686,-172]],[[124998,793051],[327,-371],[-359,-380],[-1346,579],[653,750],[725,-578]],[[125403,798645],[177,109],[-105,-308],[-72,199]],[[128233,819036],[72,-651],[-543,397],[471,254]],[[109754,921900],[1222,153],[118,-958]],[[111094,921095],[-497,-271],[-1157,298],[314,778]],[[133774,822750],[-131,-822],[-1960,-1383],[-1954,-2666],[568,3443],[3477,1428]],[[134002,829836],[510,371],[111,-172],[-621,-199]],[[135022,833144],[-1203,-2503],[-797,-253],[869,2883],[1634,867],[-503,-994]],[[137380,857475],[255,100],[-183,-299],[-72,199]],[[135675,867363],[-836,-271],[215,397],[621,-126]],[[132081,880848],[151,633],[457,253],[-608,-886]],[[131826,860187],[-509,280],[-13,406],[522,-686]],[[131572,861597],[143,551],[111,-407],[-254,-144]],[[30338,774079],[680,1221],[-399,3389],[-3123,9806],[509,741],[-281,823],[2980,2630],[967,3010],[-1339,2937],[-2000,2386],[1666,3814],[-660,2305],[-1960,2820],[1804,4501],[-223,1853],[3130,1103],[745,1536],[2816,2685],[4770,9372],[281,2901],[-1934,579],[2169,4284],[-307,1265],[-1339,37],[2156,4609],[-1647,1193],[2216,4998],[-379,4158],[653,5676],[2228,4157],[-320,2341],[1960,4447],[255,2666],[-405,1031],[510,949],[-105,958],[-5992,8586],[72,3209],[-2685,6209],[764,5848],[-732,1102],[-542,-479],[-614,732],[-516,2775],[8246,5839],[17897,7646],[5972,1238],[1013,-650],[-1007,406],[-555,-696],[-2078,-289],[1941,-2314],[-1366,-1771],[1091,-3245],[-1084,-1825],[1039,-3399],[2091,-1997],[4162,235],[-39,1193],[888,741],[3921,-1564],[2189,832],[-392,135],[3018,2377],[4182,7204],[2843,3227],[777,442],[3614,-1500],[130,-840],[797,433],[-895,4275],[-1215,-1012],[-667,253],[-2855,2260],[-1392,2621],[-1810,-488],[-634,-1663],[562,-1501],[-1333,-1193],[-1019,1419],[255,2233],[-529,1211],[26,1925],[-1157,3353],[3640,1672],[2483,-705],[4456,1754],[268,-2269],[2019,-4456],[836,262],[-72,1175],[2889,335],[1855,4004],[2026,2621],[274,2250],[-1163,2170],[-1241,5260],[-941,1518],[-2529,696],[-333,859],[-1836,-11162],[-4731,-3534],[-1104,2042],[4175,6833],[2457,5206],[902,4022],[-72,5098],[-6704,6661],[-1536,2404],[-1764,976],[-2352,3371],[-4195,3308],[-1843,2640],[-804,3995],[-1849,3253],[-2770,2766],[-4724,3254],[1058,831],[4554,-2558],[6521,-976],[-372,642],[10690,3877],[-1738,-1003],[1006,-1853],[-1411,-361],[-765,696],[-2267,99],[-2927,-922],[2371,-533],[-627,-2332],[902,-1572],[1045,-552],[1529,389],[863,1338],[-928,958],[-758,2359],[1692,-235],[1235,-1663],[-457,-2305],[1222,-552],[-262,1871],[-470,-9],[1516,1121],[-640,669],[1960,804],[-706,1437],[1131,326],[-1235,-91],[-1196,1654],[3077,2224],[1608,1997],[-79,1428],[-829,868],[39,1573],[1601,1247],[1470,36],[1137,-470],[483,-2937],[2209,-2414],[2045,-6019],[6005,-6697],[1679,-3019],[3221,-3471],[1425,-2937],[627,-3109],[-1084,-3950],[-4476,-3841],[-1307,-3887],[-654,-298],[543,-579],[157,-6290],[-301,1220],[-2032,-181],[915,1103],[-1131,1112],[523,-977],[-817,-1491],[-2718,82],[1725,-1899],[3862,823],[1267,-5622],[-869,1247],[-2705,-1635],[1536,-2025],[-497,-1067],[3555,-397],[-909,3696],[1163,-3769],[3235,-6977],[-876,949],[-1666,-859],[627,-876],[-771,-1175],[399,-1202],[980,-958],[1196,903],[836,1058],[-692,1880],[1130,-2386],[-908,-949],[575,-281],[509,733],[693,-1456],[-4796,-1464],[1496,-651],[3137,281],[-138,-534],[771,-397],[-424,2639],[3038,-6453],[-2143,2359],[-1372,-516],[-53,-1012],[-862,-605],[-1777,723],[-144,-1275],[1562,-958],[431,-1301],[1235,-226],[2555,217],[679,985],[-340,1301],[432,-190],[5495,-11885],[-902,705],[-1176,-416],[-797,-1256],[542,-1184],[-2012,-895],[1875,-1256],[1790,1247],[1033,-199],[457,696],[-366,787],[-2143,-326],[1810,1799],[3267,-8134],[2797,-9039],[1489,-6480],[3516,-22117],[366,-6552],[-693,2811],[-581,7311],[-1379,3986],[144,2124],[-2065,4953],[784,1645],[-778,-1030],[-568,1961],[686,3444],[-4535,4103],[-2254,696],[-1059,1184],[575,868],[-601,542],[876,1717],[-359,1799],[-954,1084],[1032,832],[1699,99],[764,3769],[-333,371],[686,271],[-1594,253],[562,515],[-817,18],[1006,597],[-1202,9],[-438,551],[379,705],[-1738,18],[-1686,-1084],[-1405,-1148],[451,-1645],[-790,-1049],[-386,-2467],[-1901,-696],[-634,-1338],[529,-840],[1634,-488],[-647,-1537],[379,-1491],[1156,-289],[386,1591],[-569,-3444],[758,-2712],[817,-650],[-1085,-3182],[1412,-1238],[6,-1536],[1366,-1908],[-1222,-1111],[-510,-1455],[1817,-1392],[-980,-271],[385,-733],[3274,-1355],[-471,-579],[288,-1383],[1418,-1608],[-1673,-1528],[2287,-1536],[444,-1501],[1556,-307],[-948,-371],[-85,-1328],[1719,-1510],[-255,-1663],[908,-99],[399,1229],[751,-18],[-431,1799],[1823,2494],[-1248,2323],[1176,1943],[542,-452],[72,-2910],[477,-1030],[-307,-1130],[1000,-4022],[-477,-1952],[509,-1058],[-326,-5748],[359,-3642],[549,9164],[-477,1356],[405,976],[980,-596],[-803,-2188],[-654,-22297],[-1993,-10014],[-2143,-4971],[-4313,-5938],[608,2349],[-719,1013],[902,1193],[294,1835],[1235,1003],[1085,2187],[2470,1302],[-111,2539],[-2647,-705],[-150,751],[1019,1129],[144,1455],[1346,2585],[1013,660],[-1052,850],[836,1862],[1418,1328],[-653,1031],[-1614,-877],[1209,2738],[39,1980],[-1013,-3136],[-1333,-1212]],[[109754,921900],[-183,-1175],[1523,370]],[[111094,921095],[124,570],[-1464,235]],[[39950,909644],[581,-226],[105,-850],[-4463,-831],[-3594,-1528],[-1091,371],[2326,1907],[6136,1157]],[[79318,925217],[3241,-1907],[-3261,677],[464,-551],[-418,-443],[-7691,-1816],[-666,-2034],[438,714],[594,-678],[-1215,-895],[412,3950],[6063,2702],[2039,281]],[[116974,930287],[-65,100],[144,-154],[-79,54]],[[117798,529758],[1587,425],[497,-705]],[[119882,529478],[-673,-877],[-823,36],[-588,1121]],[[223233,464764],[254,325],[-150,-379],[-104,54]],[[208165,512441],[-137,298],[281,-344],[-144,46]],[[108794,494292],[-7090,36]],[[88400,510642],[-542,4546],[-2751,7873],[4156,7284],[862,2856],[-6285,13006],[2953,5884]],[[86793,552091],[1666,-1672]],[[88459,550419],[6489,-3931],[6142,-1519],[13878,4492],[4966,-2079],[3313,1763],[2091,2811],[418,1898],[-1947,2856],[-2784,1455],[1425,994],[3999,1582],[8756,1139],[3535,2205],[4449,4573],[5868,4266],[4417,995],[4580,-217],[5319,1355],[6646,5442],[4652,2133],[4071,3552],[124,-425],[6096,3163]],[[184962,588922],[1817,-4790],[3783,-7312],[-804,-3733],[79,-2449],[1169,-5143],[2751,-4655],[-235,-361],[4280,-4944],[85,-669],[-1614,-1645],[607,-3290],[-274,-1410],[1797,-4709],[-373,-822],[1360,-4329],[-1333,1400],[241,-786],[-1006,109],[-470,-1835],[1450,1554],[1379,-1084],[947,-6119],[3405,-6318],[1640,-5368],[2483,-5152],[-2150,-823],[1274,-1157],[0,-1003],[1313,100],[-908,1464],[2503,-2893],[11402,-8053],[5933,-5549],[-889,-1130],[-353,-1979],[967,-3046],[1150,-1320],[-1855,-1437],[-235,-3362],[2175,-4528],[2771,-2748],[-562,-289],[-555,813],[-1471,353],[-2424,-1112],[346,2929],[-274,1274],[-1281,1500],[445,3091],[-458,3191],[-3064,5748],[-1248,1094],[-1477,3570],[-9775,10728],[-5129,2287],[-758,2187],[-817,678],[686,36],[346,1112],[-1195,172],[-294,-1257],[-1830,1582],[-2470,4836],[-4064,3326],[-2581,4094],[-9037,4239],[-20857,4040],[2908,-343],[1849,650],[-2901,1880],[-3594,-253],[-2359,931],[-1875,-578],[-1902,1880],[-1287,-425],[-313,-777],[-360,72],[268,633],[-777,271],[-1634,-1230],[-1104,1510],[-928,-27],[-111,1211],[-869,1202],[-3071,2034],[-2810,451],[-2725,-578],[490,1410],[-431,-353],[-242,1031],[-163,-1790],[-4084,-1455],[-1104,-1139],[183,-1120],[2215,-597],[1522,-1085],[-111,-479],[1163,760],[2000,-1410],[-2111,-127],[713,-705],[-876,660],[-1052,-1229],[327,-253],[9585,144],[-1777,-922],[-7188,-1310],[-6860,-3209],[490,778],[-490,-425],[143,425],[1046,442],[-353,633],[-1202,-1780],[-1359,-73],[0,-958],[-3268,-1979],[-418,949],[1582,280],[888,1853],[-418,1130],[-582,99],[164,-904],[-961,1112],[307,1103],[-287,-1636],[-458,406],[1673,-1636],[-1052,281],[543,-1004],[-1654,-804],[484,-1392],[-4927,-3760],[-5194,-6851],[215,-714],[-1424,-3624],[-196,-3037],[588,-2901],[1686,-1871],[483,-3814],[-660,-3344],[-1836,-3101]],[[117798,529758],[1280,-1247],[804,967]],[[162641,537802],[-686,145],[543,99],[143,-244]],[[129141,533030],[-490,-651],[-255,452],[745,199]],[[125599,534033],[-71,226],[196,-407],[-125,181]],[[144196,537531],[-7410,-1446],[7998,1608],[-588,-162]],[[144836,538932],[-177,-55],[-71,100],[176,54],[72,-99]],[[157617,538977],[2920,-1076],[-5573,579],[-10141,-886],[1888,985],[2300,45],[-1993,353],[9749,-72],[1124,-534],[-549,353],[275,253]],[[152337,538706],[-111,-82],[-183,380],[294,-298]],[[143131,538977],[254,54],[-143,-99],[-111,45]],[[144457,539049],[-255,127],[183,27],[72,-154]],[[141719,539881],[-490,-226],[-39,452],[529,-226]],[[79971,620050],[1497,6923]],[[81468,626973],[7632,2639],[3639,190],[3927,-904],[12108,-6245],[5221,-1410],[6011,-63],[3614,1608],[6272,5975]],[[171325,598774],[10213,1265],[673,-4320],[2751,-6797]],[[88459,550419],[-3509,3534]],[[84950,553953],[628,4510],[-4594,6065],[-1287,4058],[-2705,4655],[-2908,3389],[-3110,2052],[-8664,1464]],[[62310,580146],[104,2892],[-1914,5857],[738,3254],[-372,2802],[-647,678],[1679,2955],[-13,2278],[-882,1129],[2019,2585],[-360,624],[112,4935]],[[60807,601775],[-203,207],[366,-18],[-163,-189]],[[57912,377907],[-7730,8242]],[[50182,386149],[1555,3182],[445,3633],[4319,7737],[777,6110],[6156,7013],[1470,3968],[-1477,4275],[-340,7520],[-686,2061],[582,958],[-562,2386],[104,3308],[-1045,2558],[59,5106],[-536,2585],[-3718,7620],[1542,-2179],[-2581,5631],[-608,488],[1601,-2621],[59,-1003],[-7142,11045]],[[50156,467530],[3052,7194],[-294,5089],[1888,533],[5593,-940],[4006,3579]],[[64401,482985],[1581,-235],[2940,-1600]],[[68922,481150],[2647,-2684],[3436,-958],[4953,-253],[4992,-2549]],[[84950,474706],[1941,-9544]],[[59186,510642],[-1254,190],[320,1075],[1228,-9],[-294,-1256]],[[82317,486401],[2633,-11695]],[[68922,481150],[-4521,1835]],[[50156,467530],[-7194,13150],[307,1004],[-777,4166],[-582,678],[-150,3471],[3456,4600],[2751,1419],[2143,2215],[-1267,4419],[1829,497],[1209,1681],[647,7665],[889,1148],[104,2594],[765,1554],[-758,2865],[78,2323],[980,805],[1157,-308],[470,-1446],[980,-99],[-411,840],[313,1022],[-1993,506],[909,1319],[13,1645],[1026,877],[725,1781],[-1477,3054],[379,6815],[-568,615],[2149,8152],[1758,1998],[46,2503],[934,3381],[85,9436],[739,2097],[163,3118],[-444,1247],[450,2070],[-176,5007],[497,732]],[[84950,553953],[1843,-1862]]],"bbox":[141.2103,43.3603,156.5145,54.4244],"transform":{"scale":[0.00001530421530421531,0.00001106411106411106],"translate":[141.2103,43.3603]}}