{"type":"Topology","objects":{"muni":{"type":"GeometryCollection","geometries":[{"type":"MultiPolygon","arcs":[[[0,1,2,3]]],"properties":{"GID_2":"RUS.62.1_1","GID_0":"RUS","COUNTRY":"Russia","GID_1":"RUS.62_1","NAME_1":"Samara","NL_NAME_1":"Самарскаяобласть","NAME_2":"Alekseevskiyrayon","VARNAME_2":"NA","NL_NAME_2":"Алексеевскийрайон","TYPE_2":"Raion","ENGTYPE_2":"District","CC_2":"R36000","HASC_2":"RU.SA.AL"}},{"type":"MultiPolygon","arcs":[[[4,5,6,7,8]]],"properties":{"GID_2":"RUS.62.2_1","GID_0":"RUS","COUNTRY":"Russia","GID_1":"RUS.62_1","NAME_1":"Samara","NL_NAME_1":"Самарскаяобласть","NAME_2":"Bezenchukskiyrayon","VARNAME_2":"NA","NL_NAME_2":"Безенчукскийрайон","TYPE_2":"Raion","ENGTYPE_2":"District","CC_2":"R36000","HASC_2":"RU.SA.BE"}},{"type":"MultiPolygon","arcs":[[[9,10,11,12,13]]],"properties":{"GID_2":"RUS.62.3_1","GID_0":"RUS","COUNTRY":"Russia","GID_1":"RUS.62_1","NAME_1":"Samara","NL_NAME_1":"Самарскаяобласть","NAME_2":"Bogatovskiyrayon","VARNAME_2":"NA","NL_NAME_2":"Богатовскийрайон","TYPE_2":"Raion","ENGTYPE_2":"District","CC_2":"R36000","HASC_2":"RU.SA.BT"}},{"type":"MultiPolygon","arcs":[[[14,15,16]]],"properties":{"GID_2":"RUS.62.4_1","GID_0":"RUS","COUNTRY":"Russia","GID_1":"RUS.62_1","NAME_1":"Samara","NL_NAME_1":"Самарскаяобласть","NAME_2":"Bol'shechernigovskiyrayon","VARNAME_2":"NA","NL_NAME_2":"Большечерниговскийрайон","TYPE_2":"Raion","ENGTYPE_2":"District","CC_2":"R36000","HASC_2":"RU.SA.BC"}},{"type":"MultiPolygon","arcs":[[[17,-17,18,19,20,21,22,-2]]],"properties":{"GID_2":"RUS.62.5_1","GID_0":"RUS","COUNTRY":"Russia","GID_1":"RUS.62_1","NAME_1":"Samara","NL_NAME_1":"Самарскаяобласть","NAME_2":"Bol'sheglushitskiyrayon","VARNAME_2":"NA","NL_NAME_2":"Большеглушицкийрайон","TYPE_2":"Raion","ENGTYPE_2":"District","CC_2":"R36000","HASC_2":"RU.SA.BG"}},{"type":"MultiPolygon","arcs":[[[-4,-11,23,24]]],"properties":{"GID_2":"RUS.62.6_1","GID_0":"RUS","COUNTRY":"Russia","GID_1":"RUS.62_1","NAME_1":"Samara","NL_NAME_1":"Самарскаяобласть","NAME_2":"Borskiyrayon","VARNAME_2":"NA","NL_NAME_2":"Борскийрайон","TYPE_2":"Raion","ENGTYPE_2":"District","CC_2":"R36000","HASC_2":"RU.SA.BR"}},{"type":"MultiPolygon","arcs":[[[25]]],"properties":{"GID_2":"RUS.62.7_1","GID_0":"RUS","COUNTRY":"Russia","GID_1":"RUS.62_1","NAME_1":"Samara","NL_NAME_1":"Самарскаяобласть","NAME_2":"Chapaevsk","VARNAME_2":"NA","NL_NAME_2":"Чапаевск","TYPE_2":"Gorod","ENGTYPE_2":"City","CC_2":"NA","HASC_2":"RU.SA.CP"}},{"type":"MultiPolygon","arcs":[[[26,27,28,29]]],"properties":{"GID_2":"RUS.62.8_1","GID_0":"RUS","COUNTRY":"Russia","GID_1":"RUS.62_1","NAME_1":"Samara","NL_NAME_1":"Самарскаяобласть","NAME_2":"Chelno-Vershinskiyrayon","VARNAME_2":"NA","NL_NAME_2":"Челно-Вершинскийрайон","TYPE_2":"Raion","ENGTYPE_2":"District","CC_2":"R36002","HASC_2":"RU.SA.CV"}},{"type":"MultiPolygon","arcs":[[[30,31,32,33,34,35]]],"properties":{"GID_2":"RUS.62.9_1","GID_0":"RUS","COUNTRY":"Russia","GID_1":"RUS.62_1","NAME_1":"Samara","NL_NAME_1":"Самарскаяобласть","NAME_2":"Elkhovskiyrayon","VARNAME_2":"NA","NL_NAME_2":"Елховскийрайон","TYPE_2":"Raion","ENGTYPE_2":"District","CC_2":"R36001","HASC_2":"RU.SA.EL"}},{"type":"MultiPolygon","arcs":[[[36,37,38,39]]],"properties":{"GID_2":"RUS.62.10_1","GID_0":"RUS","COUNTRY":"Russia","GID_1":"RUS.62_1","NAME_1":"Samara","NL_NAME_1":"Самарскаяобласть","NAME_2":"Isaklinskiyrayon","VARNAME_2":"NA","NL_NAME_2":"Исаклинскийрайон","TYPE_2":"Raion","ENGTYPE_2":"District","CC_2":"R36000","HASC_2":"RU.SA.IS"}},{"type":"MultiPolygon","arcs":[[[-5,40,41,42,43]]],"properties":{"GID_2":"RUS.62.11_1","GID_0":"RUS","COUNTRY":"Russia","GID_1":"RUS.62_1","NAME_1":"Samara","NL_NAME_1":"Самарскаяобласть","NAME_2":"Khvorostyanskiyrayon","VARNAME_2":"NA","NL_NAME_2":"Хворостянскийрайон","TYPE_2":"Raion","ENGTYPE_2":"District","CC_2":"R36002","HASC_2":"RU.SA.KH"}},{"type":"MultiPolygon","arcs":[[[44]]],"properties":{"GID_2":"RUS.62.12_1","GID_0":"RUS","COUNTRY":"Russia","GID_1":"RUS.62_1","NAME_1":"Samara","NL_NAME_1":"Самарскаяобласть","NAME_2":"Kinel'","VARNAME_2":"NA","NL_NAME_2":"Кинель","TYPE_2":"Gorsovet","ENGTYPE_2":"District","CC_2":"NA","HASC_2":"RU.SA.KG"}},{"type":"MultiPolygon","arcs":[[[45,-24,-10,46,47,48,49,50,51,52,53,54],[55]]],"properties":{"GID_2":"RUS.62.13_1","GID_0":"RUS","COUNTRY":"Russia","GID_1":"RUS.62_1","NAME_1":"Samara","NL_NAME_1":"Самарскаяобласть","NAME_2":"Kinel'-Cherkasskiyrayon","VARNAME_2":"NA","NL_NAME_2":"Кинель-Черкасскийрайон","TYPE_2":"Raion","ENGTYPE_2":"District","CC_2":"R36001","HASC_2":"RU.SA.KC"}},{"type":"MultiPolygon","arcs":[[[-14,56,57,58,59,60,-49,61,-47],[-45]]],"properties":{"GID_2":"RUS.62.14_1","GID_0":"RUS","COUNTRY":"Russia","GID_1":"RUS.62_1","NAME_1":"Samara","NL_NAME_1":"Самарскаяобласть","NAME_2":"Kinel'skiyrayon","VARNAME_2":"NA","NL_NAME_2":"Кинельскийрайон","TYPE_2":"Raion","ENGTYPE_2":"District","CC_2":"R36000","HASC_2":"RU.SA.KR"}},{"type":"MultiPolygon","arcs":[[[-27,62,63,-34,64]]],"properties":{"GID_2":"RUS.62.15_1","GID_0":"RUS","COUNTRY":"Russia","GID_1":"RUS.62_1","NAME_1":"Samara","NL_NAME_1":"Самарскаяобласть","NAME_2":"Koshkinskiyrayon","VARNAME_2":"NA","NL_NAME_2":"Кошкинскийрайон","TYPE_2":"Raion","ENGTYPE_2":"District","CC_2":"R36001","HASC_2":"RU.SA.KO"}},{"type":"MultiPolygon","arcs":[[[-9,65,-21,66,67,-41]]],"properties":{"GID_2":"RUS.62.16_1","GID_0":"RUS","COUNTRY":"Russia","GID_1":"RUS.62_1","NAME_1":"Samara","NL_NAME_1":"Самарскаяобласть","NAME_2":"Krasnoarmeyskiyrayon","VARNAME_2":"NA","NL_NAME_2":"Красноармейскийрайон","TYPE_2":"Raion","ENGTYPE_2":"District","CC_2":"R36001","HASC_2":"RU.SA.KA"}},{"type":"MultiPolygon","arcs":[[[68,-32,69,70,71,-51,72,-60,73,74]]],"properties":{"GID_2":"RUS.62.17_1","GID_0":"RUS","COUNTRY":"Russia","GID_1":"RUS.62_1","NAME_1":"Samara","NL_NAME_1":"Самарскаяобласть","NAME_2":"Krasnoyarskiyrayon","VARNAME_2":"NA","NL_NAME_2":"Красноярскийрайон","TYPE_2":"Raion","ENGTYPE_2":"District","CC_2":"R36001","HASC_2":"RU.SA.KY"}},{"type":"MultiPolygon","arcs":[[[-3,-23,75,76,-58,77,-12]]],"properties":{"GID_2":"RUS.62.18_1","GID_0":"RUS","COUNTRY":"Russia","GID_1":"RUS.62_1","NAME_1":"Samara","NL_NAME_1":"Самарскаяобласть","NAME_2":"Neftegorskiyrayon","VARNAME_2":"NA","NL_NAME_2":"Нефтегорскийрайон","TYPE_2":"Raion","ENGTYPE_2":"District","CC_2":"R36001","HASC_2":"RU.SA.NE"}},{"type":"MultiPolygon","arcs":[[[78]]],"properties":{"GID_2":"RUS.62.19_1","GID_0":"RUS","COUNTRY":"Russia","GID_1":"RUS.62_1","NAME_1":"Samara","NL_NAME_1":"Самарскаяобласть","NAME_2":"Novokuybyshevsk","VARNAME_2":"NA","NL_NAME_2":"Новокуйбышевск","TYPE_2":"Gorsovet","ENGTYPE_2":"District","CC_2":"NA","HASC_2":"RU.SA.NO"}},{"type":"MultiPolygon","arcs":[[[79]]],"properties":{"GID_2":"RUS.62.20_1","GID_0":"RUS","COUNTRY":"Russia","GID_1":"RUS.62_1","NAME_1":"Samara","NL_NAME_1":"Самарскаяобласть","NAME_2":"Oktyabr'sk","VARNAME_2":"NA","NL_NAME_2":"NA","TYPE_2":"Gorsovet","ENGTYPE_2":"District","CC_2":"NA","HASC_2":"RU.SA.OK"}},{"type":"MultiPolygon","arcs":[[[-56]]],"properties":{"GID_2":"RUS.62.21_1","GID_0":"RUS","COUNTRY":"Russia","GID_1":"RUS.62_1","NAME_1":"Samara","NL_NAME_1":"Самарскаяобласть","NAME_2":"Otradnyy","VARNAME_2":"Otradny","NL_NAME_2":"Отрадный","TYPE_2":"Gorod","ENGTYPE_2":"City","CC_2":"NA","HASC_2":"RU.SA.OT"}},{"type":"MultiPolygon","arcs":[[[-16,80,-42,-68,81,-19]]],"properties":{"GID_2":"RUS.62.22_1","GID_0":"RUS","COUNTRY":"Russia","GID_1":"RUS.62_1","NAME_1":"Samara","NL_NAME_1":"Самарскаяобласть","NAME_2":"Pestravskiyrayon","VARNAME_2":"NA","NL_NAME_2":"Пестравскийрайон","TYPE_2":"Raion","ENGTYPE_2":"District","CC_2":"R36001","HASC_2":"RU.SA.PE"}},{"type":"MultiPolygon","arcs":[[[82,-55,83,84,-37]]],"properties":{"GID_2":"RUS.62.23_1","GID_0":"RUS","COUNTRY":"Russia","GID_1":"RUS.62_1","NAME_1":"Samara","NL_NAME_1":"Самарскаяобласть","NAME_2":"Pokhvistnevskiyrayon","VARNAME_2":"NA","NL_NAME_2":"Похвистневскийрайон","TYPE_2":"Raion","ENGTYPE_2":"District","CC_2":"R36001","HASC_2":"RU.SA.PG"}},{"type":"MultiPolygon","arcs":[[[-6,-44,85,86,87,88],[-80]]],"properties":{"GID_2":"RUS.62.24_1","GID_0":"RUS","COUNTRY":"Russia","GID_1":"RUS.62_1","NAME_1":"Samara","NL_NAME_1":"Самарскаяобласть","NAME_2":"Privolzhskiyrayon","VARNAME_2":"NA","NL_NAME_2":"Приволжскийрайон","TYPE_2":"Raion","ENGTYPE_2":"District","CC_2":"R36001","HASC_2":"RU.SA.PV"}},{"type":"MultiPolygon","arcs":[[[89]]],"properties":{"GID_2":"RUS.62.25_1","GID_0":"RUS","COUNTRY":"Russia","GID_1":"RUS.62_1","NAME_1":"Samara","NL_NAME_1":"Самарскаяобласть","NAME_2":"Samara","VARNAME_2":"NA","NL_NAME_2":"Самара","TYPE_2":"Gorsovet","ENGTYPE_2":"District","CC_2":"NA","HASC_2":"RU.SA.SA"}},{"type":"MultiPolygon","arcs":[[[-30,90,-38,-85,91,-53,92,-71,93,-36,94,-63]]],"properties":{"GID_2":"RUS.62.26_1","GID_0":"RUS","COUNTRY":"Russia","GID_1":"RUS.62_1","NAME_1":"Samara","NL_NAME_1":"Самарскаяобласть","NAME_2":"Sergievskiyrayon","VARNAME_2":"NA","NL_NAME_2":"Сергиевскийрайон","TYPE_2":"Raion","ENGTYPE_2":"District","CC_2":"R36001","HASC_2":"RU.SA.SE"}},{"type":"MultiPolygon","arcs":[[[-29,95,-39,-91]]],"properties":{"GID_2":"RUS.62.27_1","GID_0":"RUS","COUNTRY":"Russia","GID_1":"RUS.62_1","NAME_1":"Samara","NL_NAME_1":"Самарскаяобласть","NAME_2":"Shentalinskiyrayon","VARNAME_2":"NA","NL_NAME_2":"Шенталинскийрайон","TYPE_2":"Raion","ENGTYPE_2":"District","CC_2":"R36002","HASC_2":"RU.SA.SH"}},{"type":"MultiPolygon","arcs":[[[-88,96,97,98]]],"properties":{"GID_2":"RUS.62.28_1","GID_0":"RUS","COUNTRY":"Russia","GID_1":"RUS.62_1","NAME_1":"Samara","NL_NAME_1":"Самарскаяобласть","NAME_2":"Shigonskiyrayon","VARNAME_2":"NA","NL_NAME_2":"Шигонскийрайон","TYPE_2":"Raion","ENGTYPE_2":"District","CC_2":"R36002","HASC_2":"RU.SA.SI"}},{"type":"MultiPolygon","arcs":[[[-7,-89,99,100,101,102,103,104,105,106,-75,107],[108]]],"properties":{"GID_2":"RUS.62.29_1","GID_0":"RUS","COUNTRY":"Russia","GID_1":"RUS.62_1","NAME_1":"Samara","NL_NAME_1":"Самарскаяобласть","NAME_2":"Stavropol'skiyrayon","VARNAME_2":"NA","NL_NAME_2":"Ставропольскийрайон","TYPE_2":"Raion","ENGTYPE_2":"District","CC_2":"R36002","HASC_2":"RU.SA.ST"}},{"type":"MultiPolygon","arcs":[[[109]]],"properties":{"GID_2":"RUS.62.30_1","GID_0":"RUS","COUNTRY":"Russia","GID_1":"RUS.62_1","NAME_1":"Samara","NL_NAME_1":"Самарскаяобласть","NAME_2":"Syzran'","VARNAME_2":"NA","NL_NAME_2":"Сызрань","TYPE_2":"Gorsovet","ENGTYPE_2":"District","CC_2":"NA","HASC_2":"RU.SA.SG"}},{"type":"MultiPolygon","arcs":[[[-87,110,-97],[-110]]],"properties":{"GID_2":"RUS.62.31_1","GID_0":"RUS","COUNTRY":"Russia","GID_1":"RUS.62_1","NAME_1":"Samara","NL_NAME_1":"Самарскаяобласть","NAME_2":"Syzranskiyrayon","VARNAME_2":"NA","NL_NAME_2":"Сызранскийрайон","TYPE_2":"Raion","ENGTYPE_2":"District","CC_2":"R36002","HASC_2":"RU.SA.SR"}},{"type":"MultiPolygon","arcs":[[[-109]]],"properties":{"GID_2":"RUS.62.32_1","GID_0":"RUS","COUNTRY":"Russia","GID_1":"RUS.62_1","NAME_1":"Samara","NL_NAME_1":"Самарскаяобласть","NAME_2":"Tol'yatti","VARNAME_2":"NA","NL_NAME_2":"Тольятти","TYPE_2":"Gorsovet","ENGTYPE_2":"District","CC_2":"NA","HASC_2":"RU.SA.TO"}},{"type":"MultiPolygon","arcs":[[[-8,-108,-74,-59,-77,111,-66],[-26],[-79],[-90],[112]]],"properties":{"GID_2":"RUS.62.33_1","GID_0":"RUS","COUNTRY":"Russia","GID_1":"RUS.62_1","NAME_1":"Samara","NL_NAME_1":"Самарскаяобласть","NAME_2":"Volzhskiyrayon","VARNAME_2":"NA","NL_NAME_2":"Волжскийрайон","TYPE_2":"Raion","ENGTYPE_2":"District","CC_2":"R36000","HASC_2":"RU.SA.VO"}},{"type":"MultiPolygon","arcs":[[[-99,113,-106,114,-104,115,-102,116,-100]]],"properties":{"GID_2":"RUS.62.34_1","GID_0":"RUS","COUNTRY":"Russia","GID_1":"RUS.62_1","NAME_1":"Samara","NL_NAME_1":"Самарскаяобласть","NAME_2":"Waterbody","VARNAME_2":"NA","NL_NAME_2":"NA","TYPE_2":"Waterbody","ENGTYPE_2":"Waterbody","CC_2":"NA","HASC_2":"NA"}},{"type":"MultiPolygon","arcs":[[[-113]]],"properties":{"GID_2":"RUS.62.35_1","GID_0":"RUS","COUNTRY":"Russia","GID_1":"RUS.62_1","NAME_1":"Samara","NL_NAME_1":"Самарскаяобласть","NAME_2":"Zhigulevsk","VARNAME_2":"NA","NL_NAME_2":"NA","TYPE_2":"Gorsovet","ENGTYPE_2":"District","CC_2":"NA","HASC_2":"RU.SA.ZH"}}]}},"arcs":[[[788720,307335],[-10824,-10355],[-14017,-30408],[350,-8104],[19527,-20122],[-21,-13438],[-13274,-8070],[-10124,-15481],[-10584,-9177],[-6210,-12157]],[[743543,180023],[-17581,5715],[-8222,13091],[-7216,485],[-6735,-5853],[-13383,3602],[-4023,8312],[-77497,71033],[2602,12364]],[[611488,288772],[9119,-555],[5314,11291],[5466,-346],[4264,-4711],[14935,4434],[46358,34563],[12968,14339],[9577,18078],[4855,15758],[-6713,20953]],[[717631,402576],[27836,-21472],[10168,-11395],[11109,1005],[6035,-4884],[2974,-9108],[23463,-5230],[-568,-7099],[-22130,-25248],[12202,-11810]],[[322604,346297],[-24076,-2562],[-2099,15238],[-21124,24001],[-66519,-23377],[-8331,-589],[-16335,7688]],[[184120,366696],[-10715,11014],[44871,36745],[17603,22512],[1684,18598],[25606,34668]],[[263169,490233],[31226,-10148],[16794,-19325],[9250,-20849],[13579,-6823],[11524,8416]],[[345542,441504],[7063,-7446],[3368,-25940],[10649,-9386],[11917,-1420]],[[378539,397312],[-4373,-14026],[-2799,-19499],[-7632,-4987],[-20139,2667],[-6998,-11291],[-13994,-3879]],[[723316,488640],[12049,23239],[28711,-1039]],[[764076,510840],[1225,-30374],[-7785,-4814],[2121,-8138],[15569,-13577],[-7106,-42287],[-7610,-3048],[-8025,-8346],[-15373,3706],[-19461,-1386]],[[717631,402576],[-15985,-16797],[-10627,6026],[-10825,15862],[-8725,7724]],[[671469,415391],[9753,6476]],[[681222,421867],[-459,6269],[-11765,3428],[-940,12503],[14804,12433],[13077,25906],[6385,-1316],[10387,-9559],[5663,1420],[4942,15689]],[[754105,147018],[3498,-30824],[-10058,-17316],[-18390,-21300],[-30264,-26875],[-42794,-28018],[-27115,-22685],[-21408,21992],[-9293,31170],[-14717,12503],[-32188,5402],[-29083,15031],[-15613,-5507],[-10562,5957],[-13579,20434],[5816,8693]],[[488355,115675],[-240,19048],[11567,13715],[-1180,12606]],[[498502,161044],[11917,2044],[7719,-8485],[6648,5887],[32407,-5437],[3892,-11845],[11874,-15065],[4657,2424],[-3783,13680],[16991,43777],[15526,1766],[33434,-33421],[41394,-4433],[33107,22027],[6779,-7654],[13470,-1801],[240,-9871],[19331,-7619]],[[743543,180023],[-1531,-9766],[7610,-8589],[4483,-14650]],[[498502,161044],[-9556,8555],[1071,21438],[-4985,9212],[-18084,2736],[1683,15100],[-12376,7793],[2886,21299]],[[459141,247177],[21211,3360]],[[480352,250537],[9862,13784],[-6035,6580],[23069,20191],[9141,-485],[7172,13022]],[[523561,303629],[55958,1316]],[[579519,304945],[31969,-16173]],[[764076,510840],[9490,35845],[29477,-3844],[-1815,-21230],[23485,2770],[9009,7343],[27618,-13577],[2275,14962],[20292,8277],[5248,-13749]],[[889155,527637],[22939,13507],[3258,-15377],[-10409,-33144],[-8309,-10079],[14148,-17974],[-1618,-7931],[-8966,-7377],[153,-19637],[-3433,-7793],[-16794,-2355],[-13557,-7931],[-7916,-6580],[-11590,-17940],[-6888,-5784],[-8287,-311],[-10956,-10875],[-2799,-12295],[6473,-11187],[-3914,-14926],[-11962,-25144],[-15131,5506],[-4877,-4675]],[[370798,406975],[-5160,519],[3127,4122],[2689,-2390],[-656,-2251]],[[660427,839162],[-29499,24174],[5445,21023],[-9796,10355],[-175,4641]],[[626402,899355],[9315,-4156],[13623,-10702],[10190,19845],[2865,12260],[-6429,16451],[4176,16624],[19178,10286],[7959,14615],[9163,5611],[-2406,6407],[1618,7896],[6057,3152],[9097,-7758],[13077,-6234],[20773,16347],[4614,-3013],[-12027,-16035],[3849,-11879],[4833,-2182]],[[745927,966890],[-241,-10044],[5226,-12260],[-8003,-14546],[10562,-11394],[415,-6234],[-16816,-39759]],[[737070,872653],[-30482,-32659],[-23070,-13646],[-7610,485],[-15481,12329]],[[578360,703816],[-33019,935]],[[545341,704751],[-22917,-17421],[-21123,9109],[-10650,-3914],[-17734,3568]],[[472917,696093],[-48195,50599],[16051,15308],[13579,4744],[13208,15966]],[[467560,782710],[83247,-18771],[36934,-6927],[13164,416]],[[600905,757428],[-13120,-14165]],[[587785,743263],[-10825,4641],[-14607,-15654],[24032,-21785],[-8025,-6649]],[[966215,744510],[-16160,-5507],[-11240,901],[-4745,9247],[4658,8520],[-11065,12433],[-46402,866],[-14869,-6892],[-15395,-12191],[-15132,-20226],[-10102,-27707],[-8069,-16312],[-23879,7031],[-6035,11844],[-9753,1663]],[[778027,708180],[1378,15896],[-6495,1351],[-14082,-9697],[-4155,6476],[8725,13646],[11743,4537],[-1094,8935],[-14016,13403],[2405,16728],[-6647,11082],[-23398,15793],[-15591,18806],[24425,17905],[3827,11325]],[[745052,854366],[20620,-4952],[12683,-7966],[21102,11845],[9337,-2425],[8966,3810],[10977,15204],[14345,-138],[6494,18182],[-12661,8035]],[[836915,895961],[27487,26564],[3149,-7377],[22588,-15100],[1400,-15274],[2580,-2840],[15613,12087],[3805,-311],[13033,14961],[11502,8832],[8003,2909],[19199,-9628],[15723,12018],[9337,-2563],[-284,-11568],[9949,-11117],[-11480,-8901],[-23004,-9801],[809,-10736],[-6363,-20607],[2011,-8070],[-2821,-8623],[-10802,-3602],[2099,-16035],[6495,-1351],[19287,-23447],[-1006,-18424],[-9009,-23447]],[[322604,346297],[-10037,-39655]],[[312567,306642],[-10212,-2285],[-7129,-16624],[-10562,-11187],[-6866,-11290],[-5642,-20191]],[[272156,245065],[-10692,1142],[-47889,-9108],[-15067,15654],[-27005,16866],[-5336,5542],[-1574,8970],[-10693,10978],[-14760,-1350],[-12443,14580],[-9162,2044]],[[117535,310383],[6210,17282],[-3455,7203],[7523,5126],[7325,-2009],[7653,8659],[18128,-9455],[5970,12260],[12967,1351],[4264,15896]],[[581968,489887],[-3105,1385],[153,2805],[3149,-692],[-197,-3498]],[[899258,594652],[2427,-14442],[11502,-16866],[25738,-3706],[5051,-5715],[-9053,-7342],[-9097,2459],[-36671,-21403]],[[723316,488640],[-15810,11706],[-6888,19152],[-12136,11429],[3542,9559]],[[692024,540486],[-14060,11567],[-19899,8347]],[[658065,560400],[-6757,9316]],[[651308,569716],[7041,19152]],[[658349,588868],[-6932,7550],[6123,6719],[-24054,16589],[-10321,13057],[-8659,22720]],[[614506,655503],[15241,2666]],[[629747,658169],[11065,-15792],[12092,-1628],[6429,10286],[58560,26529],[23048,-5957],[1137,-8970],[8616,-9455],[6756,2182]],[[757450,655364],[9534,17143]],[[766984,672507],[9491,-3740],[12420,2251],[7019,-5818],[3827,-10078],[-18193,-14720],[22304,-34460],[11940,-13299],[19483,-12087],[6779,-7584],[15963,11290],[30176,3048],[11065,7342]],[[736480,531377],[2624,2840],[-2143,4156],[-4330,-2909],[1793,-4156],[2056,69]],[[681222,421867],[-18412,-12191]],[[662810,409676],[-15285,5403],[-20008,-8589],[-3280,-7827],[-11371,-4676],[-9053,-11082],[-12617,4329],[-27881,-3741]],[[563315,383493],[-14366,6130],[-8747,7620],[5423,13057],[12049,15377],[22545,19221],[-8922,19222],[-15263,22199],[-22698,22616],[2974,17628],[-9928,4987]],[[526382,531550],[5926,4988],[-6407,16381],[9643,4814],[18828,44331],[14235,-11464],[16029,1732],[6101,-6546],[15788,11533],[14935,-901],[-2515,-8727],[23835,-6754],[12552,-242]],[[655332,580695],[-4024,-10979]],[[658065,560400],[28799,-14234],[5160,-5680]],[[660427,839162],[-28471,-38096]],[[631956,801066],[-15548,-26391],[-15503,-17247]],[[467560,782710],[10868,6061],[4220,6892],[1531,9732],[-2537,21473],[16728,24139],[-8790,12849],[-3193,10840],[6582,13923],[-4001,13541],[-9972,10252],[-21233,36018],[32254,-10667],[3411,-7342],[15307,-17767],[8725,416],[2602,10528],[6101,4987],[10300,-5056],[5860,-13680],[9906,-10390],[-1750,-11464],[-3170,-4260],[11239,-4225],[7676,-485],[5335,7689],[1640,9697],[6910,2251],[16860,20330],[9752,1177],[19681,-20814]],[[378539,397312],[16882,4572],[10124,-5853],[16794,-37093],[10299,-4259],[-1990,11671],[503,12468],[-6604,31516],[5708,3290],[12245,-13091],[16291,-6130],[17516,0],[1574,-5438],[-16706,-17870],[1049,-14304],[14607,-2528],[17538,-15169],[14563,-2563],[9578,6615],[12617,-4260],[-13623,-28711],[6057,-6546]],[[480352,250537],[-31270,-3741],[-20948,1940]],[[428134,248736],[-8660,-9386],[-15635,-1939],[-677,-14269],[-6670,-5957],[-14957,12329],[5839,27430],[-16816,12364],[-19965,4467],[-21495,11637],[-3039,14408],[-13492,6822]],[[443484,725427],[29433,-29334]],[[545341,704751],[41372,-2009]],[[586713,702742],[9075,-6164],[-4527,-10390],[11393,-12191],[-9272,-11048],[1225,-8936],[5401,-3879]],[[600008,650134],[14498,5369]],[[658349,588868],[-3017,-8173]],[[526382,531550],[-19877,25075],[-36321,17836],[-31620,3359]],[[438564,577820],[-3870,30408],[7172,26287],[-17253,27499],[19199,21299],[5926,20157],[-6254,21957]],[[579519,304945],[-11327,-727]],[[568192,304218],[4198,33248],[-65,28538],[-12049,13195],[3039,4294]],[[662810,409676],[8659,5715]],[[426013,452621],[-5533,901],[-918,4606],[7128,1143],[1334,-3567],[-2011,-3083]],[[153681,478908],[-109,-3844],[-3521,935],[263,2285],[3367,624]],[[488355,115675],[-10605,5922],[-19003,0],[-14825,14165],[-33522,658],[-13055,14027],[-25847,12745],[-3258,9108],[-2077,17109],[2186,8866],[-13120,13957],[-11021,-1350],[-4329,-17733],[-15351,3325],[-7828,10148],[-11568,8485],[8572,9489],[-4308,6442],[-11568,8485],[-25672,5542]],[[428134,248736],[31007,-1559]],[[966215,744510],[-4155,-22823],[-29630,-43119],[-3061,-12260],[-656,-16866],[-4702,-20122],[-17384,-15620],[-7369,-19048]],[[766984,672507],[7151,12849]],[[774135,685356],[2099,13196],[6079,4918],[-4286,4710]],[[117535,310383],[-11874,2944],[-30920,-23309],[-6297,6408],[218,8900],[2952,7931],[19068,26287],[175,7134],[-3586,3637],[11109,1524],[5663,5195],[14476,21922],[6035,17663],[-7894,15343],[-10955,5610]],[[105705,417572],[11283,17906],[-1574,8935],[4242,15897],[51847,44642]],[[171503,504952],[20008,10910],[18871,4710],[39886,-5888],[26721,13230],[3193,10667]],[[280182,538581],[11720,-11256],[-28733,-37092]],[[503881,508173],[8681,-9386],[-2055,-14546],[-14498,-17455],[-24579,-7377],[-19243,2910],[1793,1350],[0,17178],[-3717,9940],[11480,12156],[3980,-3186],[13864,-900],[24294,9316]],[[737070,872653],[3652,-2009],[4330,-16278]],[[774135,685356],[-16685,-29992]],[[629747,658169],[-29739,-8035]],[[586713,702742],[-8353,1074]],[[587785,743263],[25737,27811],[18434,29992]],[[745927,966890],[4482,-2044],[11415,9005],[8047,14546],[5204,4052],[14585,-21542],[28034,-10979],[11589,-10667],[13820,-7273],[11830,2633],[13777,-7308],[2099,-8174],[-33894,-33178]],[[171503,504952],[-3346,10771],[12486,9386],[-8790,14511],[-24491,-4572],[-17297,13819],[-9906,11844],[-8616,23343],[-21910,4987]],[[89633,589041],[4286,8555],[153,5333],[-6167,15274],[1159,7965],[-14782,11014],[2165,10597],[13448,8624],[41198,-9905],[8681,6026],[-3499,8970],[-25300,6857],[-7347,7273],[3017,6165],[8681,6026],[14148,-1246],[34397,-17802],[23660,-6234],[3149,-37612]],[[190680,624921],[7828,-17212],[26919,-33040],[1662,-5403],[-6888,-7758],[-350,-8901],[4417,-6407],[8309,-2978],[29958,-1247],[-3236,-9663],[765,-4433],[9425,1351],[10693,9351]],[[280182,538581],[8703,5853]],[[288885,544434],[40519,4433]],[[329404,548867],[11131,-2286],[18805,866],[23070,11360],[284,5333],[-24075,6511],[-15963,-138],[-22808,-6061],[-28536,12814],[-22436,2736],[-11108,4018],[-10955,7584],[-10584,16451],[-1465,10736],[3149,7862],[2558,15931],[-678,6269],[-5160,12641],[6735,24659],[6057,8658],[5685,-242]],[[253110,694569],[21102,-16001]],[[274212,678568],[6013,-13611],[15110,-658],[15242,-17559],[1421,9732],[-4351,8208]],[[307647,664680],[-31904,27187]],[[275743,691867],[-2231,13438]],[[273512,705305],[-14038,19810],[5838,173],[13929,-6718],[9556,1454],[13558,6650],[15132,-554],[16706,-7758],[15438,-13923],[30024,13923],[16662,10875],[8463,-1247],[8965,-9282],[19702,-3532],[10037,10251]],[[438564,577820],[-14979,-16208],[-16684,2563],[-11874,-11914],[-1290,-6130],[-30023,-2217],[-1334,-7965],[20139,-8001],[-8069,-28987],[7413,-19014],[-26087,-19291],[-6976,-9524],[-3258,-9628]],[[326868,583119],[1727,5957],[-1771,2875],[-5795,1039],[-1749,-6962],[7588,-2909]],[[106558,470388],[-6517,-415],[-481,4779],[5423,762],[1575,-5126]],[[105705,417572],[-30483,3395],[5664,5195],[-1640,7169],[-11021,5576],[-20642,-10252],[-5380,9005],[5861,12329],[2296,17767],[-13580,15412],[-1574,12468],[5007,15031],[-16640,7446],[-14586,16277],[-8987,17940],[2034,7100],[12333,7758],[306,14234],[30351,13646],[37152,-14997],[3805,1697],[3652,7273]],[[568192,304218],[-44631,-589]],[[396230,529888],[3739,4606],[-3586,4364],[-6670,-2771],[44,-4052],[6473,-2147]],[[190680,624921],[-3171,37785],[6036,1593],[15088,27187],[19024,22754],[42706,-4917],[3149,-4018]],[[275743,691867],[21976,-16970],[9928,-10217]],[[274212,678568],[-5445,5576],[-15657,10425]],[[329404,548867],[-26371,-2390],[-14148,-2043]]],"bbox":[47.9864,51.7952,52.5595,54.6826],"transform":{"scale":[0.00000457310457310457,0.0000028874028874028866],"translate":[47.9864,51.7952]}}