{"type":"Topology","objects":{"muni":{"type":"GeometryCollection","geometries":[{"type":"MultiPolygon","arcs":[[[0,1]]],"properties":{"GID_2":"RUS.63.1_1","GID_0":"RUS","COUNTRY":"Russia","GID_1":"RUS.63_1","NAME_1":"Saratov","NL_NAME_1":"Саратовскаяобласть","NAME_2":"Aleksandrovo-Gayskiyrayon","VARNAME_2":"NA","NL_NAME_2":"Александрово-Гайскийрайон","TYPE_2":"Raion","ENGTYPE_2":"District","CC_2":"R37000","HASC_2":"RU.SR.AL"}},{"type":"MultiPolygon","arcs":[[[2,3,4,5,6,7,8]]],"properties":{"GID_2":"RUS.63.2_1","GID_0":"RUS","COUNTRY":"Russia","GID_1":"RUS.63_1","NAME_1":"Saratov","NL_NAME_1":"Саратовскаяобласть","NAME_2":"Arkadakskiyrayon","VARNAME_2":"NA","NL_NAME_2":"Аркадакскийрайон","TYPE_2":"Raion","ENGTYPE_2":"District","CC_2":"R37000","HASC_2":"RU.SR.AD"}},{"type":"MultiPolygon","arcs":[[[9]]],"properties":{"GID_2":"RUS.63.3_1","GID_0":"RUS","COUNTRY":"Russia","GID_1":"RUS.63_1","NAME_1":"Saratov","NL_NAME_1":"Саратовскаяобласть","NAME_2":"Atkarsk","VARNAME_2":"NA","NL_NAME_2":"Аткарск","TYPE_2":"Gorod","ENGTYPE_2":"City","CC_2":"NA","HASC_2":"RU.SR.AG"}},{"type":"MultiPolygon","arcs":[[[10,11,12,13,14,15,16,17],[-10]]],"properties":{"GID_2":"RUS.63.4_1","GID_0":"RUS","COUNTRY":"Russia","GID_1":"RUS.63_1","NAME_1":"Saratov","NL_NAME_1":"Саратовскаяобласть","NAME_2":"Atkarskiyrayon","VARNAME_2":"NA","NL_NAME_2":"Аткарскийрайон","TYPE_2":"Raion","ENGTYPE_2":"District","CC_2":"R37000","HASC_2":"RU.SR.AG"}},{"type":"MultiPolygon","arcs":[[[18]]],"properties":{"GID_2":"RUS.63.5_1","GID_0":"RUS","COUNTRY":"Russia","GID_1":"RUS.63_1","NAME_1":"Saratov","NL_NAME_1":"Саратовскаяобласть","NAME_2":"Balakovo","VARNAME_2":"NA","NL_NAME_2":"Балако́во","TYPE_2":"Gorsovet","ENGTYPE_2":"District","CC_2":"NA","HASC_2":"RU.SR.BG"}},{"type":"MultiPolygon","arcs":[[[19,20,21,22,23,24,25,26],[-19]]],"properties":{"GID_2":"RUS.63.6_1","GID_0":"RUS","COUNTRY":"Russia","GID_1":"RUS.63_1","NAME_1":"Saratov","NL_NAME_1":"Саратовскаяобласть","NAME_2":"Balakovskiyrayon","VARNAME_2":"NA","NL_NAME_2":"Балаковскийрайон","TYPE_2":"Raion","ENGTYPE_2":"District","CC_2":"R37000","HASC_2":"RU.SR.BR"}},{"type":"MultiPolygon","arcs":[[[27]]],"properties":{"GID_2":"RUS.63.7_1","GID_0":"RUS","COUNTRY":"Russia","GID_1":"RUS.63_1","NAME_1":"Saratov","NL_NAME_1":"Саратовскаяобласть","NAME_2":"Balashov","VARNAME_2":"NA","NL_NAME_2":"Балашо́в","TYPE_2":"Gorod","ENGTYPE_2":"City","CC_2":"NA","HASC_2":"RU.SR.BL"}},{"type":"MultiPolygon","arcs":[[[-3,28,29,30,31,32,33],[-28]]],"properties":{"GID_2":"RUS.63.8_1","GID_0":"RUS","COUNTRY":"Russia","GID_1":"RUS.63_1","NAME_1":"Saratov","NL_NAME_1":"Саратовскаяобласть","NAME_2":"Balashovskiyrayon","VARNAME_2":"NA","NL_NAME_2":"Балашовскийрайон","TYPE_2":"Raion","ENGTYPE_2":"District","CC_2":"R37000","HASC_2":"RU.SR.BS"}},{"type":"MultiPolygon","arcs":[[[34,35,36]]],"properties":{"GID_2":"RUS.63.9_1","GID_0":"RUS","COUNTRY":"Russia","GID_1":"RUS.63_1","NAME_1":"Saratov","NL_NAME_1":"Саратовскаяобласть","NAME_2":"Baltayskiyrayon","VARNAME_2":"NA","NL_NAME_2":"Балтайскийрайон","TYPE_2":"Raion","ENGTYPE_2":"District","CC_2":"R37000","HASC_2":"RU.SR.BA"}},{"type":"MultiPolygon","arcs":[[[-37,37,38,39,40,41]]],"properties":{"GID_2":"RUS.63.10_1","GID_0":"RUS","COUNTRY":"Russia","GID_1":"RUS.63_1","NAME_1":"Saratov","NL_NAME_1":"Саратовскаяобласть","NAME_2":"Bazarno-Karabulakskiyrayon","VARNAME_2":"NA","NL_NAME_2":"Базарно-Карабулакскийрайон","TYPE_2":"Raion","ENGTYPE_2":"District","CC_2":"R37000","HASC_2":"RU.SR.BK"}},{"type":"MultiPolygon","arcs":[[[42,43,44,45,46,47,48,49,50]]],"properties":{"GID_2":"RUS.63.11_1","GID_0":"RUS","COUNTRY":"Russia","GID_1":"RUS.63_1","NAME_1":"Saratov","NL_NAME_1":"Саратовскаяобласть","NAME_2":"Dergachevskiyrayon","VARNAME_2":"NA","NL_NAME_2":"Дергачевскийрайон","TYPE_2":"Raion","ENGTYPE_2":"District","CC_2":"R37001","HASC_2":"RU.SR.DE"}},{"type":"MultiPolygon","arcs":[[[51,52,53,-20,54,55]]],"properties":{"GID_2":"RUS.63.12_1","GID_0":"RUS","COUNTRY":"Russia","GID_1":"RUS.63_1","NAME_1":"Saratov","NL_NAME_1":"Саратовскаяобласть","NAME_2":"Dukhovnitskiyrayon","VARNAME_2":"NA","NL_NAME_2":"Дуковницкийрайон","TYPE_2":"Raion","ENGTYPE_2":"District","CC_2":"R37001","HASC_2":"RU.SR.DU"}},{"type":"MultiPolygon","arcs":[[[56,-12,57,-8,58,59]]],"properties":{"GID_2":"RUS.63.13_1","GID_0":"RUS","COUNTRY":"Russia","GID_1":"RUS.63_1","NAME_1":"Saratov","NL_NAME_1":"Саратовскаяобласть","NAME_2":"Ekaterinovskiyrayon","VARNAME_2":"NA","NL_NAME_2":"Екатериновскийрайон","TYPE_2":"Raion","ENGTYPE_2":"District","CC_2":"R37001","HASC_2":"RU.SR.EK"}},{"type":"MultiPolygon","arcs":[[[60,61]]],"properties":{"GID_2":"RUS.63.14_1","GID_0":"RUS","COUNTRY":"Russia","GID_1":"RUS.63_1","NAME_1":"Saratov","NL_NAME_1":"Саратовскаяобласть","NAME_2":"Engel's","VARNAME_2":"Engels","NL_NAME_2":"Энгельс","TYPE_2":"Gorsovet","ENGTYPE_2":"District","CC_2":"NA","HASC_2":"RU.SR.EG"}},{"type":"MultiPolygon","arcs":[[[-61,62,63,64,65,66,67,68,69,70]],[[71]]],"properties":{"GID_2":"RUS.63.15_1","GID_0":"RUS","COUNTRY":"Russia","GID_1":"RUS.63_1","NAME_1":"Saratov","NL_NAME_1":"Саратовскаяобласть","NAME_2":"Engel'sskiyrayon","VARNAME_2":"NA","NL_NAME_2":"Енгельсскийрайон","TYPE_2":"Raion","ENGTYPE_2":"District","CC_2":"R37003","HASC_2":"RU.SR.ER"}},{"type":"MultiPolygon","arcs":[[[-24,72,73,-46,74,75,76,77,78,79]]],"properties":{"GID_2":"RUS.63.16_1","GID_0":"RUS","COUNTRY":"Russia","GID_1":"RUS.63_1","NAME_1":"Saratov","NL_NAME_1":"Саратовскаяобласть","NAME_2":"Ershovskiyrayon","VARNAME_2":"NA","NL_NAME_2":"Ершовскийрайон","TYPE_2":"Raion","ENGTYPE_2":"District","CC_2":"R37001","HASC_2":"RU.SR.ES"}},{"type":"MultiPolygon","arcs":[[[-79,80,81,82,83,84]]],"properties":{"GID_2":"RUS.63.17_1","GID_0":"RUS","COUNTRY":"Russia","GID_1":"RUS.63_1","NAME_1":"Saratov","NL_NAME_1":"Саратовскаяобласть","NAME_2":"Fedorovskiyrayon","VARNAME_2":"NA","NL_NAME_2":"Федоровскийрайон","TYPE_2":"Raion","ENGTYPE_2":"District","CC_2":"R37003","HASC_2":"RU.SR.FE"}},{"type":"MultiPolygon","arcs":[[[85,86,87,-52]]],"properties":{"GID_2":"RUS.63.18_1","GID_0":"RUS","COUNTRY":"Russia","GID_1":"RUS.63_1","NAME_1":"Saratov","NL_NAME_1":"Саратовскаяобласть","NAME_2":"Ivanteevskiyrayon","VARNAME_2":"NA","NL_NAME_2":"Ивантеевскийрайон","TYPE_2":"Raion","ENGTYPE_2":"District","CC_2":"R37001","HASC_2":"RU.SR.IV"}},{"type":"MultiPolygon","arcs":[[[-9,-58,-11,88,89,90,91,-29]]],"properties":{"GID_2":"RUS.63.19_1","GID_0":"RUS","COUNTRY":"Russia","GID_1":"RUS.63_1","NAME_1":"Saratov","NL_NAME_1":"Саратовскаяобласть","NAME_2":"Kalininskiyrayon","VARNAME_2":"NA","NL_NAME_2":"Калининскийрайон","TYPE_2":"Raion","ENGTYPE_2":"District","CC_2":"R37001","HASC_2":"RU.SR.KA"}},{"type":"MultiPolygon","arcs":[[[92]]],"properties":{"GID_2":"RUS.63.20_1","GID_0":"RUS","COUNTRY":"Russia","GID_1":"RUS.63_1","NAME_1":"Saratov","NL_NAME_1":"Саратовскаяобласть","NAME_2":"Khvalynsk","VARNAME_2":"NA","NL_NAME_2":"Холмск","TYPE_2":"Gorsovet","ENGTYPE_2":"District","CC_2":"NA","HASC_2":"RU.SR.KV"}},{"type":"MultiPolygon","arcs":[[[-55,93,94,95,96],[-93]]],"properties":{"GID_2":"RUS.63.21_1","GID_0":"RUS","COUNTRY":"Russia","GID_1":"RUS.63_1","NAME_1":"Saratov","NL_NAME_1":"Саратовскаяобласть","NAME_2":"Khvalynskiyrayon","VARNAME_2":"NA","NL_NAME_2":"Хвалынскийрайон","TYPE_2":"Raion","ENGTYPE_2":"District","CC_2":"R37003","HASC_2":"RU.SR.KH"}},{"type":"MultiPolygon","arcs":[[[97]]],"properties":{"GID_2":"RUS.63.22_1","GID_0":"RUS","COUNTRY":"Russia","GID_1":"RUS.63_1","NAME_1":"Saratov","NL_NAME_1":"Саратовскаяобласть","NAME_2":"Krasnoarmeysk","VARNAME_2":"NA","NL_NAME_2":"Красноармейск","TYPE_2":"Gorod","ENGTYPE_2":"City","CC_2":"NA","HASC_2":"RU.SR.KG"}},{"type":"MultiPolygon","arcs":[[[-69,98,99,100,101,102],[-98]]],"properties":{"GID_2":"RUS.63.23_1","GID_0":"RUS","COUNTRY":"Russia","GID_1":"RUS.63_1","NAME_1":"Saratov","NL_NAME_1":"Саратовскаяобласть","NAME_2":"Krasnoarmeyskiyrayon","VARNAME_2":"NA","NL_NAME_2":"Красноармейскийрайон","TYPE_2":"Raion","ENGTYPE_2":"District","CC_2":"R37001","HASC_2":"RU.SR.KR"}},{"type":"MultiPolygon","arcs":[[[-67,103,-83,104,105,106]]],"properties":{"GID_2":"RUS.63.24_1","GID_0":"RUS","COUNTRY":"Russia","GID_1":"RUS.63_1","NAME_1":"Saratov","NL_NAME_1":"Саратовскаяобласть","NAME_2":"Krasnokutskiyrayon","VARNAME_2":"NA","NL_NAME_2":"Краснокутскийрайон","TYPE_2":"Raion","ENGTYPE_2":"District","CC_2":"R37001","HASC_2":"RU.SR.KK"}},{"type":"MultiPolygon","arcs":[[[107,108,109,110,111,-48,112,-73]]],"properties":{"GID_2":"RUS.63.25_1","GID_0":"RUS","COUNTRY":"Russia","GID_1":"RUS.63_1","NAME_1":"Saratov","NL_NAME_1":"Саратовскаяобласть","NAME_2":"Krasnopartizanskiyrayon","VARNAME_2":"NA","NL_NAME_2":"Краснопартизанскийрайон","TYPE_2":"Raion","ENGTYPE_2":"District","CC_2":"R37001","HASC_2":"RU.SR.KP"}},{"type":"MultiPolygon","arcs":[[[-18,113,114,115,116,-101,117,-89]]],"properties":{"GID_2":"RUS.63.26_1","GID_0":"RUS","COUNTRY":"Russia","GID_1":"RUS.63_1","NAME_1":"Saratov","NL_NAME_1":"Саратовскаяобласть","NAME_2":"Lysogorskiyrayon","VARNAME_2":"NA","NL_NAME_2":"Лысогорскийрайон","TYPE_2":"Raion","ENGTYPE_2":"District","CC_2":"R37001","HASC_2":"RU.SR.LY"}},{"type":"MultiPolygon","arcs":[[[118]]],"properties":{"GID_2":"RUS.63.27_1","GID_0":"RUS","COUNTRY":"Russia","GID_1":"RUS.63_1","NAME_1":"Saratov","NL_NAME_1":"Саратовскаяобласть","NAME_2":"Marks","VARNAME_2":"NA","NL_NAME_2":"Маркс","TYPE_2":"Gorod","ENGTYPE_2":"City","CC_2":"NA","HASC_2":"RU.SR.MG"}},{"type":"MultiPolygon","arcs":[[[-25,-80,-85,119,120,-65,121,122,123,124],[-119]]],"properties":{"GID_2":"RUS.63.28_1","GID_0":"RUS","COUNTRY":"Russia","GID_1":"RUS.63_1","NAME_1":"Saratov","NL_NAME_1":"Саратовскаяобласть","NAME_2":"Marksovskiyrayon","VARNAME_2":"NA","NL_NAME_2":"Марксовскийрайон","TYPE_2":"Raion","ENGTYPE_2":"District","CC_2":"R37002","HASC_2":"RU.SR.MR"}},{"type":"MultiPolygon","arcs":[[[125,-41,126,127,128,129]]],"properties":{"GID_2":"RUS.63.29_1","GID_0":"RUS","COUNTRY":"Russia","GID_1":"RUS.63_1","NAME_1":"Saratov","NL_NAME_1":"Саратовскаяобласть","NAME_2":"Novoburasskiyrayon","VARNAME_2":"NA","NL_NAME_2":"Новобурасскийрайон","TYPE_2":"Raion","ENGTYPE_2":"District","CC_2":"R37002","HASC_2":"RU.SR.NB"}},{"type":"MultiPolygon","arcs":[[[130,-76,131,-44,132,-2,133]]],"properties":{"GID_2":"RUS.63.30_1","GID_0":"RUS","COUNTRY":"Russia","GID_1":"RUS.63_1","NAME_1":"Saratov","NL_NAME_1":"Саратовскаяобласть","NAME_2":"Novouzenskiyrayon","VARNAME_2":"NA","NL_NAME_2":"Новоузенскийрайон","TYPE_2":"Raion","ENGTYPE_2":"District","CC_2":"R37002","HASC_2":"RU.SR.NU"}},{"type":"MultiPolygon","arcs":[[[-51,134]],[[-49,-112,135,136,137,138]]],"properties":{"GID_2":"RUS.63.31_1","GID_0":"RUS","COUNTRY":"Russia","GID_1":"RUS.63_1","NAME_1":"Saratov","NL_NAME_1":"Саратовскаяобласть","NAME_2":"Ozinskiyrayon","VARNAME_2":"NA","NL_NAME_2":"Озинскийрайон","TYPE_2":"Raion","ENGTYPE_2":"District","CC_2":"R37002","HASC_2":"RU.SR.OZ"}},{"type":"MultiPolygon","arcs":[[[-138,139,140,-87,141]]],"properties":{"GID_2":"RUS.63.32_1","GID_0":"RUS","COUNTRY":"Russia","GID_1":"RUS.63_1","NAME_1":"Saratov","NL_NAME_1":"Саратовскаяобласть","NAME_2":"Perelyubskiyrayon","VARNAME_2":"NA","NL_NAME_2":"Перелюбскийрайон","TYPE_2":"Raion","ENGTYPE_2":"District","CC_2":"R37002","HASC_2":"RU.SR.PE"}},{"type":"MultiPolygon","arcs":[[[142]]],"properties":{"GID_2":"RUS.63.33_1","GID_0":"RUS","COUNTRY":"Russia","GID_1":"RUS.63_1","NAME_1":"Saratov","NL_NAME_1":"Саратовскаяобласть","NAME_2":"Petrovsk","VARNAME_2":"NA","NL_NAME_2":"Петровск","TYPE_2":"Gorod","ENGTYPE_2":"City","CC_2":"NA","HASC_2":"RU.SR.PT"}},{"type":"MultiPolygon","arcs":[[[-130,143,-15,144,-13,-57,145],[-143]]],"properties":{"GID_2":"RUS.63.34_1","GID_0":"RUS","COUNTRY":"Russia","GID_1":"RUS.63_1","NAME_1":"Saratov","NL_NAME_1":"Саратовскаяобласть","NAME_2":"Petrovskiyrayon","VARNAME_2":"NA","NL_NAME_2":"Петровскийрайон","TYPE_2":"Raion","ENGTYPE_2":"District","CC_2":"R37002","HASC_2":"RU.SR.PV"}},{"type":"MultiPolygon","arcs":[[[146,-105,-82,147,-77,-131]]],"properties":{"GID_2":"RUS.63.35_1","GID_0":"RUS","COUNTRY":"Russia","GID_1":"RUS.63_1","NAME_1":"Saratov","NL_NAME_1":"Саратовскаяобласть","NAME_2":"Piterskiyrayon","VARNAME_2":"NA","NL_NAME_2":"Питерскийрайон","TYPE_2":"Raion","ENGTYPE_2":"District","CC_2":"R37002","HASC_2":"RU.SR.PI"}},{"type":"MultiPolygon","arcs":[[[148]]],"properties":{"GID_2":"RUS.63.36_1","GID_0":"RUS","COUNTRY":"Russia","GID_1":"RUS.63_1","NAME_1":"Saratov","NL_NAME_1":"Саратовскаяобласть","NAME_2":"Pugachev","VARNAME_2":"NA","NL_NAME_2":"Пугачев","TYPE_2":"Gorod","ENGTYPE_2":"City","CC_2":"NA","HASC_2":"RU.SR.PG"}},{"type":"MultiPolygon","arcs":[[[-22,149,-53,-88,-141,150,-136,-111,151,-109,152],[-149]]],"properties":{"GID_2":"RUS.63.37_1","GID_0":"RUS","COUNTRY":"Russia","GID_1":"RUS.63_1","NAME_1":"Saratov","NL_NAME_1":"Саратовскаяобласть","NAME_2":"Pugachevskiyrayon","VARNAME_2":"NA","NL_NAME_2":"Пугачевскийрайон","TYPE_2":"Raion","ENGTYPE_2":"District","CC_2":"R37002","HASC_2":"RU.SR.PR"}},{"type":"MultiPolygon","arcs":[[[-5,153,-33,154,155]]],"properties":{"GID_2":"RUS.63.38_1","GID_0":"RUS","COUNTRY":"Russia","GID_1":"RUS.63_1","NAME_1":"Saratov","NL_NAME_1":"Саратовскаяобласть","NAME_2":"Romanovskiyrayon","VARNAME_2":"NA","NL_NAME_2":"Романовскийрайон","TYPE_2":"Raion","ENGTYPE_2":"District","CC_2":"R37002","HASC_2":"RU.SR.RM"}},{"type":"MultiPolygon","arcs":[[[-68,-107,156,-99]]],"properties":{"GID_2":"RUS.63.39_1","GID_0":"RUS","COUNTRY":"Russia","GID_1":"RUS.63_1","NAME_1":"Saratov","NL_NAME_1":"Саратовскаяобласть","NAME_2":"Rovenskiyrayon","VARNAME_2":"NA","NL_NAME_2":"Ровенскийрайон","TYPE_2":"Raion","ENGTYPE_2":"District","CC_2":"R37002","HASC_2":"RU.SR.RV"}},{"type":"MultiPolygon","arcs":[[[157]]],"properties":{"GID_2":"RUS.63.40_1","GID_0":"RUS","COUNTRY":"Russia","GID_1":"RUS.63_1","NAME_1":"Saratov","NL_NAME_1":"Саратовскаяобласть","NAME_2":"Rtishchevo","VARNAME_2":"NA","NL_NAME_2":"Ртищево","TYPE_2":"Gorod","ENGTYPE_2":"City","CC_2":"NA","HASC_2":"RU.SR.RG"}},{"type":"MultiPolygon","arcs":[[[-59,-7,158,159],[-158]]],"properties":{"GID_2":"RUS.63.41_1","GID_0":"RUS","COUNTRY":"Russia","GID_1":"RUS.63_1","NAME_1":"Saratov","NL_NAME_1":"Саратовскаяобласть","NAME_2":"Rtishchevskiyrayon","VARNAME_2":"NA","NL_NAME_2":"Ртищевскийрайон","TYPE_2":"Raion","ENGTYPE_2":"District","CC_2":"R37003","HASC_2":"RU.SR.RG"}},{"type":"MultiPolygon","arcs":[[[-31,160,-91,161]]],"properties":{"GID_2":"RUS.63.42_1","GID_0":"RUS","COUNTRY":"Russia","GID_1":"RUS.63_1","NAME_1":"Saratov","NL_NAME_1":"Саратовскаяобласть","NAME_2":"Samoylovskiyrayon","VARNAME_2":"NA","NL_NAME_2":"Самойловскийрайон","TYPE_2":"Raion","ENGTYPE_2":"District","CC_2":"R37003","HASC_2":"RU.SR.SA"}},{"type":"MultiPolygon","arcs":[[[-17,162,163,164,165,166,-70,-103,-116,167,-114]]],"properties":{"GID_2":"RUS.63.43_1","GID_0":"RUS","COUNTRY":"Russia","GID_1":"RUS.63_1","NAME_1":"Saratov","NL_NAME_1":"Саратовскаяобласть","NAME_2":"Saratovskiyrayon","VARNAME_2":"NA","NL_NAME_2":"Саратовскийрайон","TYPE_2":"Raion","ENGTYPE_2":"District","CC_2":"R37003","HASC_2":"RU.SR.SR"}},{"type":"MultiPolygon","arcs":[[[-66,168,-120,-84,-104]]],"properties":{"GID_2":"RUS.63.44_1","GID_0":"RUS","COUNTRY":"Russia","GID_1":"RUS.63_1","NAME_1":"Saratov","NL_NAME_1":"Саратовскаяобласть","NAME_2":"Sovetskiyrayon","VARNAME_2":"NA","NL_NAME_2":"Советскийрайон","TYPE_2":"Raion","ENGTYPE_2":"District","CC_2":"R37003","HASC_2":"RU.SR.SO"}},{"type":"MultiPolygon","arcs":[[[-16,-144,-129,169,-163]]],"properties":{"GID_2":"RUS.63.45_1","GID_0":"RUS","COUNTRY":"Russia","GID_1":"RUS.63_1","NAME_1":"Saratov","NL_NAME_1":"Саратовскаяобласть","NAME_2":"Tatishchevskiyrayon","VARNAME_2":"NA","NL_NAME_2":"Татищевскийрайон","TYPE_2":"Raion","ENGTYPE_2":"District","CC_2":"R37003","HASC_2":"RU.SR.TA"}},{"type":"MultiPolygon","arcs":[[[-6,-156,170,-159]]],"properties":{"GID_2":"RUS.63.46_1","GID_0":"RUS","COUNTRY":"Russia","GID_1":"RUS.63_1","NAME_1":"Saratov","NL_NAME_1":"Саратовскаяобласть","NAME_2":"Turkovskiyrayon","VARNAME_2":"NA","NL_NAME_2":"Турковскийрайон","TYPE_2":"Raion","ENGTYPE_2":"District","CC_2":"R37003","HASC_2":"RU.SR.TU"}},{"type":"MultiPolygon","arcs":[[[171]]],"properties":{"GID_2":"RUS.63.47_1","GID_0":"RUS","COUNTRY":"Russia","GID_1":"RUS.63_1","NAME_1":"Saratov","NL_NAME_1":"Саратовскаяобласть","NAME_2":"Vol'sk","VARNAME_2":"Volsk","NL_NAME_2":"Вольск","TYPE_2":"Gorsovet","ENGTYPE_2":"District","CC_2":"NA","HASC_2":"RU.SR.VG"}},{"type":"MultiPolygon","arcs":[[[-27,172,173,174,175,-38,-36,176,-96,177,-94],[-172]]],"properties":{"GID_2":"RUS.63.48_1","GID_0":"RUS","COUNTRY":"Russia","GID_1":"RUS.63_1","NAME_1":"Saratov","NL_NAME_1":"Саратовскаяобласть","NAME_2":"Vol'skiyrayon","VARNAME_2":"NA","NL_NAME_2":"Вольскийрайон","TYPE_2":"Raion","ENGTYPE_2":"District","CC_2":"R37000","HASC_2":"RU.SR.VR"}},{"type":"MultiPolygon","arcs":[[[-40,178,-175,179,-123,180,-165,-127]]],"properties":{"GID_2":"RUS.63.49_1","GID_0":"RUS","COUNTRY":"Russia","GID_1":"RUS.63_1","NAME_1":"Saratov","NL_NAME_1":"Саратовскаяобласть","NAME_2":"Voskresenskiyrayon","VARNAME_2":"NA","NL_NAME_2":"Воскресенскийрайон","TYPE_2":"Raion","ENGTYPE_2":"District","CC_2":"R37000","HASC_2":"RU.SR.VO"}}]}},"arcs":[[[732621,240096],[5602,-52004],[1804,-28578],[1971,-11201],[7526,-25044],[-2897,-23028],[4064,-5484],[7586,-2710],[312,-6607],[2729,-13976],[-420,-2709],[-16712,-29207],[-36271,-29339],[-72,-8722],[-986,-1487],[-3559,2643],[-144,3833],[-1996,3535],[-3486,-2808],[-974,6145],[-1779,1321],[-1611,5650],[-2116,826],[-2573,-2940],[-6600,3568],[793,4262],[-914,7764],[-3270,10209],[-3210,4229],[-1767,9483],[-2284,4096],[-3559,29273]],[[667808,91089],[13020,9020],[2645,33865],[3559,19890],[7526,2643],[3943,39184],[-9077,15099],[2453,35220],[19212,3932],[5013,-30859],[3643,-2180],[12876,23193]],[[166234,602867],[-17697,24846],[-517,23590],[-4400,-1190],[-21148,-22004],[-25042,18106],[-15473,7863],[-698,7566],[-5674,8755]],[[75585,670399],[6696,7368]],[[82281,677767],[14608,25870]],[[96889,703637],[4604,12224],[1659,11994],[-12022,21773],[3029,32444]],[[94159,782072],[4533,-2147],[9894,2577],[9606,-5121],[6709,-8756],[2681,-7401],[2837,5320],[5530,17378],[5014,-1321],[10351,-16090],[7189,11563],[3607,-5682],[-1226,-11069],[4821,-15726],[-4172,-12985],[1214,-10044],[15497,-6475]],[[178244,716093],[1779,-14240],[5410,-23293],[-1358,-32180]],[[184075,646380],[-10015,-16751],[-372,-5947],[5578,-8888],[-4677,-12158],[-8355,231]],[[301365,672018],[-1070,-925],[-1550,3139],[2777,132],[-157,-2346]],[[257544,610301],[-13598,20418]],[[243946,630719],[2261,14471],[6167,16421],[4965,-1454],[2417,4361],[2284,12787],[4797,10407],[-3246,20121],[-9810,25671],[16458,29604],[12468,34460],[6408,6244]],[[289115,803812],[17252,-22929],[-2898,-6906],[-10459,-1288],[1635,-10936],[-3402,-6079]],[[291243,755674],[2645,-12555]],[[293888,743119],[4340,11167],[3474,1024],[5639,-14174],[12467,-3700],[8091,-13249],[7959,-1387],[2536,-4163],[1599,-12654],[17385,-298]],[[357378,705685],[10063,-16651],[-9390,-4494],[-4833,-15396],[6552,-14207],[-7357,-7830],[-7286,-16289],[-8644,-25671],[4496,-7500],[-1815,-16982]],[[339164,580665],[-2910,-5154]],[[336254,575511],[-26268,15165],[-5819,-8690],[-6889,-264],[-19428,18601],[-4425,628],[-4869,-5319],[-11012,14669]],[[645663,724154],[-16916,-32246],[-4159,2412],[2332,26134],[4821,6310],[13922,-2610]],[[662747,824164],[4472,-4427],[373,-12786],[6913,-8789],[15941,-7467],[19489,-3403],[3378,-9548]],[[713313,777744],[-6504,-529]],[[706809,777215],[-5591,-7433],[-2633,-10970],[-1659,-14438],[10376,-9845],[3342,-12985],[-3306,-28876],[3859,-12159]],[[711197,680509],[-27339,2115]],[[683858,682624],[-3066,-8425],[-5674,-26266],[336,-19692],[2814,-22367],[-41153,-925]],[[637115,604949],[-8885,8887],[-3426,11201],[-6937,231],[-8993,-15099],[-3979,132],[-13802,27687],[-2921,17147],[-6444,7831],[-2453,7731],[6492,9185],[24,5121],[-9918,12158],[-8404,19758]],[[567469,716919],[10027,15132]],[[577496,732051],[16050,13248],[10014,3172],[6481,-1024],[10916,-12225],[5001,1553],[14151,21707],[14835,37863],[7803,27819]],[[84818,562394],[-10027,-8557],[-7417,37929],[7333,1916],[10111,-31288]],[[166234,602867],[-7166,-9812],[-9137,-8293],[-3775,-7038],[5591,-10539],[8019,-9515],[-1816,-6873],[-3342,-4493]],[[154608,546304],[-5590,-13910]],[[149018,532394],[-13165,-198],[-2669,10738],[-5266,-4625],[-7550,-12456],[-4316,-2908],[-1551,4097],[-5290,-3006],[-4640,-10507],[-11313,4857],[-2669,-10341],[-6721,-3998],[-6023,7863],[-421,16817],[-6179,-6476],[-3487,-15528],[3114,-8128],[6071,-9515],[1287,-13381],[-2549,-15396],[-4196,-9714]],[[71485,450589],[-6504,8624],[-6504,12621],[-6600,1751],[-2886,4262],[253,7235],[-3318,9350],[1346,28778],[-2200,9019],[-9185,21079],[-16483,6476],[-6780,5815],[-8404,18039]],[[4220,583638],[8067,2577],[11000,-7268],[8212,-12621],[3486,-2181],[11109,21410],[10856,31486],[13922,46123]],[[70872,663164],[4713,7235]],[[453256,934647],[3006,10209],[6540,9384],[6576,2577],[6589,-5881],[10099,13612],[7093,1718],[4051,-8458],[998,-13579],[13646,-7632],[7562,-9350],[6576,5914]],[[525992,933161],[-1058,-20353],[6997,-25506],[1984,-13579],[9485,-21310],[1984,-8524],[-5049,-6740],[-529,-7633],[6997,-10275],[-4028,-6740],[-9053,-8425],[-7502,925],[505,7632],[-15028,3503]],[[511697,816136],[-4496,14438],[-15064,25473],[-16591,17742],[1491,11035],[-6036,1652],[1479,24614],[-13116,1586],[-4040,3337],[-2068,18634]],[[511697,816136],[-4027,-11895],[2993,-10176],[5002,-10209],[1983,-10209]],[[517648,773647],[3499,-5980]],[[521147,767667],[-6504,-12687],[-15990,-18634],[-5494,-11035],[-6961,-20353],[-17385,-14471]],[[468813,690487],[-4027,22071],[-72,30561],[-3030,16949],[-10003,10110],[-3522,9284],[-1539,9317],[974,10176],[-15112,28645],[-2549,9284],[1948,13579],[-7538,2445],[-5423,-21277],[-6540,5815],[5410,21277]],[[417790,858723],[3980,10242],[-6192,28678],[6504,9450],[8055,1817],[2982,10209],[5506,9416],[13634,-694],[997,6806]],[[817607,401394],[-2693,-7963],[181,-2742],[5446,-10374],[5073,-20451],[1106,-6179],[-397,-4559],[-10110,-7434],[-7262,-1090],[-5422,-8161],[-13153,-6244],[-5734,-8425],[-7550,-16751]],[[777092,301021],[-81560,29272],[-854,9714]],[[694678,340007],[-9305,2114]],[[685373,342121],[28745,41035],[21232,39317],[4196,48006],[-12780,727],[7550,24515],[8861,-496],[3498,9251],[7358,-3039],[5181,28942],[-8812,7401],[-866,12092],[4076,13513]],[[753612,563385],[17769,628]],[[771381,564013],[673,16288],[9907,2776],[8391,-43513],[17709,-1222],[7743,27852],[11289,-3403]],[[827093,562791],[-229,-17181],[7190,-52268],[-1263,-24052],[5771,-9119],[-2128,-15364],[-2488,-4129],[-7298,3138],[-5975,-9912],[3619,-4129]],[[824292,429775],[-3607,-3668],[613,-11564]],[[821298,414543],[-5290,-8821],[1599,-4328]],[[763326,897974],[-1154,-36575],[-5530,-528],[-5374,9647],[-11614,-3667]],[[739654,866851],[-6913,-24383],[-1274,-18667],[5831,-12258],[-8332,-23458],[-6035,-1387],[-5110,-8293]],[[717821,778405],[-4508,-661]],[[662747,824164],[7850,29504],[3763,21145],[11987,32709],[5470,32114]],[[691817,939636],[3462,-6112],[17000,22235],[6528,-2808],[5038,-1949],[6840,-13910],[8115,1289],[5879,-10474],[866,-8557],[2933,-5286],[14848,-16090]],[[292974,850529],[-6156,-24845],[3090,-6608],[-793,-15264]],[[243946,630719],[-7417,2115],[-9318,-3073],[-15629,21839],[-11926,-21905],[-7430,2049],[3246,11200],[-11397,3436]],[[178244,716093],[8223,9878],[14127,38161],[-4076,4790],[890,5155],[11986,23623],[8476,25902]],[[217870,823602],[5855,7137],[4652,18898],[11855,9152],[4700,17214],[-637,7566],[1335,9383],[5013,297],[5602,-3931],[6192,-9813],[6047,-1388],[6949,5419],[6624,-5617],[7214,-13183],[3703,-14207]],[[431075,549971],[7466,9615],[842,-19626],[-6757,-24151],[-9209,66]],[[423417,515875],[-5446,5055],[13104,29041]],[[431075,549971],[17733,30859]],[[448808,580830],[29106,36608]],[[477914,617438],[5014,-27258],[5975,-15363],[14847,5022],[8909,6707],[10399,4163],[4461,-925],[986,-3436],[-4449,-7599],[-5927,-15265]],[[518129,563484],[-21688,-33865],[3005,-13678],[-4376,-21277],[1022,-6839],[11409,-18073],[-420,-19658],[-4821,-23888]],[[502260,426206],[-5422,925],[-3475,6047],[-7394,925],[-13705,-13513],[-2405,-7665],[3595,-24846],[4460,-21509]],[[477914,366570],[-9185,-5814],[-9341,2676],[-8909,8623],[-1587,16222],[-4592,23062],[7237,21310],[-2476,2577],[-11217,-14504],[-9811,-3403],[-21676,8425]],[[406357,425744],[-8488,17775],[-1130,18733]],[[396739,462252],[5723,23854]],[[402462,486106],[15701,34659],[5254,-4890]],[[423633,533683],[-240,-529],[6720,15132],[-6480,-14603]],[[683858,682624],[6672,-32775],[14427,3568],[2898,-8689],[-13081,-19923],[1371,-14603],[15894,4361],[-445,-54845],[13236,-13612],[20883,17742]],[[745713,563848],[7899,-463]],[[685373,342121],[-38676,9318]],[[646697,351439],[-2080,4030]],[[644617,355469],[793,9549],[-12106,6740],[-3919,-8822]],[[629385,362936],[-8380,1586]],[[621005,364522],[-1070,19824],[9822,4724],[6865,6608],[18214,34493],[-4424,7929],[9870,18469],[-469,7765],[-3919,8755],[2969,6740],[4954,4923],[8379,2214],[2537,16189],[60,13744],[-10856,463],[-10387,-5551],[-15293,6641],[2068,23920],[-457,12853],[-14258,23623]],[[625610,578848],[11421,7301],[84,18800]],[[621005,364522],[-22626,-1718]],[[598379,362804],[-11385,32213]],[[586994,395017],[2416,19659],[469,18006],[-8897,17445],[-7381,-628],[-4449,4394]],[[569152,453893],[-1995,13778],[-14824,26035],[-2489,9449],[7394,10969],[1479,19625]],[[558717,533749],[14343,-4625],[8403,14306],[15846,4691],[6408,-9614],[2981,1619],[16399,29405],[2513,9317]],[[763326,897974],[8284,-14934],[26329,8689],[14030,-2577],[5963,-3799],[6360,-8095],[2368,-6145],[-4713,-9053],[6360,-8094],[4304,-9681],[8440,-3172],[2380,16916],[6060,1289],[7213,-13315],[-1202,-8458],[1142,-16321],[1791,-8690],[14211,-12158],[7177,-13381]],[[879823,786995],[-11060,-4295],[4111,-16553],[-23624,-34162],[373,-6047]],[[849623,725938],[-13886,27555],[5290,15000],[-2405,4460],[-23684,-12918],[-3414,4526],[-6901,32048],[-16350,8690],[-11049,-2743],[-7490,1289],[-5182,19923],[-6816,12290],[-15293,17015],[-2789,13778]],[[257544,610301],[-1924,-3469],[1419,-32048],[5314,6211],[5470,-3964],[-1791,-13613],[5121,-16684],[-6167,-16355],[168,-13513],[6023,-11564],[169,-13513],[-2297,-12786],[5579,-15826],[-842,-10341]],[[273786,452836],[-12756,2841],[-8608,-13942],[-4412,2313],[-6083,16618],[-13670,-727],[-8211,-4691],[-4893,1421],[-2898,-1884]],[[212255,454785],[-4532,10837],[-1647,12555],[-6047,11432],[-5867,1321],[-3475,3965],[193,17742],[-2573,7434],[-12684,-892],[-288,-10969],[-3307,-6146],[-4808,-3733],[-650,9218],[-2104,8293],[-10375,6806],[-2248,15033]],[[151843,537681],[2765,8623]],[[671018,878811],[-1815,-297],[-493,2213],[1839,2280],[890,-1850],[-421,-2346]],[[662747,824164],[-12119,-8095],[-8103,-8259],[-5590,-9185]],[[636935,798625],[-12335,25044]],[[624600,823669],[3210,23722],[-1443,7698],[-6408,16321],[-5855,22269],[1130,15231],[-914,13612],[578,7665]],[[614898,930187],[4532,-2676],[9498,-11300],[6131,8326],[-914,10209],[-5410,16289],[2633,11002],[6192,11696],[4556,-958],[6949,-13811],[9654,3932],[7406,25242],[11097,-3767],[13910,15628],[4063,-165],[6973,-8789],[1972,-3469],[-96,-6806],[-10484,-25077],[-1623,-7566],[-120,-8491]],[[381483,397099],[-1070,-198],[-325,2841],[2729,-595],[-1334,-2048]],[[406357,425744],[9065,-28910],[4857,-50351],[-866,-13646],[-2801,-13678],[-6684,-10440]],[[409928,308719],[-7418,7698],[-9822,1652],[-6300,-5980],[-4797,-8557],[-866,-10276],[9618,-28116],[-4268,-11101],[-36716,5716],[-11554,-12093],[-7309,-958],[-5531,12687],[-2344,30561],[7706,8657],[5230,11167],[2777,13645],[84,34857],[-10952,18402],[-1166,16950],[-2561,10969],[-3510,7533],[-7923,8259],[-1034,5055]],[[311272,425446],[4725,13877],[-1227,23689],[4389,958],[5434,-4064]],[[324593,459906],[10700,8789]],[[335293,468695],[10483,-19262],[21484,12357],[17721,-4791],[11758,5253]],[[502260,426206],[1887,-10110],[32509,-5980],[3907,20385],[28589,23392]],[[586994,395017],[-8801,-16883],[3968,-12191],[-950,-6839],[-14656,-16718],[-10122,-33238],[-5002,-48600],[-5398,-9251],[-3270,826],[-4340,-4196],[-6744,-11994]],[[531679,235933],[-7202,15066],[770,12588],[-6685,11993],[-6877,1884],[-15316,14933],[-6324,-5881],[-938,-5121]],[[489107,281395],[-8211,29537],[1899,8558],[866,15396],[-5747,31684]],[[683858,682624],[12912,-2313],[23877,595]],[[720647,680906],[11036,7962],[7586,10705],[4725,17709],[3487,694],[13104,-23854],[2188,13579]],[[762773,707701],[31859,-30198]],[[794632,677503],[13081,-20584],[6540,-26200],[8921,1124],[264,-14637],[-4965,-1354],[1527,-31057],[8728,-10936]],[[828728,573859],[-1635,-11068]],[[771381,564013],[-25668,-165]],[[336254,575511],[-2945,-1817],[-13573,-20749],[-1876,-10242],[16242,-331],[14391,-13975],[3126,-18568],[-3330,-12820]],[[348289,497009],[-5338,-7764],[-5771,-12026]],[[337180,477219],[-1887,-8524]],[[335293,468695],[-3391,-4328],[-7309,-4461]],[[311272,425446],[-3042,8359],[-14198,2082],[-11470,18997],[-8776,-2048]],[[508042,623252],[-2067,-165],[-12,3007],[1671,1189],[408,-4031]],[[558717,533749],[-12864,24185],[-10411,14669]],[[535442,572603],[-17313,-9119]],[[477914,617438],[5434,5914]],[[483348,623352],[21821,8392],[27808,15065],[9954,10077],[15990,35485]],[[558921,692371],[4028,16982]],[[562949,709353],[4520,7566]],[[407151,864340],[5121,-6575],[5518,958]],[[468813,690487],[-12924,-5121],[-5975,3337],[-3967,-3436],[-986,-5088],[-4436,-7665]],[[440525,672514],[-12023,23623],[-21051,31916]],[[407451,728053],[-12022,11630],[-8464,661]],[[386965,740344],[-13117,21706],[5976,3536],[18430,2940],[-529,4229],[-12672,29372],[-2092,13480],[902,13579],[10015,1949],[2921,13613],[4437,11101],[5915,8491]],[[617446,196385],[4509,44438],[589,16817],[6768,10110],[5651,15958],[3799,3403],[-4568,21542],[10423,46816]],[[646697,351439],[47981,-11432]],[[777092,301021],[-8416,-19626],[-8524,-8590],[-5181,-10738],[-5627,6278],[-9305,1288],[-8139,13117],[-6541,330],[-2416,-5121],[120,-4361],[1359,-4559],[7766,-7599],[1803,-8425],[-1370,-12919]],[[667808,91089],[-1791,6278],[-5122,2808],[-1911,6244],[-4376,6542],[-553,9317],[-3751,6608],[-962,7037],[-11494,22632],[-3667,9152],[-408,5485],[-4605,1090],[-5169,10936],[1070,3700],[-7623,7467]],[[821298,414543],[265,-1916],[-3956,-11233]],[[828728,573859],[7550,10605],[5987,4725],[13766,-2775],[2080,6740],[-6216,11663],[-878,6938],[-6732,10804],[-842,8656],[4942,-364],[649,9384]],[[849034,640235],[26148,-2875]],[[875182,637360],[12840,-25969],[5254,16751],[12227,-5352],[7454,-21310],[8812,-2511],[661,7698],[8224,16486],[5674,-10870],[3054,-18369],[8716,-5981],[10243,17974],[4978,-8524]],[[963319,597383],[-2285,-5947],[-2945,1354],[-1683,-9284],[-1166,-16453],[2825,-11168],[-289,-4856],[-5734,-66],[-397,-11696],[-13321,-2016],[2573,-4823],[120,-3271],[-4616,-8227],[2404,-10242],[2212,-2842],[-16976,-15495],[-9040,-3469],[-26642,-17346],[-23828,-39515],[-17024,3271],[-10856,-5385],[-10051,7037],[-649,-6443],[-1659,-726]],[[875182,637360],[-3438,1124]],[[871744,638484],[926,23127],[-6240,34790],[-6360,4758],[-5025,21839],[-5422,2940]],[[879823,786995],[18430,-628],[8152,-13513],[10447,0],[5831,-5650],[-3198,-8292],[7466,-19494],[5807,-5682],[8584,5253],[15990,-14339],[17696,-5154],[8092,-11927],[5109,-29736],[11770,-20980],[-3150,-15892],[-7850,6344],[-3391,-463],[-926,-4493],[-529,-8392],[806,-12720],[6648,-8590],[-1478,-20782],[-3138,-6806],[-10676,-2148],[6215,12555],[-84,6278],[-15016,5220],[-2921,-595],[-1190,-8986]],[[347075,817754],[-4605,-528],[-1082,18072],[13645,-6641],[-7958,-10903]],[[386965,740344],[-16363,-9747],[-10038,11597],[-2958,-3469],[7081,-15033],[-2416,-9383],[-4893,-8624]],[[293888,743119],[-1539,4163],[-1106,8392]],[[292974,850529],[11217,-14735],[4881,10341],[3342,12852],[7959,5386],[4580,-5749],[8536,-529],[7935,8756],[9582,-5584],[8031,231],[17805,34394],[5530,-694],[7659,-14173],[6564,-4097],[10556,-12588]],[[617446,196385],[-2260,1851],[-4580,10308],[-8705,8061],[-5049,-2147],[-7923,-13315],[-1202,-6377],[-7298,-3403],[-9582,694],[-8187,19130],[-589,11696],[-8259,1520],[-5615,-1751],[-2957,-6740],[-7707,9151],[-5854,10870]],[[598379,362804],[31006,132]],[[763314,740410],[-7670,-14273],[-10231,264],[-5783,12324],[14150,21739],[6913,-9878],[2621,-10176]],[[706809,777215],[11012,1190]],[[871744,638484],[-22710,1751]],[[794632,677503],[-19079,19163],[-12780,11035]],[[720647,680906],[-9450,-397]],[[82281,677767],[-11409,-14603]],[[4220,583638],[-4220,18139],[2308,18865],[15942,38095],[4472,14008],[229,22037],[12972,41134]],[[35923,735916],[8776,-10143],[3715,-7268],[217,-6740],[9666,-8359],[18382,-2478],[13261,3766],[6949,-1057]],[[489107,281395],[-2248,-21442],[-12058,-17808],[-6889,1850],[-9871,7037],[-3354,-5980],[-11133,-11002],[-7814,-1619],[-5014,10341],[-637,12820],[2309,12852],[-109,10275],[-5987,10308],[-10868,8591],[-5506,11101]],[[160054,818316],[-4761,-15495],[-12623,3469],[2452,15165],[14932,-3139]],[[94159,782072],[-577,2478],[14055,13943],[2789,7037],[-12720,8194],[-16182,21442],[-17998,-16057],[-10976,562]],[[52550,819671],[3763,20121],[7550,4559],[2897,3998],[1792,7335],[5253,826],[6986,16750],[8018,727],[4232,-6409],[2790,-9086],[7369,-11233],[7671,-5287],[6383,4791],[4701,10539],[9402,4989],[7526,-231],[3871,5386],[9930,4129],[18118,-23226],[24670,-5881],[16447,-20947],[5951,2081]],[[149018,532394],[2825,5287]],[[212255,454785],[-13729,-25275],[-8740,-561],[-5254,-6245],[-3511,7368],[1852,5187],[2188,14471],[-3968,4791],[-7718,-3899],[-2296,-7764],[-6673,-7202],[-10760,4262],[-7129,-8095],[-5627,-10540],[-5710,-5517],[-8668,-2379],[-6565,-10639],[-4292,-2874],[-6323,1982],[-7394,6939],[-14066,23986],[-16387,17808]],[[339164,580665],[30765,-24614],[5410,2643],[11205,19724],[8404,-694],[2428,4295],[-1058,13547],[9847,5253],[12503,18006],[1683,15264],[-1587,17808],[5410,11102],[7334,26398]],[[431508,689397],[9017,-16883]],[[440525,672514],[4508,-12720],[1058,-16949],[5578,-34824],[5026,-18667]],[[456695,589354],[-7887,-8524]],[[448808,580830],[-19608,-34130],[-26738,-60594]],[[337180,477219],[11109,19790]],[[518129,563484],[14343,9185],[2970,-66]],[[407451,728053],[11025,-15099],[13032,-23557]],[[35923,735916],[1419,9152],[-421,19692],[15316,43644],[313,11267]],[[587234,749264],[-15389,-21740],[-7454,13976],[7599,16420],[15244,-8656]],[[577496,732051],[-14547,-22698]],[[562949,709353],[-2008,-8458]],[[560941,700895],[-16879,32543],[-10472,6080],[-5470,16189]],[[528120,755707],[-10472,17940]],[[525992,933161],[6083,6740],[6060,-1718],[3510,-5981],[2501,-7665],[986,-8491],[5061,3337],[3559,5914],[5049,-66],[5999,-10242],[8608,2412],[13574,-7863],[12250,18435],[8115,4923],[7551,-2709]],[[624600,823669],[6408,-14637],[5927,-10407]],[[521147,767667],[6973,-11960]],[[560941,700895],[-2020,-8524]],[[483348,623352],[-10880,-11895],[-15773,-22103]]],"bbox":[42.545,49.8071,50.8628,52.8338],"transform":{"scale":[0.000008317808317808316,0.000003026703026703025],"translate":[42.545,49.8071]}}