{"type":"Topology","objects":{"muni":{"type":"GeometryCollection","geometries":[{"type":"MultiPolygon","arcs":[[[0,1,2,3,4,5]]],"properties":{"GID_2":"RUS.64.1_1","GID_0":"RUS","COUNTRY":"Russia","GID_1":"RUS.64_1","NAME_1":"Smolensk","NL_NAME_1":"Смоленскаяобласть","NAME_2":"Demidovskiyrayon","VARNAME_2":"NA","NL_NAME_2":"Демидовскийрайон","TYPE_2":"Raion","ENGTYPE_2":"District","CC_2":"R17000","HASC_2":"RU.SM.DM"}},{"type":"MultiPolygon","arcs":[[[6]]],"properties":{"GID_2":"RUS.64.2_1","GID_0":"RUS","COUNTRY":"Russia","GID_1":"RUS.64_1","NAME_1":"Smolensk","NL_NAME_1":"Смоленскаяобласть","NAME_2":"Desnogorsk","VARNAME_2":"NA","NL_NAME_2":"Десногорск","TYPE_2":"Gorod","ENGTYPE_2":"City","CC_2":"NA","HASC_2":"RU.SM.DS"}},{"type":"MultiPolygon","arcs":[[[7,8,9,10,11,12,13,14]]],"properties":{"GID_2":"RUS.64.3_1","GID_0":"RUS","COUNTRY":"Russia","GID_1":"RUS.64_1","NAME_1":"Smolensk","NL_NAME_1":"Смоленскаяобласть","NAME_2":"Dorogobuzhskiyrayon","VARNAME_2":"NA","NL_NAME_2":"Дорогобужскийрайон","TYPE_2":"Raion","ENGTYPE_2":"District","CC_2":"R17000","HASC_2":"RU.SM.DO"}},{"type":"MultiPolygon","arcs":[[[-2,15,16,17,18,19,20]]],"properties":{"GID_2":"RUS.64.4_1","GID_0":"RUS","COUNTRY":"Russia","GID_1":"RUS.64_1","NAME_1":"Smolensk","NL_NAME_1":"Смоленскаяобласть","NAME_2":"Dukhovshchinskiyrayon","VARNAME_2":"NA","NL_NAME_2":"Духовщинскийрайон","TYPE_2":"Raion","ENGTYPE_2":"District","CC_2":"R17000","HASC_2":"RU.SM.DU"}},{"type":"MultiPolygon","arcs":[[[21,22,23,24,25,-8,26]]],"properties":{"GID_2":"RUS.64.5_1","GID_0":"RUS","COUNTRY":"Russia","GID_1":"RUS.64_1","NAME_1":"Smolensk","NL_NAME_1":"Смоленскаяобласть","NAME_2":"El'ninskiyrayon","VARNAME_2":"NA","NL_NAME_2":"Ельнинскийрайон","TYPE_2":"Raion","ENGTYPE_2":"District","CC_2":"R17000","HASC_2":"RU.SM.EL"}},{"type":"MultiPolygon","arcs":[[[27,28,29]]],"properties":{"GID_2":"RUS.64.6_1","GID_0":"RUS","COUNTRY":"Russia","GID_1":"RUS.64_1","NAME_1":"Smolensk","NL_NAME_1":"Смоленскаяобласть","NAME_2":"Ershichskiyrayon","VARNAME_2":"NA","NL_NAME_2":"Ершичскийрайон","TYPE_2":"Raion","ENGTYPE_2":"District","CC_2":"R17000","HASC_2":"RU.SM.ER"}},{"type":"MultiPolygon","arcs":[[[30]]],"properties":{"GID_2":"RUS.64.7_1","GID_0":"RUS","COUNTRY":"Russia","GID_1":"RUS.64_1","NAME_1":"Smolensk","NL_NAME_1":"Смоленскаяобласть","NAME_2":"Gagarin","VARNAME_2":"NA","NL_NAME_2":"Гагарин","TYPE_2":"Gorod","ENGTYPE_2":"City","CC_2":"NA","HASC_2":"RU.SM.GG"}},{"type":"MultiPolygon","arcs":[[[31,32,33,34,35],[-31]]],"properties":{"GID_2":"RUS.64.8_1","GID_0":"RUS","COUNTRY":"Russia","GID_1":"RUS.64_1","NAME_1":"Smolensk","NL_NAME_1":"Смоленскаяобласть","NAME_2":"Gagarinskiyrayon","VARNAME_2":"NA","NL_NAME_2":"Гагаринскийрайон","TYPE_2":"Raion","ENGTYPE_2":"District","CC_2":"R17000","HASC_2":"RU.SM.GR"}},{"type":"MultiPolygon","arcs":[[[-10,36,-25,37,38,39,40]]],"properties":{"GID_2":"RUS.64.9_1","GID_0":"RUS","COUNTRY":"Russia","GID_1":"RUS.64_1","NAME_1":"Smolensk","NL_NAME_1":"Смоленскаяобласть","NAME_2":"Glinkovskiyrayon","VARNAME_2":"NA","NL_NAME_2":"Глинковскийрайон","TYPE_2":"Raion","ENGTYPE_2":"District","CC_2":"R17000","HASC_2":"RU.SM.GL"}},{"type":"MultiPolygon","arcs":[[[41,-19,42,-41,43,44]]],"properties":{"GID_2":"RUS.64.10_1","GID_0":"RUS","COUNTRY":"Russia","GID_1":"RUS.64_1","NAME_1":"Smolensk","NL_NAME_1":"Смоленскаяобласть","NAME_2":"Kardymovskiyrayon","VARNAME_2":"NA","NL_NAME_2":"Кардымовскийрайон","TYPE_2":"Raion","ENGTYPE_2":"District","CC_2":"R17001","HASC_2":"RU.SM.KA"}},{"type":"MultiPolygon","arcs":[[[45,46,47,48]]],"properties":{"GID_2":"RUS.64.11_1","GID_0":"RUS","COUNTRY":"Russia","GID_1":"RUS.64_1","NAME_1":"Smolensk","NL_NAME_1":"Смоленскаяобласть","NAME_2":"Khislavichskiyrayon","VARNAME_2":"NA","NL_NAME_2":"Хиславичскийрайон","TYPE_2":"Raion","ENGTYPE_2":"District","CC_2":"R17002","HASC_2":"RU.SM.KH"}},{"type":"MultiPolygon","arcs":[[[-17,49,50,51,52]]],"properties":{"GID_2":"RUS.64.12_1","GID_0":"RUS","COUNTRY":"Russia","GID_1":"RUS.64_1","NAME_1":"Smolensk","NL_NAME_1":"Смоленскаяобласть","NAME_2":"Kholm-Zhirkovskiyrayon","VARNAME_2":"NA","NL_NAME_2":"Холм-Жирковскийрайон","TYPE_2":"Raion","ENGTYPE_2":"District","CC_2":"R17002","HASC_2":"RU.SM.KZ"}},{"type":"MultiPolygon","arcs":[[[53,54,55,56,57]]],"properties":{"GID_2":"RUS.64.13_1","GID_0":"RUS","COUNTRY":"Russia","GID_1":"RUS.64_1","NAME_1":"Smolensk","NL_NAME_1":"Смоленскаяобласть","NAME_2":"Krasninskiyrayon","VARNAME_2":"NA","NL_NAME_2":"Краснинскийрайон","TYPE_2":"Raion","ENGTYPE_2":"District","CC_2":"R17001","HASC_2":"RU.SM.KR"}},{"type":"MultiPolygon","arcs":[[[58,-57,59,60,61,-47]]],"properties":{"GID_2":"RUS.64.14_1","GID_0":"RUS","COUNTRY":"Russia","GID_1":"RUS.64_1","NAME_1":"Smolensk","NL_NAME_1":"Смоленскаяобласть","NAME_2":"Monastyrshchinskiyrayon","VARNAME_2":"NA","NL_NAME_2":"Монастырщинскийрайон","TYPE_2":"Raion","ENGTYPE_2":"District","CC_2":"R17001","HASC_2":"RU.SM.MO"}},{"type":"MultiPolygon","arcs":[[[-34,62,-51,63,64]]],"properties":{"GID_2":"RUS.64.15_1","GID_0":"RUS","COUNTRY":"Russia","GID_1":"RUS.64_1","NAME_1":"Smolensk","NL_NAME_1":"Смоленскаяобласть","NAME_2":"Novoduginskiyrayon","VARNAME_2":"NA","NL_NAME_2":"Новодугинскийрайон","TYPE_2":"Raion","ENGTYPE_2":"District","CC_2":"R17001","HASC_2":"RU.SM.NO"}},{"type":"MultiPolygon","arcs":[[[-24,65,66,-48,-62,67,-38]]],"properties":{"GID_2":"RUS.64.16_1","GID_0":"RUS","COUNTRY":"Russia","GID_1":"RUS.64_1","NAME_1":"Smolensk","NL_NAME_1":"Смоленскаяобласть","NAME_2":"Pochinkovskiyrayon","VARNAME_2":"NA","NL_NAME_2":"Починковскийрайон","TYPE_2":"Raion","ENGTYPE_2":"District","CC_2":"R17001","HASC_2":"RU.SM.PO"}},{"type":"MultiPolygon","arcs":[[[68]]],"properties":{"GID_2":"RUS.64.17_1","GID_0":"RUS","COUNTRY":"Russia","GID_1":"RUS.64_1","NAME_1":"Smolensk","NL_NAME_1":"Смоленскаяобласть","NAME_2":"Roslavl'","VARNAME_2":"NA","NL_NAME_2":"Рославль","TYPE_2":"Gorod","ENGTYPE_2":"City","CC_2":"NA","HASC_2":"RU.SM.RG"}},{"type":"MultiPolygon","arcs":[[[-29,69,-66,-23,70],[-7],[-69]]],"properties":{"GID_2":"RUS.64.18_1","GID_0":"RUS","COUNTRY":"Russia","GID_1":"RUS.64_1","NAME_1":"Smolensk","NL_NAME_1":"Смоленскаяобласть","NAME_2":"Roslavl'skiyrayon","VARNAME_2":"NA","NL_NAME_2":"Рославльскийрайон","TYPE_2":"Raion","ENGTYPE_2":"District","CC_2":"R17001","HASC_2":"RU.SM.RR"}},{"type":"MultiPolygon","arcs":[[[71,72,-5,73,74,-54]]],"properties":{"GID_2":"RUS.64.19_1","GID_0":"RUS","COUNTRY":"Russia","GID_1":"RUS.64_1","NAME_1":"Smolensk","NL_NAME_1":"Смоленскаяобласть","NAME_2":"Rudnyanskiyrayon","VARNAME_2":"NA","NL_NAME_2":"Руднянскийрайон","TYPE_2":"Raion","ENGTYPE_2":"District","CC_2":"R17001","HASC_2":"RU.SM.RU"}},{"type":"MultiPolygon","arcs":[[[75]]],"properties":{"GID_2":"RUS.64.20_1","GID_0":"RUS","COUNTRY":"Russia","GID_1":"RUS.64_1","NAME_1":"Smolensk","NL_NAME_1":"Смоленскаяобласть","NAME_2":"Safonovo","VARNAME_2":"NA","NL_NAME_2":"Сафоново","TYPE_2":"Gorod","ENGTYPE_2":"City","CC_2":"NA","HASC_2":"RU.SM.SV"}},{"type":"MultiPolygon","arcs":[[[-12,76,-52,77,78],[-76]]],"properties":{"GID_2":"RUS.64.21_1","GID_0":"RUS","COUNTRY":"Russia","GID_1":"RUS.64_1","NAME_1":"Smolensk","NL_NAME_1":"Смоленскаяобласть","NAME_2":"Safonovskiyrayon","VARNAME_2":"NA","NL_NAME_2":"Сафоновскийрайон","TYPE_2":"Raion","ENGTYPE_2":"District","CC_2":"R17001","HASC_2":"RU.SM.SF"}},{"type":"MultiPolygon","arcs":[[[-49,-67,-70,-28,79]]],"properties":{"GID_2":"RUS.64.22_1","GID_0":"RUS","COUNTRY":"Russia","GID_1":"RUS.64_1","NAME_1":"Smolensk","NL_NAME_1":"Смоленскаяобласть","NAME_2":"Shumyachskiyrayon","VARNAME_2":"NA","NL_NAME_2":"Шумячскийрайон","TYPE_2":"Raion","ENGTYPE_2":"District","CC_2":"R17002","HASC_2":"RU.SM.SH"}},{"type":"MultiPolygon","arcs":[[[80]]],"properties":{"GID_2":"RUS.64.23_1","GID_0":"RUS","COUNTRY":"Russia","GID_1":"RUS.64_1","NAME_1":"Smolensk","NL_NAME_1":"Смоленскаяобласть","NAME_2":"Smolensk","VARNAME_2":"NA","NL_NAME_2":"Смоленск","TYPE_2":"Gorod","ENGTYPE_2":"City","CC_2":"NA","HASC_2":"RU.SM.SG"}},{"type":"MultiPolygon","arcs":[[[81,-3,-21,82,-45,83,-39,-68,-61,-55,-75],[-81]]],"properties":{"GID_2":"RUS.64.24_1","GID_0":"RUS","COUNTRY":"Russia","GID_1":"RUS.64_1","NAME_1":"Smolensk","NL_NAME_1":"Смоленскаяобласть","NAME_2":"Smolenskiyrayon","VARNAME_2":"NA","NL_NAME_2":"Смоленскийрайон","TYPE_2":"Raion","ENGTYPE_2":"District","CC_2":"R17001","HASC_2":"RU.SM.SR"}},{"type":"MultiPolygon","arcs":[[[-35,-65,84]]],"properties":{"GID_2":"RUS.64.25_1","GID_0":"RUS","COUNTRY":"Russia","GID_1":"RUS.64_1","NAME_1":"Smolensk","NL_NAME_1":"Смоленскаяобласть","NAME_2":"Sychevskiyrayon","VARNAME_2":"NA","NL_NAME_2":"Сычевскийрайон","TYPE_2":"Raion","ENGTYPE_2":"District","CC_2":"R17001","HASC_2":"RU.SM.SY"}},{"type":"MultiPolygon","arcs":[[[85,86,-32,87]]],"properties":{"GID_2":"RUS.64.26_1","GID_0":"RUS","COUNTRY":"Russia","GID_1":"RUS.64_1","NAME_1":"Smolensk","NL_NAME_1":"Смоленскаяобласть","NAME_2":"Temkinskiyrayon","VARNAME_2":"NA","NL_NAME_2":"Темкинскийрайон","TYPE_2":"Raion","ENGTYPE_2":"District","CC_2":"R17002","HASC_2":"RU.SM.TE"}},{"type":"MultiPolygon","arcs":[[[-27,-15,88,-86,89]]],"properties":{"GID_2":"RUS.64.27_1","GID_0":"RUS","COUNTRY":"Russia","GID_1":"RUS.64_1","NAME_1":"Smolensk","NL_NAME_1":"Смоленскаяобласть","NAME_2":"Ugranskiyrayon","VARNAME_2":"NA","NL_NAME_2":"Угранскийрайон","TYPE_2":"Raion","ENGTYPE_2":"District","CC_2":"R17002","HASC_2":"RU.SM.UG"}},{"type":"MultiPolygon","arcs":[[[90,-6,-73]]],"properties":{"GID_2":"RUS.64.28_1","GID_0":"RUS","COUNTRY":"Russia","GID_1":"RUS.64_1","NAME_1":"Smolensk","NL_NAME_1":"Смоленскаяобласть","NAME_2":"Velizhskiyrayon","VARNAME_2":"NA","NL_NAME_2":"Велижскийрайон","TYPE_2":"Raion","ENGTYPE_2":"District","CC_2":"R17000","HASC_2":"RU.SM.VE"}},{"type":"MultiPolygon","arcs":[[[91]]],"properties":{"GID_2":"RUS.64.29_1","GID_0":"RUS","COUNTRY":"Russia","GID_1":"RUS.64_1","NAME_1":"Smolensk","NL_NAME_1":"Смоленскаяобласть","NAME_2":"Vyaz'ma","VARNAME_2":"V'az'ma","NL_NAME_2":"Вязьма","TYPE_2":"Gorod","ENGTYPE_2":"City","CC_2":"NA","HASC_2":"RU.SM.VG"}},{"type":"MultiPolygon","arcs":[[[-14,92,-78,-63,-33,-87,-89],[-92]]],"properties":{"GID_2":"RUS.64.30_1","GID_0":"RUS","COUNTRY":"Russia","GID_1":"RUS.64_1","NAME_1":"Smolensk","NL_NAME_1":"Смоленскаяобласть","NAME_2":"Vyazemskiyrayon","VARNAME_2":"NA","NL_NAME_2":"Вяземскийрайон","TYPE_2":"Raion","ENGTYPE_2":"District","CC_2":"R17000","HASC_2":"RU.SM.VR"}},{"type":"MultiPolygon","arcs":[[[93]]],"properties":{"GID_2":"RUS.64.31_1","GID_0":"RUS","COUNTRY":"Russia","GID_1":"RUS.64_1","NAME_1":"Smolensk","NL_NAME_1":"Смоленскаяобласть","NAME_2":"Yartsevo","VARNAME_2":"NA","NL_NAME_2":"Ярцево","TYPE_2":"Gorod","ENGTYPE_2":"City","CC_2":"NA","HASC_2":"RU.SM.YG"}},{"type":"MultiPolygon","arcs":[[[-11,-43,-18,-53,-77],[-94]]],"properties":{"GID_2":"RUS.64.32_1","GID_0":"RUS","COUNTRY":"Russia","GID_1":"RUS.64_1","NAME_1":"Smolensk","NL_NAME_1":"Смоленскаяобласть","NAME_2":"Yartsevskiyrayon","VARNAME_2":"NA","NL_NAME_2":"Ярцевскийрайон","TYPE_2":"Raion","ENGTYPE_2":"District","CC_2":"R17002","HASC_2":"RU.SM.YR"}}]}},"arcs":[[[222024,860247],[13539,-762],[11218,-10085],[-816,15908],[2815,7270],[21771,6622],[16505,152],[6619,-3768],[1977,-7535],[-2686,-10048],[21555,-1142],[-8553,-7193],[-11004,-2892],[13583,-9934]],[[308547,836840],[-18096,-49324],[8726,-8183],[3030,-8030],[-10294,-15186],[3395,-11075],[-37093,-54881],[2622,-22531],[8274,-26184]],[[269111,641446],[-20009,-3312],[-1353,-19980],[-17258,-6090],[-10079,6128],[5265,12902],[-10337,8334],[-9993,-13130],[-4836,3045],[2192,19752],[-10939,5785],[-26820,-30028],[-7845,-5443]],[[157099,619409],[-21663,13702]],[[135436,633111],[18762,42854],[-49881,27707],[-14785,-15756],[-9134,2397],[-6039,7155],[2192,18307],[8231,17697],[19578,9439],[5201,9895]],[[109561,752806],[22437,23292],[24887,17279],[16548,17850],[20438,10085],[28153,38935]],[[553072,278630],[-1806,-3350],[-5093,3426],[2536,2512],[4363,-2588]],[[636306,469838],[-7650,-4720],[-5524,4035],[-7758,-3235],[-8424,-21466],[-6641,-9552],[-10466,571],[-3568,8068],[-5373,29762],[-9499,11989]],[[571403,485290],[-15667,7840],[-23532,1903],[-60218,-9629]],[[471986,485404],[-10251,13092],[1182,29191],[-11777,10961]],[[451140,538648],[16247,2056],[17580,14500],[-6254,23749],[10509,11722]],[[489222,590675],[16999,4148],[11068,6090],[66257,3844],[9628,15299],[24457,-1141],[-538,-11761],[47560,4682]],[[664653,611836],[-7285,-4567]],[[657368,607269],[429,-28659],[28798,-48258]],[[686595,530352],[-14807,-6585],[-25273,1903],[3352,-19258],[-13668,-24243],[107,-12331]],[[308547,836840],[20158,14463],[4621,-6737],[17923,-647],[5395,8449],[5200,2626],[10510,-380],[9520,-7802],[3288,-10923],[8059,25537],[15732,-7726],[-12035,-14310],[-323,-9096],[9779,-2854],[5609,15946],[30625,-2664]],[[442608,840722],[-13497,-20513],[-4642,-18155]],[[424469,802054],[-19879,-23596],[7737,-18268],[731,-12941],[-14249,-38782],[-5588,-4110],[16312,-6242],[4320,-9514],[6791,-4491],[-1655,-20857],[-53513,-43197]],[[365476,620056],[-23210,3540],[-16655,-20818]],[[325611,602778],[-45561,17393]],[[280050,620171],[8703,6394],[-14248,5785],[64,7117],[-5458,1979]],[[632288,413853],[-9306,-21047],[11347,-8144],[-11326,-27897]],[[623003,356765],[-15387,-1941],[-23146,-29420],[-15302,2436],[-8489,-5481],[-22630,4415],[-12636,-9248]],[[525413,317526],[-8425,5823],[-14807,19182],[-28562,13244],[-5394,11532]],[[468225,367307],[24521,19410],[-8317,9553],[16935,18915],[9843,-5899],[11304,13511],[-8424,13663],[20072,12445],[-4169,28925],[14399,17698]],[[544389,495528],[27014,-10238]],[[636306,469838],[6104,-11646],[-10122,-44339]],[[384861,108240],[32215,20970],[8962,8487]],[[426038,137697],[13561,-5100],[17881,-1979],[17472,-9743],[19320,-17164],[8317,-14463]],[[502589,89248],[-7285,-7117],[-13497,-5252],[-11841,-15947],[4513,-14728],[-10402,-14843],[-902,-27327],[-12229,8525],[-20954,-12559],[-580,12978],[2020,2169],[151,4339],[-5996,-2245],[-15431,1827],[-1160,3082],[881,7270],[-5201,3120],[-1805,-3044],[107,-5214],[-3718,-2969],[-4298,15109],[-4492,343],[-11347,9515],[-773,3311],[-15281,16632],[-1611,7726],[3975,12483],[-4147,2550],[838,-4377],[-2321,-2969],[-3718,10999],[6877,7879],[21899,7726]],[[911692,806774],[-2987,-952],[-6770,4681],[6426,9211],[7544,-4529],[-4213,-8411]],[[981775,705004],[-28841,-5861],[-16226,3273],[-31592,28658]],[[905116,731074],[-4943,14577],[-1569,14615],[-3890,4034],[-17880,-10809],[-6061,3654],[-10681,21046],[-6275,191],[-7672,-8069],[-7393,4339],[2450,17659]],[[841202,792311],[9241,8487],[18977,40571],[-860,8754],[-14764,18420]],[[853796,868543],[-5975,24282],[172,21123],[-12615,8144],[-9048,17279],[3568,10580]],[[829898,949951],[25703,-9705],[9972,17089],[6640,6356],[14055,-6014],[12487,7270],[21899,-6737],[12916,6166],[11433,-6318],[-1160,-3616],[11541,-12331],[1805,-7459],[3739,609],[-2321,-4834],[7157,-10390],[1461,-6318],[9026,-11722],[-838,-6927],[9671,-1674],[795,-2893],[1462,-5442],[-1827,-3159],[3116,-8183],[-6898,533],[-1182,-4415],[3610,-10276],[3439,-3044],[-3181,-12446],[5136,-2816],[1741,-8677],[6748,-3007],[1956,-12712],[-5545,-3006],[-4620,1370],[-10187,-6090],[-451,-9134],[6511,-5138],[796,-3844],[-3632,-9743],[1139,-7193],[-4256,-2283],[-859,-3159],[408,-3273],[4384,-3388],[-1440,-6203],[2257,-1561],[-516,-4909],[-3052,-3197],[1376,-6584],[-4169,-2436],[773,-15262],[-2879,-6774],[-3267,-1713],[9005,-8335]],[[471986,485404],[72403,10124]],[[468225,367307],[-32709,16974],[-5545,8868],[-15259,4225],[-8403,8411],[-838,16137],[-9929,7726],[-16354,5480],[-2515,19981]],[[376673,455109],[19213,24814]],[[395886,479923],[-6060,3882]],[[389826,483805],[27616,27479],[33698,27364]],[[314586,607535],[11025,-4757]],[[365476,620056],[50827,-51607],[34837,-29801]],[[389826,483805],[-21577,10847],[-29916,15871]],[[338333,510523],[2192,14576],[-3954,15605],[-33032,41712],[11047,25119]],[[234682,188582],[-4277,11380],[8274,3006],[946,2779],[-1913,7650],[-5029,4605],[-1182,5290],[9886,5823],[-3052,7345],[3955,2931],[-666,3349],[-2880,-266],[-946,3082],[-6383,1599]],[[231415,247155],[24285,36879],[989,10162],[9241,13206],[5373,16784],[10552,-7003],[9305,3007]],[[291160,320190],[6319,-7041],[16032,6851],[44186,-7993],[-9134,-58040],[14958,-11836],[-624,-5937]],[[362897,236194],[-12787,-29686],[-30818,-2131],[-8295,-21618],[-28347,-10847],[-8102,1180],[-10079,7764],[-29787,7726]],[[442608,840722],[26326,-3691],[15108,-9401],[11885,20818],[12658,-13358],[11412,14005],[6297,-17393],[4835,914],[14485,29838],[8296,-1751],[14119,13207],[20116,-4263],[7092,1865],[-559,6508],[11197,761]],[[605875,878781],[25574,-58306],[25790,16289],[12701,-2854],[-2794,-24586],[26778,-25119],[-15194,-28240],[-4299,-16670]],[[674431,739295],[-10444,-10200],[-15753,28773],[-17515,-17697],[-17086,-7308],[-19836,-3958],[-36943,12940],[-13496,1332],[-26735,-6546],[-18246,-15033]],[[498377,721598],[-5695,14386],[-3030,26908],[-5137,3159],[-8790,-5823],[-11239,15680],[-16634,5214],[-23383,20932]],[[38276,506641],[50847,1598],[46786,-3387],[14098,3768],[6405,6127],[17622,-12217]],[[174034,502530],[21728,-20095],[16075,4339],[11799,-18116],[-20481,-17469],[4685,-7231],[7865,-4377],[8468,495],[4663,-9781],[12014,-1180],[3267,-6699],[-8661,-9819]],[[235456,412597],[-27466,-15756]],[[207990,396841],[-8037,-14158],[-3525,-12864],[-38404,-1256],[11304,-7041],[-3310,-20704],[-14721,1675],[-12486,-23521]],[[138811,318972],[-4965,3844],[-9348,-1218],[-3890,4643],[-774,8487],[2385,12674],[-5996,2816],[1097,3578],[4126,2169],[107,3730],[-2815,7993],[-7887,6812],[150,5671],[-7586,15223],[129,4758],[-6748,7421],[-9005,-2131],[-17924,12788],[3761,11646],[6233,3577],[1547,10961],[6275,4491],[5545,10619],[1483,8982],[2858,2702],[-945,2131],[-4707,5709],[-20631,-1522],[-5008,3425],[-107,-3045],[-15173,3007],[-945,2093],[4147,2817],[258,8258],[-1955,2170],[-6147,-1751],[-8080,12141]],[[231415,247155],[-3266,3615],[-8919,-2702],[-2493,3654],[3589,6394],[-279,6280],[-19536,-1028],[-4728,5937],[387,5861],[-1934,2322],[-12594,-1751],[-9821,8639],[-9198,2512],[-1634,6318],[-12529,14158],[-9155,2588],[5416,4034],[-5910,4986]],[[207990,396841],[13432,8182],[14034,7574]],[[235456,412597],[26498,-3463],[21233,-9020],[22,-11113]],[[283209,389001],[5716,-44187],[3933,-15528],[-1698,-9096]],[[841202,792311],[-31291,7764],[-24779,-54272],[-29593,723],[-6405,5595],[9048,13054],[-43971,3349],[-6963,-11608],[-14571,-13853],[-18246,-3768]],[[605875,878781],[9263,6813],[-86,8487]],[[615052,894081],[40704,875],[18718,12217],[11240,-11265],[12100,-5861],[7242,-12217],[26026,-9858],[25832,-20551],[7457,-1370],[21642,8867],[31205,-12445],[11197,3349],[13969,16898],[11412,5823]],[[525413,317526],[-6663,-18307],[-65569,-6888],[-4405,-19220],[-12336,-27136],[-22050,-12559],[-12572,-2322]],[[401818,231094],[-38921,5100]],[[283209,389001],[9843,1788],[5458,25538],[15925,761],[14184,-8487],[14743,18915],[-16935,19410],[17773,24434],[19385,-7117],[13088,-9134]],[[460166,185043],[-5093,-8640],[-9070,6090],[-2192,5023],[5373,12674],[14120,-4567],[-3138,-10580]],[[426038,137697],[-24607,20362],[387,73035]],[[623003,356765],[19428,-14996],[-10487,-23101],[-5352,1674],[-4663,-9515],[7930,-15109],[-15495,-7802],[-6469,-21656],[4298,-5518],[-5157,-9172],[-9585,2017],[-12143,-5443],[12981,-21579],[-18740,-9172],[5867,-10581],[-10187,-10846],[-16892,15718],[-3847,-19448],[-12099,-17660],[15645,-21008],[-10079,-12217],[-12143,8639],[-3374,-6127],[-945,-28849],[-13217,3768],[-14249,-15604],[-1440,-13930]],[[38276,506641],[-5545,5062],[-10036,2473],[-4729,9553],[-17966,5671],[8553,26337],[5416,2321],[903,7270],[2493,3920],[-1805,10390],[1289,5480],[22652,3768],[1439,1941],[-924,5785],[3138,7384],[-6705,6736],[236,4339],[5244,3083],[10939,-1256],[3245,1560],[924,4567],[-6791,14843],[774,12788],[5523,4339],[-7243,4186],[-967,5633],[1419,4643],[-1526,5937],[-11240,7422],[-6318,21960],[-14851,10999],[-1225,15414],[3160,5176],[12980,8715]],[[30732,745080],[21900,-4948],[17880,13359],[16398,6699],[22651,-7384]],[[135436,633111],[7952,-6661]],[[143388,626450],[-27766,-34329],[16978,-23178],[35331,-15147],[5136,-15642],[15581,-4111],[-14614,-31513]],[[551782,618915],[-10359,-1979],[-9864,8791],[5394,10809],[4750,799],[8188,-5404],[3653,-6318],[-1762,-6698]],[[489222,590675],[2557,8677],[-5265,30486],[-2278,38744],[11949,39086],[2192,13930]],[[674431,739295],[5782,-19220],[21641,-19334],[236,-10504],[2923,-10961],[13174,-11227],[-4943,-18040],[-32344,-2055],[-3954,-13625]],[[676946,634329],[-12293,-22493]],[[384861,108240],[-11068,-3426],[2128,3045],[-7715,9515],[-1784,6546],[-20116,-4491],[-6425,10504],[-16463,1751],[6469,5404],[-8252,495],[-7200,-3768],[-2858,5024],[2042,1941],[-903,2931],[-11025,304],[-8811,7155],[-35847,-10390],[-10724,2588],[-3009,-2816],[-10746,723],[-8553,7574],[-7801,-2322],[-860,2055],[2085,4719],[-3568,5443],[5846,3273],[-1720,3045],[4062,-1104],[-1268,2436],[2106,3653],[-2858,1485],[1784,2588],[5631,-685],[3546,8297],[3846,3539],[-150,3311]],[[319120,492445],[-4233,-18611],[-14120,16137],[-8618,-4148],[5781,-29230],[-4663,-4415],[-28046,31095],[-28175,-7232],[-4621,11608],[20224,20057],[38726,-2055],[27745,-13206]],[[143388,626450],[13711,-7041]],[[280050,620171],[34536,-12636]],[[338333,510523],[46227,-22531],[11326,-8069]],[[615052,894081],[-1720,12217],[15388,-1979],[8876,5899],[-323,11380],[6770,4833],[-1741,10124],[-7500,7916],[8381,16480],[4557,-10771],[8768,6165],[9349,-7307],[687,-14044],[7930,1865],[3203,8031],[-3310,10161],[9327,11037],[-16591,11647],[9521,7840],[5286,11760],[10273,2664],[7866,-76],[11068,-11494],[24628,1522],[10380,10010],[11305,-3578],[9456,-7117],[-559,-8106],[8962,-23787],[7178,15452],[7414,6204],[12873,-5138],[15796,-20210],[11348,-3730]],[[897164,556460],[-19836,3273],[-12035,5252],[-5330,12369],[516,18916],[-22694,16593]],[[837785,612863],[1955,9781],[6039,7765],[10660,23330],[4406,69571],[18546,-8449],[14120,11456],[11605,4757]],[[981775,705004],[-2472,-4377],[5029,-7650],[7995,-1598],[730,-25690],[-19513,-34976],[-7221,419],[-7866,-17546],[688,-2055],[-10080,-15185],[2558,-6661],[-5008,-3996],[-9477,17736],[-16656,-21009],[-11390,-8563],[-7328,647],[-4600,-18040]],[[686595,530352],[7651,6850],[2901,8449],[5975,-951],[4234,-8716],[3847,-875],[14785,12065],[11949,-647],[21298,-15376],[8210,1789],[6339,6888],[-1225,7574],[-4577,10162],[-10101,8220],[16032,17279],[33290,3197],[16913,9553],[13669,17050]],[[897164,556460],[-9778,-5214],[2471,-18154],[16914,-15566],[-5889,-8487],[-8768,-3236],[-15431,-16784],[-18697,-1826],[-7500,-8373],[-9005,-4415],[-38770,13701],[-7393,-1446],[4406,-10847],[12357,-7041],[4385,-12027],[-1505,-6165],[-8145,-7231],[215,-8602],[2515,-6203],[-3246,-10999],[-4255,-5100],[-34579,4871],[-14291,-9324],[-10510,9477],[925,8944],[-8726,3158],[-8037,-6698],[-5975,3768],[-14055,1104],[-6727,8411],[-17708,-1218],[-7178,-10048],[-5975,10352],[-5394,-11189],[-7930,3349],[-10509,-15566],[-13088,2017]],[[30732,745080],[5394,5899],[2343,10619],[-7157,22112],[172,4377],[2021,2968],[8123,2017],[1182,4339],[-5029,5100],[1075,2055],[-5609,4111],[2041,4110],[7092,3616],[108,3387],[-2364,20361],[-2773,5443],[-2944,-3083],[-945,2474],[7478,10466],[14614,7536],[-6597,7535],[17601,12217],[14119,4491],[20761,-9705],[19879,9629],[10466,-5594],[4621,4529],[13474,4110],[14034,-10124],[12916,-3273],[17623,-3615],[11863,5138],[15710,-18078]],[[762953,655756],[-13582,-11913],[-15323,10428],[8854,17051],[7113,1789],[7393,266],[5545,-17621]],[[657368,607269],[12120,11151],[7458,15909]],[[436311,599352],[-7952,-342],[-4062,4262],[2816,12484],[7930,2321],[2149,-2702],[-451,-4262],[6920,-5785],[-7350,-5976]]],"bbox":[30.76,53.4123,35.4131,56.0398],"transform":{"scale":[0.000004653104653104652,0.0000026275026275026253],"translate":[30.76,53.4123]}}