{"type":"Topology","objects":{"muni":{"type":"GeometryCollection","geometries":[{"type":"MultiPolygon","arcs":[[[0,1,2,3,4,5,6,7,8,9]]],"properties":{"GID_2":"RUS.65.1_1","GID_0":"RUS","COUNTRY":"Russia","GID_1":"RUS.65_1","NAME_1":"Stavropol'","NL_NAME_1":"Ставропольскийкрай","NAME_2":"Aleksandrovskiyrayon","VARNAME_2":"NA","NL_NAME_2":"Александровскийрайон","TYPE_2":"Raion","ENGTYPE_2":"District","CC_2":"R44090","HASC_2":"RU.ST.AL"}},{"type":"MultiPolygon","arcs":[[[10,11,12,13,14,15,16,-7,17]]],"properties":{"GID_2":"RUS.65.2_1","GID_0":"RUS","COUNTRY":"Russia","GID_1":"RUS.65_1","NAME_1":"Stavropol'","NL_NAME_1":"Ставропольскийкрай","NAME_2":"Andropovskiyrayon","VARNAME_2":"NA","NL_NAME_2":"Андроповскийрайон","TYPE_2":"Raion","ENGTYPE_2":"District","CC_2":"R44090","HASC_2":"RU.ST.AN"}},{"type":"MultiPolygon","arcs":[[[18,19,20,21,22,23,24,25,26]]],"properties":{"GID_2":"RUS.65.3_1","GID_0":"RUS","COUNTRY":"Russia","GID_1":"RUS.65_1","NAME_1":"Stavropol'","NL_NAME_1":"Ставропольскийкрай","NAME_2":"Apanasenkovskiyrayon","VARNAME_2":"NA","NL_NAME_2":"Апанасенковскийрайон","TYPE_2":"Raion","ENGTYPE_2":"District","CC_2":"R44090","HASC_2":"RU.ST.AP"}},{"type":"MultiPolygon","arcs":[[[27,28,29,30,31,32,33,34,35,36,37]]],"properties":{"GID_2":"RUS.65.4_1","GID_0":"RUS","COUNTRY":"Russia","GID_1":"RUS.65_1","NAME_1":"Stavropol'","NL_NAME_1":"Ставропольскийкрай","NAME_2":"Arzgirskiyrayon","VARNAME_2":"NA","NL_NAME_2":"Арзгирскийрайон","TYPE_2":"Raion","ENGTYPE_2":"District","CC_2":"R44090","HASC_2":"RU.ST.AR"}},{"type":"MultiPolygon","arcs":[[[-1,38,39,40,41,-36,42,43,44]]],"properties":{"GID_2":"RUS.65.5_1","GID_0":"RUS","COUNTRY":"Russia","GID_1":"RUS.65_1","NAME_1":"Stavropol'","NL_NAME_1":"Ставропольскийкрай","NAME_2":"Blagodarnenskiyrayon","VARNAME_2":"NA","NL_NAME_2":"Благодарненскийрайон","TYPE_2":"Raion","ENGTYPE_2":"District","CC_2":"R44090","HASC_2":"RU.ST.BL"}},{"type":"MultiPolygon","arcs":[[[45]]],"properties":{"GID_2":"RUS.65.6_1","GID_0":"RUS","COUNTRY":"Russia","GID_1":"RUS.65_1","NAME_1":"Stavropol'","NL_NAME_1":"Ставропольскийкрай","NAME_2":"Budennovsk","VARNAME_2":"NA","NL_NAME_2":"NA","TYPE_2":"Gorod","ENGTYPE_2":"City","CC_2":"NA","HASC_2":"RU.ST.BG"}},{"type":"MultiPolygon","arcs":[[[46,-34,47,48,49,50,51,52,53,54,55,-44],[-46]]],"properties":{"GID_2":"RUS.65.7_1","GID_0":"RUS","COUNTRY":"Russia","GID_1":"RUS.65_1","NAME_1":"Stavropol'","NL_NAME_1":"Ставропольскийкрай","NAME_2":"Budennovskiyrayon","VARNAME_2":"NA","NL_NAME_2":"Буденновскийрайон","TYPE_2":"Raion","ENGTYPE_2":"District","CC_2":"R44090","HASC_2":"RU.ST.BR"}},{"type":"MultiPolygon","arcs":[[[56]]],"properties":{"GID_2":"RUS.65.8_1","GID_0":"RUS","COUNTRY":"Russia","GID_1":"RUS.65_1","NAME_1":"Stavropol'","NL_NAME_1":"Ставропольскийкрай","NAME_2":"Essentuki","VARNAME_2":"NA","NL_NAME_2":"NA","TYPE_2":"Gorod","ENGTYPE_2":"City","CC_2":"NA","HASC_2":"RU.ST.ES"}},{"type":"MultiPolygon","arcs":[[[57]]],"properties":{"GID_2":"RUS.65.9_1","GID_0":"RUS","COUNTRY":"Russia","GID_1":"RUS.65_1","NAME_1":"Stavropol'","NL_NAME_1":"Ставропольскийкрай","NAME_2":"Georgievsk","VARNAME_2":"NA","NL_NAME_2":"Георгиевск","TYPE_2":"Gorsovet","ENGTYPE_2":"District","CC_2":"NA","HASC_2":"RU.ST.GG"}},{"type":"MultiPolygon","arcs":[[[-5,58,-3,59,60,61,62,63,64,65,66],[-58]]],"properties":{"GID_2":"RUS.65.10_1","GID_0":"RUS","COUNTRY":"Russia","GID_1":"RUS.65_1","NAME_1":"Stavropol'","NL_NAME_1":"Ставропольскийкрай","NAME_2":"Georgievskiyrayon","VARNAME_2":"NA","NL_NAME_2":"Георгиевскийрайон","TYPE_2":"Raion","ENGTYPE_2":"District","CC_2":"R44090","HASC_2":"RU.ST.GR"}},{"type":"MultiPolygon","arcs":[[[67,68,-16,69,70,71,72,73,74]]],"properties":{"GID_2":"RUS.65.11_1","GID_0":"RUS","COUNTRY":"Russia","GID_1":"RUS.65_1","NAME_1":"Stavropol'","NL_NAME_1":"Ставропольскийкрай","NAME_2":"Grachevskiyrayon","VARNAME_2":"NA","NL_NAME_2":"Грачевскийрайон","TYPE_2":"Raion","ENGTYPE_2":"District","CC_2":"R44090","HASC_2":"RU.ST.GC"}},{"type":"MultiPolygon","arcs":[[[75,-26,76,77,78,79,80,81,82]]],"properties":{"GID_2":"RUS.65.12_1","GID_0":"RUS","COUNTRY":"Russia","GID_1":"RUS.65_1","NAME_1":"Stavropol'","NL_NAME_1":"Ставропольскийкрай","NAME_2":"Ipatovskiyrayon","VARNAME_2":"NA","NL_NAME_2":"Ипатовскийрайон","TYPE_2":"Raion","ENGTYPE_2":"District","CC_2":"R44091","HASC_2":"RU.ST.IP"}},{"type":"MultiPolygon","arcs":[[[83,84,85,86,87,88,89,90,91,92,93,94,95]]],"properties":{"GID_2":"RUS.65.13_1","GID_0":"RUS","COUNTRY":"Russia","GID_1":"RUS.65_1","NAME_1":"Stavropol'","NL_NAME_1":"Ставропольскийкрай","NAME_2":"Izobil'nenskiyrayon","VARNAME_2":"NA","NL_NAME_2":"Изобильненскийрайон","TYPE_2":"Raion","ENGTYPE_2":"District","CC_2":"R44090","HASC_2":"RU.ST.IZ"}},{"type":"MultiPolygon","arcs":[[[96,97,-63,98,99,100,101,102,103]]],"properties":{"GID_2":"RUS.65.14_1","GID_0":"RUS","COUNTRY":"Russia","GID_1":"RUS.65_1","NAME_1":"Stavropol'","NL_NAME_1":"Ставропольскийкрай","NAME_2":"Kirovskiyrayon","VARNAME_2":"NA","NL_NAME_2":"Кировскийрайон","TYPE_2":"Raion","ENGTYPE_2":"District","CC_2":"R44091","HASC_2":"RU.ST.KI"}},{"type":"MultiPolygon","arcs":[[[104,105,-12,106],[107]]],"properties":{"GID_2":"RUS.65.15_1","GID_0":"RUS","COUNTRY":"Russia","GID_1":"RUS.65_1","NAME_1":"Stavropol'","NL_NAME_1":"Ставропольскийкрай","NAME_2":"Kochubeevskiyrayon","VARNAME_2":"NA","NL_NAME_2":"Кочубеевскийрайон","TYPE_2":"Raion","ENGTYPE_2":"District","CC_2":"R44091","HASC_2":"RU.ST.NV"}},{"type":"MultiPolygon","arcs":[[[-83,108,-89,109,-87,110,111,112]]],"properties":{"GID_2":"RUS.65.16_1","GID_0":"RUS","COUNTRY":"Russia","GID_1":"RUS.65_1","NAME_1":"Stavropol'","NL_NAME_1":"Ставропольскийкрай","NAME_2":"Krasnogvardeyskiyrayon","VARNAME_2":"NA","NL_NAME_2":"Красногвардейскийрайон","TYPE_2":"Raion","ENGTYPE_2":"District","CC_2":"R44091","HASC_2":"RU.ST.KR"}},{"type":"MultiPolygon","arcs":[[[-103,113,114,115,116]]],"properties":{"GID_2":"RUS.65.17_1","GID_0":"RUS","COUNTRY":"Russia","GID_1":"RUS.65_1","NAME_1":"Stavropol'","NL_NAME_1":"Ставропольскийкрай","NAME_2":"Kyrskiyrayon","VARNAME_2":"NA","NL_NAME_2":"Кырскийрайон","TYPE_2":"Raion","ENGTYPE_2":"District","CC_2":"R44091","HASC_2":"RU.ST.KY"}},{"type":"MultiPolygon","arcs":[[[117]]],"properties":{"GID_2":"RUS.65.18_1","GID_0":"RUS","COUNTRY":"Russia","GID_1":"RUS.65_1","NAME_1":"Stavropol'","NL_NAME_1":"Ставропольскийкрай","NAME_2":"Lermontov","VARNAME_2":"NA","NL_NAME_2":"Лермонтов","TYPE_2":"Gorsovet","ENGTYPE_2":"District","CC_2":"NA","HASC_2":"RU.ST.LR"}},{"type":"MultiPolygon","arcs":[[[118,-50,119,-48,-33,120,-31,121,-29,122]]],"properties":{"GID_2":"RUS.65.19_1","GID_0":"RUS","COUNTRY":"Russia","GID_1":"RUS.65_1","NAME_1":"Stavropol'","NL_NAME_1":"Ставропольскийкрай","NAME_2":"Levokumskiyrayon","VARNAME_2":"NA","NL_NAME_2":"Левокумскийрайон","TYPE_2":"Raion","ENGTYPE_2":"District","CC_2":"R44091","HASC_2":"RU.ST.LV"}},{"type":"MultiPolygon","arcs":[[[123]]],"properties":{"GID_2":"RUS.65.20_1","GID_0":"RUS","COUNTRY":"Russia","GID_1":"RUS.65_1","NAME_1":"Stavropol'","NL_NAME_1":"Ставропольскийкрай","NAME_2":"Mineral'nyeVody","VARNAME_2":"NA","NL_NAME_2":"МинеральныеВоды","TYPE_2":"Gorsovet","ENGTYPE_2":"District","CC_2":"NA","HASC_2":"RU.ST.MG"}},{"type":"MultiPolygon","arcs":[[[124,-18,-6,-67,125,126,127,128,129,130],[-124],[131]]],"properties":{"GID_2":"RUS.65.21_1","GID_0":"RUS","COUNTRY":"Russia","GID_1":"RUS.65_1","NAME_1":"Stavropol'","NL_NAME_1":"Ставропольскийкрай","NAME_2":"Mineralovodskiyrayon","VARNAME_2":"NA","NL_NAME_2":"Минераловодскийрайон","TYPE_2":"Raion","ENGTYPE_2":"District","CC_2":"R44091","HASC_2":"RU.ST.MR"}},{"type":"MultiPolygon","arcs":[[[132,-116,133,-51,-119]]],"properties":{"GID_2":"RUS.65.22_1","GID_0":"RUS","COUNTRY":"Russia","GID_1":"RUS.65_1","NAME_1":"Stavropol'","NL_NAME_1":"Ставропольскийкрай","NAME_2":"Neftekumskiyrayon","VARNAME_2":"NA","NL_NAME_2":"Нефтекумскийрайон","TYPE_2":"Raion","ENGTYPE_2":"District","CC_2":"R44091","HASC_2":"RU.ST.NF"}},{"type":"MultiPolygon","arcs":[[[-108]]],"properties":{"GID_2":"RUS.65.23_1","GID_0":"RUS","COUNTRY":"Russia","GID_1":"RUS.65_1","NAME_1":"Stavropol'","NL_NAME_1":"Ставропольскийкрай","NAME_2":"Nevinnomyssk","VARNAME_2":"NA","NL_NAME_2":"Невинномысск","TYPE_2":"Gorod","ENGTYPE_2":"City","CC_2":"NA","HASC_2":"RU.ST.NV"}},{"type":"MultiPolygon","arcs":[[[-112,134,-85,135]]],"properties":{"GID_2":"RUS.65.24_1","GID_0":"RUS","COUNTRY":"Russia","GID_1":"RUS.65_1","NAME_1":"Stavropol'","NL_NAME_1":"Ставропольскийкрай","NAME_2":"Novoaleksandrovskiyrayon","VARNAME_2":"NA","NL_NAME_2":"Новоалександровскийрайон","TYPE_2":"Raion","ENGTYPE_2":"District","CC_2":"R44091","HASC_2":"RU.ST.NA"}},{"type":"MultiPolygon","arcs":[[[-2,-45,-56,136,137,-60]]],"properties":{"GID_2":"RUS.65.25_1","GID_0":"RUS","COUNTRY":"Russia","GID_1":"RUS.65_1","NAME_1":"Stavropol'","NL_NAME_1":"Ставропольскийкрай","NAME_2":"Novoselitskiyrayon","VARNAME_2":"NA","NL_NAME_2":"Новоселицкийрайон","TYPE_2":"Raion","ENGTYPE_2":"District","CC_2":"R44091","HASC_2":"RU.ST.NS"}},{"type":"MultiPolygon","arcs":[[[-10,138,-75,139,140,141,-79,142,143,-39]]],"properties":{"GID_2":"RUS.65.26_1","GID_0":"RUS","COUNTRY":"Russia","GID_1":"RUS.65_1","NAME_1":"Stavropol'","NL_NAME_1":"Ставропольскийкрай","NAME_2":"Petrovskiyrayon","VARNAME_2":"NA","NL_NAME_2":"Петровскийрайон","TYPE_2":"Raion","ENGTYPE_2":"District","CC_2":"R44092","HASC_2":"RU.ST.PE"}},{"type":"MultiPolygon","arcs":[[[144,-131,145,-129,146,-127,147,-65,148,-97],[-57],[-118],[149]]],"properties":{"GID_2":"RUS.65.27_1","GID_0":"RUS","COUNTRY":"Russia","GID_1":"RUS.65_1","NAME_1":"Stavropol'","NL_NAME_1":"Ставропольскийкрай","NAME_2":"Predgornyyrayon","VARNAME_2":"NA","NL_NAME_2":"Предгорныйрайон","TYPE_2":"Raion","ENGTYPE_2":"District","CC_2":"R44092","HASC_2":"RU.ST.PR"}},{"type":"MultiPolygon","arcs":[[[-150]]],"properties":{"GID_2":"RUS.65.28_1","GID_0":"RUS","COUNTRY":"Russia","GID_1":"RUS.65_1","NAME_1":"Stavropol'","NL_NAME_1":"Ставропольскийкрай","NAME_2":"Pyatigorsk","VARNAME_2":"NA","NL_NAME_2":"Пятигорск","TYPE_2":"Gorsovet","ENGTYPE_2":"District","CC_2":"NA","HASC_2":"RU.ST.PY"}},{"type":"MultiPolygon","arcs":[[[-96,150,-94,151,-92,152,153,-71,154,-14,155,-105,156],[157]]],"properties":{"GID_2":"RUS.65.29_1","GID_0":"RUS","COUNTRY":"Russia","GID_1":"RUS.65_1","NAME_1":"Stavropol'","NL_NAME_1":"Ставропольскийкрай","NAME_2":"Shpakovskiyrayon","VARNAME_2":"NA","NL_NAME_2":"Шпаковскийрайон","TYPE_2":"Raion","ENGTYPE_2":"District","CC_2":"R44092","HASC_2":"RU.ST.SH"}},{"type":"MultiPolygon","arcs":[[[-54,158,-100,159,-61,-138,160]]],"properties":{"GID_2":"RUS.65.30_1","GID_0":"RUS","COUNTRY":"Russia","GID_1":"RUS.65_1","NAME_1":"Stavropol'","NL_NAME_1":"Ставропольскийкрай","NAME_2":"Sovetskiyrayon","VARNAME_2":"NA","NL_NAME_2":"Советскийрайон","TYPE_2":"Raion","ENGTYPE_2":"District","CC_2":"R44092","HASC_2":"RU.ST.SO"}},{"type":"MultiPolygon","arcs":[[[-158]]],"properties":{"GID_2":"RUS.65.31_1","GID_0":"RUS","COUNTRY":"Russia","GID_1":"RUS.65_1","NAME_1":"Stavropol'","NL_NAME_1":"Ставропольскийкрай","NAME_2":"Stavropol'","VARNAME_2":"NA","NL_NAME_2":"Ставрополь","TYPE_2":"Gorsovet","ENGTYPE_2":"District","CC_2":"NA","HASC_2":"RU.ST.SP"}},{"type":"MultiPolygon","arcs":[[[-53,161,-134,-115,162,-101,-159]]],"properties":{"GID_2":"RUS.65.32_1","GID_0":"RUS","COUNTRY":"Russia","GID_1":"RUS.65_1","NAME_1":"Stavropol'","NL_NAME_1":"Ставропольскийкрай","NAME_2":"Stepnovskiyrayon","VARNAME_2":"NA","NL_NAME_2":"Степновскийрайон","TYPE_2":"Raion","ENGTYPE_2":"District","CC_2":"R44092","HASC_2":"RU.ST.SN"}},{"type":"MultiPolygon","arcs":[[[-73,163,164,-90,-109,-82,165,166,-141]]],"properties":{"GID_2":"RUS.65.33_1","GID_0":"RUS","COUNTRY":"Russia","GID_1":"RUS.65_1","NAME_1":"Stavropol'","NL_NAME_1":"Ставропольскийкрай","NAME_2":"Trunovskiyrayon","VARNAME_2":"NA","NL_NAME_2":"Труновскийрайон","TYPE_2":"Raion","ENGTYPE_2":"District","CC_2":"R44092","HASC_2":"RU.ST.TR"}},{"type":"MultiPolygon","arcs":[[[167,-38,168,-41,169,-143,-78,170,-24,171,172,-21,173,-19]]],"properties":{"GID_2":"RUS.65.34_1","GID_0":"RUS","COUNTRY":"Russia","GID_1":"RUS.65_1","NAME_1":"Stavropol'","NL_NAME_1":"Ставропольскийкрай","NAME_2":"Turkmenskiyrayon","VARNAME_2":"NA","NL_NAME_2":"Туркменскийрайон","TYPE_2":"Raion","ENGTYPE_2":"District","CC_2":"R44092","HASC_2":"RU.ST.TU"}},{"type":"MultiPolygon","arcs":[[[-132]]],"properties":{"GID_2":"RUS.65.35_1","GID_0":"RUS","COUNTRY":"Russia","GID_1":"RUS.65_1","NAME_1":"Stavropol'","NL_NAME_1":"Ставропольскийкрай","NAME_2":"Zheleznovodsk","VARNAME_2":"NA","NL_NAME_2":"Железноводск","TYPE_2":"Gorsovet","ENGTYPE_2":"District","CC_2":"NA","HASC_2":"RU.ST.ZH"}}]}},"arcs":[[[516192,507211],[4847,-7808],[12136,-8269]],[[533175,491134],[-14991,-29614],[-15628,-20768],[-308,-7000],[8564,-13346],[28771,-33729],[-329,-8461],[-7064,-7500],[3326,-8923],[-10760,-10038],[6838,-3269],[1088,-7730],[-3737,-4731],[11315,-10038],[19551,-9730]],[[559811,316257],[-9981,-20538],[-7372,-8923]],[[542458,286796],[-14560,3808]],[[527898,290604],[-2218,-6654]],[[525680,283950],[-13082,-3230],[-7208,6730],[2321,13615],[-3553,4269],[-27292,3269],[-6510,10884],[-11069,-538],[-7701,5307],[-12958,12308],[-5709,9653]],[[432919,346217],[-678,11846],[-16121,14538],[5216,35037],[7578,2115],[6038,-3692],[4415,3654],[1520,4884],[-6654,6346],[-15197,6500],[760,13038],[-8789,11768],[1951,19000]],[[412958,471251],[18852,1269]],[[431810,472520],[56700,13499]],[[488510,486019],[4292,5731],[1868,7038],[6592,3808],[5853,-2616],[7024,3500],[2053,3731]],[[408419,226837],[-4251,12346],[-15032,19922],[-2772,7538],[595,4654],[-8810,-2885],[3224,-9076],[-308,-9038],[-4846,-5154],[-16306,4000],[-4251,-2231],[2691,-11422],[-3697,-7731],[-12588,8115],[-3841,6192],[-1725,11038],[-4415,6462]],[[332087,259567],[5627,18037],[2156,13808],[-4127,2076],[-12835,-1961],[-8708,7384],[-698,11231],[-19447,12038],[-658,7269],[1992,8999],[19592,43229],[7947,11038],[7455,-5038],[5688,5000],[-903,12653]],[[335168,405330],[19632,1885]],[[354800,407215],[103,58959],[-2916,39306],[-5196,4192]],[[346791,509672],[23247,-6500]],[[370038,503172],[-801,-12191],[2012,-17384],[10063,-5769]],[[381312,467828],[37786,3961],[-6140,-538]],[[432919,346217],[-7229,-59267],[-6366,-2692],[-2013,-34576],[-7331,-5692],[-1561,-17153]],[[685819,797430],[-41215,2346],[2341,-30691],[-5319,-20307],[-33001,-1000],[-7188,6000],[328,6077],[-2341,7999]],[[599424,767854],[-24848,-77]],[[574576,767777],[-3224,-5653]],[[571352,762124],[-3368,-13154],[-4436,-29229]],[[563548,719741],[-15320,-3538],[-12321,1076]],[[535907,717279],[-4498,4462]],[[531409,721741],[-20,48882]],[[531389,770623],[-1664,8423],[-8871,7808],[1273,6769],[8420,6538],[2998,8422],[-390,20192],[-1746,9192],[-37786,-10923],[-19386,-1653],[-8707,2115],[-2300,7423],[5873,16460],[-1211,6039],[-8564,16576],[329,8423],[-3163,8846],[-5031,4807],[-16593,-3000],[3450,-22307],[-1992,-8076],[-14396,-9692],[-8728,4961],[-22651,48729],[-9878,34960]],[[380675,941655],[24500,6769],[9652,31037],[8214,13038],[9282,7500],[5894,-3038],[7475,-15000],[6654,-7884],[16962,-9730],[26287,-10000],[23123,-15615],[26245,-33691],[17784,-6923],[30742,500],[42674,-19422],[15731,-9961],[6777,-3538],[13820,-20384],[8749,-36422],[4579,-11461]],[[720279,739778],[17270,-19614],[16470,-11846],[80255,-24691],[2957,-11615],[6715,-7654]],[[843946,664358],[-6325,-23229],[-22672,-55075],[-11931,-20269],[-10514,-11615],[-17785,21269],[-5257,-462]],[[769462,574977],[-4682,-8884],[-4128,-9653]],[[760652,556440],[308,-6577],[7003,-11500],[2814,-8769],[-2034,-12999]],[[768743,516595],[-13101,-38114]],[[755642,478481],[-3676,1423]],[[751966,479904],[-18010,26884],[-10843,10230],[-18216,11269],[4210,7115],[-1068,13769],[-31687,27306],[-3799,-384]],[[672553,576093],[-13677,-11115]],[[658876,564978],[-8933,3846],[-9323,13615],[-1951,6422],[26902,15884],[5791,7423],[3429,30960],[-15155,8231],[3429,19384]],[[663065,670743],[6900,7807]],[[669965,678550],[925,11884],[-6223,43268],[3327,7461],[5401,5038],[7372,39],[22487,-12807],[8194,807],[8831,5538]],[[516192,507211],[164,11269],[-7269,36537],[-1294,17999],[8379,8769],[1745,12307]],[[517917,594092],[30044,308]],[[547961,594400],[4005,21537],[14970,385],[11850,-3462],[8953,-17230],[6798,-8499],[5052,3192],[20043,34845],[6140,961],[8440,-5846],[3861,8846],[-6633,10577],[9611,33075],[16264,-8461]],[[657315,664320],[5750,6423]],[[658876,564978],[4970,2807]],[[663846,567785],[22856,-22230],[-29982,-60113],[-8564,-13191],[-15299,11038],[-5750,-2231],[-8050,-9846],[13163,-24576]],[[632220,446636],[-12650,-11807],[-3450,8230],[-17681,20923],[-15156,12961],[-13615,6192],[-17148,-13154],[-19345,21153]],[[696539,427752],[-14170,-14345],[-18729,23960],[12507,11538],[20392,-21153]],[[663846,567785],[8707,8308]],[[751966,479904],[8522,-9192],[-678,-11038],[-7413,-27576],[-370,-19653],[3717,-10422]],[[755744,402023],[26060,-36691],[10309,-9538]],[[792113,355794],[11911,-2769]],[[804024,353025],[-12876,-31499],[-11664,-35691]],[[779484,285835],[-10104,10423]],[[769380,296258],[5956,12076],[-1561,1769],[-2711,808],[-27333,-15500],[-15834,20692],[-18112,-33499]],[[709785,282604],[-48506,29922],[-924,8615],[-3142,6731],[-23514,20422]],[[633699,348294],[13225,19384]],[[646924,367678],[6859,-3000],[6469,12076],[-82,6269],[-14293,16461],[-678,5923],[8769,16538],[6510,18191],[-13985,12154],[-14273,-5654]],[[432138,150686],[-534,-10422],[-11212,1769],[-9919,-17115],[-8420,-2692],[8482,26230],[21603,2230]],[[543525,189723],[-4949,-961],[-5791,23114],[9015,77],[7393,-9846],[-5668,-12384]],[[527898,290604],[3306,654],[11254,-4462]],[[559811,316257],[5031,-77],[15238,22653],[5647,-4115],[-390,-5923],[-3943,-6000],[11130,-7423]],[[592524,315372],[10309,-18653],[-10945,-19191],[-5155,-22692],[28771,-769],[3758,-11307],[2608,-23730],[-2320,-9269],[-11726,-5038],[-11192,-39],[-7085,-20230],[37005,-22499]],[[626552,161955],[-13944,-21768]],[[612608,140187],[-11356,8730],[-3245,-461],[-8399,-9308],[-20536,-10422],[-2033,-25730],[-2957,-5423],[-5339,-2192],[-8646,3461]],[[550097,98842],[2505,24230]],[[552602,123072],[-5893,17192],[-27067,1038],[-2012,12615]],[[517630,153917],[4867,30576]],[[522497,184493],[4107,7769],[-4395,7230],[-6530,3654],[-2074,5730],[2259,22846],[-1294,12807],[13656,12269],[-3635,20806],[1089,6346]],[[447848,477366],[-16038,-4846]],[[431810,472520],[-50498,-4692]],[[370038,503172],[-2033,2385],[-38711,7154]],[[329294,512711],[-10350,5269],[-4929,7038],[-492,8461],[-6182,7846],[-7639,1692],[-6284,5923],[3162,18422],[23021,3192],[5155,6616],[6571,17383],[4108,32884],[-2013,6307],[-12301,4731],[-5709,-12154],[-17640,6654],[-4354,5577],[390,21383]],[[293808,659935],[2670,8000]],[[296478,667935],[11582,1539],[3717,4076],[2588,10346],[12896,7038],[431,12654],[3574,4461],[8378,-2154],[2650,5077]],[[342294,710972],[4250,-23730]],[[346544,687242],[9693,-17268],[3225,-16769],[-1664,-18615],[6366,-2346],[2937,-5423],[3080,-18922],[-267,-25460],[6038,-5539],[32200,-5384],[-1663,-7038],[575,-8038],[-14745,-9692],[5606,-19500],[5155,-4346],[27826,-1115],[10699,-6077],[5319,-7461],[2937,-10307],[-2013,-20576]],[[249800,895657],[8029,-6923],[10289,-461],[8070,4307],[-4025,29037],[12404,15423],[-8132,13499],[2341,14038],[10288,1808],[20536,-7923],[-2608,-32114],[-4600,-16961],[3265,-6884],[48424,8346],[21234,19576],[5360,11230]],[[531389,770623],[-616,-35383]],[[530773,735240],[-9509,-9538],[-12568,2885],[-4394,-17346],[-4415,-4923],[-31729,5269]],[[468158,711587],[-5134,5423],[-9426,20807],[-9898,2692],[-13554,-20345],[-7516,-4808],[-12034,12000],[-5319,10923],[-10637,5307],[-27293,-4654],[-1807,-10192],[-7619,-2307],[-8091,3231],[637,9999]],[[350467,739663],[-14581,-2000]],[[335886,737663],[-13841,6038],[-13821,9115]],[[308224,752816],[-5770,8692],[3511,10192],[-1355,8808],[-35589,13961],[-8112,9461],[1007,11115],[13738,20960],[-3018,8039],[-27621,6192],[-11254,14191]],[[233761,864427],[-10289,5423],[1376,10308],[4539,8422],[14252,-9499],[6715,1115],[-554,15461]],[[135270,544017],[-16675,29076],[-924,11345],[1540,15038]],[[119211,599476],[8379,12346],[3738,24922],[-514,12153],[-8440,8423],[-2464,18923],[2916,64882],[6592,16076]],[[129418,757201],[8851,-4654]],[[138269,752547],[6427,6346]],[[144696,758893],[11439,1269],[8338,8000]],[[164473,768162],[-678,4423],[2711,9384],[17229,1231],[3758,5384]],[[187493,788584],[966,-13961],[-3101,-14768],[4435,-4923],[17846,4153],[3984,-9230],[-4785,-12423],[13903,-16268],[2197,-33230],[-5092,-20499],[7187,-8192],[16141,-1615],[9550,-8115],[4990,3269]],[[255714,652782],[17640,1769]],[[273354,654551],[-1252,-15345],[-5134,923],[-2937,-27576],[-5134,-1731],[-36267,3654],[-4887,-2731],[-6305,-19845],[-8481,-6654],[-14806,13423]],[[188151,598669],[-7558,-7308]],[[180593,591361],[10453,-11038],[-636,-8346]],[[190410,571977],[-7332,-13845]],[[183078,558132],[-14498,4461],[-25321,-9923],[-7989,-8653]],[[526440,94958],[13759,14730],[11294,4577]],[[551493,114265],[-1396,-15423]],[[612608,140187],[9652,17307],[12876,9807],[15218,6308]],[[650354,173609],[6592,-6269],[5565,-12269],[9241,-5769],[9221,23153],[34788,10692]],[[715761,183147],[-3327,-5116],[9179,-19460]],[[721613,158571],[863,-7577]],[[722476,150994],[-11623,-1577],[-2383,-17999],[-10781,2538],[-1807,-13307],[-6325,-19961]],[[689557,100688],[-6695,2116],[-9919,10192],[-8974,1730],[-12486,-11153],[-9015,-10307],[-4888,-13731],[-6961,-31306],[-5463,-4346],[-29038,14307],[-14272,2923],[-23268,-4308],[-17168,-12191],[-8748,16114],[-3039,26730],[-3183,7500]],[[186097,484712],[11254,-2808],[35075,-31999],[14704,-37306],[11870,-9230],[10576,12076],[8378,-1423],[7455,-5769],[6058,192],[6428,10538],[9508,4231],[10412,-1461],[3860,-6500],[-431,-3769],[20372,-6962]],[[341616,404522],[-6448,808]],[[332087,259567],[-15258,2307],[-25834,9538],[-13636,-3461],[-21727,18922],[-5894,10808],[-1540,14076],[-3697,11230],[-22363,3039],[-3697,-7885],[-6962,-4538],[-28545,19153],[-29962,35999],[-8727,13845],[-6592,22153],[22343,11346],[7803,12846],[3635,10384],[7824,7576],[7126,12846],[-287,24961]],[[241606,370601],[-4991,24383],[-14744,14961],[-4416,-18922],[2916,-28153],[5093,-3000],[16142,10731]],[[233761,864427],[1006,-3307],[-2115,-30653],[-5011,-7730],[-12157,-2308],[-3717,-4884],[-452,-6615],[-18831,-2731],[-4991,-17615]],[[164473,768162],[-3142,-5000],[-16635,-4269]],[[138269,752547],[-13205,5500]],[[125064,758047],[-16182,-13192],[-5689,1654],[-3902,5461],[-2300,20192],[-12650,28306],[5381,14384],[-6325,6962]],[[83397,821814],[7639,1384],[3779,11846],[-7907,15076],[-1540,9846],[-16593,11307],[-2772,8423],[4394,27576],[10433,-5731],[34562,-6769],[3080,10885],[10371,14461],[52428,-3116],[35383,-1115],[20886,-5846],[12260,-14384]],[[722476,150994],[1848,-12346]],[[724324,138648],[24253,-4307],[2978,3692],[2567,19230],[4333,8115],[27210,385],[-1437,-8192],[9467,-2885],[19796,1346],[226,7846],[3635,4115],[14355,-1307],[-2444,-17307],[18544,-5000],[8481,40998],[10679,29384]],[[866967,214761],[12239,5230],[6346,14115],[4764,5769],[8851,1654],[7558,-16884]],[[906725,224645],[-5833,-731],[-3470,-6846],[-2280,-8384],[4046,-8461],[14868,1308],[13697,-13923],[16429,12923],[10309,2346],[15916,-8231],[3614,-9653],[-5093,-22192],[2300,-28345],[-8440,-5538],[-2814,-7384],[-1581,-8038],[2814,-27999],[-5401,-9769],[-9632,-4654],[-24540,-923],[-9570,6692],[1971,15769],[-1786,8615],[-4251,2769],[-21234,-4885],[-3224,-3153],[1930,-13654],[513,-32960],[-2259,-12692],[-4785,-14114],[-8789,-8462],[-18380,-14076],[-15936,23461],[-4394,15345],[-8194,6769],[-27991,6000],[-40948,-17461],[-8872,-2231],[-5319,2000],[-4045,6346],[-1048,14230],[1623,13115],[15669,25153],[4661,11230],[-1006,20500],[-25855,-43768],[-10514,1539],[-8913,5115],[-5442,11499],[-15689,1846]],[[446719,163955],[-7188,-2692],[-10083,2192],[-4785,8038],[8625,2116],[9098,7422],[4333,-17076]],[[999999,524518],[-22754,3538],[-4990,-4538],[-3306,-36230],[-6408,-5422],[-26635,-2193],[-1478,8269],[451,14423],[-1930,8538],[-5011,192],[-9816,-20845],[-11767,-11961],[-19961,-44037],[-7722,-8884],[-16942,-8192],[-31235,-56729],[-11418,-5499],[-15053,-1923]],[[792113,355794],[-25033,28345],[-11336,17884]],[[755642,478481],[5996,15461],[7105,22653]],[[760652,556440],[8810,18537]],[[843946,664358],[30352,-15037],[82370,-55383],[15751,-16038],[12240,-28960],[15340,-24422]],[[487401,216376],[-9426,-4077],[-24849,12077],[-698,12692],[38217,-6116],[-3244,-14576]],[[402217,218184],[6202,8653]],[[522497,184493],[-3553,-19884]],[[518944,164609],[-5257,-3462],[-6161,6039]],[[507526,167186],[-37581,11692]],[[469945,178878],[-2074,8038],[-13020,5653],[-6181,-11692]],[[448670,180877],[-7455,1000],[-8994,4731]],[[432221,186608],[2238,15730],[-3779,3654],[-10165,2000],[-7947,-1923],[-10351,12115]],[[450210,222568],[-17373,4808],[-10063,-11808],[5216,-7807],[9098,7423],[4333,-17076],[11048,-4577],[16757,5461],[-19016,23576]],[[999999,524518],[-13122,-25153],[-11460,-15769],[9796,-31075],[1520,-10615],[-9549,-28461],[-14540,-25422],[-4805,-13922],[-13184,-10192],[-18914,-7308],[-6058,-5115],[-1848,-5538],[4805,-16269],[-472,-7807],[-6839,-12038],[4826,-6115],[8666,-1577],[15443,3115],[6900,-6115],[4457,-8461],[1971,-14884],[-4148,-15307],[-8625,-18692],[-14211,-2000],[-19181,-15576],[-4702,423]],[[866967,214761],[-21850,8307],[-7578,-769],[-9447,-6154],[-1314,4269],[1807,19346],[10494,7423],[-2279,8422],[-13903,231],[-13739,17692],[-6777,1115],[-11212,-7307],[-11685,18499]],[[125064,758047],[4354,-846]],[[119211,599476],[-102,7500],[-11788,8961],[-18708,-6692],[-11275,-577],[-28606,9577],[-308,28614],[-4005,30345],[-3655,11423],[-13923,15384],[-5668,24229],[-5319,6731],[-5237,923],[-9570,9423],[1499,11692],[-2546,19076],[1540,6961],[5915,9923],[9651,4653],[22364,3769],[4292,-1153],[10699,-12538],[6716,692],[11315,12730],[-1232,14961],[3922,7077],[8215,-1346]],[[646924,367678],[-20146,-28614]],[[626778,339064],[-9713,11653],[-9016,5461],[-13368,-16999],[5010,-8154],[-1109,-5384],[-6058,-10269]],[[488510,486019],[-40662,-8653]],[[346544,687242],[-2053,8807],[-2197,14923]],[[342294,710972],[1848,4731],[-2608,13768],[1170,10154]],[[342704,739625],[7763,38]],[[468158,711587],[-6140,-10807],[-3286,-11461],[-1704,-14961],[5935,-3461],[3512,-10192],[862,-35307],[4313,-5422],[11623,1038],[4436,3615],[2259,9923],[-144,25383],[20289,2077],[4190,-6769],[3388,-47190],[6859,-15307]],[[524550,592746],[-6633,1346]],[[526440,94958],[-6038,2846],[-6962,-4000],[-8625,-14692],[-17373,-2077],[-17497,-10807],[-12835,3077],[-7249,-5346],[-5401,-7961],[-25588,-8269],[-11233,9846],[-4826,16191],[1602,22807],[-5997,14384],[-6181,7308],[-3430,14114],[-10144,5423],[-4847,-461],[-2136,-8769],[4765,-11961],[-2629,-7346],[-16839,1769],[-11850,19615],[-12999,5115],[3245,12230],[-3224,14077],[8296,14307],[13616,10076],[10637,12846],[16922,3077],[5524,11961],[5381,5999],[9692,-2153]],[[432221,186608],[16449,-5731]],[[469945,178878],[10227,-4693],[27354,-6999]],[[518944,164609],[-1314,-10692]],[[552602,123072],[-1109,-8807]],[[468733,171147],[-11068,4577],[-7188,-2654],[-2362,-20461],[20516,-5769],[102,24307]],[[183078,558132],[4826,7384],[2506,6461]],[[180593,591361],[3594,5192],[3964,2116]],[[273354,654551],[18359,962]],[[291713,655513],[2095,4422]],[[329294,512711],[17497,-3039]],[[354800,407215],[-13184,-2693]],[[186097,484712],[-1992,13191],[-4456,7385],[-7085,5923],[-11254,1346],[-9919,5192],[-7331,8769],[-8790,17499]],[[267625,538517],[-44748,44614],[-28627,-51537],[8317,-5192],[26635,10884],[12506,-14768],[19920,-4423],[5997,20422]],[[709785,282604],[-11233,-21653],[9631,-11153],[9200,6653],[13574,-24229],[-3060,-4154],[-8132,-577],[-4004,-44344]],[[650354,173609],[-23802,-11654]],[[626778,339064],[6921,9230]],[[769380,296258],[1314,-3270],[8790,-7153]],[[724324,138648],[-2711,19923]],[[296478,667935],[-4765,-12422]],[[291713,655513],[-35999,-2731]],[[308224,752816],[27662,-15153]],[[335886,737663],[6818,1962]],[[685819,797430],[15300,-29191],[19160,-28461]],[[669965,678550],[-12650,-14230]],[[547961,594400],[-23411,-1654]],[[530773,735240],[636,-13499]],[[535907,717279],[22938,39],[4703,2423]],[[563548,719741],[698,9692],[7106,32691]],[[574576,767777],[6900,1577],[17948,-1500]]],"bbox":[40.84,43.6258,45.7095,46.2259],"transform":{"scale":[0.000004869504869504864,0.000002600102600102605],"translate":[40.84,43.6258]}}