{"type":"Topology","objects":{"muni":{"type":"GeometryCollection","geometries":[{"type":"MultiPolygon","arcs":[[[0,1,2,3,4,5,6]]],"properties":{"GID_2":"RUS.66.1_1","GID_0":"RUS","COUNTRY":"Russia","GID_1":"RUS.66_1","NAME_1":"Sverdlovsk","NL_NAME_1":"Свердловскаяобласть","NAME_2":"Achitskiyrayon","VARNAME_2":"NA","NL_NAME_2":"Ачитскийрайон","TYPE_2":"Raion","ENGTYPE_2":"District","CC_2":"R51000","HASC_2":"RU.SV.AC"}},{"type":"MultiPolygon","arcs":[[[7,8,9]]],"properties":{"GID_2":"RUS.66.2_1","GID_0":"RUS","COUNTRY":"Russia","GID_1":"RUS.66_1","NAME_1":"Sverdlovsk","NL_NAME_1":"Свердловскаяобласть","NAME_2":"Alapaevskgorsovet","VARNAME_2":"NA","NL_NAME_2":"Алапаевск(горсовет)","TYPE_2":"Gorsovet","ENGTYPE_2":"District","CC_2":"R51003","HASC_2":"RU.SV.AG"}},{"type":"MultiPolygon","arcs":[[[-10,10,11,12,13,14,15,16,17,18,19,20,21,22,23,24]]],"properties":{"GID_2":"RUS.66.3_1","GID_0":"RUS","COUNTRY":"Russia","GID_1":"RUS.66_1","NAME_1":"Sverdlovsk","NL_NAME_1":"Свердловскаяобласть","NAME_2":"Alapaevskiyrayon","VARNAME_2":"NA","NL_NAME_2":"Алапаевскийрайон","TYPE_2":"Raion","ENGTYPE_2":"District","CC_2":"R51000","HASC_2":"RU.SV.AR"}},{"type":"MultiPolygon","arcs":[[[-24,25,26,27,28,29,30],[31]]],"properties":{"GID_2":"RUS.66.4_1","GID_0":"RUS","COUNTRY":"Russia","GID_1":"RUS.66_1","NAME_1":"Sverdlovsk","NL_NAME_1":"Свердловскаяобласть","NAME_2":"Artemovskiyrayon","VARNAME_2":"NA","NL_NAME_2":"Артемовскийрайон","TYPE_2":"Raion","ENGTYPE_2":"District","CC_2":"R51000","HASC_2":"RU.SV.AT"}},{"type":"MultiPolygon","arcs":[[[32,33,-5,34,35,36]]],"properties":{"GID_2":"RUS.66.5_1","GID_0":"RUS","COUNTRY":"Russia","GID_1":"RUS.66_1","NAME_1":"Sverdlovsk","NL_NAME_1":"Свердловскаяобласть","NAME_2":"Artinskiyrayon","VARNAME_2":"NA","NL_NAME_2":"Артинскийрайон","TYPE_2":"Raion","ENGTYPE_2":"District","CC_2":"R51000","HASC_2":"RU.SV.AN"}},{"type":"MultiPolygon","arcs":[[[-30,37,38,39,40,41,42]]],"properties":{"GID_2":"RUS.66.6_1","GID_0":"RUS","COUNTRY":"Russia","GID_1":"RUS.66_1","NAME_1":"Sverdlovsk","NL_NAME_1":"Свердловскаяобласть","NAME_2":"Asbestgorsovet","VARNAME_2":"Asbest","NL_NAME_2":"Асбест(горсовет)","TYPE_2":"Gorsovet","ENGTYPE_2":"District","CC_2":"R51003","HASC_2":"RU.SV.AS"}},{"type":"MultiPolygon","arcs":[[[43,44,45,46,47,48,49]]],"properties":{"GID_2":"RUS.66.7_1","GID_0":"RUS","COUNTRY":"Russia","GID_1":"RUS.66_1","NAME_1":"Sverdlovsk","NL_NAME_1":"Свердловскаяобласть","NAME_2":"Baykalovskiyrayon","VARNAME_2":"NA","NL_NAME_2":"Байкаловскийрайон","TYPE_2":"Raion","ENGTYPE_2":"District","CC_2":"R51000","HASC_2":"RU.SV.BA"}},{"type":"MultiPolygon","arcs":[[[50,-39,51,52,53,54,55],[56]]],"properties":{"GID_2":"RUS.66.8_1","GID_0":"RUS","COUNTRY":"Russia","GID_1":"RUS.66_1","NAME_1":"Sverdlovsk","NL_NAME_1":"Свердловскаяобласть","NAME_2":"Beloyarskiyrayon","VARNAME_2":"NA","NL_NAME_2":"Белоярскийрайон","TYPE_2":"Raion","ENGTYPE_2":"District","CC_2":"R51000","HASC_2":"RU.SV.BY"}},{"type":"MultiPolygon","arcs":[[[-41,-56,57,58,59,60]]],"properties":{"GID_2":"RUS.66.9_1","GID_0":"RUS","COUNTRY":"Russia","GID_1":"RUS.66_1","NAME_1":"Sverdlovsk","NL_NAME_1":"Свердловскаяобласть","NAME_2":"Berezovskiygorsovet","VARNAME_2":"Berezovskiy","NL_NAME_2":"Березовский(горсовет)","TYPE_2":"Gorsovet","ENGTYPE_2":"District","CC_2":"R51003","HASC_2":"RU.SV.BE"}},{"type":"MultiPolygon","arcs":[[[61,62,-53,63,64]]],"properties":{"GID_2":"RUS.66.10_1","GID_0":"RUS","COUNTRY":"Russia","GID_1":"RUS.66_1","NAME_1":"Sverdlovsk","NL_NAME_1":"Свердловскаяобласть","NAME_2":"Bogdanovichskiyrayon","VARNAME_2":"NA","NL_NAME_2":"Богдановичскийрайон","TYPE_2":"Raion","ENGTYPE_2":"District","CC_2":"R51000","HASC_2":"RU.SV.BG"}},{"type":"MultiPolygon","arcs":[[[-58,65,66,67,68,69,70,71]]],"properties":{"GID_2":"RUS.66.11_1","GID_0":"RUS","COUNTRY":"Russia","GID_1":"RUS.66_1","NAME_1":"Sverdlovsk","NL_NAME_1":"Свердловскаяобласть","NAME_2":"Ekaterinburggorsovet","VARNAME_2":"Ekaterinburg","NL_NAME_2":"Екатеринбург(горсовет)","TYPE_2":"Gorsovet","ENGTYPE_2":"District","CC_2":"R51003","HASC_2":"RU.SV.EK"}},{"type":"MultiPolygon","arcs":[[[72,73,74,-20,75,76,77,78,79]]],"properties":{"GID_2":"RUS.66.12_1","GID_0":"RUS","COUNTRY":"Russia","GID_1":"RUS.66_1","NAME_1":"Sverdlovsk","NL_NAME_1":"Свердловскаяобласть","NAME_2":"Garinskiyrayon","VARNAME_2":"NA","NL_NAME_2":"Гаринскийрайон","TYPE_2":"Raion","ENGTYPE_2":"District","CC_2":"R51001","HASC_2":"RU.SV.GA"}},{"type":"MultiPolygon","arcs":[[[80]]],"properties":{"GID_2":"RUS.66.13_1","GID_0":"RUS","COUNTRY":"Russia","GID_1":"RUS.66_1","NAME_1":"Sverdlovsk","NL_NAME_1":"Свердловскаяобласть","NAME_2":"Irbit","VARNAME_2":"NA","NL_NAME_2":"Ирбит","TYPE_2":"Gorod","ENGTYPE_2":"City","CC_2":"NA","HASC_2":"RU.SV.IG"}},{"type":"MultiPolygon","arcs":[[[-23,81,82,-48,83,84,85,-26],[-81]]],"properties":{"GID_2":"RUS.66.14_1","GID_0":"RUS","COUNTRY":"Russia","GID_1":"RUS.66_1","NAME_1":"Sverdlovsk","NL_NAME_1":"Свердловскаяобласть","NAME_2":"Irbitskiyrayon","VARNAME_2":"NA","NL_NAME_2":"Ирбитскийрайон","TYPE_2":"Raion","ENGTYPE_2":"District","CC_2":"R51001","HASC_2":"RU.SV.IR"}},{"type":"MultiPolygon","arcs":[[[-80,86,87,88,89,90,91]]],"properties":{"GID_2":"RUS.66.15_1","GID_0":"RUS","COUNTRY":"Russia","GID_1":"RUS.66_1","NAME_1":"Sverdlovsk","NL_NAME_1":"Свердловскаяобласть","NAME_2":"Ivdel'gorsovet","VARNAME_2":"Ivdel'","NL_NAME_2":"Ивдель(горсовет)","TYPE_2":"Gorsovet","ENGTYPE_2":"District","CC_2":"R51003","HASC_2":"RU.SV.IV"}},{"type":"MultiPolygon","arcs":[[[92,93]]],"properties":{"GID_2":"RUS.66.16_1","GID_0":"RUS","COUNTRY":"Russia","GID_1":"RUS.66_1","NAME_1":"Sverdlovsk","NL_NAME_1":"Свердловскаяобласть","NAME_2":"Kachkanargorsovet","VARNAME_2":"Kachkanar","NL_NAME_2":"Качканар(горсовет)","TYPE_2":"Gorsovet","ENGTYPE_2":"District","CC_2":"R51003","HASC_2":"RU.SV.KC"}},{"type":"MultiPolygon","arcs":[[[94]]],"properties":{"GID_2":"RUS.66.17_1","GID_0":"RUS","COUNTRY":"Russia","GID_1":"RUS.66_1","NAME_1":"Sverdlovsk","NL_NAME_1":"Свердловскаяобласть","NAME_2":"Kamensk-Ural'sk","VARNAME_2":"Kamensk-Uralskiy","NL_NAME_2":"Каменск-Уральский","TYPE_2":"Gorsovet","ENGTYPE_2":"District","CC_2":"NA","HASC_2":"RU.SV.KU"}},{"type":"MultiPolygon","arcs":[[[95,-54,-63,96],[-95]]],"properties":{"GID_2":"RUS.66.18_1","GID_0":"RUS","COUNTRY":"Russia","GID_1":"RUS.66_1","NAME_1":"Sverdlovsk","NL_NAME_1":"Свердловскаяобласть","NAME_2":"Kamenskiyrayon","VARNAME_2":"NA","NL_NAME_2":"Каменскийрайон","TYPE_2":"Raion","ENGTYPE_2":"District","CC_2":"R51001","HASC_2":"RU.SV.KN"}},{"type":"MultiPolygon","arcs":[[[97]]],"properties":{"GID_2":"RUS.66.19_1","GID_0":"RUS","COUNTRY":"Russia","GID_1":"RUS.66_1","NAME_1":"Sverdlovsk","NL_NAME_1":"Свердловскаяобласть","NAME_2":"Kamyshlov","VARNAME_2":"NA","NL_NAME_2":"Камышлов","TYPE_2":"Gorod","ENGTYPE_2":"City","CC_2":"NA","HASC_2":"RU.SV.KA"}},{"type":"MultiPolygon","arcs":[[[98,-65,99,100,-85,101],[-98]]],"properties":{"GID_2":"RUS.66.20_1","GID_0":"RUS","COUNTRY":"Russia","GID_1":"RUS.66_1","NAME_1":"Sverdlovsk","NL_NAME_1":"Свердловскаяобласть","NAME_2":"Kamyshlovskiyrayon","VARNAME_2":"NA","NL_NAME_2":"Камышловскийрайон","TYPE_2":"Raion","ENGTYPE_2":"District","CC_2":"R51001","HASC_2":"RU.SV.KM"}},{"type":"MultiPolygon","arcs":[[[102,103,104,105,106,107]]],"properties":{"GID_2":"RUS.66.21_1","GID_0":"RUS","COUNTRY":"Russia","GID_1":"RUS.66_1","NAME_1":"Sverdlovsk","NL_NAME_1":"Свердловскаяобласть","NAME_2":"Karpinskgorsovet","VARNAME_2":"Karpinsk","NL_NAME_2":"Карпинск(горсовет)","TYPE_2":"Gorsovet","ENGTYPE_2":"District","CC_2":"R51003","HASC_2":"RU.SV.KP"}},{"type":"MultiPolygon","arcs":[[[108,109,110,111,112,113]]],"properties":{"GID_2":"RUS.66.22_1","GID_0":"RUS","COUNTRY":"Russia","GID_1":"RUS.66_1","NAME_1":"Sverdlovsk","NL_NAME_1":"Свердловскаяобласть","NAME_2":"Kirovgradgorsovet","VARNAME_2":"Kirovgrad","NL_NAME_2":"Кировград(горсовет)","TYPE_2":"Gorsovet","ENGTYPE_2":"District","CC_2":"R51003","HASC_2":"RU.SV.KI"}},{"type":"MultiPolygon","arcs":[[[-106,114,115,116,117]]],"properties":{"GID_2":"RUS.66.23_1","GID_0":"RUS","COUNTRY":"Russia","GID_1":"RUS.66_1","NAME_1":"Sverdlovsk","NL_NAME_1":"Свердловскаяобласть","NAME_2":"Krasnotur'inskgorsovet","VARNAME_2":"Krasnotur'insk","NL_NAME_2":"Краснотурьинск(горсовет)","TYPE_2":"Gorsovet","ENGTYPE_2":"District","CC_2":"R51004","HASC_2":"RU.SV.KT"}},{"type":"MultiPolygon","arcs":[[[-7,118,-33,119]]],"properties":{"GID_2":"RUS.66.24_1","GID_0":"RUS","COUNTRY":"Russia","GID_1":"RUS.66_1","NAME_1":"Sverdlovsk","NL_NAME_1":"Свердловскаяобласть","NAME_2":"Krasnoufimskiyrayon","VARNAME_2":"NA","NL_NAME_2":"Красноуфимскийрайон","TYPE_2":"Raion","ENGTYPE_2":"District","CC_2":"R51001","HASC_2":"RU.SV.KG"}},{"type":"MultiPolygon","arcs":[[[120,121,122,123,124,125]]],"properties":{"GID_2":"RUS.66.25_1","GID_0":"RUS","COUNTRY":"Russia","GID_1":"RUS.66_1","NAME_1":"Sverdlovsk","NL_NAME_1":"Свердловскаяобласть","NAME_2":"Krasnoural'skgorsovet","VARNAME_2":"Krasnoural'sk","NL_NAME_2":"Красноуральск(горсовет)","TYPE_2":"Gorsovet","ENGTYPE_2":"District","CC_2":"R51004","HASC_2":"RU.SV.KS"}},{"type":"MultiPolygon","arcs":[[[126,127,-123,128]]],"properties":{"GID_2":"RUS.66.26_1","GID_0":"RUS","COUNTRY":"Russia","GID_1":"RUS.66_1","NAME_1":"Sverdlovsk","NL_NAME_1":"Свердловскаяобласть","NAME_2":"Kushvagorsovet","VARNAME_2":"Kushva","NL_NAME_2":"Кушва(горсовет)","TYPE_2":"Gorsovet","ENGTYPE_2":"District","CC_2":"R51004","HASC_2":"RU.SV.KV"}},{"type":"MultiPolygon","arcs":[[[-32]]],"properties":{"GID_2":"RUS.66.27_1","GID_0":"RUS","COUNTRY":"Russia","GID_1":"RUS.66_1","NAME_1":"Sverdlovsk","NL_NAME_1":"Свердловскаяобласть","NAME_2":"NA(2)","VARNAME_2":"NA","NL_NAME_2":"NA","TYPE_2":"Raion","ENGTYPE_2":"District","CC_2":"NA","HASC_2":"NA"}},{"type":"MultiPolygon","arcs":[[[129]]],"properties":{"GID_2":"RUS.66.28_1","GID_0":"RUS","COUNTRY":"Russia","GID_1":"RUS.66_1","NAME_1":"Sverdlovsk","NL_NAME_1":"Свердловскаяобласть","NAME_2":"Nev'yansk","VARNAME_2":"Nevyansk","NL_NAME_2":"Невьянск","TYPE_2":"Gorsovet","ENGTYPE_2":"District","CC_2":"NA","HASC_2":"RU.SV.NG"}},{"type":"MultiPolygon","arcs":[[[-113,130,131,132,133,134],[-130]]],"properties":{"GID_2":"RUS.66.29_1","GID_0":"RUS","COUNTRY":"Russia","GID_1":"RUS.66_1","NAME_1":"Sverdlovsk","NL_NAME_1":"Свердловскаяобласть","NAME_2":"Nev'yanskiyrayon","VARNAME_2":"NA","NL_NAME_2":"Невьянскийрайон","TYPE_2":"Raion","ENGTYPE_2":"District","CC_2":"R51001","HASC_2":"RU.SV.NR"}},{"type":"MultiPolygon","arcs":[[[135,-36,136,-3,137,138,139,140,141,142,143]]],"properties":{"GID_2":"RUS.66.30_1","GID_0":"RUS","COUNTRY":"Russia","GID_1":"RUS.66_1","NAME_1":"Sverdlovsk","NL_NAME_1":"Свердловскаяобласть","NAME_2":"Nizhneserginskiyrayon","VARNAME_2":"NA","NL_NAME_2":"Нижнесергинскийрайон","TYPE_2":"Raion","ENGTYPE_2":"District","CC_2":"R51001","HASC_2":"RU.SV.NS"}},{"type":"MultiPolygon","arcs":[[[144]]],"properties":{"GID_2":"RUS.66.31_1","GID_0":"RUS","COUNTRY":"Russia","GID_1":"RUS.66_1","NAME_1":"Sverdlovsk","NL_NAME_1":"Свердловскаяобласть","NAME_2":"NizhniyTagilgorod","VARNAME_2":"NizhniyTagil","NL_NAME_2":"НижнийТагил(город)","TYPE_2":"Gorod","ENGTYPE_2":"City","CC_2":"R51004","HASC_2":"RU.SV.NT"}},{"type":"MultiPolygon","arcs":[[[145,146,147,-124,-128,148,-94]]],"properties":{"GID_2":"RUS.66.32_1","GID_0":"RUS","COUNTRY":"Russia","GID_1":"RUS.66_1","NAME_1":"Sverdlovsk","NL_NAME_1":"Свердловскаяобласть","NAME_2":"NizhniyTuragorsovet","VARNAME_2":"NizhniyTura","NL_NAME_2":"НижняяТура(горсовет)","TYPE_2":"Gorsovet","ENGTYPE_2":"District","CC_2":"R51004","HASC_2":"RU.SV.NZ"}},{"type":"MultiPolygon","arcs":[[[149,-107,-118,150,151,-147]]],"properties":{"GID_2":"RUS.66.33_1","GID_0":"RUS","COUNTRY":"Russia","GID_1":"RUS.66_1","NAME_1":"Sverdlovsk","NL_NAME_1":"Свердловскаяобласть","NAME_2":"Novolyalinskiyrayon","VARNAME_2":"NA","NL_NAME_2":"Новолялинскийрайон","TYPE_2":"Raion","ENGTYPE_2":"District","CC_2":"R51001","HASC_2":"RU.SV.NL"}},{"type":"MultiPolygon","arcs":[[[-71,152,153,154,-142,155,156,-114,-135,157]]],"properties":{"GID_2":"RUS.66.34_1","GID_0":"RUS","COUNTRY":"Russia","GID_1":"RUS.66_1","NAME_1":"Sverdlovsk","NL_NAME_1":"Свердловскаяобласть","NAME_2":"Pervoural'skgorsovet","VARNAME_2":"Pervoural'sk","NL_NAME_2":"Первоуральск(горсовет)","TYPE_2":"Gorsovet","ENGTYPE_2":"District","CC_2":"R51004","HASC_2":"RU.SV.PE"}},{"type":"MultiPolygon","arcs":[[[158,-68,159,160,161]]],"properties":{"GID_2":"RUS.66.35_1","GID_0":"RUS","COUNTRY":"Russia","GID_1":"RUS.66_1","NAME_1":"Sverdlovsk","NL_NAME_1":"Свердловскаяобласть","NAME_2":"Polevskoygorsovet","VARNAME_2":"Polevskoy","NL_NAME_2":"Полевской(горсовет)","TYPE_2":"Gorsovet","ENGTYPE_2":"District","CC_2":"R51004","HASC_2":"RU.SV.PO"}},{"type":"MultiPolygon","arcs":[[[-129,-122,162,163,-11,-9,164,-132,165,-112,166,-110,167,168],[-145]]],"properties":{"GID_2":"RUS.66.36_1","GID_0":"RUS","COUNTRY":"Russia","GID_1":"RUS.66_1","NAME_1":"Sverdlovsk","NL_NAME_1":"Свердловскаяобласть","NAME_2":"Prigorodnyyrayon","VARNAME_2":"NA","NL_NAME_2":"Пригородныйрайон","TYPE_2":"Raion","ENGTYPE_2":"District","CC_2":"R51001","HASC_2":"RU.SV.PR"}},{"type":"MultiPolygon","arcs":[[[169,-102,170]]],"properties":{"GID_2":"RUS.66.37_1","GID_0":"RUS","COUNTRY":"Russia","GID_1":"RUS.66_1","NAME_1":"Sverdlovsk","NL_NAME_1":"Свердловскаяобласть","NAME_2":"Pyshminskiyrayon","VARNAME_2":"NA","NL_NAME_2":"Пышминскийрайон","TYPE_2":"Raion","ENGTYPE_2":"District","CC_2":"R51001","HASC_2":"RU.SV.PY"}},{"type":"MultiPolygon","arcs":[[[171,-144,172,-154,173,-69,-159]]],"properties":{"GID_2":"RUS.66.38_1","GID_0":"RUS","COUNTRY":"Russia","GID_1":"RUS.66_1","NAME_1":"Sverdlovsk","NL_NAME_1":"Свердловскаяобласть","NAME_2":"Revdagorsovet","VARNAME_2":"Revda","NL_NAME_2":"Ревда(горсовет)","TYPE_2":"Gorsovet","ENGTYPE_2":"District","CC_2":"R51004","HASC_2":"RU.SV.RE"}},{"type":"MultiPolygon","arcs":[[[174]]],"properties":{"GID_2":"RUS.66.39_1","GID_0":"RUS","COUNTRY":"Russia","GID_1":"RUS.66_1","NAME_1":"Sverdlovsk","NL_NAME_1":"Свердловскаяобласть","NAME_2":"Rezh","VARNAME_2":"NA","NL_NAME_2":"Реж","TYPE_2":"Gorod","ENGTYPE_2":"City","CC_2":"NA","HASC_2":"RU.SV.RG"}},{"type":"MultiPolygon","arcs":[[[-8,-25,-31,-43,175,-60,176,-133,-165],[-175]]],"properties":{"GID_2":"RUS.66.40_1","GID_0":"RUS","COUNTRY":"Russia","GID_1":"RUS.66_1","NAME_1":"Sverdlovsk","NL_NAME_1":"Свердловскаяобласть","NAME_2":"Rezhevskiyrayon","VARNAME_2":"NA","NL_NAME_2":"Режевскийрайон","TYPE_2":"Raion","ENGTYPE_2":"District","CC_2":"R51002","HASC_2":"RU.SV.RR"}},{"type":"MultiPolygon","arcs":[[[177,178]]],"properties":{"GID_2":"RUS.66.41_1","GID_0":"RUS","COUNTRY":"Russia","GID_1":"RUS.66_1","NAME_1":"Sverdlovsk","NL_NAME_1":"Свердловскаяобласть","NAME_2":"Serovgorsovet","VARNAME_2":"Serov","NL_NAME_2":"Серов(горсовет)","TYPE_2":"Gorsovet","ENGTYPE_2":"District","CC_2":"R51004","HASC_2":"RU.SV.SG"}},{"type":"MultiPolygon","arcs":[[[-19,179,180,-151,181,-179,182,-116,183,-104,184,-90,185,-88,186,-78,187,-76]]],"properties":{"GID_2":"RUS.66.42_1","GID_0":"RUS","COUNTRY":"Russia","GID_1":"RUS.66_1","NAME_1":"Sverdlovsk","NL_NAME_1":"Свердловскаяобласть","NAME_2":"Serovskiyrayon","VARNAME_2":"NA","NL_NAME_2":"Серовскийрайон","TYPE_2":"Raion","ENGTYPE_2":"District","CC_2":"R51002","HASC_2":"RU.SV.SR"}},{"type":"MultiPolygon","arcs":[[[188,-91,-185,-103]]],"properties":{"GID_2":"RUS.66.43_1","GID_0":"RUS","COUNTRY":"Russia","GID_1":"RUS.66_1","NAME_1":"Sverdlovsk","NL_NAME_1":"Свердловскаяобласть","NAME_2":"Severoural'skgorsovet","VARNAME_2":"Severoural'sk","NL_NAME_2":"Североуральск(горсовет)","TYPE_2":"Gorsovet","ENGTYPE_2":"District","CC_2":"R51004","HASC_2":"RU.SV.SU"}},{"type":"MultiPolygon","arcs":[[[-168,-109,-157,189,190,-140,191,-138,-2,192]]],"properties":{"GID_2":"RUS.66.44_1","GID_0":"RUS","COUNTRY":"Russia","GID_1":"RUS.66_1","NAME_1":"Sverdlovsk","NL_NAME_1":"Свердловскаяобласть","NAME_2":"Shalinskiyrayon","VARNAME_2":"NA","NL_NAME_2":"Шалинскийрайон","TYPE_2":"Raion","ENGTYPE_2":"District","CC_2":"R51003","HASC_2":"RU.SV.SH"}},{"type":"MultiPolygon","arcs":[[[193,-44,194,195,196,197,198]]],"properties":{"GID_2":"RUS.66.45_1","GID_0":"RUS","COUNTRY":"Russia","GID_1":"RUS.66_1","NAME_1":"Sverdlovsk","NL_NAME_1":"Свердловскаяобласть","NAME_2":"Slobodo-Turinskiyrayon","VARNAME_2":"NA","NL_NAME_2":"Слободо-Туринскийрайон","TYPE_2":"Raion","ENGTYPE_2":"District","CC_2":"R51002","HASC_2":"RU.SV.ST"}},{"type":"MultiPolygon","arcs":[[[199,-28,200,-100,-64,-52,-38],[201]]],"properties":{"GID_2":"RUS.66.46_1","GID_0":"RUS","COUNTRY":"Russia","GID_1":"RUS.66_1","NAME_1":"Sverdlovsk","NL_NAME_1":"Свердловскаяобласть","NAME_2":"Sukholozhskiyrayon","VARNAME_2":"NA","NL_NAME_2":"Сухоложскийрайон","TYPE_2":"Raion","ENGTYPE_2":"District","CC_2":"R51002","HASC_2":"RU.SV.SK"}},{"type":"MultiPolygon","arcs":[[[-202]]],"properties":{"GID_2":"RUS.66.47_1","GID_0":"RUS","COUNTRY":"Russia","GID_1":"RUS.66_1","NAME_1":"Sverdlovsk","NL_NAME_1":"Свердловскаяобласть","NAME_2":"SukhoyLog","VARNAME_2":"NA","NL_NAME_2":"СухойЛог","TYPE_2":"Gorod","ENGTYPE_2":"City","CC_2":"NA","HASC_2":"RU.SV.SL"}},{"type":"MultiPolygon","arcs":[[[202,-161,203,-66,-55,-96]]],"properties":{"GID_2":"RUS.66.48_1","GID_0":"RUS","COUNTRY":"Russia","GID_1":"RUS.66_1","NAME_1":"Sverdlovsk","NL_NAME_1":"Свердловскаяобласть","NAME_2":"Sysertskiyrayon","VARNAME_2":"NA","NL_NAME_2":"Сысертскийрайон","TYPE_2":"Raion","ENGTYPE_2":"District","CC_2":"R51002","HASC_2":"RU.SV.SY"}},{"type":"MultiPolygon","arcs":[[[204,205,206,207,208,-74]]],"properties":{"GID_2":"RUS.66.49_1","GID_0":"RUS","COUNTRY":"Russia","GID_1":"RUS.66_1","NAME_1":"Sverdlovsk","NL_NAME_1":"Свердловскаяобласть","NAME_2":"Taborinskiyrayon","VARNAME_2":"NA","NL_NAME_2":"Таборинскийрайон","TYPE_2":"Raion","ENGTYPE_2":"District","CC_2":"R51002","HASC_2":"RU.SV.TB"}},{"type":"MultiPolygon","arcs":[[[-171,209,-46,210,211]]],"properties":{"GID_2":"RUS.66.50_1","GID_0":"RUS","COUNTRY":"Russia","GID_1":"RUS.66_1","NAME_1":"Sverdlovsk","NL_NAME_1":"Свердловскаяобласть","NAME_2":"Talitskiyrayon","VARNAME_2":"NA","NL_NAME_2":"Талицкийрайон","TYPE_2":"Raion","ENGTYPE_2":"District","CC_2":"R51002","HASC_2":"RU.SV.TL"}},{"type":"MultiPolygon","arcs":[[[212]]],"properties":{"GID_2":"RUS.66.51_1","GID_0":"RUS","COUNTRY":"Russia","GID_1":"RUS.66_1","NAME_1":"Sverdlovsk","NL_NAME_1":"Свердловскаяобласть","NAME_2":"Tavda","VARNAME_2":"NA","NL_NAME_2":"Тавда","TYPE_2":"Gorod","ENGTYPE_2":"City","CC_2":"NA","HASC_2":"RU.SV.TG"}},{"type":"MultiPolygon","arcs":[[[213,-197,214,215,216,-206],[-213]]],"properties":{"GID_2":"RUS.66.52_1","GID_0":"RUS","COUNTRY":"Russia","GID_1":"RUS.66_1","NAME_1":"Sverdlovsk","NL_NAME_1":"Свердловскаяобласть","NAME_2":"Tavdinskiyrayon","VARNAME_2":"NA","NL_NAME_2":"Тавдинскийрайон","TYPE_2":"Raion","ENGTYPE_2":"District","CC_2":"R51002","HASC_2":"RU.SV.TR"}},{"type":"MultiPolygon","arcs":[[[-211,217,-199,218]]],"properties":{"GID_2":"RUS.66.53_1","GID_0":"RUS","COUNTRY":"Russia","GID_1":"RUS.66_1","NAME_1":"Sverdlovsk","NL_NAME_1":"Свердловскаяобласть","NAME_2":"Tugulymskiyrayon","VARNAME_2":"NA","NL_NAME_2":"Тугулымскийрайон","TYPE_2":"Raion","ENGTYPE_2":"District","CC_2":"R51002","HASC_2":"RU.SV.TM"}},{"type":"MultiPolygon","arcs":[[[-22,-208,219,-216,220,-195,-50,221,-82]]],"properties":{"GID_2":"RUS.66.54_1","GID_0":"RUS","COUNTRY":"Russia","GID_1":"RUS.66_1","NAME_1":"Sverdlovsk","NL_NAME_1":"Свердловскаяобласть","NAME_2":"Turinskiyrayon","VARNAME_2":"NA","NL_NAME_2":"Туринскийрайон","TYPE_2":"Raion","ENGTYPE_2":"District","CC_2":"R51002","HASC_2":"RU.SV.TN"}},{"type":"MultiPolygon","arcs":[[[-13,222,-163,-121,223,224],[225]]],"properties":{"GID_2":"RUS.66.55_1","GID_0":"RUS","COUNTRY":"Russia","GID_1":"RUS.66_1","NAME_1":"Sverdlovsk","NL_NAME_1":"Свердловскаяобласть","NAME_2":"Verkhnesaldinskiyrayon","VARNAME_2":"NA","NL_NAME_2":"Верхнесалдинскийрайон","TYPE_2":"Raion","ENGTYPE_2":"District","CC_2":"R51000","HASC_2":"RU.SV.VE"}},{"type":"MultiPolygon","arcs":[[[-59,-72,-158,-134,-177]]],"properties":{"GID_2":"RUS.66.56_1","GID_0":"RUS","COUNTRY":"Russia","GID_1":"RUS.66_1","NAME_1":"Sverdlovsk","NL_NAME_1":"Свердловскаяобласть","NAME_2":"VerkhnyayaPyshmagorsovet","VARNAME_2":"VerkhnyayaPyshma","NL_NAME_2":"ВерхняяПышма(горсовет)","TYPE_2":"Gorsovet","ENGTYPE_2":"District","CC_2":"R51003","HASC_2":"RU.SV.VP"}},{"type":"MultiPolygon","arcs":[[[-226]]],"properties":{"GID_2":"RUS.66.57_1","GID_0":"RUS","COUNTRY":"Russia","GID_1":"RUS.66_1","NAME_1":"Sverdlovsk","NL_NAME_1":"Свердловскаяобласть","NAME_2":"VerkhnyayaSalda","VARNAME_2":"NA","NL_NAME_2":"ВерхняяСалда","TYPE_2":"Gorod","ENGTYPE_2":"City","CC_2":"NA","HASC_2":"RU.SV.VS"}},{"type":"MultiPolygon","arcs":[[[-17,226,-15,227,-224,228,-125,-148,-152,-181,229]]],"properties":{"GID_2":"RUS.66.58_1","GID_0":"RUS","COUNTRY":"Russia","GID_1":"RUS.66_1","NAME_1":"Sverdlovsk","NL_NAME_1":"Свердловскаяобласть","NAME_2":"Verkhoturskiyrayon","VARNAME_2":"NA","NL_NAME_2":"Верхотурскийрайон","TYPE_2":"Raion","ENGTYPE_2":"District","CC_2":"R51000","HASC_2":"RU.SV.VT"}},{"type":"MultiPolygon","arcs":[[[-57]]],"properties":{"GID_2":"RUS.66.59_1","GID_0":"RUS","COUNTRY":"Russia","GID_1":"RUS.66_1","NAME_1":"Sverdlovsk","NL_NAME_1":"Свердловскаяобласть","NAME_2":"Zarechnyy","VARNAME_2":"NA","NL_NAME_2":"Заречный","TYPE_2":"Gorsovet","ENGTYPE_2":"District","CC_2":"NA","HASC_2":"RU.SV.ZA"}}]}},"arcs":[[[37925,140520],[10951,4259],[10325,11351],[8492,5005],[6559,8348],[3833,3003],[5800,-356],[5542,-6465],[4268,2495],[-4324,7194]],[[89371,175354],[13968,-4565],[8235,1069],[5945,-6990],[6302,-5277],[13375,12183],[8359,-5600]],[[145555,166174],[-4202,-6871],[-6883,-6923],[-4179,-6888],[-1743,-5464],[1341,-5904],[6112,-8331],[3184,-7058],[-748,-3411],[871,-3189]],[[139308,112135],[7565,-8212]],[[146873,103923],[-5911,-5650],[-19935,-13845],[-12056,2579]],[[108971,87007],[-4448,-1120]],[[104523,85887],[224,8297],[-10437,10231],[-9353,-1782],[-20393,13302],[-1363,11148],[-14303,4971],[-10973,8466]],[[476031,272982],[-4291,-560],[-3900,2053],[-1486,5124],[-2011,2579],[-5721,-764]],[[458622,281414],[961,3393],[-1621,5226],[-5598,5565],[-10615,2953],[-5286,4072],[-1978,4784],[-704,5447]],[[433781,312854],[4604,4988],[6403,3326],[8794,1120],[3028,-4955],[9409,1900],[212,4785],[13566,781],[3978,-7381],[18649,-662],[8403,-7312],[4414,-5701],[-827,-4751],[2067,-6176],[-16347,-6821],[-10582,-6091],[-3364,730],[-5486,4869],[-4995,-4004],[-481,-4140],[805,-4377]],[[433781,312854],[-9431,3834],[-7542,-13353],[-6045,4140]],[[410763,307475],[4257,9485]],[[415020,316960],[816,5277],[-2012,6464],[-22,7991],[7989,4853],[7901,8416],[469,17679],[1710,8144],[-3196,11928]],[[428675,387712],[12101,-119]],[[440776,387593],[1420,5073],[-939,4615],[-3095,4955],[771,4768]],[[438933,407004],[9554,9908],[7050,5022],[2705,3530]],[[458242,425464],[13699,-11249],[42909,4021],[8727,12250],[5688,-3682],[1955,-4802],[27232,3988],[7308,3563],[9106,101],[12348,-4055],[4805,883],[3196,2986],[100,5786],[-8213,4632]],[[587102,439886],[3051,4343],[3609,2460]],[[593762,446689],[-1509,4293],[-4626,7109],[-7319,5803],[-3162,6379],[626,3903],[2134,3173],[5900,4275],[2514,6227],[201,7992],[-2704,11639],[-4581,9298],[-2157,9756]],[[579079,526536],[5878,-1510],[4972,-6261],[15108,-1425],[4894,882],[10247,-9485],[6514,-1204],[5710,-7330],[6101,-696]],[[638503,499507],[6638,-2595],[12705,-10452],[19443,-22990]],[[677289,463470],[-7096,-14728],[4906,-7669],[-25030,-21107],[-7208,2274],[-7498,-2138],[-6816,-8992],[-7866,-5192],[547,-9044],[-6917,-4055],[-7855,1934],[-6381,-2375],[-1966,-4530],[3743,-6074],[570,-9044],[3989,-8789],[-2078,-13913]],[[604333,350028],[-5643,-9196],[-257,-4428],[5687,-8670],[-8861,-21548],[7867,-6872],[-8615,-6379],[-9521,-4005],[-9889,-7041],[-7174,34],[-13342,3393],[-6235,-2392],[-2961,-4360],[1341,-2919],[-1252,-4224]],[[545478,271421],[-3352,-3835],[-9185,-3190],[-4235,-5022],[-5397,-3444],[-8940,-2376],[-13833,-9925],[-7923,1001]],[[492613,244630],[-6324,4717],[-5364,8076],[-4894,15559]],[[545478,271421],[26494,-9027],[3934,-5226],[-626,-3885],[7688,-5497],[1307,-2936],[-11889,-6651],[2235,-5344],[10906,-7466],[2346,-6702],[-5274,-4801],[-6816,-2698],[-7297,-7975],[-872,-4733]],[[567614,198480],[-14414,-815]],[[553200,197665],[-9197,-5378],[-7229,1374],[-5889,-1561],[-10604,4666],[-2660,-3512],[760,-6821]],[[518381,186433],[-7073,-17],[-10850,3801]],[[500458,190217],[-10538,6837]],[[489920,197054],[-2290,5311],[-5710,8619],[-1822,6991],[-156,7143],[5051,11995],[7620,7517]],[[515409,210882],[1419,1595],[-391,950],[-3811,-814],[1196,-1968],[1587,237]],[[98310,11249],[-1888,27521],[4101,6871],[-3375,6176],[-8179,20445],[3095,7025],[4380,3342]],[[96444,82629],[12527,4378]],[[146873,103923],[11107,-12098]],[[157980,91825],[5744,-2596],[8716,3546],[4302,-1951],[2715,-6566],[-737,-7805],[-3554,-10910],[1274,-5904],[5956,-8365],[-7386,-11639],[5106,-5175],[8269,1832],[6481,-3631],[5442,-8873]],[[200308,23788],[-1799,-11148],[-5620,-8330],[-6213,-4310],[-7230,271],[-4805,1629],[-21343,13404],[-7252,2426],[-8838,-2171],[-5152,-6685],[-7587,-3682],[-5810,-441],[-4660,4632],[-15689,1866]],[[500458,190217],[1944,-8382],[-4526,-19648],[-3262,-3851],[-257,-6634]],[[494357,151702],[-20986,2104],[-5207,-1273]],[[468164,152533],[-10023,2732],[-5297,2290]],[[452844,157555],[2984,8789],[-8716,5565],[13577,21565]],[[460689,193474],[6593,4140]],[[467282,197614],[6983,-2155],[9465,2732],[6190,-1137]],[[742110,290678],[2481,-5921],[-525,-6618],[14180,-7499],[9341,-11894],[-2916,-2087],[2078,-5395],[-4883,-3003],[-10716,-2240],[-3430,-8721],[3575,-7516]],[[751295,229784],[-5888,-21243]],[[745407,208541],[-12471,-4547],[-21164,-933],[-7643,-1544],[-12180,4767],[-7766,-3766],[-4771,526],[-9878,5175],[-2849,-2121],[-7454,4208],[-16548,-7398],[-4247,2189]],[[638436,205097],[2202,1798]],[[640638,206895],[-168,3105],[-5576,11928],[1319,1815],[2190,628],[3855,-5243],[3833,-2833],[4916,-730],[4917,1595],[16951,15491],[17789,22855],[12326,7346],[4860,11572],[6046,9976],[10950,10180]],[[724846,294580],[2883,-3597]],[[727729,290983],[14381,-305]],[[452844,157555],[15320,-5022]],[[494357,151702],[1005,-5973],[-1776,-8127],[-5297,-9247]],[[488289,128355],[-2537,-7092],[-402,-5277],[2972,-2782],[5666,2952],[2726,-3631],[5286,-11690]],[[502000,100835],[-905,-6957],[-6258,-3274],[-6403,3885],[-4771,-1765],[-1028,-5599],[-9923,-3037],[-5073,-10638],[-2324,-2664],[-10057,-1697],[-5989,-2460],[-6302,272],[-7588,5395]],[[435379,72296],[-681,11232],[2234,6244],[-2301,5311],[4503,6736],[-3866,7363],[-21142,6889],[-894,5328]],[[413232,121399],[7397,6837],[10515,1222],[11532,6821],[5956,6040],[1173,4225],[-3252,7703],[6291,3308]],[[456655,124504],[-548,1594],[-1866,-1425],[2414,-169]],[[413232,121399],[-1587,9315],[-18079,8500],[2357,12895]],[[395923,152109],[-1888,6973],[-4872,3954],[10302,24381],[13655,14490]],[[413120,201907],[4325,-2087],[9140,-272],[10504,-3189],[14314,-6991]],[[451403,189368],[9286,4106]],[[592723,88245],[-5308,187],[-12493,-7720],[-6794,-8450]],[[568128,72262],[-8492,34],[-7218,2749],[-9577,9467],[-7330,543],[-16649,-2137],[-5040,6769],[-1073,3767],[-10749,7381]],[[488289,128355],[13934,3631],[7006,17],[3990,-2986],[8604,3716],[17208,-1952],[6470,1867],[10168,-11351],[20192,4530]],[[575861,125827],[2570,-5871],[5252,-5955],[6615,-3105],[9923,-10044],[-7498,-12607]],[[413232,121399],[-27600,-14049],[-2313,-2698],[-939,-5599],[-4447,-6753],[-4112,-1510]],[[373821,90790],[-13454,1442]],[[360367,92232],[-12068,-1476],[2805,8823],[-16940,2426]],[[334164,102005],[-302,7127],[-5475,3580],[-2425,3054],[246,3054]],[[326208,118820],[5542,831]],[[331750,119651],[11174,6091],[4392,4581],[916,5599],[-2570,6634],[257,3054]],[[345919,145610],[11777,1986],[8213,-1392],[12627,3139],[6537,6414],[10850,-3648]],[[657667,751993],[16940,-19563],[3945,-13200],[-1978,-5871],[-5498,-7465],[11543,-4802],[12381,-2291],[25812,-8432],[5397,-6821],[2202,-4004],[1698,-10604],[7297,-28675],[-2615,-7550],[257,-11232],[1766,-11979],[301,-16186],[3073,-6414],[5252,-6854],[12728,-10571],[5575,-2460]],[[763743,567019],[-7319,-16034],[-28807,-40025],[-8425,-1035],[-5140,1917],[-6839,-3155],[-8112,3376],[-8023,-1578],[-5431,1052],[-8447,-4632],[-1531,-6430],[-14259,-3071],[-7062,-4022],[-3520,-220]],[[650828,493162],[-12325,6345]],[[579079,526536],[-1855,7024],[-6671,8331],[-16873,3444],[-23242,-339]],[[530438,544996],[-6503,3359],[-3632,3292]],[[520303,551647],[-7900,14269],[-1363,30456],[-5107,14201],[-4190,29132],[-6560,13540]],[[495183,653245],[-32930,38719]],[[462253,691964],[5766,3495],[9610,10367],[1821,8127],[9912,3241],[10928,-1375],[10325,8467],[5554,8381],[2838,9281],[12023,21481],[34528,-7211],[45725,-2172],[16426,-6923],[11230,-661],[7666,1289],[11062,4242]],[[649164,260596],[-1263,-204],[-1844,1951],[2403,1748],[2324,-1425],[-1620,-2070]],[[604333,350028],[3967,-5225],[5810,-2902],[7241,-7194],[10414,2902],[11175,-5328],[4313,-5769],[11286,-3122],[10950,4564],[3151,-644],[3118,-4208],[-726,-7466],[1665,-3478],[5229,-1052],[9129,5786],[4850,-526],[4034,-3054],[5609,-1595],[9253,4395],[4749,814],[6224,-4870],[-8225,-4598],[716,-4632]],[[718265,302826],[6581,-8246]],[[640638,206895],[-11353,-4886]],[[629285,202009],[-8638,-1409],[-19454,2512],[-10549,-2410],[-5542,1527],[-6682,-4055]],[[578420,198174],[-10806,306]],[[462253,691964],[-8883,10316]],[[453370,702280],[-12124,9484]],[[441246,711764],[-13219,1697],[-37892,2901]],[[390135,716362],[-10325,-5022],[-11509,-15898],[-9800,-1154],[-26650,8942]],[[331851,703230],[1810,13421],[436,14948],[-3677,4089],[-11509,8330],[15543,44454],[-83370,15355]],[[251084,803827],[234,17900],[-6458,7958],[-7744,12521],[-6425,25077],[-1308,26113],[7141,8687],[5274,8517],[8828,22074],[-5487,12182],[-5911,8297],[-1162,9824],[-3084,9654],[1274,7296],[4190,6464],[626,4751],[5933,4259],[6425,4598],[14583,-6414],[19800,-3223],[13543,-5447],[4369,-4581],[-1374,-7279],[1050,-9840],[9163,-7483],[13398,1154],[26326,4937],[31132,-2426],[21744,-4615],[20326,-916],[10962,-3020],[12348,-4564],[19778,-12827],[22628,-9349],[24113,-12301],[18997,-6651],[42864,-22651],[17621,-6549],[13812,-6804],[19756,-22057],[2279,-9739],[-5296,-15932],[-3822,-6007],[4425,-8755],[1386,-8687],[6000,-13064],[10135,-16933],[12191,-15983]],[[245809,426685],[-4492,13913],[4682,9926],[-2659,3037],[-16918,-2375],[-7911,4682]],[[218511,455868],[30438,22923],[14896,-3987],[-1408,-14813],[4145,-3342],[-2067,-8433],[-6760,-339],[-11946,-21192]],[[526225,47813],[-7453,-5667],[-5106,1476],[-4928,12827],[-213,13472],[15387,10553],[4693,-28962],[-2380,-3699]],[[429502,50799],[-4179,11775],[10056,9722]],[[568128,72262],[-6022,-9484],[-13756,-17748],[-13364,-7567],[503,-18409],[-1732,-2308],[-6135,2562],[-4257,-34],[-5900,3411],[-3431,4683],[-2693,7228],[-7933,3783],[-4247,-51],[190,4429],[-1530,2070],[-14560,1069],[-4738,-1765],[-5945,3377],[-5006,6735],[-4648,458],[-8068,-4241],[-13409,5209],[-5498,-747],[-6447,-4123]],[[613004,127524],[-2358,-340],[-1039,1612],[3240,798],[157,-2070]],[[630648,92894],[-9398,-6091],[-7453,-1595],[-10906,-11147],[-3765,1680],[-6403,12504]],[[575861,125827],[190,11588],[2101,12539],[-1565,5684],[-4257,5735],[-2347,6719],[-1206,8721],[2927,4343],[2883,11504],[-2603,5870]],[[571984,198530],[6436,-356]],[[629285,202009],[-4157,-9926],[6157,-4802],[1777,-8432],[3955,-6617],[-1475,-4785],[-6905,-6515],[89,-2681],[2335,-1833],[5375,-186],[5096,-4632],[-660,-3903],[-4101,-2748],[-961,-1968],[2336,-5922],[-1945,-8127],[-3575,-4632],[815,-23923],[-2793,-7483]],[[220422,708031],[22180,-1391],[11186,-28504],[19499,2460],[2849,8840],[10225,712],[20526,-7465],[20673,2189]],[[327560,684872],[8626,-849],[2045,-12250]],[[338231,671773],[-14281,-492]],[[323950,671281],[-5419,-7126],[3632,-4089],[-2895,-17680],[-6257,-17170],[-5341,-11572],[-7610,-2392],[-7777,-9875]],[[292283,601377],[-17655,-899],[-8336,3868],[-21555,18613],[-6012,-3105],[-4593,-6838],[-2257,-11605],[-3240,-6142],[-11286,-5888],[1799,-11741],[-10102,-6057],[-5039,-13845],[-10303,-14439]],[[193704,543299],[-15755,1341],[-11901,5616],[-8526,10451],[-6984,9773],[-10604,4089],[-1933,4225],[15800,41501],[8537,6753],[1665,4632],[6046,8433],[8660,4530],[8548,8958],[12113,4039],[3497,4801],[17555,45590]],[[280148,212918],[-7062,4191]],[[273086,217109],[-5185,16272],[2927,3071],[6068,2596],[7341,5463],[2112,6295],[-3307,12895]],[[283042,263701],[2950,3071],[5050,2748]],[[291042,269520],[9431,-3699],[8895,9197]],[[309368,275018],[3498,-9858],[-1352,-11724],[7252,-10011],[-1721,-4581],[2670,-4411],[8873,-9858],[-56,-4412],[-2570,-5768],[-18806,-8009],[-2526,-3563],[-1117,-8670],[-3978,-5090]],[[299535,189063],[-6816,2850],[-2481,3054],[-4492,12200],[-5598,5751]],[[323950,671281],[23801,797]],[[347751,672078],[-2760,-19020],[7889,-5650],[-502,-12742],[-7208,-661],[-2268,-8501],[-8090,-4055]],[[334812,621449],[-5621,-30082]],[[329191,591367],[-29712,4072],[-7196,5938]],[[104523,85887],[-8079,-3258]],[[98310,11249],[-13509,-7228],[-7040,1018],[-7118,5396],[-9319,4818],[-10258,577],[-16884,-6413],[-6984,6210],[4391,8568],[-6648,7906],[-4515,3241],[-5319,18783],[-737,9281],[-570,10146],[2637,5344],[-2112,7720],[5811,8009],[793,6464],[-14716,21175],[-5598,6396],[-615,4904],[849,4259],[6168,9739],[5073,1544],[12504,-3784],[5677,-3376],[7654,-1426]],[[385799,414096],[-6559,-5582],[-3553,-6957],[-6247,-305],[-7185,-5922],[-9296,-3376],[6302,-12098],[-14962,-16627]],[[344299,363229],[-2403,-4921],[-10247,1205],[-9006,-4768],[-7252,-186],[-8559,-5277],[-4057,1510],[-5743,5769]],[[297032,356561],[1296,5107],[-5129,6108],[3654,10044],[-7297,6431],[1721,2392],[7308,4615],[-626,10706],[-2156,9196],[-4984,6957]],[[290819,418117],[5844,3071],[4537,-2019],[4101,-3733],[6045,1714],[2391,4920],[6068,1714],[22683,-1374],[9532,2036]],[[352020,424446],[5811,-3597]],[[357831,420849],[27968,-6753]],[[181983,374189],[12895,10062],[15062,-2189],[6392,3478],[5408,13336],[7040,6041],[14169,5412],[5319,8042]],[[248268,418371],[8861,-441],[8403,4480],[25287,-4293]],[[297032,356561],[-12180,-4293],[648,-6295],[-1497,-5955],[-11063,-6702],[-9766,-3801],[-8068,-1425],[-3832,2359],[-5576,6583],[-3621,984],[-5296,-3631],[-4481,2002],[-5945,-1765],[-9509,-5208],[-1453,-3767],[-3162,-1731],[-8057,14863],[-6000,2630],[-10805,8178],[357,3937],[-9085,6142],[3342,14523]],[[328811,236825],[-3140,-1239],[-1642,3496],[4190,661],[592,-2918]],[[309368,275018],[5073,2714],[8448,3071]],[[322889,280803],[10537,509],[7498,-6973],[8213,0],[4984,-3936],[4548,-5617],[9386,-3766],[9062,-9061],[7721,-1747],[3275,-4089],[5162,-3105]],[[393275,243018],[-3229,-3886],[8716,-12114],[-336,-5277],[-1966,-3206]],[[396460,218535],[-5699,-3021],[-23958,-356],[-6302,-3376],[-5833,-11877],[-1553,-5939],[939,-6786],[1575,-4242],[-11911,-6431],[-3409,-6956],[-1754,-6787],[112,-5769],[-1453,-1527]],[[337214,155468],[-15856,3071],[-5118,3054],[-4458,7805],[-291,11538],[-2436,5259],[-2872,3564],[-6648,-696]],[[267174,41077],[-2000,2528],[-2413,848],[-24852,1443],[-5844,1832],[-6850,4191],[-8302,-1748],[-4056,-3749],[2380,-16221],[-2827,-3071],[-5230,-2239],[-6447,1459],[-425,-2562]],[[157980,91825],[-18672,20310]],[[145555,166174],[16415,6431]],[[161970,172605],[23108,2799],[9096,-33]],[[194174,175371],[9531,-2749],[8101,-6498]],[[211806,166124],[1878,-3377],[5609,-5701]],[[219293,157046],[1263,-5921],[6604,-3648],[212,-3563],[2883,-3529],[10906,-7856],[11487,-3122],[4101,-5056],[1821,-7788],[4906,-3868],[12046,-5023]],[[275522,107672],[-436,-6091]],[[275086,101581],[2603,-8806],[380,-4920],[-223,-3054],[-1855,-3241],[-235,-5260],[8269,-11486],[-1061,-6465],[-5342,-11028],[-2436,831],[-8012,-7075]],[[331381,307323],[-9096,1018],[-7654,-6295],[-15051,-7347],[-4593,16628],[-13119,2494],[7644,8534],[5117,9366],[8102,5820],[-403,4920],[13845,34],[2939,-5786],[16415,-17662],[-4146,-11724]],[[218511,455868],[-3866,9841],[-7454,1968],[-536,4921],[682,10061],[11431,9824],[369,3936]],[[219137,496419],[8380,-2986],[20997,4429],[16381,6413],[6548,5633],[15823,1612],[2223,-6973],[23,-4429],[7721,-14439],[1542,-7312]],[[298775,478367],[-212,-5277],[3073,-7992],[5218,-1696],[5654,-6617],[13487,-2545],[4973,-4768],[7397,170],[10493,-15848],[3162,-9348]],[[248268,418371],[-2459,8314]],[[219137,496419],[-3621,6261],[-5397,6074],[2559,15525],[-11308,12641],[-7666,6379]],[[329191,591367],[11588,-4446],[3553,-4089],[-469,-6125],[3955,-11249],[3531,-4089],[15957,-2952],[6381,-4106],[4570,-8704],[8973,-7194],[21432,509],[5665,-4463],[1173,-8178],[-1843,-4581],[-1732,-10350]],[[411925,511350],[-3610,-4733],[-4883,-3190],[-20415,662],[-13666,-6227],[-2905,-4412],[-21488,-3682],[-2660,-5768],[-5006,4767],[-2637,-1815],[-1654,-5379],[-8436,-2324],[-25790,-882]],[[331750,119651],[-8828,-1171]],[[322922,118480],[-24426,19478],[-4314,-169],[-4335,-2393],[-5174,-5785],[-8716,-15814]],[[275957,113797],[-435,-6125]],[[219293,157046],[4928,2783]],[[224221,159829],[-2324,10485],[2670,4446],[1218,5107],[8459,8398],[8906,3496],[10571,-7381],[6626,-1476],[6235,5650],[5230,16831],[3967,5124],[4369,2409]],[[337214,155468],[7710,-7482],[995,-2376]],[[268147,38702],[21800,5259],[23310,53141],[4481,-1188],[5620,-7126],[3464,-1035],[7342,14252]],[[360367,92232],[8358,-559]],[[368725,91673],[-10414,-11487],[-5732,-1663],[-2805,-21209],[3352,-5446],[-7900,-15644]],[[345226,36224],[-10157,-5039],[-21030,-2070],[-11208,5464],[-15174,-1816],[-6303,-4225],[-5642,509],[-7565,9655]],[[344299,363229],[3374,-4072],[7431,-20259],[9420,-10401],[380,-2714],[-7766,-8484],[1195,-5938],[5465,-2240],[8257,-34],[8291,2172],[6347,-1052],[6280,-3275],[1833,-3410],[4760,-4802],[3900,-169],[3106,1646]],[[406572,300197],[4191,7278]],[[458622,281414],[-5621,-4343],[-6179,-2461],[123,-9365],[-10147,-8874],[-14459,-6804],[-10839,2308],[-13822,-8704],[-4403,-153]],[[322889,280803],[-13521,-5785]],[[291042,269520],[-8000,-5819]],[[273086,217109],[-26863,-1561],[-10035,9926],[-7721,-594],[-7319,3309],[-14336,-5786],[-10716,7313],[-8169,2070],[-9610,526],[-9028,3071],[-4381,11639],[4001,22346],[-280,3563],[-2648,7431]],[[165981,280362],[8560,4055],[6659,5209],[2637,6685],[-1653,9485],[-4124,5887],[-7821,-645],[-5163,3818],[-4883,254],[-8727,10062],[916,6481],[-2156,9994],[12470,13675],[5073,2817],[6146,12352],[8068,3698]],[[691000,94794],[-5744,-2782],[-5688,-7754],[-3978,4445],[-19722,-1153],[-13934,8788],[-5945,-101],[-5341,-3343]],[[629285,202009],[5766,-4293],[9006,-2715],[6649,-6719],[6313,968],[4101,-849],[4201,-5786],[5241,-2426],[7856,2409],[2391,-4530],[-1062,-3376],[2123,-5379],[3397,-4750],[-961,-16866],[1017,-12335],[6615,-11724],[-1553,-13590],[2201,-6770],[-1586,-8484]],[[268147,38702],[-973,2375]],[[275086,101581],[871,12216]],[[322922,118480],[3286,340]],[[471785,221012],[-2280,-1188],[-2883,1815],[-592,1867],[3285,1289],[2380,-1662],[90,-2121]],[[467282,197614],[-15879,-8246]],[[413120,201907],[-2413,3071],[-3509,9043],[-3062,2749],[-7676,1765]],[[331482,603651],[1754,9365]],[[333236,613016],[19041,-2663],[2067,12063],[30941,-4411],[2146,-9196],[6581,-9909],[-6481,-288],[-7408,-3699],[-2760,-7975],[-29735,2715],[2168,11775],[-18314,2223]],[[593762,446689],[-8660,-7771]],[[585102,438918],[-43110,20785],[-5833,1476],[-469,4106],[-2481,3122],[-972,8178],[-6090,628],[-17018,-5447],[-10929,-322],[-6916,1663],[-19611,1154],[-3654,9060],[-7855,8450],[491,9688],[-3944,8212],[2313,4055],[5844,4326],[-4570,2121],[-5051,390],[-30561,-8653],[-6582,1086],[-6179,-1646]],[[329191,591367],[2291,12284]],[[333236,613016],[1576,8433]],[[347751,672078],[-9520,-305]],[[327560,684872],[4291,18358]],[[390135,716362],[51111,-4598]],[[453370,702280],[41813,-49035]],[[520303,551647],[10135,-6651]],[[220422,708031],[2089,8518],[-3385,7974],[21264,37531],[3129,17171],[7587,15660],[-22,8942]],[[224221,159829],[-2671,-2240],[-2257,-543]],[[219293,157046],[-2279,1680],[-5208,7398]],[[194174,175371],[-32204,-2766]],[[89371,175354],[4034,3834],[-2201,4700],[-8102,7245],[-78,9671],[5699,4072],[-503,2698],[-8414,3325],[-6682,6617],[-1263,6753],[8314,13845],[3117,7059],[-3095,10960],[10548,11351],[157,8331],[10045,8772],[6783,-1374],[8962,-3869],[19365,1273],[3955,-16390],[3643,-3156],[3118,1764],[12951,14015],[6257,3512]],[[746669,211866],[1028,6991],[3598,10927]],[[742110,290678],[5844,4191],[6057,1425],[8693,7618],[11945,5565],[7409,-2918],[4157,-5837],[6816,340],[5766,-4395],[7744,-3478],[7028,2545]],[[813569,295734],[12560,-4089]],[[826129,291645],[5978,2749],[6772,-4649],[7039,2528],[5263,-2528],[2459,-7330],[8447,-4581]],[[862087,277834],[-8581,-5328],[4816,-6956],[6939,-2460],[1542,-3512],[-15141,-21039],[2089,-13133],[3755,-10944]],[[857506,214462],[-10470,-2019],[-5498,1680],[-19979,1307],[-8593,2341],[-9510,6159],[-12079,-1425],[-10850,560],[-24404,-3750],[-9454,-7449]],[[500458,190217],[14973,-4564],[2950,780]],[[553200,197665],[18784,865]],[[537813,132529],[871,1612],[-1374,865],[-1095,-848],[-45,-1324],[1643,-305]],[[429502,50799],[-3006,-5209],[1464,-4258],[4726,-4005],[928,-2392],[614,-5446],[-2469,-1307],[-38059,-2240],[-9364,4378],[-4247,-102],[-8760,-3291],[-18560,9535],[-7543,-238]],[[368725,91673],[5096,-883]],[[763743,567019],[15991,-2749],[26885,-34],[29310,-9620],[15141,-1798],[26047,831],[4816,-15440],[11364,730],[3397,-3428],[2816,-12793],[6268,-11300],[2883,-7855],[1051,-6550],[9945,-22973],[6168,-11317],[21208,-18765],[7163,-3869]],[[954196,440089],[-25287,-6108],[-9107,221],[-4615,1476],[-6593,-8501],[-20862,-2188],[-5777,-9587],[369,-6854],[-1375,-6923],[-3251,-4259],[-15309,-6142],[-2559,-3970],[-1128,-4717],[4972,-8314],[-7129,-2511],[-14202,-68],[-10951,-2154],[-5353,2511]],[[826039,372001],[-13364,-7517]],[[812675,364484],[-8917,-1255],[-5062,3325],[-7073,7347],[-2492,5921],[-3062,4259],[-3262,2036],[-4906,560],[-1832,6244],[3363,16390],[-4246,5837],[-8023,-153],[-2906,6447],[1811,8620],[-984,3800],[-5955,9298],[480,3054],[-6738,5396],[-3900,356],[-7453,-3444],[-9990,-2477],[-6023,763],[-4682,1391],[-15465,8450],[-9676,1900],[-9141,-17],[-9252,4938]],[[677289,463470],[-13521,16475],[-12940,13217]],[[629285,202009],[9151,3088]],[[745407,208541],[15699,-7432],[3733,-5310],[1497,-7075],[7364,-9264],[2324,-4565],[-2794,-13369],[850,-12369],[-4895,-6584],[4816,-6922],[-4771,-17883],[5721,-5769],[6995,-204],[6738,2240]],[[788684,114035],[3677,-11656],[-12136,-7160],[-4324,-4870],[3687,-11673],[-1117,-3343],[-6749,-2528],[-5218,-1069],[-5465,3037],[-11129,-1085],[-19890,1747],[-8236,4530],[-19912,15169],[-4403,1408],[-6469,-1748]],[[893163,328599],[-2973,475],[-11,2240],[3285,85],[593,-1833],[-894,-967]],[[954196,440089],[9129,-254],[7096,-2511],[4447,-6465],[-234,-21735],[4514,-9213],[1821,-11775],[581,-16475],[18449,-35240],[-35523,-16220],[-5866,-8179],[-5129,-169],[-6738,-2969],[-7107,-10164],[-13677,-8195],[-6582,1969],[-5363,5310],[-2447,1001],[-25723,-12284],[-23757,-8687]],[[826129,291645],[-6984,2426]],[[819145,294071],[1777,9994],[234,18460],[-972,10129],[1419,10520],[-558,14557],[-2995,9214]],[[818050,366945],[7989,5056]],[[745407,208541],[1262,3325]],[[857506,214462],[5196,-17323],[6068,-12708],[7117,-33340],[3263,-4836],[14929,1968],[2514,-3749],[-5453,-10978],[-2268,-8076],[-18046,-4870],[-8895,950],[-7554,4938],[-5967,6362],[-12917,-1052],[-16370,1511],[-8638,-6142],[-6872,-7449],[-7710,1306],[-7219,-6939]],[[812675,364484],[5375,2461]],[[819145,294071],[-5576,1663]],[[727729,290983],[-9464,11843]],[[415020,316960],[-5766,-13302],[-2682,-3461]],[[385799,414096],[11041,1289],[8146,-3122],[8861,-8585],[44,-7991],[1196,-3750],[6146,-4140]],[[421233,387797],[7442,-85]],[[379397,329957],[178,1119],[-1564,1663],[-2168,-712],[-603,-1477],[1777,-1696],[2380,1103]],[[458242,425464],[-19309,-18460]],[[440776,387593],[-19543,204]],[[385799,414096],[-15498,2969],[-12470,3784]],[[585102,438918],[2000,968]]],"bbox":[57.2542,56.0806,66.2034,61.9744],"transform":{"scale":[0.000008949208949208954,0.0000058938058938059],"translate":[57.2542,56.0806]}}