{"type":"Topology","objects":{"muni":{"type":"GeometryCollection","geometries":[{"type":"MultiPolygon","arcs":[[[0,1,2,3,4,5,6,7,8,9]]],"properties":{"GID_2":"RUS.67.1_1","GID_0":"RUS","COUNTRY":"Russia","GID_1":"RUS.67_1","NAME_1":"Tambov","NL_NAME_1":"Тамбовскаяобласть","NAME_2":"Bondarskiyrayon","VARNAME_2":"NA","NL_NAME_2":"Бондарскийрайон","TYPE_2":"Raion","ENGTYPE_2":"District","CC_2":"R30000","HASC_2":"RU.TB.BO"}},{"type":"MultiPolygon","arcs":[[[10,11,12,13,14,-9,15]]],"properties":{"GID_2":"RUS.67.2_1","GID_0":"RUS","COUNTRY":"Russia","GID_1":"RUS.67_1","NAME_1":"Tambov","NL_NAME_1":"Тамбовскаяобласть","NAME_2":"Gavrilovskiyrayon","VARNAME_2":"NA","NL_NAME_2":"Гавриловскийрайон","TYPE_2":"Raion","ENGTYPE_2":"District","CC_2":"R30000","HASC_2":"RU.TB.GA"}},{"type":"MultiPolygon","arcs":[[[16,17,18,19,20,21,22,23,24,25]]],"properties":{"GID_2":"RUS.67.3_1","GID_0":"RUS","COUNTRY":"Russia","GID_1":"RUS.67_1","NAME_1":"Tambov","NL_NAME_1":"Тамбовскаяобласть","NAME_2":"Inzhavinskiyrayon","VARNAME_2":"NA","NL_NAME_2":"Инжавинскийрайон","TYPE_2":"Raion","ENGTYPE_2":"District","CC_2":"R30000","HASC_2":"RU.TB.IN"}},{"type":"MultiPolygon","arcs":[[[26]]],"properties":{"GID_2":"RUS.67.4_1","GID_0":"RUS","COUNTRY":"Russia","GID_1":"RUS.67_1","NAME_1":"Tambov","NL_NAME_1":"Тамбовскаяобласть","NAME_2":"Kirsanov","VARNAME_2":"NA","NL_NAME_2":"Кирсанов","TYPE_2":"Gorod","ENGTYPE_2":"City","CC_2":"NA","HASC_2":"RU.TB.KG"}},{"type":"MultiPolygon","arcs":[[[-1,27,-14,28,29,30,-24,31,32],[-27]]],"properties":{"GID_2":"RUS.67.5_1","GID_0":"RUS","COUNTRY":"Russia","GID_1":"RUS.67_1","NAME_1":"Tambov","NL_NAME_1":"Тамбовскаяобласть","NAME_2":"Kirsanovskiyrayon","VARNAME_2":"NA","NL_NAME_2":"Кирсановскийрайон","TYPE_2":"Raion","ENGTYPE_2":"District","CC_2":"R30000","HASC_2":"RU.TB.KR"}},{"type":"MultiPolygon","arcs":[[[33]]],"properties":{"GID_2":"RUS.67.6_1","GID_0":"RUS","COUNTRY":"Russia","GID_1":"RUS.67_1","NAME_1":"Tambov","NL_NAME_1":"Тамбовскаяобласть","NAME_2":"Kotovsk","VARNAME_2":"NA","NL_NAME_2":"Котовск","TYPE_2":"Gorod","ENGTYPE_2":"City","CC_2":"NA","HASC_2":"RU.TB.KO"}},{"type":"MultiPolygon","arcs":[[[34]]],"properties":{"GID_2":"RUS.67.7_1","GID_0":"RUS","COUNTRY":"Russia","GID_1":"RUS.67_1","NAME_1":"Tambov","NL_NAME_1":"Тамбовскаяобласть","NAME_2":"Michurinsk","VARNAME_2":"NA","NL_NAME_2":"Мичуринск","TYPE_2":"Gorod","ENGTYPE_2":"City","CC_2":"NA","HASC_2":"RU.TB.MG"}},{"type":"MultiPolygon","arcs":[[[35,36,37,38,39,40,41,42,43],[-35]]],"properties":{"GID_2":"RUS.67.8_1","GID_0":"RUS","COUNTRY":"Russia","GID_1":"RUS.67_1","NAME_1":"Tambov","NL_NAME_1":"Тамбовскаяобласть","NAME_2":"Michurinskiyrayon","VARNAME_2":"NA","NL_NAME_2":"Мичуринскийрайон","TYPE_2":"Raion","ENGTYPE_2":"District","CC_2":"R30000","HASC_2":"RU.TB.MG"}},{"type":"MultiPolygon","arcs":[[[44,45,46,47,48,49,50,51,52]]],"properties":{"GID_2":"RUS.67.9_1","GID_0":"RUS","COUNTRY":"Russia","GID_1":"RUS.67_1","NAME_1":"Tambov","NL_NAME_1":"Тамбовскаяобласть","NAME_2":"Mordovskiyrayon","VARNAME_2":"NA","NL_NAME_2":"Мордовскийрайон","TYPE_2":"Raion","ENGTYPE_2":"District","CC_2":"R30000","HASC_2":"RU.TB.MD"}},{"type":"MultiPolygon","arcs":[[[53]]],"properties":{"GID_2":"RUS.67.10_1","GID_0":"RUS","COUNTRY":"Russia","GID_1":"RUS.67_1","NAME_1":"Tambov","NL_NAME_1":"Тамбовскаяобласть","NAME_2":"Morshansk","VARNAME_2":"Morshinsk","NL_NAME_2":"Моршанск","TYPE_2":"Gorod","ENGTYPE_2":"City","CC_2":"NA","HASC_2":"RU.TB.MS"}},{"type":"MultiPolygon","arcs":[[[54,55,56],[-54]]],"properties":{"GID_2":"RUS.67.11_1","GID_0":"RUS","COUNTRY":"Russia","GID_1":"RUS.67_1","NAME_1":"Tambov","NL_NAME_1":"Тамбовскаяобласть","NAME_2":"Morshanskiyrayon","VARNAME_2":"NA","NL_NAME_2":"Моршанскийрайон","TYPE_2":"Raion","ENGTYPE_2":"District","CC_2":"R30000","HASC_2":"RU.TB.MO"}},{"type":"MultiPolygon","arcs":[[[57,58,59,-18]]],"properties":{"GID_2":"RUS.67.12_1","GID_0":"RUS","COUNTRY":"Russia","GID_1":"RUS.67_1","NAME_1":"Tambov","NL_NAME_1":"Тамбовскаяобласть","NAME_2":"Muchkapskiyrayon","VARNAME_2":"NA","NL_NAME_2":"Мучкапскийрайон","TYPE_2":"Raion","ENGTYPE_2":"District","CC_2":"R30001","HASC_2":"RU.TB.MU"}},{"type":"MultiPolygon","arcs":[[[60,-40,61,62,63,64]]],"properties":{"GID_2":"RUS.67.13_1","GID_0":"RUS","COUNTRY":"Russia","GID_1":"RUS.67_1","NAME_1":"Tambov","NL_NAME_1":"Тамбовскаяобласть","NAME_2":"Nikiforovskiyrayon","VARNAME_2":"NA","NL_NAME_2":"Никифоровскийрайон","TYPE_2":"Raion","ENGTYPE_2":"District","CC_2":"R30001","HASC_2":"RU.TB.NI"}},{"type":"MultiPolygon","arcs":[[[65,66,67,68,69,-37]]],"properties":{"GID_2":"RUS.67.14_1","GID_0":"RUS","COUNTRY":"Russia","GID_1":"RUS.67_1","NAME_1":"Tambov","NL_NAME_1":"Тамбовскаяобласть","NAME_2":"Pervomayskiyrayon","VARNAME_2":"NA","NL_NAME_2":"Первомайскийрайон","TYPE_2":"Raion","ENGTYPE_2":"District","CC_2":"R30001","HASC_2":"RU.TB.PR"}},{"type":"MultiPolygon","arcs":[[[70,-44,71,-42,72,-65,73,74,75,76,-49,77,-47,78,-45]]],"properties":{"GID_2":"RUS.67.15_1","GID_0":"RUS","COUNTRY":"Russia","GID_1":"RUS.67_1","NAME_1":"Tambov","NL_NAME_1":"Тамбовскаяобласть","NAME_2":"Petrovskiyrayon","VARNAME_2":"NA","NL_NAME_2":"Петровскийрайон","TYPE_2":"Raion","ENGTYPE_2":"District","CC_2":"R30001","HASC_2":"RU.TB.PT"}},{"type":"MultiPolygon","arcs":[[[-16,-8,79,80,-55,81]]],"properties":{"GID_2":"RUS.67.16_1","GID_0":"RUS","COUNTRY":"Russia","GID_1":"RUS.67_1","NAME_1":"Tambov","NL_NAME_1":"Тамбовскаяобласть","NAME_2":"Pichaevskiyrayon","VARNAME_2":"NA","NL_NAME_2":"Пичаевскийрайон","TYPE_2":"Raion","ENGTYPE_2":"District","CC_2":"R30001","HASC_2":"RU.TB.PI"}},{"type":"MultiPolygon","arcs":[[[82]]],"properties":{"GID_2":"RUS.67.17_1","GID_0":"RUS","COUNTRY":"Russia","GID_1":"RUS.67_1","NAME_1":"Tambov","NL_NAME_1":"Тамбовскаяобласть","NAME_2":"Rasskazovo","VARNAME_2":"NA","NL_NAME_2":"Рассказово","TYPE_2":"Gorod","ENGTYPE_2":"City","CC_2":"NA","HASC_2":"RU.TB.RG"}},{"type":"MultiPolygon","arcs":[[[-2,-33,83,-22,84,85,86,87,88,89,90,91,92,93,94],[-83]]],"properties":{"GID_2":"RUS.67.18_1","GID_0":"RUS","COUNTRY":"Russia","GID_1":"RUS.67_1","NAME_1":"Tambov","NL_NAME_1":"Тамбовскаяобласть","NAME_2":"Rasskazovskiyrayon","VARNAME_2":"NA","NL_NAME_2":"Рассказовскийрайон","TYPE_2":"Raion","ENGTYPE_2":"District","CC_2":"R30001","HASC_2":"RU.TB.RR"}},{"type":"MultiPolygon","arcs":[[[-21,95,96,97,98,99,100,101,102,-85]]],"properties":{"GID_2":"RUS.67.19_1","GID_0":"RUS","COUNTRY":"Russia","GID_1":"RUS.67_1","NAME_1":"Tambov","NL_NAME_1":"Тамбовскаяобласть","NAME_2":"Rzhaksinskiyrayon","VARNAME_2":"NA","NL_NAME_2":"Ржаксинскийрайон","TYPE_2":"Raion","ENGTYPE_2":"District","CC_2":"R30001","HASC_2":"RU.TB.RZ"}},{"type":"MultiPolygon","arcs":[[[-88,103,-102,104,105,106,107,108,109,110,111,112]]],"properties":{"GID_2":"RUS.67.20_1","GID_0":"RUS","COUNTRY":"Russia","GID_1":"RUS.67_1","NAME_1":"Tambov","NL_NAME_1":"Тамбовскаяобласть","NAME_2":"Sampurskiyrayon","VARNAME_2":"NA","NL_NAME_2":"Сампурскийрайон","TYPE_2":"Raion","ENGTYPE_2":"District","CC_2":"R30001","HASC_2":"RU.TB.SA"}},{"type":"MultiPolygon","arcs":[[[113,-56,-81,114,115,116,117,-62,118]]],"properties":{"GID_2":"RUS.67.21_1","GID_0":"RUS","COUNTRY":"Russia","GID_1":"RUS.67_1","NAME_1":"Tambov","NL_NAME_1":"Тамбовскаяобласть","NAME_2":"Sosnovskiyrayon","VARNAME_2":"NA","NL_NAME_2":"Сосновскийрайон","TYPE_2":"Raion","ENGTYPE_2":"District","CC_2":"R30001","HASC_2":"RU.TB.SO"}},{"type":"MultiPolygon","arcs":[[[119,-119,-39,120,-69,121,-67]]],"properties":{"GID_2":"RUS.67.22_1","GID_0":"RUS","COUNTRY":"Russia","GID_1":"RUS.67_1","NAME_1":"Tambov","NL_NAME_1":"Тамбовскаяобласть","NAME_2":"Staroyur'evskiyrayon","VARNAME_2":"NA","NL_NAME_2":"Староюрьевскийрайон","TYPE_2":"Raion","ENGTYPE_2":"District","CC_2":"R30001","HASC_2":"RU.TB.ST"}},{"type":"MultiPolygon","arcs":[[[122]]],"properties":{"GID_2":"RUS.67.23_1","GID_0":"RUS","COUNTRY":"Russia","GID_1":"RUS.67_1","NAME_1":"Tambov","NL_NAME_1":"Тамбовскаяобласть","NAME_2":"Tambov","VARNAME_2":"NA","NL_NAME_2":"Тамбов","TYPE_2":"Gorod","ENGTYPE_2":"City","CC_2":"NA","HASC_2":"RU.TB.TG"}},{"type":"MultiPolygon","arcs":[[[123,-6,124,-4,125,-95,126,-93,127,-91,128,129,130,-74,-64,131,-117,132],[-34],[-123]]],"properties":{"GID_2":"RUS.67.24_1","GID_0":"RUS","COUNTRY":"Russia","GID_1":"RUS.67_1","NAME_1":"Tambov","NL_NAME_1":"Тамбовскаяобласть","NAME_2":"Tambovskiyrayon","VARNAME_2":"NA","NL_NAME_2":"Тамбовскийрайон","TYPE_2":"Raion","ENGTYPE_2":"District","CC_2":"R30002","HASC_2":"RU.TB.TR"}},{"type":"MultiPolygon","arcs":[[[-52,133,134,135,-108,136,-106,137,138,139,140]]],"properties":{"GID_2":"RUS.67.25_1","GID_0":"RUS","COUNTRY":"Russia","GID_1":"RUS.67_1","NAME_1":"Tambov","NL_NAME_1":"Тамбовскаяобласть","NAME_2":"Tokarevskiyrayon","VARNAME_2":"NA","NL_NAME_2":"Токаревскийрайон","TYPE_2":"Raion","ENGTYPE_2":"District","CC_2":"R30002","HASC_2":"RU.TB.TO"}},{"type":"MultiPolygon","arcs":[[[141,-26,142,-30,143,-12]]],"properties":{"GID_2":"RUS.67.26_1","GID_0":"RUS","COUNTRY":"Russia","GID_1":"RUS.67_1","NAME_1":"Tambov","NL_NAME_1":"Тамбовскаяобласть","NAME_2":"Umetskiyrayon","VARNAME_2":"NA","NL_NAME_2":"Уметскийрайон","TYPE_2":"Raion","ENGTYPE_2":"District","CC_2":"R30002","HASC_2":"RU.TB.UM"}},{"type":"MultiPolygon","arcs":[[[144]]],"properties":{"GID_2":"RUS.67.27_1","GID_0":"RUS","COUNTRY":"Russia","GID_1":"RUS.67_1","NAME_1":"Tambov","NL_NAME_1":"Тамбовскаяобласть","NAME_2":"Uvarovo","VARNAME_2":"NA","NL_NAME_2":"Уварово","TYPE_2":"Gorod","ENGTYPE_2":"City","CC_2":"NA","HASC_2":"RU.TB.UG"}},{"type":"MultiPolygon","arcs":[[[-19,-60,145,146,147,148,149,150,-97,151],[-145]]],"properties":{"GID_2":"RUS.67.28_1","GID_0":"RUS","COUNTRY":"Russia","GID_1":"RUS.67_1","NAME_1":"Tambov","NL_NAME_1":"Тамбовскаяобласть","NAME_2":"Uvarovskiyrayon","VARNAME_2":"NA","NL_NAME_2":"Уваровскийрайон","TYPE_2":"Raion","ENGTYPE_2":"District","CC_2":"R30002","HASC_2":"RU.TB.UR"}},{"type":"MultiPolygon","arcs":[[[-101,152,-99,153,-150,154,-148,155,-140,156,-138,-105]]],"properties":{"GID_2":"RUS.67.29_1","GID_0":"RUS","COUNTRY":"Russia","GID_1":"RUS.67_1","NAME_1":"Tambov","NL_NAME_1":"Тамбовскаяобласть","NAME_2":"Zherdevskiyrayon","VARNAME_2":"NA","NL_NAME_2":"Жердевскийрайон","TYPE_2":"Raion","ENGTYPE_2":"District","CC_2":"R30000","HASC_2":"RU.TB.ZH"}},{"type":"MultiPolygon","arcs":[[[-51,-76,157,-130,158,-89,-113,159,-111,160,-134]]],"properties":{"GID_2":"RUS.67.30_1","GID_0":"RUS","COUNTRY":"Russia","GID_1":"RUS.67_1","NAME_1":"Tambov","NL_NAME_1":"Тамбовскаяобласть","NAME_2":"Znamenskiyrayon","VARNAME_2":"NA","NL_NAME_2":"Знаменскийрайон","TYPE_2":"Raion","ENGTYPE_2":"District","CC_2":"R30000","HASC_2":"RU.TB.ZN"}}]}},"arcs":[[[778503,588828],[243,-14820],[-6109,-7117],[-8146,406],[-8815,4189],[-20548,29820],[-10091,315],[-4712,-6757],[-3039,-17747],[-29941,-7118],[-334,-13648],[3131,-4865]],[[690142,551486],[-10700,-5180],[-14073,225],[-32068,36036],[-12584,3829],[-16079,-21081],[-13466,-8379]],[[591172,556936],[-13708,12928]],[[577464,569864],[-34469,-3693],[-10031,16486],[-11003,7568]],[[521961,590225],[30,5405],[7325,30360]],[[529316,625990],[-273,17478]],[[529043,643468],[24499,40540]],[[553542,684008],[23405,-16666],[52160,765],[29089,-7027],[8541,1802],[9028,8469],[4954,11261],[12159,14730]],[[692878,697342],[6018,-9099],[6079,-20406],[15654,-17072],[1793,-7162],[29637,-15631]],[[752059,627972],[26444,-39144]],[[761056,755450],[9666,-14955],[17174,-14865],[-2463,-31532],[10274,-9684],[23010,-10856],[5623,-10946],[25351,-26171],[54409,-36847],[16383,-19775]],[[920483,579819],[-2280,-14459]],[[918203,565360],[-19696,-5541]],[[898507,559819],[-13983,4009],[-17812,11667],[-22280,3288],[-32493,-14639],[-8511,1126],[-20153,14910]],[[783275,580180],[-9179,17342],[-22037,30450]],[[692878,697342],[23070,-5181],[9544,6037],[21004,43963],[14560,13289]],[[924586,353513],[-10851,-3288],[-10183,-29009],[-121,-13784],[-38725,-59504],[1064,-26847],[-3587,-12478]],[[862183,208603],[-40609,-4459]],[[821574,204144],[-49636,28784],[-23831,23513],[-13283,-1036]],[[734824,255405],[12554,24730]],[[747378,280135],[-882,5721],[-28055,26486],[-37479,13378]],[[680962,325720],[-10091,56126],[-10608,26937],[3313,6262],[10517,4009],[20213,-6081],[23405,-586],[12979,4504]],[[730690,416891],[22189,-20270]],[[752879,396621],[14165,-7252],[16961,-4505]],[[784005,384864],[98270,-4324]],[[882275,380540],[42311,-27027]],[[842335,490135],[-2432,-5406],[-19605,5496],[-4590,6621],[5319,991],[21308,-7702]],[[778503,588828],[4772,-8648]],[[898507,559819],[9422,1532]],[[907929,561351],[6262,-5946],[-1641,-20541],[-7235,-29099],[-4772,-9820],[-2219,-27342],[-14073,-14910],[-2280,-8243],[4164,-16036],[-15258,-13153],[-1611,-10406],[-13010,-24099]],[[856256,381756],[-23618,-495],[-48633,3603]],[[752879,396621],[-47661,48198]],[[705218,444819],[-3860,8694],[3192,18423],[24985,29325],[-91,11757],[-8207,8468],[-14104,7252],[-16991,22748]],[[467977,438243],[-21064,-2162],[-3374,16982],[5775,4099],[16596,-2433],[2067,-16486]],[[166570,594684],[-6383,-21712],[-29940,136],[30,55180],[21642,10180],[14651,-43784]],[[42342,573288],[-2675,9910],[-7082,10991],[2735,10405],[17174,7117],[5897,6306],[3921,9820],[-19332,10406],[4438,6486]],[[47418,644729],[16566,-856],[19271,10991],[24408,-10405],[18237,225],[20791,11712],[15867,766],[10335,5405],[5896,22342],[4377,36622]],[[183166,721531],[9727,14639]],[[192893,736170],[26718,-3603],[32919,1576]],[[252530,734143],[13678,-12477],[-11368,-21216],[-9118,-27703],[-16901,-20721],[-4164,-11036],[-2128,-18288],[-6383,-8784],[-1398,-10540],[8207,-54820],[-6626,-8784],[-16505,-10495],[-4712,-17883],[-7660,-7342]],[[187452,504054],[-9331,-2433],[-30579,3739]],[[147542,505360],[-15046,14775],[-30,7207],[-16323,8018],[-12645,15315]],[[103498,550675],[-9361,6171],[-20670,9820]],[[73467,566666],[-31125,6622]],[[198395,323603],[5502,11937],[-2007,21036]],[[201890,356576],[3374,6577],[6688,5090]],[[211952,368243],[5957,-2388],[5198,-13738],[25988,-5766]],[[249095,346351],[9940,13198]],[[259035,359549],[-2614,7207],[1520,9820]],[[257941,376576],[7903,13153]],[[265844,389729],[11763,-6937],[5684,-20180],[11368,-9549],[9423,1847],[18450,-11802],[2341,-14054],[20244,-17162],[3981,-7973]],[[349098,303919],[-2401,-22163],[-5167,-11396],[-10943,-44144],[-12006,-22432],[-22250,-28424],[486,-19730],[-4833,-16216]],[[291984,139414],[-26262,-1441],[-23587,12162],[-31156,1847],[-28785,12207],[3799,13243],[18633,39370],[5775,36441],[6232,9009],[18511,-90],[5471,4730],[6170,14684],[-4681,10451],[-7203,7657],[-36506,23919]],[[559317,850495],[-16414,-451],[-24803,11306],[17873,10451],[21429,-5856],[1915,-15450]],[[699777,817927],[-47144,315],[-27539,-12973],[-22310,5046],[-8937,-7568],[-1854,-35180],[-11155,-28379],[-3739,-16396]],[[577099,722792],[-18876,20451],[-38572,23558],[-37570,50135],[-20365,1126],[-33284,24144],[-8116,1802],[-9058,-4865]],[[411258,839143],[-20000,9235],[13951,6711],[-7203,18379],[20152,4099],[14681,98063],[41917,1126],[10517,23243],[6170,-16306],[25563,-496],[5015,11171],[19727,2298],[7113,-10766],[35442,11937],[56172,-2433],[10699,-8693],[-8237,-31532],[1003,-9009],[4195,-8378],[60,-12297],[-2188,-12343],[-6383,-9955],[-1034,-10495],[4012,-20901],[5411,-8559],[8511,-5855],[37630,-13109],[9180,-11441],[-3557,-14910]],[[862183,208603],[-32797,-56081],[-577,-30045],[-11308,-19099],[-40305,-51937],[-5836,-25720],[10669,-24730],[-28815,13108],[-15077,-11667],[-9575,-2432],[-17295,16351],[3739,23424],[-27904,7342],[-11793,-901],[-5077,-5991],[-121,-8919],[-8785,19730],[-3981,16847]],[[657345,67883],[5258,5405],[14529,7973]],[[677132,81261],[13800,90],[16384,25946],[28967,9460],[25107,14459],[5988,7207],[1034,6847],[-15745,5270],[-7265,6307],[-2158,5270],[760,8919],[4681,4639],[59819,17748],[13070,10721]],[[159883,503378],[27569,676]],[[252530,734143],[40366,136],[5806,-2433],[11398,-20045],[7265,5811],[11368,-5766],[-91,-13829],[-8116,-12342],[3739,-15586],[-9636,-12252],[-1216,-9684],[8876,-10586],[3101,-11937],[-5837,-8559],[13618,-27117],[-5836,-9955]],[[327335,579999],[213,-22702]],[[327548,557297],[-2736,-9054],[-16718,1396],[-7812,-3018],[-1124,-15315],[10730,-11847],[1428,-9234],[-1611,-6577],[-44287,-17252],[-10608,-15000],[881,-8829],[-2583,-6937],[-10244,-10180]],[[242864,445450],[-15532,-7252],[-13283,16757],[-8663,4414],[-6687,-901],[-10396,7297],[-5167,20901],[-6961,7883],[-16292,8829]],[[47418,644729],[3404,13108],[-9909,17433],[2827,28063],[-7356,26666],[11672,21937],[1277,18919],[7933,15315],[15229,2298],[15167,-7253],[10426,34415],[16687,-16261],[40062,20180]],[[154837,819549],[2554,-5856],[8298,-4820],[7295,-2162],[8632,3333],[5259,-2612],[-3313,-10856],[-8268,-7613],[-13921,-22703]],[[161373,766260],[8389,-13333]],[[169762,752927],[26019,-3648]],[[195781,749279],[-152,-7118],[-12463,-20630]],[[198395,323603],[-6778,9370],[-11429,7297],[-43619,6667],[-13161,8018],[-9879,6756],[-3921,9640],[10304,14324],[-820,7343],[-50184,18153],[-35533,24054],[-15897,21441],[-8207,23919],[1550,11126],[-1885,9775],[-8936,13243],[1155,14370],[14073,15270],[26992,-2883],[7417,5090],[3343,7162],[-10638,19550]],[[73467,566666],[30031,-15991]],[[147542,505360],[12341,-1982]],[[242864,445450],[20183,-7523],[3465,-9009],[-4437,-8063],[972,-7072],[19089,-11531]],[[282136,402252],[-3192,-7703]],[[278944,394549],[-13100,-4820]],[[265844,389729],[-3617,-5000],[-4286,-8153]],[[259035,359549],[-3587,-6621],[-6353,-6577]],[[211952,368243],[-10062,-11667]],[[553542,684008],[10548,20000],[8176,7027]],[[572266,711035],[4833,11757]],[[699777,817927],[-7051,-21306],[4924,-6667],[8085,-4369],[26384,90],[7812,-1442],[21125,-28783]],[[597008,494774],[-19423,-27252],[-20608,10225],[31825,26352],[8206,-9325]],[[705218,444819],[25472,-27928]],[[680962,325720],[-20061,9730],[-13435,25721],[-7022,7387],[-6808,2343]],[[633636,370901],[-8329,-2298],[-13253,-15000]],[[612054,353603],[-7295,12117],[-16353,11847]],[[588406,377567],[-26140,180],[-28390,4955]],[[533876,382702],[-5441,18424],[5076,2793],[9028,13063],[-36840,11711]],[[505699,428693],[5775,6577]],[[511474,435270],[-1246,7387]],[[510228,442657],[-17356,27613],[-3253,7748]],[[489619,478018],[821,8738],[5350,7928],[13951,4550],[31400,-1532]],[[541141,497702],[20456,9234]],[[561597,506936],[10335,17658],[16079,12117],[6748,9955],[-3587,10270]],[[747378,280135],[-35169,-68694]],[[712209,211441],[-24195,-45],[-5654,-5585],[-729,-5856],[-4742,-6036],[-10426,-6442],[-21733,-2477],[-6869,-3874],[-4590,-6982],[851,-13108],[-13648,-10090],[-16505,10946],[-4438,-1307],[-13648,-11936],[-6717,-18694]],[[579166,129955],[-28299,-19685]],[[550867,110270],[-11641,-676]],[[539226,109594],[-19028,17973],[-16384,23018]],[[503814,150585],[2857,21982],[20031,28649],[-121,15766]],[[526581,216982],[54530,60856],[21460,29954],[8693,27163],[-1276,8063],[2066,10585]],[[612054,353603],[6414,9370],[15168,7928]],[[588406,377567],[10578,-6171],[13070,-17793]],[[526581,216982],[-18846,-14189],[-9422,-901],[-8511,6351]],[[489802,208243],[-2827,12387],[-24591,9280]],[[462384,229910],[-1398,10946]],[[460986,240856],[12219,20720]],[[473205,261576],[-1975,8874],[-4833,8424]],[[466397,278874],[-16566,2207]],[[449831,281081],[6018,4730],[7873,18288],[-5137,17207],[7477,7568],[12949,4369],[18937,21396]],[[497948,354639],[27235,13559],[5289,4865]],[[530472,373063],[3404,9639]],[[288975,866936],[43527,-16622],[13010,-26261],[19301,-2342],[-2249,12027],[9787,1847],[1399,18964],[37508,-15406]],[[572266,711035],[-12675,-14910],[-8450,-19234],[-14651,-19639]],[[536490,657252],[-24773,10225],[-19058,17207]],[[492659,684684],[-11034,3649],[-11824,-2703],[-22706,-28153],[-19180,1666],[-10517,-4234],[-7264,-27027],[699,-11171],[3921,-11171],[0,-8694],[-4256,-6621],[-10942,-3694],[-15320,18649],[-7872,-316],[-35685,-29234],[-13283,-3649]],[[327396,571981],[-61,8018]],[[252530,734143],[8268,7568],[-426,9730],[2432,6441],[21672,12973],[92,10000],[3769,8559],[20183,13603],[3465,6532],[-4560,9459],[-20243,18829],[-1642,5495],[3800,6937],[-365,16667]],[[154837,819549],[791,19865],[-10852,10225],[20153,11982],[8754,-20901],[14985,-5541],[-1520,23108],[23314,4280],[8116,24279],[24165,-1216],[2188,-11937],[10700,-3469],[3890,-17432],[10061,-3649],[19393,17793]],[[192893,736170],[2888,13109]],[[169762,752927],[-4316,4820],[-4073,8513]],[[417246,526981],[-8602,-14684],[-6109,2072],[-1824,8108],[6961,7883],[9574,-3379]],[[536490,657252],[-7447,-13784]],[[529316,625990],[-7355,-35765]],[[577464,569864],[5471,-2747],[8237,-10181]],[[561597,506936],[-9271,-6036],[-11185,-3198]],[[489619,478018],[20609,-35361]],[[511474,435270],[-13861,-15586],[-24468,-12522]],[[473145,407162],[-26202,630],[-30213,-16261],[-58270,14685],[-27447,-4099],[-29302,8423],[-13557,-2117]],[[288154,408423],[-6018,-6171]],[[327548,557297],[-152,14684]],[[492659,684684],[31095,-24234],[12736,-3198]],[[349098,303919],[27600,-19820],[12918,-5000]],[[389616,279099],[76781,-225]],[[466397,278874],[6808,-17298]],[[460986,240856],[-304,-6532],[1702,-4414]],[[489802,208243],[-7478,-10991],[-21703,-8964],[-5440,-5721],[-2007,-8558],[-15198,-15541]],[[437976,158468],[-49971,-29504],[-4985,-6081]],[[383020,122883],[-5349,-24415],[-22889,-39054]],[[354782,59414],[-22705,-6216],[-8177,1261],[-12523,4910],[-7234,8649],[4833,16441],[3100,29955],[-1459,9865],[-18633,15135]],[[920483,579819],[33162,-30630],[13648,-16532],[26475,-35540],[6231,-18469],[-14377,-25856],[-28603,-17162],[-11277,-18333],[4772,-4910],[1307,-8018],[-5684,-5405],[-1489,-28154],[-4499,-8918],[-15563,-8379]],[[882275,380540],[-26019,1216]],[[907929,561351],[10274,4009]],[[700385,195766],[-790,-31487],[-19940,721],[2250,34594],[10425,8514],[8055,-12342]],[[677132,81261],[-19787,-13378]],[[657345,67883],[14681,-46982],[-5745,-5496],[-22675,13964],[-14803,-585]],[[628803,28784],[12827,13288],[-4408,11216],[-304,8198],[-14559,9640],[-9636,15766],[2280,7387]],[[615003,94279],[-36019,24955]],[[578984,119234],[-9940,2388]],[[569044,121622],[10122,8333]],[[712209,211441],[22615,43964]],[[503814,150585],[6566,-10135],[28846,-30856]],[[550867,110270],[18177,11352]],[[578984,119234],[21186,-12928],[14833,-12027]],[[628803,28784],[-21186,946],[-7934,6756],[-10760,16712],[-10395,7297],[-28907,-8964],[-43709,25676],[-42312,1081],[-36384,11216],[-9757,-5135],[-7417,-19099],[-8693,-3874],[-24043,2883],[-22524,-4865]],[[383020,122883],[9879,10946],[25077,10450],[20000,14189]],[[278944,394549],[9210,13874]],[[473145,407162],[12371,4684],[20183,16847]],[[530472,373063],[-32524,-18424]],[[449831,281081],[-60215,-1982]]],"bbox":[40.0073,51.5714,43.2972,53.7914],"transform":{"scale":[0.0000032899032899032857,0.000002220002220002226],"translate":[40.0073,51.5714]}}