{"type":"Topology","objects":{"muni":{"type":"GeometryCollection","geometries":[{"type":"MultiPolygon","arcs":[[[0,1,2]]],"properties":{"GID_2":"RUS.68.1_1","GID_0":"RUS","COUNTRY":"Russia","GID_1":"RUS.68_1","NAME_1":"Tatarstan","NL_NAME_1":"РеспубликаТатарстан","NAME_2":"Agryzskiyrayon","VARNAME_2":"NA","NL_NAME_2":"Агрызскийрайон","TYPE_2":"Raion","ENGTYPE_2":"District","CC_2":"R32000","HASC_2":"RU.TT.AY"}},{"type":"MultiPolygon","arcs":[[[3,4,5,6,7,8,9,10,11,12,13,14]]],"properties":{"GID_2":"RUS.68.2_1","GID_0":"RUS","COUNTRY":"Russia","GID_1":"RUS.68_1","NAME_1":"Tatarstan","NL_NAME_1":"РеспубликаТатарстан","NAME_2":"Aksubayevskiyrayon","VARNAME_2":"NA","NL_NAME_2":"Аксубаевскийрайон","TYPE_2":"Raion","ENGTYPE_2":"District","CC_2":"R32000","HASC_2":"RU.TT.AB"}},{"type":"MultiPolygon","arcs":[[[15,16,17,18]]],"properties":{"GID_2":"RUS.68.3_1","GID_0":"RUS","COUNTRY":"Russia","GID_1":"RUS.68_1","NAME_1":"Tatarstan","NL_NAME_1":"РеспубликаТатарстан","NAME_2":"Aktanyshskiyrayon","VARNAME_2":"NA","NL_NAME_2":"Актанышскийрайон","TYPE_2":"Raion","ENGTYPE_2":"District","CC_2":"R32000","HASC_2":"RU.TT.AT"}},{"type":"MultiPolygon","arcs":[[[19,20,21,22,23]]],"properties":{"GID_2":"RUS.68.4_1","GID_0":"RUS","COUNTRY":"Russia","GID_1":"RUS.68_1","NAME_1":"Tatarstan","NL_NAME_1":"РеспубликаТатарстан","NAME_2":"Al'keevskiyrayon","VARNAME_2":"NA","NL_NAME_2":"Алькеевскийрайон","TYPE_2":"Raion","ENGTYPE_2":"District","CC_2":"R32000","HASC_2":"RU.TT.AK"}},{"type":"MultiPolygon","arcs":[[[24]]],"properties":{"GID_2":"RUS.68.5_1","GID_0":"RUS","COUNTRY":"Russia","GID_1":"RUS.68_1","NAME_1":"Tatarstan","NL_NAME_1":"РеспубликаТатарстан","NAME_2":"Al'met'evsk","VARNAME_2":"Almetyevsk","NL_NAME_2":"Альметьевск","TYPE_2":"Gorsovet","ENGTYPE_2":"District","CC_2":"NA","HASC_2":"RU.TT.AG"}},{"type":"MultiPolygon","arcs":[[[25,26,27,28,29,30,31,32,33,34,35,36,37,38,39,40],[-25]]],"properties":{"GID_2":"RUS.68.6_1","GID_0":"RUS","COUNTRY":"Russia","GID_1":"RUS.68_1","NAME_1":"Tatarstan","NL_NAME_1":"РеспубликаТатарстан","NAME_2":"Al'met'evskiyrayon","VARNAME_2":"NA","NL_NAME_2":"Альметьевскийрайон","TYPE_2":"Raion","ENGTYPE_2":"District","CC_2":"R32000","HASC_2":"RU.TT.AR"}},{"type":"MultiPolygon","arcs":[[[-4,41,-23,42,43,44,45,46,47,48]]],"properties":{"GID_2":"RUS.68.7_1","GID_0":"RUS","COUNTRY":"Russia","GID_1":"RUS.68_1","NAME_1":"Tatarstan","NL_NAME_1":"РеспубликаТатарстан","NAME_2":"Alekseevskiyrayon","VARNAME_2":"NA","NL_NAME_2":"Алексеевскийрайон","TYPE_2":"Raion","ENGTYPE_2":"District","CC_2":"R32000","HASC_2":"RU.TT.AE"}},{"type":"MultiPolygon","arcs":[[[49,50,51,52,53,54,55,56]]],"properties":{"GID_2":"RUS.68.8_1","GID_0":"RUS","COUNTRY":"Russia","GID_1":"RUS.68_1","NAME_1":"Tatarstan","NL_NAME_1":"РеспубликаТатарстан","NAME_2":"Apastovskiyrayon","VARNAME_2":"NA","NL_NAME_2":"Апастовский/Кайбицкийрайон","TYPE_2":"Raion","ENGTYPE_2":"District","CC_2":"R32000","HASC_2":"RU.TT.AP"}},{"type":"MultiPolygon","arcs":[[[57,58,59,60,61,62,63]]],"properties":{"GID_2":"RUS.68.9_1","GID_0":"RUS","COUNTRY":"Russia","GID_1":"RUS.68_1","NAME_1":"Tatarstan","NL_NAME_1":"РеспубликаТатарстан","NAME_2":"Arskiyrayon","VARNAME_2":"NA","NL_NAME_2":"Арскийрайон","TYPE_2":"Raion","ENGTYPE_2":"District","CC_2":"R32000","HASC_2":"RU.TT.AS"}},{"type":"MultiPolygon","arcs":[[[64,-63,65,66]]],"properties":{"GID_2":"RUS.68.10_1","GID_0":"RUS","COUNTRY":"Russia","GID_1":"RUS.68_1","NAME_1":"Tatarstan","NL_NAME_1":"РеспубликаТатарстан","NAME_2":"Atninskiyrayon","VARNAME_2":"NA","NL_NAME_2":"Атнинскийрайон","TYPE_2":"Raion","ENGTYPE_2":"District","CC_2":"R32000","HASC_2":"RU.TT.AN"}},{"type":"MultiPolygon","arcs":[[[67]]],"properties":{"GID_2":"RUS.68.11_1","GID_0":"RUS","COUNTRY":"Russia","GID_1":"RUS.68_1","NAME_1":"Tatarstan","NL_NAME_1":"РеспубликаТатарстан","NAME_2":"Aznakaevo","VARNAME_2":"Aznakayevo","NL_NAME_2":"Азнакаево","TYPE_2":"Gorod","ENGTYPE_2":"City","CC_2":"NA","HASC_2":"RU.TT.AZ"}},{"type":"MultiPolygon","arcs":[[[68,69,70,71,-26,72,73,74],[-68]]],"properties":{"GID_2":"RUS.68.12_1","GID_0":"RUS","COUNTRY":"Russia","GID_1":"RUS.68_1","NAME_1":"Tatarstan","NL_NAME_1":"РеспубликаТатарстан","NAME_2":"Aznakaevskiyrayon","VARNAME_2":"NA","NL_NAME_2":"Азнакаевскийрайон","TYPE_2":"Raion","ENGTYPE_2":"District","CC_2":"R32000","HASC_2":"RU.TT.AV"}},{"type":"MultiPolygon","arcs":[[[75,76,-58,77]]],"properties":{"GID_2":"RUS.68.13_1","GID_0":"RUS","COUNTRY":"Russia","GID_1":"RUS.68_1","NAME_1":"Tatarstan","NL_NAME_1":"РеспубликаТатарстан","NAME_2":"Baltasinskiyrayon","VARNAME_2":"NA","NL_NAME_2":"Балтасинскийрайон","TYPE_2":"Raion","ENGTYPE_2":"District","CC_2":"R32001","HASC_2":"RU.TT.BA"}},{"type":"MultiPolygon","arcs":[[[78,79,80,81]]],"properties":{"GID_2":"RUS.68.14_1","GID_0":"RUS","COUNTRY":"Russia","GID_1":"RUS.68_1","NAME_1":"Tatarstan","NL_NAME_1":"РеспубликаТатарстан","NAME_2":"Bavlinskiyrayon","VARNAME_2":"NA","NL_NAME_2":"Бавлинскийрайон","TYPE_2":"Raion","ENGTYPE_2":"District","CC_2":"R32001","HASC_2":"RU.TT.BL"}},{"type":"MultiPolygon","arcs":[[[82]]],"properties":{"GID_2":"RUS.68.15_1","GID_0":"RUS","COUNTRY":"Russia","GID_1":"RUS.68_1","NAME_1":"Tatarstan","NL_NAME_1":"РеспубликаТатарстан","NAME_2":"Bugul'ma","VARNAME_2":"Bugulma","NL_NAME_2":"Бугульма","TYPE_2":"Gorod","ENGTYPE_2":"City","CC_2":"NA","HASC_2":"RU.TT.BG"}},{"type":"MultiPolygon","arcs":[[[83,84,85,-27,-72,86,87,88,-80],[-83]]],"properties":{"GID_2":"RUS.68.16_1","GID_0":"RUS","COUNTRY":"Russia","GID_1":"RUS.68_1","NAME_1":"Tatarstan","NL_NAME_1":"РеспубликаТатарстан","NAME_2":"Bugul'minskiyrayon","VARNAME_2":"NA","NL_NAME_2":"Бугульминскийрайон","TYPE_2":"Raion","ENGTYPE_2":"District","CC_2":"R32001","HASC_2":"RU.TT.BR"}},{"type":"MultiPolygon","arcs":[[[-56,89,90,91,92,93,94]]],"properties":{"GID_2":"RUS.68.17_1","GID_0":"RUS","COUNTRY":"Russia","GID_1":"RUS.68_1","NAME_1":"Tatarstan","NL_NAME_1":"РеспубликаТатарстан","NAME_2":"Buinskiyrayon","VARNAME_2":"NA","NL_NAME_2":"Буинскийрайон","TYPE_2":"Raion","ENGTYPE_2":"District","CC_2":"R32001","HASC_2":"RU.TT.BU"}},{"type":"MultiPolygon","arcs":[[[95,96,-13,97,-11,98,99,100,101,-31,102,103,104]]],"properties":{"GID_2":"RUS.68.18_1","GID_0":"RUS","COUNTRY":"Russia","GID_1":"RUS.68_1","NAME_1":"Tatarstan","NL_NAME_1":"РеспубликаТатарстан","NAME_2":"Cheremshanskiyrayon","VARNAME_2":"NA","NL_NAME_2":"Черемшанскийрайон","TYPE_2":"Raion","ENGTYPE_2":"District","CC_2":"R32003","HASC_2":"RU.TT.CH"}},{"type":"MultiPolygon","arcs":[[[105]]],"properties":{"GID_2":"RUS.68.19_1","GID_0":"RUS","COUNTRY":"Russia","GID_1":"RUS.68_1","NAME_1":"Tatarstan","NL_NAME_1":"РеспубликаТатарстан","NAME_2":"Chistopol'","VARNAME_2":"NA","NL_NAME_2":"Чистополь","TYPE_2":"Gorod","ENGTYPE_2":"City","CC_2":"NA","HASC_2":"RU.TT.CG"}},{"type":"MultiPolygon","arcs":[[[106,-5,-49,107,108,109,110,111,112,113],[-106]]],"properties":{"GID_2":"RUS.68.20_1","GID_0":"RUS","COUNTRY":"Russia","GID_1":"RUS.68_1","NAME_1":"Tatarstan","NL_NAME_1":"РеспубликаТатарстан","NAME_2":"Chistopol'skiyrayon","VARNAME_2":"NA","NL_NAME_2":"Чистопольскийрайон","TYPE_2":"Raion","ENGTYPE_2":"District","CC_2":"R32003","HASC_2":"RU.TT.CR"}},{"type":"MultiPolygon","arcs":[[[-94,114]]],"properties":{"GID_2":"RUS.68.21_1","GID_0":"RUS","COUNTRY":"Russia","GID_1":"RUS.68_1","NAME_1":"Tatarstan","NL_NAME_1":"РеспубликаТатарстан","NAME_2":"Drozhzhanovskiyrayon","VARNAME_2":"NA","NL_NAME_2":"Дрожжановскийрайон","TYPE_2":"Raion","ENGTYPE_2":"District","CC_2":"R32001","HASC_2":"RU.TT.DR"}},{"type":"MultiPolygon","arcs":[[[-53,115,116,117,118]]],"properties":{"GID_2":"RUS.68.22_1","GID_0":"RUS","COUNTRY":"Russia","GID_1":"RUS.68_1","NAME_1":"Tatarstan","NL_NAME_1":"РеспубликаТатарстан","NAME_2":"Kamsko-Ust'inskiyrayon","VARNAME_2":"NA","NL_NAME_2":"Камско-Устьинскийрайон","TYPE_2":"Raion","ENGTYPE_2":"District","CC_2":"R32002","HASC_2":"RU.TT.KU"}},{"type":"MultiPolygon","arcs":[[[119,120,121,122,-76]]],"properties":{"GID_2":"RUS.68.23_1","GID_0":"RUS","COUNTRY":"Russia","GID_1":"RUS.68_1","NAME_1":"Tatarstan","NL_NAME_1":"РеспубликаТатарстан","NAME_2":"Kukmorskiyrayon","VARNAME_2":"NA","NL_NAME_2":"Кукморскийрайон","TYPE_2":"Raion","ENGTYPE_2":"District","CC_2":"R32002","HASC_2":"RU.TT.KK"}},{"type":"MultiPolygon","arcs":[[[123,124,125,126,127,128,129,130]]],"properties":{"GID_2":"RUS.68.24_1","GID_0":"RUS","COUNTRY":"Russia","GID_1":"RUS.68_1","NAME_1":"Tatarstan","NL_NAME_1":"РеспубликаТатарстан","NAME_2":"Laishevskiyrayon","VARNAME_2":"NA","NL_NAME_2":"Лаишевскийрайон","TYPE_2":"Raion","ENGTYPE_2":"District","CC_2":"R32002","HASC_2":"RU.TT.LA"}},{"type":"MultiPolygon","arcs":[[[131]]],"properties":{"GID_2":"RUS.68.25_1","GID_0":"RUS","COUNTRY":"Russia","GID_1":"RUS.68_1","NAME_1":"Tatarstan","NL_NAME_1":"РеспубликаТатарстан","NAME_2":"Leninogorsk","VARNAME_2":"NA","NL_NAME_2":"Лениногорск","TYPE_2":"Gorod","ENGTYPE_2":"City","CC_2":"NA","HASC_2":"RU.TT.LG"}},{"type":"MultiPolygon","arcs":[[[132,-104,133,-29,134,-85],[-132]]],"properties":{"GID_2":"RUS.68.26_1","GID_0":"RUS","COUNTRY":"Russia","GID_1":"RUS.68_1","NAME_1":"Tatarstan","NL_NAME_1":"РеспубликаТатарстан","NAME_2":"Leninogorskiyrayon","VARNAME_2":"NA","NL_NAME_2":"Лениногорскийрайон","TYPE_2":"Raion","ENGTYPE_2":"District","CC_2":"R32002","HASC_2":"RU.TT.LR"}},{"type":"MultiPolygon","arcs":[[[-121,135,136,137,138,139,140,141,142,143,144,145,146]]],"properties":{"GID_2":"RUS.68.27_1","GID_0":"RUS","COUNTRY":"Russia","GID_1":"RUS.68_1","NAME_1":"Tatarstan","NL_NAME_1":"РеспубликаТатарстан","NAME_2":"Mamadyshskiyrayon","VARNAME_2":"NA","NL_NAME_2":"Мамадышскийрайон","TYPE_2":"Raion","ENGTYPE_2":"District","CC_2":"R32002","HASC_2":"RU.TT.MA"}},{"type":"MultiPolygon","arcs":[[[-1,147,148,149]]],"properties":{"GID_2":"RUS.68.28_1","GID_0":"RUS","COUNTRY":"Russia","GID_1":"RUS.68_1","NAME_1":"Tatarstan","NL_NAME_1":"РеспубликаТатарстан","NAME_2":"Mendeleyevskiyrayon","VARNAME_2":"NA","NL_NAME_2":"Менделеевскийрайон","TYPE_2":"Raion","ENGTYPE_2":"District","CC_2":"R32002","HASC_2":"RU.TT.MD"}},{"type":"MultiPolygon","arcs":[[[-3,150,-18,151,152,153,154,155,156,157,158]]],"properties":{"GID_2":"RUS.68.29_1","GID_0":"RUS","COUNTRY":"Russia","GID_1":"RUS.68_1","NAME_1":"Tatarstan","NL_NAME_1":"РеспубликаТатарстан","NAME_2":"Menzelinskiyrayon","VARNAME_2":"NA","NL_NAME_2":"Мензелинскийрайон","TYPE_2":"Raion","ENGTYPE_2":"District","CC_2":"R32002","HASC_2":"RU.TT.MZ"}},{"type":"MultiPolygon","arcs":[[[159,160,161,162,163,164,-153,165,-16]]],"properties":{"GID_2":"RUS.68.30_1","GID_0":"RUS","COUNTRY":"Russia","GID_1":"RUS.68_1","NAME_1":"Tatarstan","NL_NAME_1":"РеспубликаТатарстан","NAME_2":"Muslyumovskiyrayon","VARNAME_2":"NA","NL_NAME_2":"Муслюмовскийрайон","TYPE_2":"Raion","ENGTYPE_2":"District","CC_2":"R32002","HASC_2":"RU.TT.MU"}},{"type":"MultiPolygon","arcs":[[[166]]],"properties":{"GID_2":"RUS.68.31_1","GID_0":"RUS","COUNTRY":"Russia","GID_1":"RUS.68_1","NAME_1":"Tatarstan","NL_NAME_1":"РеспубликаТатарстан","NAME_2":"NaberezhnyeChelny","VARNAME_2":"NA","NL_NAME_2":"НабережныеЧелны","TYPE_2":"Gorsovet","ENGTYPE_2":"District","CC_2":"NA","HASC_2":"RU.TT.NA"}},{"type":"MultiPolygon","arcs":[[[167]]],"properties":{"GID_2":"RUS.68.32_1","GID_0":"RUS","COUNTRY":"Russia","GID_1":"RUS.68_1","NAME_1":"Tatarstan","NL_NAME_1":"РеспубликаТатарстан","NAME_2":"Nizhnekamskiy","VARNAME_2":"NA","NL_NAME_2":"Нижнекамск","TYPE_2":"Raion","ENGTYPE_2":"District","CC_2":"NA","HASC_2":"RU.TT.NR"}},{"type":"MultiPolygon","arcs":[[[-39,168,169,170,-113,171,-111,172,173,-139,174,175,176,177,178,179,180,181,182],[-168]]],"properties":{"GID_2":"RUS.68.33_1","GID_0":"RUS","COUNTRY":"Russia","GID_1":"RUS.68_1","NAME_1":"Tatarstan","NL_NAME_1":"РеспубликаТатарстан","NAME_2":"Nizhnekamskiyrayon","VARNAME_2":"NA","NL_NAME_2":"Нижнекамскийрайон","TYPE_2":"Raion","ENGTYPE_2":"District","CC_2":"R32002","HASC_2":"RU.TT.NG"}},{"type":"MultiPolygon","arcs":[[[-9,183,-7,-114,-171,184,-36,185,-34,186,187,-101,188]]],"properties":{"GID_2":"RUS.68.34_1","GID_0":"RUS","COUNTRY":"Russia","GID_1":"RUS.68_1","NAME_1":"Tatarstan","NL_NAME_1":"РеспубликаТатарстан","NAME_2":"Novosheshminskiyrayon","VARNAME_2":"NA","NL_NAME_2":"Новошешминскийрайон","TYPE_2":"Raion","ENGTYPE_2":"District","CC_2":"R32003","HASC_2":"RU.TT.NO"}},{"type":"MultiPolygon","arcs":[[[189,-24,-42,-15,190,-96]]],"properties":{"GID_2":"RUS.68.35_1","GID_0":"RUS","COUNTRY":"Russia","GID_1":"RUS.68_1","NAME_1":"Tatarstan","NL_NAME_1":"РеспубликаТатарстан","NAME_2":"Oktyabr'skiy","VARNAME_2":"NA","NL_NAME_2":"Октябрьскийрайон","TYPE_2":"Raion","ENGTYPE_2":"District","CC_2":"R32003","HASC_2":"NA"}},{"type":"MultiPolygon","arcs":[[[-62,191,192,193,194,195,-130,196,-66]]],"properties":{"GID_2":"RUS.68.36_1","GID_0":"RUS","COUNTRY":"Russia","GID_1":"RUS.68_1","NAME_1":"Tatarstan","NL_NAME_1":"РеспубликаТатарстан","NAME_2":"Pestrechinskiyrayon","VARNAME_2":"NA","NL_NAME_2":"Пестречинскийрайон","TYPE_2":"Raion","ENGTYPE_2":"District","CC_2":"R32003","HASC_2":"RU.TT.PE"}},{"type":"MultiPolygon","arcs":[[[-124,197,-195,198,199,200,-145,201,-143,202,203]]],"properties":{"GID_2":"RUS.68.37_1","GID_0":"RUS","COUNTRY":"Russia","GID_1":"RUS.68_1","NAME_1":"Tatarstan","NL_NAME_1":"РеспубликаТатарстан","NAME_2":"Rybno-Slobodskiyrayon","VARNAME_2":"NA","NL_NAME_2":"Рыбно-Слободскийрайон","TYPE_2":"Raion","ENGTYPE_2":"District","CC_2":"R32003","HASC_2":"RU.TT.RY"}},{"type":"MultiPolygon","arcs":[[[-61,204,-59,205,-123,206,-146,207,208,209]]],"properties":{"GID_2":"RUS.68.38_1","GID_0":"RUS","COUNTRY":"Russia","GID_1":"RUS.68_1","NAME_1":"Tatarstan","NL_NAME_1":"РеспубликаТатарстан","NAME_2":"Sabinskiyrayon","VARNAME_2":"NA","NL_NAME_2":"Сабинскийрайон","TYPE_2":"Raion","ENGTYPE_2":"District","CC_2":"R32003","HASC_2":"RU.TT.SB"}},{"type":"MultiPolygon","arcs":[[[-41,210,211,212,213,-155,214,215,-163,216,-73]]],"properties":{"GID_2":"RUS.68.39_1","GID_0":"RUS","COUNTRY":"Russia","GID_1":"RUS.68_1","NAME_1":"Tatarstan","NL_NAME_1":"РеспубликаТатарстан","NAME_2":"Sarmanovskiyrayon","VARNAME_2":"NA","NL_NAME_2":"Сармановскийрайон","TYPE_2":"Raion","ENGTYPE_2":"District","CC_2":"R32003","HASC_2":"RU.TT.SR"}},{"type":"MultiPolygon","arcs":[[[-21,217,218,219,220,-46,221,-44,222]]],"properties":{"GID_2":"RUS.68.40_1","GID_0":"RUS","COUNTRY":"Russia","GID_1":"RUS.68_1","NAME_1":"Tatarstan","NL_NAME_1":"РеспубликаТатарстан","NAME_2":"Spasskiyrayon","VARNAME_2":"Kuybyshev","NL_NAME_2":"Спасскийрайон","TYPE_2":"Raion","ENGTYPE_2":"District","CC_2":"R32002","HASC_2":"RU.TT.KB"}},{"type":"MultiPolygon","arcs":[[[-54,-119,223,224,225,-91,226]]],"properties":{"GID_2":"RUS.68.41_1","GID_0":"RUS","COUNTRY":"Russia","GID_1":"RUS.68_1","NAME_1":"Tatarstan","NL_NAME_1":"РеспубликаТатарстан","NAME_2":"Tetyushskiyrayon","VARNAME_2":"NA","NL_NAME_2":"Тетюшскийрайон","TYPE_2":"Raion","ENGTYPE_2":"District","CC_2":"R32003","HASC_2":"RU.TT.TE"}},{"type":"MultiPolygon","arcs":[[[-148,-159,227,-157,228,-213,229,230,-181,231,232]]],"properties":{"GID_2":"RUS.68.42_1","GID_0":"RUS","COUNTRY":"Russia","GID_1":"RUS.68_1","NAME_1":"Tatarstan","NL_NAME_1":"РеспубликаТатарстан","NAME_2":"Tukayevskiyrayon","VARNAME_2":"NA","NL_NAME_2":"Тукаевскийрайон","TYPE_2":"Raion","ENGTYPE_2":"District","CC_2":"R32003","HASC_2":"RU.TT.TU"}},{"type":"MultiPolygon","arcs":[[[233,-193,234,-209,235,-200]]],"properties":{"GID_2":"RUS.68.43_1","GID_0":"RUS","COUNTRY":"Russia","GID_1":"RUS.68_1","NAME_1":"Tatarstan","NL_NAME_1":"РеспубликаТатарстан","NAME_2":"Tyulyachinskiyrayon","VARNAME_2":"NA","NL_NAME_2":"Тюлячинскийрайон","TYPE_2":"Raion","ENGTYPE_2":"District","CC_2":"R32003","HASC_2":"RU.TT.TY"}},{"type":"MultiPolygon","arcs":[[[236,-51,237,238,239,240,-127,241,-116]]],"properties":{"GID_2":"RUS.68.44_1","GID_0":"RUS","COUNTRY":"Russia","GID_1":"RUS.68_1","NAME_1":"Tatarstan","NL_NAME_1":"РеспубликаТатарстан","NAME_2":"Verkhneuslonskiyrayon","VARNAME_2":"NA","NL_NAME_2":"Верхнеуслонскийрайон","TYPE_2":"Raion","ENGTYPE_2":"District","CC_2":"R32001","HASC_2":"RU.TT.VE"}},{"type":"MultiPolygon","arcs":[[[-67,-197,-129,242,-240,243,244,245,246]]],"properties":{"GID_2":"RUS.68.45_1","GID_0":"RUS","COUNTRY":"Russia","GID_1":"RUS.68_1","NAME_1":"Tatarstan","NL_NAME_1":"РеспубликаТатарстан","NAME_2":"Vysokogorskiyrayon","VARNAME_2":"NA","NL_NAME_2":"Высокогорскийрайон","TYPE_2":"Raion","ENGTYPE_2":"District","CC_2":"R32001","HASC_2":"RU.TT.VY"}},{"type":"MultiPolygon","arcs":[[[-48,247,248,-219,249,-224,-118,-125,-204,250,-141,-108]]],"properties":{"GID_2":"RUS.68.46_1","GID_0":"RUS","COUNTRY":"Russia","GID_1":"RUS.68_1","NAME_1":"Tatarstan","NL_NAME_1":"РеспубликаТатарстан","NAME_2":"Waterbody","VARNAME_2":"NA","NL_NAME_2":"NA","TYPE_2":"Waterbody","ENGTYPE_2":"Waterbody","CC_2":"NA","HASC_2":"NA"}},{"type":"MultiPolygon","arcs":[[[251]]],"properties":{"GID_2":"RUS.68.47_1","GID_0":"RUS","COUNTRY":"Russia","GID_1":"RUS.68_1","NAME_1":"Tatarstan","NL_NAME_1":"РеспубликаТатарстан","NAME_2":"Yelabuga","VARNAME_2":"NA","NL_NAME_2":"Елабуга","TYPE_2":"Gorod","ENGTYPE_2":"City","CC_2":"NA","HASC_2":"RU.TT.YG"}},{"type":"MultiPolygon","arcs":[[[252,-137,253,-149,-233,254,255,-178,256,-176],[-167],[-252]]],"properties":{"GID_2":"RUS.68.48_1","GID_0":"RUS","COUNTRY":"Russia","GID_1":"RUS.68_1","NAME_1":"Tatarstan","NL_NAME_1":"РеспубликаТатарстан","NAME_2":"Yelabuzhskiyrayon","VARNAME_2":"NA","NL_NAME_2":"Елабужскийрайон","TYPE_2":"Raion","ENGTYPE_2":"District","CC_2":"R32001","HASC_2":"RU.TT.YR"}},{"type":"MultiPolygon","arcs":[[[257,-82,258,-88,259,-70]]],"properties":{"GID_2":"RUS.68.49_1","GID_0":"RUS","COUNTRY":"Russia","GID_1":"RUS.68_1","NAME_1":"Tatarstan","NL_NAME_1":"РеспубликаТатарстан","NAME_2":"Yutazinskiyrayon","VARNAME_2":"NA","NL_NAME_2":"тазинскийрайон","TYPE_2":"Raion","ENGTYPE_2":"District","CC_2":"R32001","HASC_2":"RU.TT.YU"}},{"type":"MultiPolygon","arcs":[[[260]]],"properties":{"GID_2":"RUS.68.50_1","GID_0":"RUS","COUNTRY":"Russia","GID_1":"RUS.68_1","NAME_1":"Tatarstan","NL_NAME_1":"РеспубликаТатарстан","NAME_2":"Zainsk","VARNAME_2":"NA","NL_NAME_2":"Заинск","TYPE_2":"Gorsovet","ENGTYPE_2":"District","CC_2":"NA","HASC_2":"RU.TT.ZN"}},{"type":"MultiPolygon","arcs":[[[-40,-183,261,-230,262,-211],[-261]]],"properties":{"GID_2":"RUS.68.51_1","GID_0":"RUS","COUNTRY":"Russia","GID_1":"RUS.68_1","NAME_1":"Tatarstan","NL_NAME_1":"РеспубликаТатарстан","NAME_2":"Zainskiyrayon","VARNAME_2":"NA","NL_NAME_2":"Заинскийрайон","TYPE_2":"Raion","ENGTYPE_2":"District","CC_2":"R32001","HASC_2":"RU.TT.ZA"}},{"type":"MultiPolygon","arcs":[[[263]]],"properties":{"GID_2":"RUS.68.52_1","GID_0":"RUS","COUNTRY":"Russia","GID_1":"RUS.68_1","NAME_1":"Tatarstan","NL_NAME_1":"РеспубликаТатарстан","NAME_2":"Zelenodol'sk","VARNAME_2":"NA","NL_NAME_2":"Зеленодольск","TYPE_2":"Gorod","ENGTYPE_2":"City","CC_2":"NA","HASC_2":"RU.TT.ZG"}},{"type":"MultiPolygon","arcs":[[[-246,264,265,-238,-50,266],[-264]]],"properties":{"GID_2":"RUS.68.53_1","GID_0":"RUS","COUNTRY":"Russia","GID_1":"RUS.68_1","NAME_1":"Tatarstan","NL_NAME_1":"РеспубликаТатарстан","NAME_2":"Zelenodol'skiyrayon","VARNAME_2":"NA","NL_NAME_2":"Зеленодольскийрайон","TYPE_2":"Raion","ENGTYPE_2":"District","CC_2":"R32001","HASC_2":"RU.TT.ZR"}}]}},"arcs":[[[785026,706794],[2425,6461],[3394,21861],[-2643,11080]],[[788202,746196],[4809,7325],[-9689,35946],[4476,7099],[16576,-11832],[3653,14912],[-3349,10104],[-8043,9729],[-16288,6948],[-16071,10781],[-245,6761],[9429,11343],[6281,3982],[2556,8338],[5934,8865],[20605,6911],[7552,12508],[2960,14086],[-5068,15137],[3783,6273],[5357,-751],[4779,10930],[7206,6723],[4981,-6460],[1545,-6987],[-5429,-15888],[-7003,-13522],[-3567,-13109],[3870,-13259],[-332,-25279],[-1372,-10517],[2137,-18819],[7350,-10855],[21890,-23852],[13154,-4056],[7725,14311],[-10136,37674],[4808,10893],[21067,-7287],[12028,-10743],[-678,-18405],[3003,-14085],[-3350,-9203],[-9126,-5296],[-10382,-13898],[2282,-14949],[-2758,-10255],[-20879,-20959],[-2859,-12170],[8721,-17917]],[[872095,693422],[-5805,-6836],[-5862,1878],[-6137,-1915],[-39953,19757],[-29312,488]],[[482593,327611],[-7855,13372],[-809,11682],[-3566,8075],[15984,10029],[4808,6273],[2383,10405],[-2426,4131]],[[491112,391578],[5704,-3493]],[[496816,388085],[14396,2366],[4505,-1427]],[[515717,389024],[14815,-17053],[11147,-25429],[9573,-16489]],[[551252,330053],[16851,-12546]],[[568103,317507],[17529,9240]],[[585632,326747],[1950,-12733],[-1199,-5371]],[[586383,308643],[-9154,-15363]],[[577229,293280],[-6801,-6949],[-4029,-3418]],[[566399,282913],[-6310,2629],[-6584,-3117],[-2527,-12283],[1545,-21410],[-953,-6686]],[[551570,242046],[-7523,-9803],[-21558,-8302]],[[522489,223941],[-35218,752],[-13125,8075],[-3437,9992],[-289,8752],[9400,25128],[2022,17241],[13515,-413],[2816,5484],[1025,8601],[-16605,20058]],[[949057,501521],[-16894,9615]],[[932163,511136],[-14209,2329],[-5588,3832]],[[912366,517297],[-7436,22499],[-2844,22762],[-4765,15288],[-3466,6348],[6079,19381],[2758,18931],[-17645,38764],[-1328,8939],[548,7663],[-2656,9165]],[[881611,687037],[24200,18931],[35376,20659],[7105,-10705],[14237,-4132],[10382,-34256],[10714,-9841],[-3134,-6874],[12158,-4996],[5863,-8789],[1487,-13860],[-708,-16340],[-27463,-36885],[1285,-24415],[-9025,-13973],[-678,-16339],[-2802,-10179],[-4173,-9466],[-7378,-4056]],[[419406,176126],[-10122,2817],[-10598,7700],[-23825,-4695],[-8014,9315],[-4130,10968]],[[362717,202231],[4000,23851],[-1588,10781],[-9314,9428],[1025,12508],[-4880,8113],[-14642,5972],[-2223,11794],[4086,49957],[3047,15250],[11522,-4808],[5285,3456],[10729,10742],[7205,2292],[6050,6235],[-2339,7963]],[[380680,375765],[20258,-15288]],[[400938,360477],[11624,-19456],[6440,-18931],[10353,-17391]],[[429355,304699],[-664,-17316],[3508,-26443],[-895,-6686],[-2917,-9391],[-9674,-18442],[8895,-19157],[837,-11681],[-2541,-16189],[-6498,-3268]],[[727542,315141],[-2887,-1202],[-3192,5521],[4332,4094],[2556,-2779],[-809,-5634]],[[791523,349397],[-3018,-15964],[-5891,-10742],[1083,-12696],[-2440,-17053]],[[781257,292942],[-12216,-9841],[-21543,-24941]],[[747498,258160],[-10917,19832]],[[736581,277992],[-5544,3681],[-9184,-13259],[-8808,-7474],[-13327,23964],[-7422,4845]],[[692296,289749],[-14829,-11606]],[[677467,278143],[-15335,1990],[-18728,10067],[-9227,7888],[-10699,16790],[-4592,22800]],[[618886,337678],[-260,19344]],[[618626,357022],[-2960,5221],[-9414,5935],[-7942,-2930],[-7740,939]],[[590570,366187],[-2873,7099],[390,7700]],[[588087,380986],[4346,9127],[14411,14762]],[[606844,404875],[7364,3944]],[[614208,408819],[15710,1953]],[[629918,410772],[9472,6573],[4895,6161]],[[644285,423506],[6758,28171]],[[651043,451677],[7566,-4808],[18843,-35346],[6238,-4657],[17934,6348],[6440,-864],[5992,-8564],[939,-16565],[2685,-9052],[4202,-5409],[5834,188],[7032,8677]],[[734748,381625],[7248,1878],[9862,12170],[3986,1389],[8129,-14686],[19045,-15288],[8505,-17691]],[[482593,327611],[-2816,-5521],[-10295,1014],[-19623,-5822],[-20504,-12583]],[[400938,360477],[-25370,17654]],[[375568,378131],[-5617,7250]],[[369951,385381],[-5082,24602]],[[364869,409983],[736,23176],[-6151,12132]],[[359454,445291],[4028,3531]],[[363482,448822],[4953,12170],[12996,17316],[8519,225],[9010,-4658],[29630,22537],[7075,-3568]],[[435665,492844],[-419,-11606],[2253,-9879],[11696,-19495],[-2426,-12357],[2007,-15701],[6656,-13222],[13126,-13860],[17082,4094],[5472,-9240]],[[112208,555835],[3769,-10931],[9790,-16076],[9429,16978],[3927,-2141],[7292,2591],[7364,8377],[10859,20771],[3898,-4094],[1820,-10743],[-2339,-24114]],[[168017,536453],[4418,-12809]],[[172435,523644],[20533,-30161],[14208,-12433]],[[207176,481050],[-852,-10593],[-2830,-11456],[1141,-9766],[5083,-8038],[1674,-14611],[-2786,-9503]],[[208606,417083],[-5920,-2592],[-11956,-12884],[-7884,-3418],[-12245,7437],[-2007,-2817],[-8476,-526]],[[160118,402283],[-5646,14800]],[[154472,417083],[-4519,3117],[-3422,-10479],[-3292,-2742],[-29081,21635]],[[114158,428614],[-5069,15701],[-7075,10968],[-3783,13672],[2022,6723],[-4520,6949],[-6584,-1690],[1126,-21335],[-3942,-1765],[-4563,3080],[-10627,-18969],[-8909,4771],[1371,22912],[3625,19044],[15724,6873],[6888,13185],[5371,17991],[16995,29111]],[[398671,912293],[6628,-20772],[-7379,-9315],[-18395,-14686],[3869,-6160],[7379,-1616],[11696,-14611],[18193,-638],[7884,-6536]],[[428546,837959],[10194,-16527],[-3017,-9428]],[[435723,812004],[-4217,-5447],[-6209,-4282]],[[425297,802275],[-12186,-2779],[-3192,-15250],[-2281,-28922],[-1588,-7625],[-16865,-25692],[-10411,-11720]],[[378774,710287],[-7494,8677]],[[371280,718964],[-1560,68174],[-69063,69602],[-10382,23889]],[[290275,880629],[3509,-3005],[8721,2479],[3437,4620],[57,11944],[6224,11870],[7869,2028],[8635,-5146],[4649,4357],[1516,9992],[2166,11944],[5300,5559],[15897,5785],[4982,-1165],[6555,-8488],[737,-4959],[-3523,-7061],[-4043,-3118],[1703,-6798],[4433,-6686],[8404,4131],[5444,5522],[4100,8188],[2239,-10855],[2859,-3230],[6526,3756]],[[265829,892536],[24446,-11907]],[[371280,718964],[-6209,1164],[-5502,-5371]],[[359569,714757],[-8779,20133],[-780,19457],[1286,22236],[-3047,10931],[-2570,4094],[-6007,1427],[-14324,-7625],[-12808,24227],[-4591,5222],[-5978,3342],[-4116,-3605],[-5255,6197],[-5155,10067],[-1155,7850],[-4534,9052],[-8130,-1389],[-5256,6197],[-3306,27683],[765,12283]],[[834697,301318],[-2209,-300],[-823,3568],[2657,1164],[1111,-2817],[-736,-1615]],[[852761,418472],[-5949,-19569],[17414,-8151],[6223,-11381],[15508,-15588],[7292,-13485],[6844,-19156],[7407,-1578]],[[907500,329564],[-26092,-29598],[-7349,-3681],[-22713,-20584],[-9299,-4357]],[[842047,271344],[-15378,376],[-9978,-5221]],[[816691,266499],[-19623,-24152],[-5198,-1165],[-8231,10855],[-5645,21072],[779,11494],[2484,8339]],[[791523,349397],[5069,7963],[8692,22875],[12880,17391],[7494,14348],[101,10630]],[[825759,422604],[-2642,17804]],[[823117,440408],[13645,-18518],[15999,-3418]],[[485986,896066],[-18107,-15212],[-16504,-26594],[-6310,-6197]],[[445065,848063],[-13631,-5146],[-2888,-4958]],[[398671,912293],[3855,4019],[2643,9728],[938,9316],[4765,4958],[11797,4207],[881,8676],[-1011,8602],[-4432,4470],[-12158,2329],[-1935,4995],[-664,11832],[4043,-6686],[8721,-939],[8620,11832],[11046,-8602],[3307,4470],[1285,6799],[3682,7700],[3466,-1164],[4967,-6574],[3725,-19532],[6440,-8113],[5444,-13597],[8273,-12884],[-2382,-16414],[11999,-25655]],[[889466,166548],[-7855,-58409],[-1849,-24602],[7841,-53713],[-173,-10517],[-6354,-19307],[-3032,1916],[-17688,31777],[-27637,-19119],[3422,12921],[-967,12546],[-15321,13559],[2311,14950],[24012,11080],[1935,9316],[-4332,8676]],[[843779,97622],[-1256,21072],[2628,10217],[-14,8677],[-4332,10329],[-3769,601],[-3494,4395]],[[833542,152913],[-3350,14085]],[[830192,166998],[59274,-450]],[[796664,166435],[-1733,-1089],[-1993,3117],[2426,4470],[1588,-1164],[-288,-5334]],[[843779,97622],[-5154,11043],[-3870,-10029],[-9314,-6310],[-10439,4470],[-9097,14912],[-9198,4244],[-11869,2705],[-15450,-3569],[-13588,25054],[188,12545]],[[755988,152687],[2007,11306],[2209,4508],[20793,34669],[-1458,6986]],[[779539,210156],[-32041,48004]],[[816691,266499],[15782,5333]],[[832473,271832],[-8837,-24753],[13559,-25241],[1285,-8864],[-11147,-31101]],[[827333,181873],[6209,-28960]],[[154472,417083],[11306,-27683]],[[165778,389400],[-216,-13522],[-2715,-7625],[-866,-14462],[5025,-9916],[5357,9391],[5241,3606],[3163,-5034],[5819,-1277],[1747,-10742],[-6036,-12208],[-10584,-12996],[-12750,-29336]],[[158963,285279],[-5949,-8413],[-8505,-8301]],[[144509,268565],[-12966,-5184],[-5733,5071],[72,5822],[-5790,1239],[-3942,-5634]],[[116150,269879],[-3768,7888],[-12866,4395],[-10338,-1503]],[[89178,280659],[-3654,21373],[-3927,16189],[-2570,4620],[-3134,16715],[-866,5934],[881,5409],[22424,-37],[11725,3418],[11133,8226],[144,11569],[-18973,-11757],[-8303,16790],[2830,21185],[9256,13184],[9819,2479],[-1805,12658]],[[560334,224655],[-7465,4695],[-4129,7250]],[[548740,236600],[2830,5446]],[[566399,282913],[10830,10367]],[[586383,308643],[1184,10517],[-1935,7587]],[[585632,326747],[13284,12320],[14050,8978]],[[612966,348045],[6440,-752]],[[619406,347293],[-520,-9615]],[[677467,278143],[4043,3343]],[[681510,281486],[4303,-3456],[1501,-6949],[-2974,-17954],[-2888,-5409],[2671,-9052],[-2296,-6461],[-13371,-20471],[-433,-7663],[-4259,-7211],[260,-6761],[2555,-10968]],[[666579,179131],[-7811,-2855],[-9126,7888],[-7653,11569],[-18511,11907],[-9631,23363],[-3437,-4395],[-5314,-15775],[-7537,-9766],[-2960,2216],[-3191,2366],[-2541,12884],[7941,17391],[-3046,3267],[-13718,-17729],[-8635,6761],[-6006,8414],[-4000,-3418],[-1069,-8564]],[[486520,492769],[-3350,1052],[1444,4056],[1964,38],[924,-3118],[-982,-2028]],[[515717,389024],[-10974,2104],[-7927,-3043]],[[435665,492844],[19767,1991],[4058,3493],[25601,338],[11378,5634],[6945,8977],[23522,12020],[11595,-5108],[6267,-6536],[9154,-1014],[-4794,10217],[-16403,15400],[4635,451],[10830,-7963],[11075,-2217],[14410,12884],[16505,1014],[10020,-8564]],[[600230,533861],[-12490,-1803]],[[587740,532058],[-15219,-15700]],[[572521,516358],[-5082,-10067],[-260,-5784]],[[567179,500507],[2743,-10968],[1820,-3118]],[[571742,486421],[6613,1164],[6223,-6535]],[[584578,481050],[-5675,-9015],[-21644,-14949],[-7653,-9804],[-14468,-31326],[-6758,-19570],[-5429,-5258],[-7234,-2104]],[[116150,269879],[-5357,-17203],[-5155,225],[-3797,5973],[-5834,-2667],[-2628,-5710],[-1429,-13484],[2426,-11682],[-3264,-6648],[-8923,8076],[-3090,12695],[1487,19269],[-8938,9992],[-10367,-5447],[1805,-16489],[-19566,-34144],[3047,-22311],[-5805,-4658],[-5747,3080],[-5068,9804],[-6411,188],[-1357,-13485],[-4520,-4733],[-6237,35008],[5183,9503],[-12764,19682],[-3841,9766],[18728,8188],[6483,7550],[-8331,12809],[-2527,11681],[9761,12320],[-2570,5860],[794,6949],[4433,638],[15392,-23663],[16172,413],[3827,-5897],[3234,826],[2642,7663],[-5053,13710],[11046,4432],[8995,-6123],[6152,-31176]],[[207176,481050],[14411,-827],[4043,5559],[4115,9428],[1516,9616],[-2469,7888],[-448,10668],[18367,28922],[3466,8489]],[[250177,560793],[938,13034]],[[251115,573827],[2975,-14649],[231,-6912],[-3682,-15325],[-477,-8151],[2383,-11756],[12418,-31815],[19305,-41055],[1805,-6873],[375,-10668],[-46018,-46313],[-13934,-19307]],[[226496,361003],[-5083,11757],[795,6761],[4014,5522],[3508,12395],[-1819,6874],[-13602,3718],[-5703,9053]],[[485986,896066],[-1588,-5183],[3003,-7400],[5906,-6573],[18006,-3681],[-1343,13898],[-2801,10742],[1343,3719],[9053,4545],[4274,-5409],[4881,-8827],[130,-13409],[4923,-10367],[-6454,-26969],[1040,-7363],[12201,-17090],[3234,-16452],[7841,-6198],[3797,-7399],[3509,-1841],[10613,5109],[7220,-11832],[9227,-6987],[10020,752],[4794,17053],[10339,5596],[7220,-3794],[13313,11006],[7104,-5747],[-28417,-31514],[-27565,-16151]],[[580809,748300],[-5949,1615],[-5602,-5184],[-159,-3831],[-4274,-5371],[-7537,-4019],[-7899,2854],[-2916,-5521],[-1300,-14386],[-21789,-25805],[-10772,-2742]],[[512612,685910],[563,13522]],[[513175,699432],[-3422,13973],[-12851,29486],[-866,11756],[-3552,12020],[390,9653],[-3408,15889],[-4909,12170],[-15003,12170],[-14641,23776],[-9848,7738]],[[358356,582954],[10873,-11569],[1834,-4996],[-2252,-8526],[404,-8752],[2830,-14799],[6815,-13184],[4130,-14875],[-318,-9653]],[[382672,496600],[-7234,-338],[-6353,6348],[-17587,26631],[-28215,-21072],[-5285,-1540],[-5819,3343],[-4404,7099],[-8952,36510],[-3812,6085],[-722,-2855],[3018,-10855],[2772,-20546],[390,-10705],[-2975,-13335],[10859,-11456],[-202,-7737],[-3451,-6536],[-10021,-7963],[-5227,338],[-5141,4244],[-7523,14086],[1488,7662],[-14974,33918],[-2830,20547],[-3538,15024],[-5819,10330]],[[251115,573827],[-4794,55065]],[[246321,628892],[202,9653]],[[246523,638545],[-1790,10818]],[[244733,649363],[16013,2817],[10527,-4583],[8909,12020]],[[280182,659617],[6541,-4357],[15305,-26293],[6484,-6311],[13125,-4845],[4491,-5183],[9125,-28810],[16346,-6160]],[[351599,577658],[6757,5296]],[[747454,221650],[-1790,-150],[-1444,4169],[3841,2404],[1039,-2216],[-1646,-4207]],[[755988,152687],[-6166,2780],[-10382,-13034],[-12677,10442],[-5285,-3155],[-7595,-9578],[-8606,-16227],[-2513,338],[-10309,-13109],[-1704,3080],[-924,16565],[-14916,16377],[-2079,8000],[4230,7175],[-1386,8864],[-9097,7926]],[[681510,281486],[10786,8263]],[[736581,277992],[16649,-30312],[8375,-8902],[17934,-28622]],[[580809,748300],[33890,22198],[-14295,-32302],[-1184,-10555],[6801,-11494],[6541,-2742]],[[612562,713405],[-1488,-16302],[2282,-8038],[4447,-30650],[130,-10705],[-2816,-16151],[44,-12621],[1935,-13823],[5097,-17090],[3624,-6273]],[[625817,581752],[2036,-11869]],[[627853,569883],[-3971,-17729]],[[623882,552154],[-8606,-8865],[-15046,-9428]],[[600230,533861],[-5487,10893],[-6829,6160],[-15566,3268],[-27536,-11456]],[[544812,542726],[-17385,8714]],[[527427,551440],[-6671,13297],[318,7737],[-5458,11231],[-4072,13034],[1559,5672],[-2599,16752]],[[510504,619163],[-13024,21748],[-4476,13410]],[[493004,654321],[1270,6310]],[[494274,660631],[17472,20509]],[[511746,681140],[866,4770]],[[785026,706794],[-17920,-19720],[-6714,-976],[-15493,8038],[-5025,-6085],[-953,-4733],[8432,-25466],[-1415,-23101]],[[745938,634751],[-13414,8677],[-4086,9315],[-4130,19983],[-3841,2479],[-14699,-12583],[-3726,4395],[3408,13146],[-1097,4019],[-72,10705]],[[704281,694887],[7450,1878],[7177,8752],[447,7700],[-1761,15814],[-3581,18931],[1501,14386],[8650,10479],[10266,3418],[9458,-10066],[1256,-12809],[6281,-6723],[14454,17353],[5429,1165],[11234,-24002],[5660,5033]],[[872095,693422],[9516,-6385]],[[912366,517297],[-9761,638]],[[902605,517935],[-18699,12658],[-8504,413],[-29182,-13822],[-6310,-676],[-6397,6498]],[[833513,523006],[-3798,11231]],[[829715,534237],[-9472,14987],[-13732,1089],[-7754,11832],[-4880,-4132],[-6642,-976],[1213,8564],[3133,7287]],[[791581,572888],[2094,21973]],[[793675,594861],[-5155,22086],[159,12621],[3350,451],[3090,-3343],[2743,1502],[-549,11757],[-4620,10367],[-2007,10029],[9371,11193]],[[800057,671524],[390,5784],[-693,9804]],[[799754,687112],[-2859,7249],[-11869,12433]],[[949057,501521],[-24619,-21974],[-3625,-12958],[-6353,-14462],[-11465,-13597],[-15551,601],[-9155,-9202],[-25528,-11457]],[[852761,418472],[-12274,939],[-9169,8151],[-6469,9691],[-1732,3155]],[[823117,440408],[-1329,8902]],[[821788,449310],[3827,8114]],[[825615,457424],[9140,46050],[1530,12320]],[[836285,515794],[-2772,7212]],[[902605,517935],[29558,-6799]],[[725940,616459],[-2816,1465],[-809,4282],[2469,2028],[2773,-2254],[-202,-3793],[-1415,-1728]],[[648010,581940],[-3696,2103],[1675,4583],[1819,-188],[1459,-4921],[-1257,-1577]],[[644285,423506],[-14367,-12734]],[[629918,410772],[-9241,-2742]],[[620677,408030],[-3784,14987],[4101,15964],[4996,8076],[-6079,8489],[-19262,-6386],[-5602,5522],[-1618,6948],[2470,10367],[-7321,10555],[-4000,-1502]],[[571742,486421],[-4563,14086]],[[572521,516358],[8404,10667],[6815,5033]],[[587740,532058],[6527,-789],[8750,3794],[20865,17091]],[[627853,569883],[-1025,5934]],[[626828,575817],[3942,12133]],[[630770,587950],[17890,25880],[9025,7587]],[[657685,621417],[13977,1089]],[[671662,622506],[20374,8977],[4664,338]],[[696700,631821],[6960,-5784]],[[703660,626037],[1949,-11907],[-8014,-24152]],[[697595,589978],[-1487,-14348]],[[696108,575630],[-14194,-17504],[-6570,-11719],[-4462,-9128],[-2498,-20997],[-8562,-12470],[-11783,-23664],[8953,-15663],[-925,-4733],[-5024,-8075]],[[568103,317507],[-8808,4846],[-8043,7700]],[[620677,408030],[-6469,789]],[[606844,404875],[-10238,-9428],[-8519,-14461]],[[590570,366187],[20143,488],[7913,-9653]],[[618626,357022],[780,-9729]],[[612966,348045],[-7321,-3944],[-20013,-17354]],[[560334,224655],[1589,-6949],[-6050,-6085],[-5256,-15851],[-12664,-11155],[-2758,-18030],[4246,-17842],[-1892,-13296],[-6729,-21523],[-8995,11606],[-6152,4508],[-12995,22574],[-6440,-1277],[-11133,-22048],[-4563,-2442],[-1083,-10517],[-3523,-8339],[-5068,526],[-7422,4583],[2094,4620],[1155,12432],[-6541,11269],[-3870,14837],[-6801,5484],[-4028,-5409],[-1719,-11419],[-5761,-451],[-10107,19269],[-2253,7963],[-6209,4433]],[[522489,223941],[15580,4132],[10671,8527]],[[378774,710287],[19767,-31889],[7624,-8377],[15898,-1427]],[[422063,668594],[2556,-4094],[-2296,-8526],[-7769,-13861],[-5125,-14085]],[[409429,628028],[-5444,-23739]],[[403985,604289],[-11739,4883],[-4332,-11269],[-4087,-3493]],[[383827,594410],[-19392,-7099],[-12836,-9653]],[[280182,659617],[6093,4395],[10035,-4320],[12433,-1127],[2050,2742],[-4462,7099],[-4288,14875],[7335,26631],[6166,6310],[11205,-5672],[11551,-16414],[4852,6423],[10598,-2780],[6296,10142],[-477,6836]],[[358356,582954],[12794,7663],[12677,3793]],[[403985,604289],[3797,14198]],[[407782,618487],[5415,3381],[13097,-23476],[4086,3493],[2354,10442],[8894,7888],[15681,9804],[21414,6948],[231,5822],[-5776,5409],[-4360,7250],[765,2817]],[[469583,658265],[12476,-4170],[12215,6536]],[[493004,654321],[1429,-6235],[16071,-28923]],[[527427,551440],[-10584,-826]],[[516843,550614],[-17847,-17504],[-16649,-5071],[-6570,639],[-10165,8752],[-18800,-9804],[-25254,11081],[-7884,713],[-6686,-3268],[-7508,-8075],[-16808,-31477]],[[425297,802275],[10426,9729]],[[428546,837959],[8187,8677],[8332,1427]],[[513175,699432],[-1429,-18292]],[[494274,660631],[-9458,-5221]],[[484816,655410],[-13154,23701],[-20691,9917],[-25414,-1127],[-22309,-14687]],[[403248,673214],[-24474,37073]],[[734748,381625],[5862,10780],[505,7700],[2470,8338],[-44,29974],[5920,21448],[491,7663],[-6570,20245]],[[743382,487773],[1791,7513],[11883,32227]],[[757056,527513],[13906,22199],[3335,11156],[18020,23551]],[[792317,584419],[-736,-11531]],[[829715,534237],[6570,-18443]],[[836285,515794],[-5876,-36848],[-3394,-11080],[-1400,-10442]],[[821788,449310],[3971,-26706]],[[362717,202231],[-3032,5108],[-18078,-4357],[-9501,3644],[3999,5484],[-967,9728],[-6180,8226],[-332,10630],[-9140,17128],[-6498,20809],[-2195,13672],[-18612,28434],[-4491,1277],[-8100,-12958],[-3004,8902],[-5313,-5447],[-6209,-16038],[-15566,-2817],[-1487,-2404],[-2426,713]],[[245585,291965],[-274,16452],[-4361,7062],[-506,6798],[3062,21072],[-405,10668],[1459,7662],[11493,-8489],[7105,-1427],[26395,17541],[8923,-6460],[5863,563],[7306,6235],[895,8640],[3466,8451],[3826,20020],[4736,6423],[3177,-3155],[12649,9653]],[[340394,419674],[13775,24077]],[[354169,443751],[5285,1540]],[[364869,409983],[2180,-13747],[2902,-10855]],[[375568,378131],[5112,-2366]],[[226496,361003],[-1545,-5859],[-289,-13522],[6411,-34256],[-13500,-28172],[-1459,-7662],[2051,-25279],[2368,-9804]],[[220533,236449],[-2065,-6648],[-11162,-11907],[-6989,3305],[-22539,-3568],[-13126,20959],[-19839,7738],[808,10592],[2036,6686],[-3148,4959]],[[144509,268565],[14454,16714]],[[165778,389400],[-1848,6874],[-3812,6009]],[[799754,687112],[303,-15588]],[[793675,594861],[-1358,-10442]],[[757056,527513],[-2743,-1540],[-3783,2442],[-4852,6498],[-7580,4958],[-13039,1803],[-7018,14536],[-17919,-2441],[-5371,9465]],[[694751,563234],[2844,26744]],[[703660,626037],[9342,-9991]],[[713002,616046],[18497,-639],[14439,19344]],[[407782,618487],[1647,9541]],[[422063,668594],[-9949,-37],[-8866,4657]],[[484816,655410],[-15233,2855]],[[207176,481050],[-21283,21522],[-13458,21072]],[[168017,536453],[13529,22537],[1473,9653],[-3047,16640],[1415,5709],[18338,29035],[5632,19081],[-4159,28359],[20649,1691]],[[221847,669158],[19146,-7926]],[[240993,661232],[2570,-4057]],[[243563,657175],[2960,-18630]],[[246321,628892],[3119,-40942],[1791,-8827],[-1054,-18330]],[[244733,649363],[-1170,7812]],[[240993,661232],[-10569,4507]],[[230424,665739],[2916,13372],[9819,24641]],[[243159,703752],[6714,1502],[7466,6310],[1415,3794],[-2946,18631],[12057,1127],[808,6761],[-5689,14949],[-10439,14236],[-16259,-8677],[-10411,18105]],[[225875,780490],[2209,2366],[4838,13034],[3292,2855],[11219,-3306],[751,8489],[1935,4320],[8779,10930],[1588,11569],[-10035,3531],[-12201,-3080],[-3755,15776],[7004,13146],[-535,6836],[4202,7475],[8996,10142],[11667,7963]],[[363482,448822],[-9313,-5071]],[[354169,443751],[-5444,-7287],[-3566,-10367],[-4765,-6423]],[[245585,291965],[17284,-5972],[4404,-5108],[-10151,1915],[-8895,-3793],[-11710,-23589],[-9256,-24565],[-4981,-5409],[-5877,1465],[4130,9540]],[[516843,550614],[6036,2253],[21933,-10141]],[[688989,635240],[-2671,-864],[-924,5258],[3870,939],[-275,-5333]],[[626828,575817],[-1011,5935]],[[612562,713405],[21399,13898],[9616,-8001],[7451,1991],[10411,-5221],[16432,7587],[9891,-2291],[10757,-14461],[5762,-12020]],[[713002,616046],[-16302,15775]],[[696700,631821],[-25038,-9315]],[[657685,621417],[-18930,-19908],[-7985,-13559]],[[907500,329564],[11191,2968],[6021,-13522],[-12302,-33731],[4851,-20133],[-72,-17391],[-5140,-16527],[-18656,-43308],[-3927,-21372]],[[830192,166998],[-2859,14875]],[[832473,271832],[9574,-488]],[[689394,467039],[-1964,2479],[2426,1653],[548,-2141],[-1010,-1991]],[[696108,575630],[-1357,-12396]],[[757056,527513],[-13674,-39740]],[[176594,670885],[-1040,789],[938,939],[102,-1728]],[[243159,703752],[-5545,-11306],[-7190,-26707]],[[230424,665739],[-8577,3419]],[[112208,555835],[16505,18142],[-679,4695],[-15262,7437],[-2744,5296],[-866,7287],[2801,7212],[9674,9653],[14483,3832],[3148,5596],[-130,8114],[7595,11681],[20648,6010],[1733,8451],[-2469,13034],[-2325,24302],[17717,24303],[8707,2441],[4144,7513],[4939,16226],[-1762,14649],[5501,9390],[10570,-10291],[7407,2479],[4332,17203]]],"bbox":[47.2797,54.0458,54.2052,56.7081],"transform":{"scale":[0.000006925506925506925,0.0000026623026623026644],"translate":[47.2797,54.0458]}}