{"type":"Topology","objects":{"muni":{"type":"GeometryCollection","geometries":[{"type":"MultiPolygon","arcs":[[[0,1],[2]]],"properties":{"GID_2":"RUS.69.1_1","GID_0":"RUS","COUNTRY":"Russia","GID_1":"RUS.69_1","NAME_1":"Tomsk","NL_NAME_1":"Томскаяобласть","NAME_2":"Aleksandrovskiyrayon","VARNAME_2":"NA","NL_NAME_2":"Александровскийрайон","TYPE_2":"Raion","ENGTYPE_2":"District","CC_2":"R57000","HASC_2":"RU.TO.AL"}},{"type":"MultiPolygon","arcs":[[[3]]],"properties":{"GID_2":"RUS.69.2_1","GID_0":"RUS","COUNTRY":"Russia","GID_1":"RUS.69_1","NAME_1":"Tomsk","NL_NAME_1":"Томскаяобласть","NAME_2":"Asino","VARNAME_2":"NA","NL_NAME_2":"А́сино","TYPE_2":"Gorod","ENGTYPE_2":"City","CC_2":"NA","HASC_2":"RU.TO.AG"}},{"type":"MultiPolygon","arcs":[[[4,5,6,7,8,9,10,11,12,13,14,15],[-4]]],"properties":{"GID_2":"RUS.69.3_1","GID_0":"RUS","COUNTRY":"Russia","GID_1":"RUS.69_1","NAME_1":"Tomsk","NL_NAME_1":"Томскаяобласть","NAME_2":"Asinovskiyrayon","VARNAME_2":"NA","NL_NAME_2":"Асиновскийрайон","TYPE_2":"Raion","ENGTYPE_2":"District","CC_2":"R57000","HASC_2":"RU.TO.AR"}},{"type":"MultiPolygon","arcs":[[[16,17,18,19,20,21,22,23]]],"properties":{"GID_2":"RUS.69.4_1","GID_0":"RUS","COUNTRY":"Russia","GID_1":"RUS.69_1","NAME_1":"Tomsk","NL_NAME_1":"Томскаяобласть","NAME_2":"Bakcharskiyrayon","VARNAME_2":"NA","NL_NAME_2":"Бакчарскийрайон","TYPE_2":"Raion","ENGTYPE_2":"District","CC_2":"R57000","HASC_2":"RU.TO.BA"}},{"type":"MultiPolygon","arcs":[[[-20,24,25,26,27]]],"properties":{"GID_2":"RUS.69.5_1","GID_0":"RUS","COUNTRY":"Russia","GID_1":"RUS.69_1","NAME_1":"Tomsk","NL_NAME_1":"Томскаяобласть","NAME_2":"Chainskiyrayon","VARNAME_2":"NA","NL_NAME_2":"Чаинскийрайон","TYPE_2":"Raion","ENGTYPE_2":"District","CC_2":"R57001","HASC_2":"RU.TO.CH"}},{"type":"MultiPolygon","arcs":[[[28,29,30,31,32,-1]]],"properties":{"GID_2":"RUS.69.6_1","GID_0":"RUS","COUNTRY":"Russia","GID_1":"RUS.69_1","NAME_1":"Tomsk","NL_NAME_1":"Томскаяобласть","NAME_2":"Kargasokskiyrayon","VARNAME_2":"NA","NL_NAME_2":"Каргасокскийрайон","TYPE_2":"Raion","ENGTYPE_2":"District","CC_2":"R57000","HASC_2":"RU.TO.KA"}},{"type":"MultiPolygon","arcs":[[[33]]],"properties":{"GID_2":"RUS.69.7_1","GID_0":"RUS","COUNTRY":"Russia","GID_1":"RUS.69_1","NAME_1":"Tomsk","NL_NAME_1":"Томскаяобласть","NAME_2":"Kolpashevo","VARNAME_2":"NA","NL_NAME_2":"Колпашево","TYPE_2":"Gorod","ENGTYPE_2":"City","CC_2":"NA","HASC_2":"RU.TO.KG"}},{"type":"MultiPolygon","arcs":[[[-19,34,35,36,37,38,-27,39,-25],[-34]]],"properties":{"GID_2":"RUS.69.8_1","GID_0":"RUS","COUNTRY":"Russia","GID_1":"RUS.69_1","NAME_1":"Tomsk","NL_NAME_1":"Томскаяобласть","NAME_2":"Kolpashevskiyrayon","VARNAME_2":"NA","NL_NAME_2":"Колпашевскийрайон","TYPE_2":"Raion","ENGTYPE_2":"District","CC_2":"R57000","HASC_2":"RU.TO.KR"}},{"type":"MultiPolygon","arcs":[[[40,41,42,43,44,45,46]]],"properties":{"GID_2":"RUS.69.9_1","GID_0":"RUS","COUNTRY":"Russia","GID_1":"RUS.69_1","NAME_1":"Tomsk","NL_NAME_1":"Томскаяобласть","NAME_2":"Kozhevnikovskiyrayon","VARNAME_2":"NA","NL_NAME_2":"Кожевниковскийрайон","TYPE_2":"Raion","ENGTYPE_2":"District","CC_2":"R57000","HASC_2":"RU.TO.KO"}},{"type":"MultiPolygon","arcs":[[[-13,47,48,49,-23,50,51]]],"properties":{"GID_2":"RUS.69.10_1","GID_0":"RUS","COUNTRY":"Russia","GID_1":"RUS.69_1","NAME_1":"Tomsk","NL_NAME_1":"Томскаяобласть","NAME_2":"Krivosheinskiyrayon","VARNAME_2":"NA","NL_NAME_2":"Кривошеинскийрайон","TYPE_2":"Raion","ENGTYPE_2":"District","CC_2":"R57000","HASC_2":"RU.TO.KS"}},{"type":"MultiPolygon","arcs":[[[-14,-52,52,-21,-28,-39,53,54,55]]],"properties":{"GID_2":"RUS.69.11_1","GID_0":"RUS","COUNTRY":"Russia","GID_1":"RUS.69_1","NAME_1":"Tomsk","NL_NAME_1":"Томскаяобласть","NAME_2":"Molchanovskiyrayon","VARNAME_2":"NA","NL_NAME_2":"Молчановскийрайон","TYPE_2":"Raion","ENGTYPE_2":"District","CC_2":"R57001","HASC_2":"RU.TO.MO"}},{"type":"MultiPolygon","arcs":[[[-32,56,57,58,-35,-18,59]]],"properties":{"GID_2":"RUS.69.12_1","GID_0":"RUS","COUNTRY":"Russia","GID_1":"RUS.69_1","NAME_1":"Tomsk","NL_NAME_1":"Томскаяобласть","NAME_2":"Parabel'skiyrayon","VARNAME_2":"NA","NL_NAME_2":"Парабельскийрайон","TYPE_2":"Raion","ENGTYPE_2":"District","CC_2":"R57001","HASC_2":"RU.TO.PA"}},{"type":"MultiPolygon","arcs":[[[-16,60,61,62,63,64,65]]],"properties":{"GID_2":"RUS.69.13_1","GID_0":"RUS","COUNTRY":"Russia","GID_1":"RUS.69_1","NAME_1":"Tomsk","NL_NAME_1":"Томскаяобласть","NAME_2":"Pervomayskiyrayon","VARNAME_2":"NA","NL_NAME_2":"Первомайскийрайон","TYPE_2":"Raion","ENGTYPE_2":"District","CC_2":"R57001","HASC_2":"RU.TO.PE"}},{"type":"MultiPolygon","arcs":[[[-24,-50,66,67,68,-44,69,-42,70]]],"properties":{"GID_2":"RUS.69.14_1","GID_0":"RUS","COUNTRY":"Russia","GID_1":"RUS.69_1","NAME_1":"Tomsk","NL_NAME_1":"Томскаяобласть","NAME_2":"Shegarskiyrayon","VARNAME_2":"NA","NL_NAME_2":"Шегарскийрайон","TYPE_2":"Raion","ENGTYPE_2":"District","CC_2":"R57001","HASC_2":"RU.TO.SH"}},{"type":"MultiPolygon","arcs":[[[-3]]],"properties":{"GID_2":"RUS.69.15_1","GID_0":"RUS","COUNTRY":"Russia","GID_1":"RUS.69_1","NAME_1":"Tomsk","NL_NAME_1":"Томскаяобласть","NAME_2":"Strezhevoy","VARNAME_2":"NA","NL_NAME_2":"Стрежевой","TYPE_2":"Gorod","ENGTYPE_2":"City","CC_2":"NA","HASC_2":"RU.TO.ST"}},{"type":"MultiPolygon","arcs":[[[71,72,73,-65,74,75]]],"properties":{"GID_2":"RUS.69.16_1","GID_0":"RUS","COUNTRY":"Russia","GID_1":"RUS.69_1","NAME_1":"Tomsk","NL_NAME_1":"Томскаяобласть","NAME_2":"Tegul'detskiyrayon","VARNAME_2":"NA","NL_NAME_2":"Тегульдетскийрайон","TYPE_2":"Raion","ENGTYPE_2":"District","CC_2":"R57001","HASC_2":"RU.TO.TE"}},{"type":"MultiPolygon","arcs":[[[76]]],"properties":{"GID_2":"RUS.69.17_1","GID_0":"RUS","COUNTRY":"Russia","GID_1":"RUS.69_1","NAME_1":"Tomsk","NL_NAME_1":"Томскаяобласть","NAME_2":"Tomsk","VARNAME_2":"NA","NL_NAME_2":"Томск","TYPE_2":"Gorod","ENGTYPE_2":"City","CC_2":"NA","HASC_2":"RU.TO.TG"}},{"type":"MultiPolygon","arcs":[[[-47,77,-45,-69,78,-67,-49,79,-11,80,-9,81,-7,82,83,84],[-77]]],"properties":{"GID_2":"RUS.69.18_1","GID_0":"RUS","COUNTRY":"Russia","GID_1":"RUS.69_1","NAME_1":"Tomsk","NL_NAME_1":"Томскаяобласть","NAME_2":"Tomskiyrayon","VARNAME_2":"NA","NL_NAME_2":"Томскийрайон","TYPE_2":"Raion","ENGTYPE_2":"District","CC_2":"R57001","HASC_2":"RU.TO.TR"}},{"type":"MultiPolygon","arcs":[[[85,86,-63,87,-54,88,-37,89,-58,90,-30]]],"properties":{"GID_2":"RUS.69.19_1","GID_0":"RUS","COUNTRY":"Russia","GID_1":"RUS.69_1","NAME_1":"Tomsk","NL_NAME_1":"Томскаяобласть","NAME_2":"Verkhneketskiyrayon","VARNAME_2":"NA","NL_NAME_2":"Верхнекетскийрайон","TYPE_2":"Raion","ENGTYPE_2":"District","CC_2":"R57000","HASC_2":"RU.TO.VE"}},{"type":"MultiPolygon","arcs":[[[-84,91,-5,-66,-74,92,-72,93]]],"properties":{"GID_2":"RUS.69.20_1","GID_0":"RUS","COUNTRY":"Russia","GID_1":"RUS.69_1","NAME_1":"Tomsk","NL_NAME_1":"Томскаяобласть","NAME_2":"Zyryanskiyrayon","VARNAME_2":"NA","NL_NAME_2":"Зырянскийрайон","TYPE_2":"Raion","ENGTYPE_2":"District","CC_2":"R57000","HASC_2":"RU.TO.ZY"}}]}},"arcs":[[[444649,923487],[-3770,-10951],[-30163,-41508],[-1408,-4093],[-593,-9625],[-1582,-8765],[-25884,-40349],[-4662,-13960],[-10600,-17082],[-13995,-4822],[-13897,-8036],[-7262,-10167],[-1080,-9194],[-9520,-10616],[-2363,-5289],[-1958,-11007],[-927,-9158],[-1868,-7942],[-4272,-12933],[-4230,-4485],[-36617,-10784],[-13423,11438],[-2439,5176],[885,13344],[-376,4841],[-1736,6055],[-4167,3532],[-4391,19],[-17117,-12036],[-5701,10167],[-7659,3532],[-44185,10092],[-33941,-1757],[-13897,-3681],[-2836,-1944],[-5290,6279]],[[111725,727778],[2140,1066],[864,7849],[-258,8559],[-265,6037],[3729,7251],[1198,10709],[-947,9662],[2300,26426],[-1332,11101],[-1735,8017],[4070,6654],[3770,9381],[2286,11363],[-1707,9475],[-739,12447],[669,11325],[1269,9606],[3129,5271],[6607,2560],[3861,3607],[1303,4915],[-4920,17885],[4460,14297],[606,5513],[-1331,9083],[2453,6896],[4419,2224],[7164,-5532],[7019,-1812],[10879,1887],[17946,-2878],[11806,-8186],[6035,-373],[5889,7774],[6969,374],[16253,-4728],[6098,486],[10231,10465],[3241,-8615],[4683,-4430],[5694,-2392],[3457,1645],[1484,6335],[4607,4785],[6098,-636],[10287,-3195],[2293,-4934],[-1046,-5943],[196,-6523],[2446,-7344],[4829,-2991],[5534,-205],[17667,5307],[9897,-1868],[21849,2018],[10865,9961],[9945,3906],[9478,486],[3506,4541],[5547,3383],[6593,-691],[6837,-1813],[9005,-7924],[2425,-20502],[10600,-3626],[12719,318]],[[175878,944643],[1157,1775],[-976,1271],[-2000,-2299],[1819,-747]],[[773322,242917],[-1408,-168],[-397,2074],[1136,2000],[1387,-411],[376,-1253],[-1094,-2242]],[[789289,238637],[-5638,-4298],[139,-4990],[-2711,-11064]],[[781079,218285],[-8175,-6485]],[[772904,211800],[-42,-10260],[-1910,-4915],[-4279,-2710],[-8189,-2168],[-1449,4055],[-4481,6616],[-5841,-7401],[-4885,3682],[1108,11643],[-1108,6448],[-4816,8559],[-732,5513],[2962,3551],[1638,3476],[669,3514],[-9109,7214],[-1303,12297],[-8092,4411],[-3275,3831],[-2230,8690],[-1791,14409]],[[715749,292255],[-2502,10372]],[[713247,302627],[-2530,1271]],[[710717,303898],[-4356,-1757],[-10224,-5569]],[[696137,296572],[-10782,-8765]],[[685355,287807],[168,18390]],[[685523,306197],[-2279,10933],[-3750,7849],[-4335,4691]],[[675159,329670],[4774,18689],[279,9512],[-5701,4598],[-3401,1159],[-1317,6372],[7,7345],[2349,785],[1623,5083],[202,6168],[1576,4709],[7979,4186],[9151,2430],[10147,-2149],[433,4149],[1637,3663],[5994,4354],[5318,112],[11854,-3980]],[[728063,406855],[-2439,-20820]],[[725624,386035],[293,-8802],[2753,-6448],[8196,-6690],[-272,-6896],[1638,-8878],[4718,-4298],[6683,-1944],[35,-4167],[1359,-3252],[3185,-3196],[-390,-6205],[3519,-6242],[-913,-7587],[7959,-6616],[621,-5719],[-28,-9400],[3150,-16091],[5094,-11326],[12510,-15866],[3555,-7775]],[[559413,162013],[-2265,-4168],[-4509,-3102],[-4252,2243],[-4725,-3888],[202,-9736],[-4167,-7551],[-6064,-2336],[-4962,2131],[-16580,-3981],[-6147,-3831],[-8670,-1850],[-7708,-4990],[-11562,-1832],[-11311,-8111],[-8042,-1906],[-5130,2280],[-23542,46759],[-4245,2449],[-38728,-15232],[-8210,-2541],[-14405,-1795],[-37021,77783],[-11744,11027]],[[315626,229835],[9472,18726],[22803,51282],[25585,37975],[2090,17755],[2642,34705],[2509,15979],[7408,5438],[17103,7307],[8948,-18]],[[414186,418984],[5304,-1907],[28783,187]],[[448273,417264],[-3345,-18203],[-8530,-34406],[-5018,-23099],[31180,2000],[8600,-3289],[5660,-7308],[3122,-10241],[4272,-21922],[11492,1850],[12928,4635],[16399,15082],[6684,3214],[26316,7345]],[[558033,332922],[9785,-10298]],[[567818,322624],[6711,-14577]],[[574529,308047],[1527,-22071],[-1332,-11718],[-5610,-15026],[-5178,-6466]],[[563936,252766],[-4049,-7289],[-3499,-3588],[-962,-5439],[1255,-6914],[5283,-12410],[1122,-4840],[-1575,-12167],[1867,-15773],[-1240,-6597],[-133,-5308],[-2592,-10428]],[[448273,417264],[22922,1589],[18183,4597],[6733,281],[1129,13512],[1331,6671],[4439,3103]],[[503010,447017],[6119,916],[22825,429]],[[531954,448362],[4774,-5270],[5011,-9251],[-802,-13680],[2474,-3831],[4224,-3196],[6830,-2429],[13799,3775],[1450,3681],[-690,7850],[250,7475],[1840,3644],[9005,2860],[4223,-2542],[3255,-6223],[2007,-12466],[1805,-7251],[3220,-6055]],[[594629,405453],[690,-6616],[-4328,-7139],[-7429,-7027],[-5492,-1271],[-7437,486],[-6411,-3027],[-878,-3308],[-279,-20128],[-1345,-11569],[-3687,-12932]],[[444649,923487],[4161,-411],[7980,4710],[6878,-1028],[5430,1981],[6725,-1626],[8468,-6130],[6509,-7214],[5178,-8728],[6537,1084],[10852,15269],[1066,18876],[17514,22576],[36735,34611],[12092,2542],[10321,-336],[6830,-4990],[10559,-15568],[12454,-12858],[7499,-1682],[13897,3439],[1882,-10429],[4481,-1588],[3721,-6373],[3457,-12596],[19835,-43246],[6558,-20913],[-3582,-7027],[-621,-6485],[-1317,-3887],[-3422,-5588],[-2976,-1981],[-1101,-8204],[2070,-10373],[-913,-8503],[-5499,-13960],[2328,-11513]],[[667235,795338],[-17221,-9606]],[[650014,785732],[-21633,-7961],[-20943,-5775]],[[607438,771996],[-13457,-1308],[-42855,-14428],[-4655,-2504],[-4175,-9027],[-18761,-10372],[-3527,-4074],[6809,-6560],[1792,-4485],[-14357,-51937],[-41307,-23660],[-26707,-9718],[-22204,-11176],[-2181,-6914],[-328,-10074],[-8830,-6018],[-195,-12502],[-39907,-41602],[-8126,-2859],[-8495,-561],[-4907,1832],[-3331,5719],[-4035,10054],[-15096,-2373],[-2446,-7476],[-1136,-9232],[153,-14409],[2021,-22146],[-5415,-8971],[-15848,-20389],[-8084,168],[-6475,3177],[-14963,-4429],[-13869,2448],[-10259,3887],[-10468,6280],[-10509,1551],[-13772,-4672],[-21284,-12316],[-23389,-6691],[-13953,-10484],[-3477,-4074],[1707,-4747],[4203,-6579],[15555,-13269],[4286,-4934],[2621,-8615],[-5910,-19493],[-2481,-17810],[-363,-6298],[1422,-6336],[16343,-34592],[9339,-14821],[5025,-7419]],[[207177,304758],[24588,-26445],[-23989,-2897],[-78426,3308],[-7255,1458],[-1888,3009],[-5562,4149],[-17758,-2822],[-16824,3738],[-5631,4242],[-7032,22184],[-3310,7307],[-3429,-2392],[-4217,-823],[-1721,19082],[-4816,11942],[-2962,11138],[-3366,6915],[-8042,916],[2975,14185],[-2118,28930],[-2816,13792],[-7987,6616],[-8516,4672],[-13144,15830],[-418,7643],[10237,14727],[-8007,7345],[-5743,11307],[1624,5457],[3910,5232],[15632,13961],[-12510,24856],[2202,1570],[955,5083],[-4419,7850],[2565,9251],[13319,14801],[21395,31360],[1736,12035],[-1882,12690],[-4168,19530],[11263,12390],[3436,5962],[1080,8765],[2237,6971],[4481,8111],[3861,-392],[3910,2336],[2161,6373],[6356,12652],[5686,-1140],[13632,5719],[8280,93],[4983,2448]],[[551851,494318],[-2063,916],[1812,2037],[614,-617],[-363,-2336]],[[414186,418984],[-599,10746],[-4147,16203],[-7575,22781],[641,4187],[10175,11437],[19612,17680],[15151,11867],[22107,12354],[2592,-2710],[3331,579],[3185,8298],[3137,4728],[3798,206],[12120,8484],[1686,5046],[481,31996],[732,3438],[40122,30762],[31968,21343],[6092,8260],[35076,33341]],[[613871,680010],[2600,1383]],[[616471,681393],[3003,-5140],[10169,-6840],[2390,-8335],[300,-76362],[-1805,-18689],[83,-14166],[1924,-13045],[-9360,-16652],[4028,-8447],[-947,-5420],[-11695,-17305],[35,-14372]],[[614596,476620],[2502,-29659]],[[617098,446961],[-1450,-4542],[-7290,-4803],[-2564,-8783],[-2983,-22446],[-8182,-934]],[[531954,448362],[-28944,-1345]],[[625949,62607],[-3387,-1719],[-8245,-19380],[-3680,-2710],[-1373,-8709],[-3986,-9999],[-5213,-6092],[-2941,-12596],[-2823,-1402],[-10879,318],[-1638,4093],[-4390,-2505],[-2941,-56],[-3088,4934],[-1826,5083],[4705,2822],[2641,6579],[-523,5756],[3318,6111],[-885,7887],[-2565,8653],[-1053,6765],[-1923,5588],[-132,4840],[822,10279],[-1575,3607],[-3129,-1869],[-2433,5028],[1220,7288],[-286,7046],[-6488,4934],[-892,4373],[4314,6709],[-300,7756],[1854,7177],[3498,3924],[4377,11251]],[[574104,144371],[4900,3569],[4105,-766],[8767,-5532],[5143,112],[9688,3682],[1073,-4149],[5952,-6074],[306,-5307],[1652,-5532],[2572,411]],[[618262,124785],[1777,2205],[1415,3645]],[[621454,130635],[-439,6129],[404,3981],[1756,972],[2216,-3214]],[[625391,138503],[711,-9887],[7869,860],[4000,-1047],[265,-3737],[-3527,-7513],[-7743,-9363],[-1484,-8205]],[[625482,99611],[49,-10989],[-648,-9643],[62,-6784]],[[624945,72195],[1004,-9588]],[[685523,306197],[139,-8335],[-808,-16671]],[[684854,281191],[-1541,-6260],[-2404,-4654],[-11088,-3682],[-7590,-467],[-9604,-3775]],[[652627,262353],[-15806,-168],[-4662,-1981],[-18483,-15736],[-8168,-2037],[-4502,6971],[-3736,3214],[-12949,-6055],[-11241,2205],[-4063,2878],[-5081,1122]],[[574529,308047],[-3777,8634]],[[570752,316681],[2558,2860],[3387,355],[948,1570],[-1192,7980],[5701,2597],[3045,-6634],[481,-4747],[-251,-4112],[1457,-2635],[2725,-1476],[1352,2766],[383,8896],[5436,6859],[4753,2392],[3659,224],[5687,-3607],[3318,3607],[2899,1028],[43377,-916],[14684,-4018]],[[570752,316681],[-2934,5943]],[[617098,446961],[2432,-7401],[8259,1420],[82091,-5625]],[[709880,435355],[24240,2579]],[[734120,437934],[-6057,-31079]],[[607438,771996],[27257,8017]],[[634695,780013],[649,-39620],[-3694,-33471],[989,-7756],[-3449,-8317],[-3339,-5307]],[[625851,685542],[-11980,-5532]],[[315626,229835],[-6000,1532],[-13019,14839],[-10586,1514],[-27836,8690],[-13437,5569],[-8007,5121],[-2621,8578],[-26943,29080]],[[725624,386035],[1812,16615],[1498,10054],[5186,25230]],[[734120,437934],[28790,4467]],[[762910,442401],[3380,24874],[6802,21679],[7757,20558],[56047,-10596],[41210,-15493],[13325,-7439],[5485,1757]],[[896916,477741],[-4293,-8036]],[[892623,469705],[-4286,-43732],[-11995,-84436],[-3289,-28780],[-1080,-20726],[-1185,-4654],[-1715,-3420],[-20364,7382],[-5854,-1457],[-4725,-3402],[-3492,-6186],[-104,-12185]],[[834534,268109],[-7228,-8634],[-48,-12503],[-955,-8597],[-3004,-2597],[-4328,822],[-5464,-4710],[-4370,281],[-2181,-3233],[230,-4972],[-1436,-4223],[-3247,-785],[-6322,6279],[-5178,19],[-1742,4522],[488,3252],[-460,5607]],[[652627,262353],[-3958,-9737],[-84,-9643],[1324,-18054],[-446,-17604],[4189,-9924]],[[653652,197391],[-2216,-8447]],[[651436,188944],[188,-6915],[-1059,-5233],[-12420,-22128],[-12754,-16165]],[[621454,130635],[-3192,-5850]],[[574104,144371],[-2983,-7588],[175,4448],[-3617,5476],[-5004,13904],[-3262,1402]],[[901390,182739],[-2544,9419],[-3700,9214],[-8817,8185],[-3275,7588],[-3784,3289],[-4921,2822],[-6042,1290],[-11827,-2934],[-13730,467],[-1679,3513],[-767,5495],[997,5831],[2174,5120],[3129,3476],[1966,4019],[-2384,4186],[-3101,2429],[-6286,131]],[[836799,256279],[-3694,4841]],[[833105,261120],[1429,6989]],[[892623,469705],[8321,14110]],[[900944,483815],[4467,-6653],[2356,-7382],[941,-12914],[8056,-4878],[30749,-6747],[4112,-8316],[8050,-9644],[9966,-5045],[14761,3494],[6202,-2541],[4398,-5196],[3701,-6391],[1233,-14054],[-2104,-11008],[223,-5121],[1944,-9550],[-362,-4223],[-1213,-3906],[-4049,-3009],[-11493,-2355],[-6314,-4784],[258,-5271],[2655,-10092],[-2028,-2541],[-6781,-766],[-906,-4710],[-2397,-2990],[-2530,766],[-2635,-4953],[-9743,-33826],[-676,-4486],[-4418,-2990],[-3025,-3868],[-3603,-8672],[-1359,-7606],[3903,-561],[7736,2448],[1784,-1812],[1373,-8466],[-7945,-27529],[-474,-5980],[-4342,-10429],[-2878,-1401],[-3722,1981],[-2711,3607],[-9088,-10971],[-17486,-14072],[-4140,-5663]],[[692346,186421],[-6224,-10205],[-6565,7027],[-4760,15194],[10607,5215],[4914,-6074],[2028,-11157]],[[624945,72195],[537,27416]],[[651436,188944],[1909,5905],[307,2542]],[[684854,281191],[501,6616]],[[696137,296572],[14580,7326]],[[713247,302627],[1226,-4672],[1276,-5700]],[[772904,211800],[5861,5083]],[[778765,216883],[516,-6784],[1812,-4149],[-5332,-6130],[-1268,-2822],[84,-3793],[1080,-4878],[-704,-3327],[787,-3756],[1826,-3439]],[[777566,177805],[-390,-11213],[-2049,-8784],[-5485,-822],[-3415,-4355],[-2279,-5550],[-7680,-3626],[-1672,-5551],[-4071,-1457],[-2062,-2897],[-286,-8429],[-1150,-2616],[-14838,-7158],[-578,-3999],[2787,-5887],[3889,-2224],[-3505,-2691],[-3631,1270],[-18713,-1738],[-13360,-7195],[-7652,-6373],[-3485,1776],[-4119,-168],[-7436,-2505],[-10531,-11979],[-9150,-7158],[-6907,-9195],[-5868,-1009],[-9221,10671],[-8760,-4336]],[[667235,795338],[2377,-8727],[43265,2317],[13402,-766],[5924,691],[7269,4560],[15681,3794],[40875,3009],[35251,-11587],[7966,-4504],[3227,-8709],[1094,-10298],[292,-16408],[19591,897],[3952,-1944],[14684,-51917],[9255,-22614],[2760,-4335],[24247,3550],[13185,3869],[10231,710],[1812,-4242],[-411,-7700],[1527,-7924],[7631,-12895],[5673,-6803],[1401,-4336],[-98,-7102],[-11088,-9699],[-8398,-4411],[-15082,-32200],[-20831,-30968],[-6091,-12633],[-1108,-5644],[2265,-18839],[1289,-24444],[690,-3271]],[[900944,483815],[-4028,-6074]],[[762910,442401],[-53030,-7046]],[[617098,446961],[-767,5700],[-1735,23959]],[[616471,681393],[9380,4149]],[[634695,780013],[15319,5719]],[[778765,216883],[2314,1402]],[[833105,261120],[1463,-2710],[2231,-2131]],[[901390,182739],[-8224,-11101],[-9192,-5943],[-2495,18],[-4098,-4055],[-502,4691],[376,6148],[-1017,6822],[-2175,3906],[-15478,-13288],[676,12634],[-5374,-1682],[-7847,1607],[-1108,-10185],[-1108,-4112],[-8426,-5345],[-3987,1271],[-4599,-2019],[-6154,-243],[-2070,3738],[2725,8578],[-558,3140],[-5073,1290],[-6120,-2318],[-3031,1196],[-2614,-5120],[-4272,-3514],[-5729,-3270],[-4202,990],[-5471,11344],[-3931,3159],[-2746,-3271]]],"bbox":[75.0364,55.6644,89.385,61.0152],"transform":{"scale":[0.000014348614348614355,0.00000535080535080535],"translate":[75.0364,55.6644]}}