{"type":"Topology","objects":{"muni":{"type":"GeometryCollection","geometries":[{"type":"MultiPolygon","arcs":[[[0]]],"properties":{"GID_2":"RUS.70.1_1","GID_0":"RUS","COUNTRY":"Russia","GID_1":"RUS.70_1","NAME_1":"Tula","NL_NAME_1":"Тульскаяобласть","NAME_2":"Aleksin","VARNAME_2":"NA","NL_NAME_2":"Але́ксин","TYPE_2":"Gorod","ENGTYPE_2":"City","CC_2":"NA","HASC_2":"RU.TL.AG"}},{"type":"MultiPolygon","arcs":[[[1,2,3,4,5],[-1]]],"properties":{"GID_2":"RUS.70.2_1","GID_0":"RUS","COUNTRY":"Russia","GID_1":"RUS.70_1","NAME_1":"Tula","NL_NAME_1":"Тульскаяобласть","NAME_2":"Aleksinskiyrayon","VARNAME_2":"NA","NL_NAME_2":"Алексинскийрайон","TYPE_2":"Raion","ENGTYPE_2":"District","CC_2":"R19000","HASC_2":"RU.TL.AR"}},{"type":"MultiPolygon","arcs":[[[6,7,8,9,10,11]]],"properties":{"GID_2":"RUS.70.3_1","GID_0":"RUS","COUNTRY":"Russia","GID_1":"RUS.70_1","NAME_1":"Tula","NL_NAME_1":"Тульскаяобласть","NAME_2":"Arsen'evskiyrayon","VARNAME_2":"NA","NL_NAME_2":"Арсеньевскийрайон","TYPE_2":"Raion","ENGTYPE_2":"District","CC_2":"R19000","HASC_2":"RU.TL.AN"}},{"type":"MultiPolygon","arcs":[[[12,13,14,-8,15]]],"properties":{"GID_2":"RUS.70.4_1","GID_0":"RUS","COUNTRY":"Russia","GID_1":"RUS.70_1","NAME_1":"Tula","NL_NAME_1":"Тульскаяобласть","NAME_2":"Belevskiyrayon","VARNAME_2":"NA","NL_NAME_2":"Белевскийрайон","TYPE_2":"Raion","ENGTYPE_2":"District","CC_2":"R19000","HASC_2":"RU.TL.BE"}},{"type":"MultiPolygon","arcs":[[[16,17,18,19,20,21,22,23]]],"properties":{"GID_2":"RUS.70.5_1","GID_0":"RUS","COUNTRY":"Russia","GID_1":"RUS.70_1","NAME_1":"Tula","NL_NAME_1":"Тульскаяобласть","NAME_2":"Bogoroditskiyrayon","VARNAME_2":"NA","NL_NAME_2":"Богородицкийрайон","TYPE_2":"Raion","ENGTYPE_2":"District","CC_2":"R19000","HASC_2":"RU.TL.BG"}},{"type":"MultiPolygon","arcs":[[[24,-12,25,26,27,28]]],"properties":{"GID_2":"RUS.70.6_1","GID_0":"RUS","COUNTRY":"Russia","GID_1":"RUS.70_1","NAME_1":"Tula","NL_NAME_1":"Тульскаяобласть","NAME_2":"Chernskiyrayon","VARNAME_2":"NA","NL_NAME_2":"Чернскийрайон","TYPE_2":"Raion","ENGTYPE_2":"District","CC_2":"R19002","HASC_2":"RU.TL.CH"}},{"type":"MultiPolygon","arcs":[[[29]]],"properties":{"GID_2":"RUS.70.7_1","GID_0":"RUS","COUNTRY":"Russia","GID_1":"RUS.70_1","NAME_1":"Tula","NL_NAME_1":"Тульскаяобласть","NAME_2":"Donskoy","VARNAME_2":"NA","NL_NAME_2":"Донской","TYPE_2":"Gorsovet","ENGTYPE_2":"District","CC_2":"NA","HASC_2":"RU.TL.DO"}},{"type":"MultiPolygon","arcs":[[[30,31,32,33,34]]],"properties":{"GID_2":"RUS.70.8_1","GID_0":"RUS","COUNTRY":"Russia","GID_1":"RUS.70_1","NAME_1":"Tula","NL_NAME_1":"Тульскаяобласть","NAME_2":"Dubenskiyrayon","VARNAME_2":"NA","NL_NAME_2":"Дубенскийрайон","TYPE_2":"Raion","ENGTYPE_2":"District","CC_2":"R19000","HASC_2":"RU.TL.DU"}},{"type":"MultiPolygon","arcs":[[[35]]],"properties":{"GID_2":"RUS.70.9_1","GID_0":"RUS","COUNTRY":"Russia","GID_1":"RUS.70_1","NAME_1":"Tula","NL_NAME_1":"Тульскаяобласть","NAME_2":"Efremov","VARNAME_2":"Yefremov","NL_NAME_2":"NA","TYPE_2":"Gorod","ENGTYPE_2":"City","CC_2":"NA","HASC_2":"RU.TL.EG"}},{"type":"MultiPolygon","arcs":[[[36,37,38,39,40],[-36]]],"properties":{"GID_2":"RUS.70.10_1","GID_0":"RUS","COUNTRY":"Russia","GID_1":"RUS.70_1","NAME_1":"Tula","NL_NAME_1":"Тульскаяобласть","NAME_2":"Efremovskiyrayon","VARNAME_2":"NA","NL_NAME_2":"Ефремовскийрайон","TYPE_2":"Raion","ENGTYPE_2":"District","CC_2":"R19000","HASC_2":"RU.TL.ER"}},{"type":"MultiPolygon","arcs":[[[-29,41,42,43,-38,44]]],"properties":{"GID_2":"RUS.70.11_1","GID_0":"RUS","COUNTRY":"Russia","GID_1":"RUS.70_1","NAME_1":"Tula","NL_NAME_1":"Тульскаяобласть","NAME_2":"Kamenskiyrayon","VARNAME_2":"NA","NL_NAME_2":"Каменскийрайон","TYPE_2":"Raion","ENGTYPE_2":"District","CC_2":"R19001","HASC_2":"RU.TL.KA"}},{"type":"MultiPolygon","arcs":[[[45]]],"properties":{"GID_2":"RUS.70.12_1","GID_0":"RUS","COUNTRY":"Russia","GID_1":"RUS.70_1","NAME_1":"Tula","NL_NAME_1":"Тульскаяобласть","NAME_2":"Kimovsk","VARNAME_2":"NA","NL_NAME_2":"Кимовск","TYPE_2":"Gorod","ENGTYPE_2":"City","CC_2":"NA","HASC_2":"RU.TL.KG"}},{"type":"MultiPolygon","arcs":[[[46,47,48,-17,49,50],[-46]]],"properties":{"GID_2":"RUS.70.13_1","GID_0":"RUS","COUNTRY":"Russia","GID_1":"RUS.70_1","NAME_1":"Tula","NL_NAME_1":"Тульскаяобласть","NAME_2":"Kimovskiyrayon","VARNAME_2":"NA","NL_NAME_2":"Кимовскийрайон","TYPE_2":"Raion","ENGTYPE_2":"District","CC_2":"R19001","HASC_2":"RU.TL.KR"}},{"type":"MultiPolygon","arcs":[[[-23,51,52,53,54,55,56,57,58,59]]],"properties":{"GID_2":"RUS.70.14_1","GID_0":"RUS","COUNTRY":"Russia","GID_1":"RUS.70_1","NAME_1":"Tula","NL_NAME_1":"Тульскаяобласть","NAME_2":"Kireevskiyrayon","VARNAME_2":"NA","NL_NAME_2":"Киреевскийрайон","TYPE_2":"Raion","ENGTYPE_2":"District","CC_2":"R19001","HASC_2":"RU.TL.KI"}},{"type":"MultiPolygon","arcs":[[[-41,60,61,-19,62,-48,63]]],"properties":{"GID_2":"RUS.70.15_1","GID_0":"RUS","COUNTRY":"Russia","GID_1":"RUS.70_1","NAME_1":"Tula","NL_NAME_1":"Тульскаяобласть","NAME_2":"Kurkinskiyrayon","VARNAME_2":"NA","NL_NAME_2":"Куркинскийрайон","TYPE_2":"Raion","ENGTYPE_2":"District","CC_2":"R19001","HASC_2":"RU.TL.KU"}},{"type":"MultiPolygon","arcs":[[[-5,64,65,66,-57,67,68,-32],[69]]],"properties":{"GID_2":"RUS.70.16_1","GID_0":"RUS","COUNTRY":"Russia","GID_1":"RUS.70_1","NAME_1":"Tula","NL_NAME_1":"Тульскаяобласть","NAME_2":"Leninskiyrayon","VARNAME_2":"NA","NL_NAME_2":"Ленинскийрайон","TYPE_2":"Raion","ENGTYPE_2":"District","CC_2":"R19001","HASC_2":"RU.TL.LE"}},{"type":"MultiPolygon","arcs":[[[70]]],"properties":{"GID_2":"RUS.70.17_1","GID_0":"RUS","COUNTRY":"Russia","GID_1":"RUS.70_1","NAME_1":"Tula","NL_NAME_1":"Тульскаяобласть","NAME_2":"Novomoskovsk","VARNAME_2":"NA","NL_NAME_2":"Новомосковск","TYPE_2":"Gorod","ENGTYPE_2":"City","CC_2":"NA","HASC_2":"RU.TL.NG"}},{"type":"MultiPolygon","arcs":[[[-51,71,-59,72,73],[-71]]],"properties":{"GID_2":"RUS.70.18_1","GID_0":"RUS","COUNTRY":"Russia","GID_1":"RUS.70_1","NAME_1":"Tula","NL_NAME_1":"Тульскаяобласть","NAME_2":"Novomoskovskiyrayon","VARNAME_2":"NA","NL_NAME_2":"Новомосковскийрайон","TYPE_2":"Raion","ENGTYPE_2":"District","CC_2":"R19001","HASC_2":"RU.TL.NR"}},{"type":"MultiPolygon","arcs":[[[-9,-15,74,75,-34,76,77]]],"properties":{"GID_2":"RUS.70.19_1","GID_0":"RUS","COUNTRY":"Russia","GID_1":"RUS.70_1","NAME_1":"Tula","NL_NAME_1":"Тульскаяобласть","NAME_2":"Odoevskiyrayon","VARNAME_2":"NA","NL_NAME_2":"Одоевскийрайон","TYPE_2":"Raion","ENGTYPE_2":"District","CC_2":"R19001","HASC_2":"RU.TL.OD"}},{"type":"MultiPolygon","arcs":[[[78,-10,-78,79,80,-27]]],"properties":{"GID_2":"RUS.70.20_1","GID_0":"RUS","COUNTRY":"Russia","GID_1":"RUS.70_1","NAME_1":"Tula","NL_NAME_1":"Тульскаяобласть","NAME_2":"Plavskiyrayon","VARNAME_2":"NA","NL_NAME_2":"Плавскийрайон","TYPE_2":"Raion","ENGTYPE_2":"District","CC_2":"R19001","HASC_2":"RU.TL.PL"}},{"type":"MultiPolygon","arcs":[[[-33,-69,81,-55,82,83,-80,-77],[84]]],"properties":{"GID_2":"RUS.70.21_1","GID_0":"RUS","COUNTRY":"Russia","GID_1":"RUS.70_1","NAME_1":"Tula","NL_NAME_1":"Тульскаяобласть","NAME_2":"Shchekinskiyrayon","VARNAME_2":"NA","NL_NAME_2":"Щекинскийрайон","TYPE_2":"Raion","ENGTYPE_2":"District","CC_2":"R19002","HASC_2":"RU.TL.SR"}},{"type":"MultiPolygon","arcs":[[[-85]]],"properties":{"GID_2":"RUS.70.22_1","GID_0":"RUS","COUNTRY":"Russia","GID_1":"RUS.70_1","NAME_1":"Tula","NL_NAME_1":"Тульскаяобласть","NAME_2":"Shchykino","VARNAME_2":"Shchekino","NL_NAME_2":"Щёкино","TYPE_2":"Gorsovet","ENGTYPE_2":"District","CC_2":"NA","HASC_2":"RU.TL.SG"}},{"type":"MultiPolygon","arcs":[[[85,-35,-76,86,-13]]],"properties":{"GID_2":"RUS.70.23_1","GID_0":"RUS","COUNTRY":"Russia","GID_1":"RUS.70_1","NAME_1":"Tula","NL_NAME_1":"Тульскаяобласть","NAME_2":"Suvorovskiyrayon","VARNAME_2":"NA","NL_NAME_2":"Суворовскийрайон","TYPE_2":"Raion","ENGTYPE_2":"District","CC_2":"R19001","HASC_2":"RU.TL.SU"}},{"type":"MultiPolygon","arcs":[[[-21,87,88,-42,-28,-81,-84,89,-53]]],"properties":{"GID_2":"RUS.70.24_1","GID_0":"RUS","COUNTRY":"Russia","GID_1":"RUS.70_1","NAME_1":"Tula","NL_NAME_1":"Тульскаяобласть","NAME_2":"Teplo-Ogarevskiyrayon","VARNAME_2":"NA","NL_NAME_2":"Тепло-Огаревскийрайон","TYPE_2":"Raion","ENGTYPE_2":"District","CC_2":"R19001","HASC_2":"RU.TL.TE"}},{"type":"MultiPolygon","arcs":[[[-70]]],"properties":{"GID_2":"RUS.70.25_1","GID_0":"RUS","COUNTRY":"Russia","GID_1":"RUS.70_1","NAME_1":"Tula","NL_NAME_1":"Тульскаяобласть","NAME_2":"Tula","VARNAME_2":"NA","NL_NAME_2":"Тула","TYPE_2":"Gorsovet","ENGTYPE_2":"District","CC_2":"NA","HASC_2":"RU.TL.TU"}},{"type":"MultiPolygon","arcs":[[[90]]],"properties":{"GID_2":"RUS.70.26_1","GID_0":"RUS","COUNTRY":"Russia","GID_1":"RUS.70_1","NAME_1":"Tula","NL_NAME_1":"Тульскаяобласть","NAME_2":"Uzlovaya","VARNAME_2":"NA","NL_NAME_2":"Узловая","TYPE_2":"Gorsovet","ENGTYPE_2":"District","CC_2":"NA","HASC_2":"RU.TL.UG"}},{"type":"MultiPolygon","arcs":[[[-24,-60,-72,-50],[-30],[-91]]],"properties":{"GID_2":"RUS.70.27_1","GID_0":"RUS","COUNTRY":"Russia","GID_1":"RUS.70_1","NAME_1":"Tula","NL_NAME_1":"Тульскаяобласть","NAME_2":"Uzlovskiyrayon","VARNAME_2":"NA","NL_NAME_2":"Узловскийрайон","TYPE_2":"Raion","ENGTYPE_2":"District","CC_2":"R19002","HASC_2":"RU.TL.UR"}},{"type":"MultiPolygon","arcs":[[[91,-73,-58,-67,92]]],"properties":{"GID_2":"RUS.70.28_1","GID_0":"RUS","COUNTRY":"Russia","GID_1":"RUS.70_1","NAME_1":"Tula","NL_NAME_1":"Тульскаяобласть","NAME_2":"Venevskiyrayon","VARNAME_2":"NA","NL_NAME_2":"Веневскийрайон","TYPE_2":"Raion","ENGTYPE_2":"District","CC_2":"R19000","HASC_2":"RU.TL.VE"}},{"type":"MultiPolygon","arcs":[[[-20,-62,93,-39,-44,94,-88]]],"properties":{"GID_2":"RUS.70.29_1","GID_0":"RUS","COUNTRY":"Russia","GID_1":"RUS.70_1","NAME_1":"Tula","NL_NAME_1":"Тульскаяобласть","NAME_2":"Volovskiyrayon","VARNAME_2":"NA","NL_NAME_2":"Воловскийрайон","TYPE_2":"Raion","ENGTYPE_2":"District","CC_2":"R19000","HASC_2":"RU.TL.VO"}},{"type":"MultiPolygon","arcs":[[[-93,-66,95,96,97,98]]],"properties":{"GID_2":"RUS.70.30_1","GID_0":"RUS","COUNTRY":"Russia","GID_1":"RUS.70_1","NAME_1":"Tula","NL_NAME_1":"Тульскаяобласть","NAME_2":"Yasnogorskiyrayon","VARNAME_2":"NA","NL_NAME_2":"Ясногорскийрайон","TYPE_2":"Raion","ENGTYPE_2":"District","CC_2":"R19002","HASC_2":"RU.TL.YA"}},{"type":"MultiPolygon","arcs":[[[99,-98,100,-2]]],"properties":{"GID_2":"RUS.70.31_1","GID_0":"RUS","COUNTRY":"Russia","GID_1":"RUS.70_1","NAME_1":"Tula","NL_NAME_1":"Тульскаяобласть","NAME_2":"Zaokskiyrayon","VARNAME_2":"NA","NL_NAME_2":"Заокскийрайон","TYPE_2":"Raion","ENGTYPE_2":"District","CC_2":"R19000","HASC_2":"RU.TL.ZA"}}]}},"arcs":[[[385491,802118],[-3180,-905],[-909,3993],[4674,-426],[-585,-2662]],[[419571,941332],[21000,-58986],[25706,9157],[13437,-18900],[-28952,-38543],[18793,-9583],[23531,-479]],[[493086,823998],[17137,-15385]],[[510223,808613],[-35865,-39821]],[[474358,768792],[-17234,-1012],[-584,-13362],[-12074,-5217],[-30185,-41738]],[[414281,707463],[-72185,-426],[-11911,16557],[9574,58134],[-32392,4632],[-9509,31250],[28432,18580],[-11555,24914],[37066,8944],[32846,-28269],[23986,42590],[8796,34550],[2142,22413]],[[144012,263469],[-19118,19005],[-8276,25820]],[[116618,308294],[14573,42643],[-17072,1224],[-6135,21614],[5518,15013],[22622,20017],[8861,23424],[14671,-3514],[11879,11500]],[[171535,440215],[29276,5430],[9218,-12884],[11003,480],[8763,15438],[48459,-4951],[19766,-16343],[28043,-3408]],[[326063,423977],[5128,-13202],[14248,-2715],[-7497,-13256],[1006,-16504]],[[338948,378300],[-39468,-37319]],[[299480,340981],[-35670,479],[-25284,-28534],[-28951,3779],[-23759,-16876],[-11327,-22891],[-14995,-1491],[-15482,-11978]],[[74294,555100],[60467,-26725],[13827,9316]],[[148588,537691],[35865,-23105]],[[184453,514586],[-10256,-11233],[-17819,-3620],[-260,-10487],[10419,-5058],[-5356,-22519],[10354,-21454]],[[116618,308294],[-46381,13629],[-14898,13522],[-18500,-5484],[-6459,33273],[-7141,1704],[10257,7559],[14118,18953],[-15709,18633],[-14151,1490],[-17397,17622],[15709,19591],[-16066,21348],[30574,17408],[-11522,17249],[25868,20975],[26420,-5377],[-3992,29121],[6946,5590]],[[827847,421103],[18501,-34870],[17494,-1598],[26874,-33805]],[[890716,350830],[-51119,4046]],[[839597,354876],[-16586,-4951],[-23174,-15864],[-8342,-16930]],[[791495,317131],[-28367,11340],[-21422,-5590],[-14638,10115],[552,8784],[-16553,26033],[-34988,3833],[-21974,13735]],[[654105,385381],[-14930,22838],[8082,11499],[-14184,12245]],[[633073,431963],[39825,639]],[[672898,432602],[6783,16184],[-11165,16503],[18079,19325]],[[686595,484614],[30834,-37106],[16910,4898],[36027,26991],[28562,-4366],[-292,-23583],[4739,-19698],[24472,-10647]],[[513145,169293],[-17625,5270],[-9607,12298],[-40344,639],[-2110,-24649],[-30444,-10381],[-25187,17834],[-41220,3674],[-5453,10274],[-14216,-13256],[-59429,16664],[-15741,41258],[-12204,4898],[6816,9636],[-59883,-10435],[-42486,30452]],[[299480,340981],[27167,26406]],[[326647,367387],[20091,-16024],[20805,-6921],[9412,-17568],[16326,-4206],[-4187,-17621],[29081,-35296],[53035,-54568]],[[471210,215183],[16294,-10594],[21778,-2981]],[[509282,201608],[4025,-8625],[-162,-23690]],[[780071,536733],[-2694,1011],[1525,1278],[1169,-2289]],[[279000,703098],[95716,6761],[39565,-2396]],[[414281,707463],[3213,-36520],[9153,-12511],[-6102,-66599]],[[420545,591833],[-23694,-5856],[-45277,-20922]],[[351574,565055],[-45245,-4632],[-26323,19059],[227,28162],[-16585,1810]],[[263648,609454],[10841,5750],[-20351,27310],[15936,6069],[14217,18420],[-585,19006],[-4706,17089]],[[695228,93590],[-4609,-852],[1591,4579],[3018,-3727]],[[847484,195592],[16975,-28908],[14281,-6708],[9704,-31622],[-24083,-6708],[24538,-11552],[15320,-25927],[-15807,-13841],[1136,-15492],[-12301,3460],[1460,-22572],[-23271,-2768],[-4187,30132],[-13145,-1598],[-649,-24063],[-14898,-16343],[-15580,6016],[-843,-16823],[-27394,-10275],[-5615,28269],[-9737,25820],[-18825,2661],[-14476,-10594],[-22428,11286],[-29893,-9742],[-4706,12458],[-29666,638],[3019,-25819],[-19409,-533],[-13600,22945]],[[613404,57389],[55209,76288],[-7205,29973],[12463,20070]],[[673871,183720],[7109,5057],[2986,13416],[27198,15545],[24376,-24329],[19896,1650]],[[755436,195059],[23142,17941]],[[778578,213000],[17883,-745],[18111,-11765],[10549,22199],[9672,1544],[6848,-24223],[5843,-4418]],[[509282,201608],[22720,3141],[28367,13202],[38884,3194],[2889,29174]],[[602142,250319],[24310,-8624]],[[626452,241695],[26485,-20443],[5485,-23371],[15449,-14161]],[[613404,57389],[-11976,27630],[-19215,15385],[-18241,-18047],[-18370,12724],[-8504,5856],[-2791,25341],[2369,46901],[-19896,6176],[-3635,-10062]],[[842940,535349],[-4674,1064],[1947,2449],[2727,-3513]],[[913631,573306],[11652,-4684],[-9445,-11287],[18208,-7985],[-2304,-23477],[12463,-10115],[31321,5909],[-28919,-20177],[5745,-28056],[-15806,-11179],[10224,-4792],[17137,1810],[1103,-7879],[-11976,-11126],[8731,-17142],[38234,1224],[-20902,-24116],[-7076,-35456]],[[972021,364778],[-51249,-12990]],[[920772,351788],[-30056,-958]],[[827847,421103],[3863,14001],[16618,5004],[11717,34711],[-46446,55472],[6881,28482],[11619,12351]],[[832099,571124],[53587,-9743],[27945,11925]],[[672898,432602],[-9608,-2236],[-30217,1597]],[[633073,431963],[-17332,17728],[-16066,-5537]],[[599675,444154],[-6037,-8252]],[[593638,435902],[-17494,33007],[-1786,101044]],[[574358,569953],[9510,-4685]],[[583868,565268],[19150,11446],[14833,43547],[34015,7507],[-65,9210],[-17073,20017],[-5712,15438],[18273,22413],[27816,1278]],[[675105,696124],[10191,-13203],[16716,692],[4154,-9742],[-16520,-20071],[-8050,-20070],[5648,-19697],[34664,-19166]],[[721908,594867],[-2175,-5110]],[[719733,589757],[-13762,1810],[-9120,-5643],[-3927,-55367],[-9088,-15332],[17494,-15013],[-195,-9263],[-14540,-6335]],[[778578,213000],[-15223,-10860]],[[763355,202140],[-16261,13895],[1071,6282],[30120,11126],[33756,67930],[-20546,15758]],[[839597,354876],[81175,-3088]],[[972021,364778],[-2304,-40779],[-1753,-20283],[-19442,12776],[-26907,-11445],[-12398,-17622],[22071,-12244],[-12204,-5697],[21064,-47593],[-26744,-8412],[-11425,-9955],[-29666,2342],[-24829,-10274]],[[474358,768792],[27492,27896]],[[501850,796688],[46965,-10541],[7432,-10009],[-4803,-16876],[-649,-17621],[13210,-11393],[19604,-5430],[22947,24649],[779,16131],[10451,3886],[30152,-13682]],[[647938,755802],[1428,-24489],[32328,-12244],[8341,-14907],[-14930,-8038]],[[583868,565268],[-39889,22998]],[[543979,588266],[-37585,15226],[-36774,-852],[-2013,15119],[-14053,6069],[-21130,-37958],[-11879,5963]],[[579746,651192],[13600,20390],[-44272,12617],[-36189,-37745],[909,-32634],[49399,21507],[9672,-20815],[22753,-13097],[1785,3514],[-17657,46263]],[[739305,601203],[-5096,-107],[1006,6974],[5258,-2875],[-1168,-3992]],[[832099,571124],[-14411,13948],[-15222,-2502],[-20902,-28535],[-16683,-3141],[-42227,24595],[-2921,14268]],[[721908,594867],[20513,22892],[21551,12351],[18922,-1011],[30023,-10648],[8342,3301],[-6914,23584],[17040,3833],[12723,15651],[-10548,11180],[616,28695]],[[834176,704695],[57352,-25128],[12074,-2662],[-357,-29919],[33982,-13149],[-11522,-26193],[-26193,320],[-422,-28801],[14541,-5857]],[[184453,514586],[-18858,13203]],[[165595,527789],[-1428,26406],[25804,26405],[12171,17355],[28432,17781],[13016,2236],[20058,-8518]],[[351574,565055],[-4836,-28801],[19636,-14694],[-2239,-16609],[21129,-6176],[33,-12617],[17526,-22413]],[[402823,463745],[-10126,-17302],[-20124,-9582],[-4901,-16930],[-23726,13043],[-10678,-1597],[-7205,-7400]],[[326647,367387],[12301,10913]],[[402823,463745],[44726,1704],[17267,-11127],[-15157,-42110],[4219,-8039],[20773,1597],[36254,-22359]],[[510905,383411],[-24148,-21880],[3765,-5430],[12885,-2343],[15969,-23690],[-29828,-24862],[-16098,-26245],[7367,-9051],[-9607,-54727]],[[543979,588266],[30379,-18313]],[[593638,435902],[-23045,-28268]],[[570593,407634],[-59688,-24223]],[[546575,534603],[-2531,3141],[-2824,-3620],[5355,479]],[[74294,555100],[-3311,12084],[9543,15599],[12139,1490],[10548,15705],[-19149,5909],[-13373,-6494],[-31126,7932],[28724,3567],[6200,12297],[-36677,20284],[29374,3407],[24343,-11287],[3667,12831],[28562,29333],[11003,-9583],[9283,7347],[16196,-5803],[28302,32315],[21714,-1384],[24667,14267],[18923,-14587],[25154,2769]],[[165595,527789],[-17007,9902]],[[654105,385381],[-24700,-47274],[-14995,-4792],[-33365,-75064]],[[581045,258251],[21097,-7932]],[[570593,407634],[29082,36520]],[[728821,553715],[357,-3992],[-3505,53],[-357,4578],[3505,-639]],[[703375,924882],[5258,-2768],[8958,2981],[10029,-15066],[3181,798],[28367,-25287],[15839,15066],[11977,-8731],[14735,-1863],[6459,-4951],[10159,7080],[13113,0],[9023,-18473],[-7725,-24276],[-3959,-3087],[-33,-7773],[-29990,-5537],[2824,-10487],[10613,-11872],[-4090,-18154],[9867,-6069],[2986,-7027],[-4089,-10328],[22135,-15066],[4837,-12351],[-15872,-16077],[6199,-20869]],[[647938,755802],[29569,12830],[24991,22519],[1104,17196],[-35475,27470],[-4674,13841],[16845,18846],[21227,4472],[10224,16291],[-15158,16769],[1915,15918],[4869,2928]],[[763355,202140],[-7919,-7081]],[[626452,241695],[-45407,16556]],[[501850,796688],[8373,11925]],[[510223,808613],[-5420,7453]],[[504803,816066],[16034,10914],[18046,-10648],[12496,49510],[19085,9264],[26484,2448],[8537,9477],[-34145,39448]],[[571340,926479],[22752,3514],[12788,12883],[-714,11286],[5453,2236],[974,5324],[-3830,3354],[-98,8038],[4350,4366],[-7238,9423],[1493,2821],[50341,10275],[17981,-6388],[4219,-8465],[-2499,-16184],[19701,-17408],[747,-13682],[-5550,-1331],[454,-4312],[10711,-7347]],[[419571,941332],[6199,56697],[22655,-2076],[-2564,-7240],[9835,-3993],[1460,9796],[47225,-5856],[8601,-18474],[13405,-5589],[-2467,-24330],[9510,-9263],[18209,7879],[19701,-12404]],[[504803,816066],[-11717,7932]]],"bbox":[35.9261,52.9528,39.0071,54.8312],"transform":{"scale":[0.0000030810030810030843,0.0000018784018784018775],"translate":[35.9261,52.9528]}}