{"type":"Topology","objects":{"muni":{"type":"GeometryCollection","geometries":[{"type":"MultiPolygon","arcs":[[[0,1,2,3,4,5,6,7]]],"properties":{"GID_2":"RUS.71.1_1","GID_0":"RUS","COUNTRY":"Russia","GID_1":"RUS.71_1","NAME_1":"Tuva","NL_NAME_1":"РеспубликаТыва","NAME_2":"Barun-Khemchikskiyrayon","VARNAME_2":"NA","NL_NAME_2":"Барун-Хемчикскийрайон","TYPE_2":"Raion","ENGTYPE_2":"District","CC_2":"R61000","HASC_2":"RU.TU.BK"}},{"type":"MultiPolygon","arcs":[[[8,-8,9,10]]],"properties":{"GID_2":"RUS.71.2_1","GID_0":"RUS","COUNTRY":"Russia","GID_1":"RUS.71_1","NAME_1":"Tuva","NL_NAME_1":"РеспубликаТыва","NAME_2":"Bay-Tayginskiyrayon","VARNAME_2":"NA","NL_NAME_2":"Бай-Тайгинскийрайон","TYPE_2":"Raion","ENGTYPE_2":"District","CC_2":"R61000","HASC_2":"RU.TU.BT"}},{"type":"MultiPolygon","arcs":[[[11,12,13,14,15,16]]],"properties":{"GID_2":"RUS.71.3_1","GID_0":"RUS","COUNTRY":"Russia","GID_1":"RUS.71_1","NAME_1":"Tuva","NL_NAME_1":"РеспубликаТыва","NAME_2":"Chaa-Khol'skiyrayon","VARNAME_2":"NA","NL_NAME_2":"Чаа-Хольскийрайон","TYPE_2":"Raion","ENGTYPE_2":"District","CC_2":"R61000","HASC_2":"RU.TU.CA"}},{"type":"MultiPolygon","arcs":[[[17,18,19,20,21,22,23,24,25,26]]],"properties":{"GID_2":"RUS.71.4_1","GID_0":"RUS","COUNTRY":"Russia","GID_1":"RUS.71_1","NAME_1":"Tuva","NL_NAME_1":"РеспубликаТыва","NAME_2":"Chedi-Khol'skiyrayon","VARNAME_2":"NA","NL_NAME_2":"Чеди-Хольскийрайон","TYPE_2":"Raion","ENGTYPE_2":"District","CC_2":"R61001","HASC_2":"RU.TU.CK"}},{"type":"MultiPolygon","arcs":[[[-3,27,-15,28]]],"properties":{"GID_2":"RUS.71.5_1","GID_0":"RUS","COUNTRY":"Russia","GID_1":"RUS.71_1","NAME_1":"Tuva","NL_NAME_1":"РеспубликаТыва","NAME_2":"Dzun-Khemchikskiyrayon","VARNAME_2":"NA","NL_NAME_2":"Дзун-Хемчикскийрайон","TYPE_2":"Raion","ENGTYPE_2":"District","CC_2":"R61000","HASC_2":"RU.TU.DZ"}},{"type":"MultiPolygon","arcs":[[[29,30,31,32,33]]],"properties":{"GID_2":"RUS.71.6_1","GID_0":"RUS","COUNTRY":"Russia","GID_1":"RUS.71_1","NAME_1":"Tuva","NL_NAME_1":"РеспубликаТыва","NAME_2":"Erzinskiyrayon","VARNAME_2":"NA","NL_NAME_2":"Эрзинскийрайон","TYPE_2":"Raion","ENGTYPE_2":"District","CC_2":"R61001","HASC_2":"RU.TU.ER"}},{"type":"MultiPolygon","arcs":[[[34,-32,35,36,37,38,39,40,41]]],"properties":{"GID_2":"RUS.71.7_1","GID_0":"RUS","COUNTRY":"Russia","GID_1":"RUS.71_1","NAME_1":"Tuva","NL_NAME_1":"РеспубликаТыва","NAME_2":"Kaa-Khemskiyrayon","VARNAME_2":"NA","NL_NAME_2":"Каа-Хемскийрайон","TYPE_2":"Raion","ENGTYPE_2":"District","CC_2":"R61000","HASC_2":"RU.TU.KA"}},{"type":"MultiPolygon","arcs":[[[42,43]]],"properties":{"GID_2":"RUS.71.8_1","GID_0":"RUS","COUNTRY":"Russia","GID_1":"RUS.71_1","NAME_1":"Tuva","NL_NAME_1":"РеспубликаТыва","NAME_2":"Kyzyl","VARNAME_2":"NA","NL_NAME_2":"Кызыл","TYPE_2":"Gorod","ENGTYPE_2":"City","CC_2":"NA","HASC_2":"RU.TU.KG"}},{"type":"MultiPolygon","arcs":[[[-33,-35,44]],[[-23,45,46,47,48,49]],[[-26,50,51,52,-40,53,54,55],[-44,56]]],"properties":{"GID_2":"RUS.71.9_1","GID_0":"RUS","COUNTRY":"Russia","GID_1":"RUS.71_1","NAME_1":"Tuva","NL_NAME_1":"РеспубликаТыва","NAME_2":"Kyzylskiyrayon","VARNAME_2":"NA","NL_NAME_2":"Кызылскийрайон","TYPE_2":"Raion","ENGTYPE_2":"District","CC_2":"R61000","HASC_2":"RU.TU.KR"}},{"type":"MultiPolygon","arcs":[[[-11,57,-6,58,59,60]]],"properties":{"GID_2":"RUS.71.10_1","GID_0":"RUS","COUNTRY":"Russia","GID_1":"RUS.71_1","NAME_1":"Tuva","NL_NAME_1":"РеспубликаТыва","NAME_2":"Mongun-Tayginskiyrayon","VARNAME_2":"NA","NL_NAME_2":"Монгун-Тайгинскийрайон","TYPE_2":"Raion","ENGTYPE_2":"District","CC_2":"R61000","HASC_2":"RU.TU.MO"}},{"type":"MultiPolygon","arcs":[[[-60,61,-4,-29,-14,62,63,64,65,66]]],"properties":{"GID_2":"RUS.71.11_1","GID_0":"RUS","COUNTRY":"Russia","GID_1":"RUS.71_1","NAME_1":"Tuva","NL_NAME_1":"РеспубликаТыва","NAME_2":"Ovyurskiyrayon","VARNAME_2":"NA","NL_NAME_2":"Овюрскийрайон","TYPE_2":"Raion","ENGTYPE_2":"District","CC_2":"R61000","HASC_2":"RU.TU.OV"}},{"type":"MultiPolygon","arcs":[[[67,68,-52,69,70,-49,71,72]]],"properties":{"GID_2":"RUS.71.12_1","GID_0":"RUS","COUNTRY":"Russia","GID_1":"RUS.71_1","NAME_1":"Tuva","NL_NAME_1":"РеспубликаТыва","NAME_2":"Piy-Khemskiyrayon","VARNAME_2":"NA","NL_NAME_2":"Пий-Хемскийрайон","TYPE_2":"Raion","ENGTYPE_2":"District","CC_2":"R61000","HASC_2":"RU.TU.PI"}},{"type":"MultiPolygon","arcs":[[[73,-16,-28,-2]]],"properties":{"GID_2":"RUS.71.13_1","GID_0":"RUS","COUNTRY":"Russia","GID_1":"RUS.71_1","NAME_1":"Tuva","NL_NAME_1":"РеспубликаТыва","NAME_2":"Sut-Khol'skiyrayon","VARNAME_2":"NA","NL_NAME_2":"Сут-Хольскийрайон","TYPE_2":"Raion","ENGTYPE_2":"District","CC_2":"R61000","HASC_2":"RU.TU.SU"}},{"type":"MultiPolygon","arcs":[[[-18,74,-55,75,-38,76,77]]],"properties":{"GID_2":"RUS.71.14_1","GID_0":"RUS","COUNTRY":"Russia","GID_1":"RUS.71_1","NAME_1":"Tuva","NL_NAME_1":"РеспубликаТыва","NAME_2":"Tandinskiyrayon","VARNAME_2":"NA","NL_NAME_2":"Тандинскийрайон","TYPE_2":"Raion","ENGTYPE_2":"District","CC_2":"R61001","HASC_2":"RU.TU.TA"}},{"type":"MultiPolygon","arcs":[[[-66,78,79,-20,80,-77,-37,81,-30,82]]],"properties":{"GID_2":"RUS.71.15_1","GID_0":"RUS","COUNTRY":"Russia","GID_1":"RUS.71_1","NAME_1":"Tuva","NL_NAME_1":"РеспубликаТыва","NAME_2":"Tes-Khemskiyrayon","VARNAME_2":"NA","NL_NAME_2":"Тес-Хемскийрайон","TYPE_2":"Raion","ENGTYPE_2":"District","CC_2":"R61001","HASC_2":"RU.TU.TE"}},{"type":"MultiPolygon","arcs":[[[-41,-53,-69,83]]],"properties":{"GID_2":"RUS.71.16_1","GID_0":"RUS","COUNTRY":"Russia","GID_1":"RUS.71_1","NAME_1":"Tuva","NL_NAME_1":"РеспубликаТыва","NAME_2":"Todzhinskiyrayon","VARNAME_2":"NA","NL_NAME_2":"Тоджинскийрайон","TYPE_2":"Raion","ENGTYPE_2":"District","CC_2":"R61001","HASC_2":"RU.TU.TO"}},{"type":"MultiPolygon","arcs":[[[84,-73,85,-47,86,-21,-80,87,-64,88,-12]]],"properties":{"GID_2":"RUS.71.17_1","GID_0":"RUS","COUNTRY":"Russia","GID_1":"RUS.71_1","NAME_1":"Tuva","NL_NAME_1":"РеспубликаТыва","NAME_2":"Ulug-Khemskiyrayon","VARNAME_2":"NA","NL_NAME_2":"Улуг-Хемскийрайон","TYPE_2":"Raion","ENGTYPE_2":"District","CC_2":"R61000","HASC_2":"RU.TU.UL"}}]}},"arcs":[[[76588,441516],[3412,-500],[9873,10185],[3154,12387],[9499,10786],[2223,10535],[9883,6207],[3432,-1702],[3949,7482]],[[122013,496896],[5473,3454],[7803,17442],[5559,901],[4879,-11987],[7266,2453],[5262,-12137],[-4026,-31582],[8311,-13288],[1016,-6707],[-1639,-8984],[6115,-17317],[7103,-8759],[1764,-8408],[-403,-7983],[5138,-9009],[6346,1251],[4562,-22873]],[[192542,363363],[604,-14740],[5838,-25425],[-3537,-22022],[5185,-9985],[-460,-10836],[-1227,-3779],[3815,-8934],[-1121,-10986],[4812,-5205],[7237,-31281],[9000,-19269]],[[222688,200901],[-46882,-10561]],[[175806,190340],[-2952,7958]],[[172854,198298],[-1735,23899]],[[171119,222197],[-8330,10410]],[[162789,232607],[-3594,10561],[-12950,26026],[-2627,12162],[1486,9234],[-527,13138],[-5397,10786],[-2722,17017],[-5013,10386],[1371,10335],[-2243,7357],[-6720,4605],[-6096,-7808],[-7621,-5180],[-6537,6732],[-9796,5155],[1073,16291],[-4342,9585],[-10697,1401],[-4591,14590],[9000,20670],[537,3604],[-8195,12262]],[[93276,194820],[-5291,5105],[-4851,7432],[-1112,6031],[-8099,9184],[-1726,9360],[39,9810],[-10985,15640],[-3384,7533],[-556,8483],[-1898,3704],[-7179,-926],[-8685,14064],[-1207,15991],[-9854,11136],[-4630,8083],[-172,11136],[949,9785],[-4621,11787],[-5856,24474],[5569,26352],[-2253,6381],[-10064,12863],[-1697,10460],[-3614,6907],[-2099,851],[1888,2603],[10611,-326],[6039,3504],[3988,9209],[16947,6857],[1447,-6782],[-4313,-15515],[5991,-4205],[7888,8834],[12193,4154],[4160,-7007],[6269,-5780],[3480,-476]],[[162789,232607],[3921,-4905]],[[166710,227702],[-4611,-15840],[-3441,-3153],[-4361,2452],[-6336,-4580],[-5550,-8358],[-6988,7382],[-12653,-5230],[-10208,-15891],[-9950,12187],[-8129,-200],[-1207,-1651]],[[324016,509284],[57139,-67643],[-14676,-105305]],[[366479,336336],[-1380,2528]],[[365099,338864],[-15298,2927]],[[349801,341791],[-7860,-1977],[-10103,3379],[-4208,6406],[-5876,19320],[-11531,9334],[1274,12587],[-3882,8734],[-7860,6306],[-3220,15841],[-4860,6657]],[[291675,428378],[-4189,8659],[230,7707],[-3384,10436],[-7841,16917],[2205,8808],[5531,-450],[1486,7958],[2396,3053],[3690,-2027],[4438,4154]],[[296237,493593],[-2885,11687],[9758,-4254],[11934,2427],[8972,5831]],[[485952,453678],[1773,-3028],[28009,-129604],[211,-5130]],[[515945,315916],[-5330,-8409]],[[510615,307507],[-1600,-21071],[-3355,-6807],[-12461,-11261],[-12394,6281],[-5272,-3403],[-9116,17968],[-10055,726],[-17513,16967]],[[438849,306907],[7822,20921],[1792,20845],[-4131,17493],[-5780,14414],[-1390,11887]],[[437162,392467],[758,24324],[8626,3078]],[[446546,419869],[3892,4355],[-1131,6782],[1620,9809],[2684,7883],[5569,7157],[8589,6031]],[[467769,461886],[1226,12037]],[[468995,473923],[5646,-1376]],[[474641,472547],[-249,-11687],[1169,-12112]],[[475561,448748],[10391,4930]],[[192542,363363],[14302,11662],[14186,6957],[4275,-4630],[6461,2377],[1677,5256],[4860,3628],[3844,-1476],[3527,3103],[384,6832],[-1476,15941],[3853,5931],[3479,325],[2071,-13038],[7601,-2553],[8819,4455],[21270,20245]],[[349801,341791],[-4965,-15865],[-7276,-8434],[-8042,-2953],[-14369,-12662],[-13534,-29130],[-3786,851],[-4007,-3603],[-2636,-6632],[-12691,-8258],[-8129,-1702],[-7706,-5155],[-5272,-8383],[-4898,-16016],[-14455,-16492],[-15347,-6456]],[[548420,127602],[10592,18169],[12183,3503],[13036,20045],[12538,16166],[13487,10110],[12260,-10085],[10428,5906],[3576,10511],[3499,1802],[6844,9934],[1514,12513]],[[648377,226176],[8550,-6031]],[[656927,220145],[39118,-14890],[9653,2553],[4438,7232],[-326,9634],[4476,2278],[2914,-5381],[11733,-3203],[5166,-13238],[-709,-14214]],[[733390,190916],[2483,-14890],[6039,-13464],[14541,-12312],[16534,-22197],[7333,-18669],[-4016,-16917],[853,-8483],[11742,-17968],[30309,-24975],[10583,-3453],[7946,-6957],[-1898,-1777],[614,-10135]],[[836453,18719],[-8091,-11036],[-10908,-7683],[-12930,5531],[-1084,1701],[-1648,8634],[-1429,1777],[-6077,5130],[-6853,16541],[-15682,7283],[-4917,200],[-6825,-9134],[-3489,-876],[-1678,3403],[1774,7583],[-58,2853],[-4486,5555],[-2147,50],[-7170,-6181],[-7975,-14039],[-2550,-726],[-1802,976],[-5406,11462],[-3968,3053],[-805,6706],[-873,1077],[-2492,-1402],[-5243,1001],[-13266,7483],[-4122,-2903],[-5473,-7107],[-5205,3303],[-1055,2152],[-939,6907],[-3451,3053],[-7457,-3353],[-2454,-3904],[-825,-8959],[-1246,-2803],[-9834,-2452],[-10880,-7983],[-4198,-326],[-13774,7308],[-20667,-351],[-7323,7958],[-4294,16667],[-3173,3303],[-11915,125],[-10218,-3653],[-6326,-4655],[-4630,1226],[-977,1201],[-2330,9960],[-5090,10661],[-948,3503],[460,2903],[-1477,5706],[-8329,7157],[-1620,3929],[-901,6407],[10716,6981]],[[879050,419094],[-8167,-17718],[2512,-14615],[278,-15690],[-508,-9410],[-2013,-4329],[-7956,-5556],[-6758,3854],[-3566,8934],[-4150,-6782],[-6096,-2002],[-4975,-8733],[-6547,-6707],[-13401,-2953],[-2195,-12362],[-8924,-3854],[-12288,1977],[-3010,-6807],[-8857,325],[-5435,-20595],[-6125,-14565],[-2962,-18794],[-17781,-24449],[-7908,-33884],[-8828,-13463]],[[656927,220145],[-13055,9184]],[[643872,229329],[-1438,5255],[2425,8008],[-1265,4805],[-4016,4480],[-6547,16391]],[[633031,268268],[0,7282],[-3719,24174],[-6864,22623],[-13726,33183],[-9461,15190]],[[599261,370720],[5205,10686]],[[604466,381406],[-2367,16016],[-5435,15190],[-10036,1977],[-6077,8083],[-2588,14565],[-5292,6506],[-2080,9510],[-891,12412],[-2214,9935],[-3863,7132],[-959,20996],[33252,26352],[8560,-1252],[12116,6106],[6968,7783],[6710,13764],[5799,3203],[14407,-2778],[9451,8209],[18970,3603],[5435,5656]],[[684332,574374],[2406,-19670],[8119,-11712],[10946,-11461],[28498,-20345],[7237,-18669],[10620,-25],[17561,5606],[15749,7707],[4773,-3603],[345,-16467],[1457,-6431],[3863,-3203],[6384,8133],[2732,7858],[22066,75],[3326,-16317],[4946,-4804],[4649,50],[12969,23348],[-2981,11937],[-805,15766],[6968,5055],[6614,21271],[7122,4104],[18049,0],[6394,7733],[3834,13188],[786,17668],[-287,12262],[2070,12137],[5617,3253],[9355,-10685],[7630,4029],[115,9734],[5407,3454],[4486,-2378],[9930,16467]],[[943282,639439],[1821,-8534],[9509,4330],[6767,-601],[633,-9234],[-2320,-7207],[3163,-5030],[6020,-851],[3806,6056],[3412,-2978],[1773,-7608],[-920,-8133],[863,-7507],[-4553,7082],[-4601,-601],[-1275,-2352],[-1304,-6207],[-1342,-18568],[-3240,-6907],[-1974,-12663],[-6595,-28328],[-3182,-7332],[-7189,-6081],[-7036,-1852],[-5061,-5756],[-12212,-5155],[-5023,-6807],[-1198,-4855],[-748,-12612],[-5224,-20396],[2147,-11461],[-1284,-3879],[-1457,-10761],[-4007,-2477],[-8857,1501],[-6786,-8358],[-6758,1777]],[[538030,463913],[-10027,12688]],[[528003,476601],[-3230,16717],[11138,22447],[4515,-650],[11062,-14965],[316,-6257],[-13774,-29980]],[[879050,419094],[7467,-1101],[-4026,-10186],[-2204,-10785],[-2569,-5256],[1188,-11286],[-1313,-7132],[949,-4354],[-2185,-9660],[-2195,-5305],[-1055,-14265],[-1639,-5180],[-1304,-8308],[154,-3929],[-2914,-4655],[-853,-5830],[1466,-1127],[1764,-6056],[-450,-2627],[949,-3654],[7054,-8558],[7544,-12163],[-9,-3878],[-4525,-8759],[-1658,-8659],[1831,-12162],[4217,-8033],[2943,-12087],[9269,-15591],[9135,-2828],[6336,-4404],[1687,-5681],[-1879,-9234],[-1505,-11361],[-3115,-11412],[2032,-21121],[-1725,-15365],[-1074,-3854],[-7371,-11386],[-6259,-28203],[-6058,-11637],[-6748,-3754],[-2052,-5731],[-3546,-2952],[-2943,-9510],[-2022,-2402],[-3355,1051],[-1716,7507],[-1495,1452],[-2751,-901],[-8723,-8759],[-8723,-275],[-105,-4280],[2501,-7507],[-28,-3504],[-8991,-13738]],[[446546,419869],[-8598,-3078]],[[437948,416791],[-5646,17518],[-3738,25726],[-1476,44769],[-1725,7458]],[[425363,512262],[709,-451]],[[426072,511811],[6489,10386],[6355,-326],[4716,9360],[6950,3703],[4975,-2427],[-460,-12362],[1936,-5931],[8186,3403],[958,-8408],[-4361,-8133],[-144,-9535],[2253,-11211]],[[463925,480330],[5003,-7007],[-1159,-11437]],[[474641,472547],[5263,-1276]],[[479904,471271],[15787,3353],[14062,6306],[9959,9360],[5732,8258],[3202,16917],[9259,8734],[-1754,20846],[4390,11961],[1965,8384],[-2042,8483],[-9873,-3478],[-7198,2202],[-1831,16391],[4227,9835],[9030,3854],[5089,4880],[-1418,12262],[2847,7783],[1361,11036],[5243,2352],[7036,-400],[5626,9059],[2262,12763],[1659,16591],[8147,4755],[11445,2653]],[[584116,686411],[-3048,-8909],[2550,-13063],[15835,-28904],[11407,-11512],[11703,5306],[10947,-1026],[13918,-13439],[24251,-16817],[8531,-9284],[4122,-14389]],[[604466,381406],[-10333,-22748],[-3748,-11912]],[[590385,346746],[-8790,-6982],[-6038,4830],[-4371,7833],[-13679,35035],[-5780,20896],[-1610,17693],[-3202,10735],[-8023,6081],[-13736,601],[-5751,12863],[-6317,5806],[-3335,-951],[977,-14715],[-6144,-9309],[-7975,7632],[-5694,11212]],[[490917,456006],[-15356,-7258]],[[528003,476601],[3480,-4404],[6547,-8284]],[[166710,227702],[4409,-5505]],[[172854,198298],[5550,-15065]],[[178404,183233],[2224,-11862],[-4525,-11161],[-1140,-15966]],[[174963,144244],[6738,-36762],[-249,-3303],[-2224,-2552],[-7189,3703],[-3901,-200],[-16669,-8258],[-3911,-7508],[-2272,-7032],[-1562,-13538],[-2224,-4154],[-7074,4955],[-9950,550],[-9317,-8158],[-3470,-3804],[-5032,-1326],[-6163,3378],[-7995,50],[-4102,-5781],[-4352,1327],[-4237,-1627],[-1476,-6857],[38,5155],[-2827,5856],[3029,16967],[-2330,9260],[-3594,3553],[-2981,5806],[-2387,11361],[-15164,5255],[-451,9235],[5886,10660],[1323,8083],[10467,7333],[1524,4379],[-4093,14415],[77,11011],[5310,-2153],[4831,-19369],[4112,-4354],[7304,-1452],[8273,6031],[5185,11337],[1448,9934],[-2215,10686],[-7821,8484]],[[178404,183233],[-2598,7107]],[[365099,338864],[6259,-11437]],[[371358,327427],[3595,-16141],[16161,-300],[9346,-8133]],[[400460,302853],[5761,-19545],[2875,-17517]],[[409096,265791],[4160,-7458],[949,-8508],[-1054,-9785],[3192,-5055],[4352,-1827],[12077,-28228]],[[432772,204930],[-14618,-3704],[-4447,1351],[-3077,4705],[-4179,426],[-2397,3628],[-1946,7157],[-57,6932],[2578,11086],[-306,7258],[2569,7882],[-2282,5256],[-8492,2277],[-9768,-876],[-6547,-8533],[-422,-3204],[863,-6156],[-671,-2202],[-8550,-2127],[-4093,1101],[-863,2703],[997,8258],[-1428,4479],[-12605,2453],[-5675,9735],[-1073,16841],[-1888,2578],[-3921,-50],[-1419,-1652],[-460,-6031],[-3220,-13438],[1687,-12538],[-374,-5530],[-2377,-5055],[-4975,-3229],[-2694,-4629],[-16582,-325],[-16142,13038],[-1754,-226],[-1199,-3203],[-6422,-375],[-1390,-4830],[-3019,-1877],[-5253,-8508],[-604,-11036],[997,-6006],[-1361,-3779],[-4984,-3979],[-8225,801],[-6441,-4255],[-949,-5080],[1735,-5630],[0,-6607],[-441,-3028],[-1447,-1927],[-16497,6707],[-11292,-6657],[-4907,-375],[-4122,2953],[-9557,2152],[-7103,-376],[-6019,-2902],[-3288,1551],[-3499,4505],[-3776,-10686],[220,-5556],[-2885,-11636],[-240,-9935],[2425,-5030],[4879,1401],[528,-4304],[2425,-4154],[-29,-5481],[-2128,-6806],[-5492,-4805],[-1822,-4905],[-6019,33333]],[[380733,526476],[6336,-2302],[6940,15590],[7764,12037],[4879,401],[9509,19794],[4620,951],[6844,15741],[7198,8834],[3978,2277],[4707,7483],[17282,5405],[3950,32232],[10227,12238],[297,26101],[10065,18368],[4630,4404],[671,18744],[7745,6932],[5301,27477],[8818,23124],[10995,9184],[13419,525]],[[536908,792016],[1658,-8959],[7305,1727],[4821,4104],[14071,-3153],[1352,-16341],[-2502,-11812],[4783,-8108],[10726,3703],[6988,-3453],[6298,-27728],[5904,-13989],[748,-13713],[-6729,-10761],[-8215,2878]],[[479904,471271],[-10909,2652]],[[468995,473923],[-5070,6407]],[[426072,511811],[-7889,4905]],[[418183,516716],[-2559,12287],[-7400,3354],[-5962,-4079],[-7688,-10411],[-13841,8609]],[[122013,496896],[-3844,18494],[-6048,18819],[2636,19169],[8377,13438],[-2319,25776],[3393,4329],[8751,-7307],[7851,4705],[3441,9860],[15241,-2077],[5368,-5631],[3642,-12087],[10026,-8233],[13765,-45121],[18030,12463],[7515,-3153],[5656,-12363],[25286,6282],[7515,-1602],[8866,-9685],[5205,-3053],[13382,5606],[6892,-8058],[5597,-23874]],[[485952,453678],[4965,2328]],[[590385,346746],[8876,23974]],[[633031,268268],[-6614,-6156],[-11646,50],[-7113,-4354],[-6221,-18144],[-5425,1227],[-2837,5505],[-4525,15866],[-17531,6406],[-6212,15591],[-13975,-10335],[-17887,4529],[-6221,11286],[-6748,21247]],[[520076,310986],[-4131,4930]],[[409096,265791],[-4208,23123]],[[404888,288914],[13132,16316],[11618,-2678],[9211,4355]],[[510615,307507],[4908,8909],[4553,-5430]],[[643872,229329],[4505,-3153]],[[548420,127602],[-10726,-6981],[-3930,44344],[-757,12062],[-3528,8583],[-805,13264],[-2607,5805],[-30625,3979],[-27520,-3353],[-3029,2027],[-11119,-1051],[-5023,5055],[-6403,-4104],[-9576,-2302]],[[536908,792016],[7429,3554],[4888,18118],[1592,26827],[3470,25425],[7380,8784],[19,8909],[-7840,11536],[9643,13188],[28871,5306],[891,-4705],[5943,3954],[8493,14264],[18183,-15916],[10065,4129],[3537,8609],[7966,2252],[11004,13088],[3335,-7882],[10132,5855],[10122,-1251],[8829,-6657],[3843,3804],[1937,9084],[8991,3379],[2348,13213],[17417,-12988],[11637,4454],[14215,10085],[2674,14140],[1725,23848],[13736,1577],[10314,-22222],[7506,-3103],[4553,-10361],[15365,176],[8752,-13314],[3153,-15290],[7170,-10711],[6950,-1601],[3153,-16492],[8138,4855],[9576,-576],[7275,-7782],[9662,2127],[4678,-4079],[154,-17593],[6681,-13588],[5837,1901],[13075,-6681],[1533,-27853],[6183,-1326],[11809,7407],[12749,-2002],[5789,4129],[2358,6281],[4266,-300],[4984,-8734],[6509,3204],[1706,4629],[6595,-2277],[8253,-9359],[-7093,-13289],[10275,-11611],[21615,-18869],[1093,-10085],[-2291,-4580],[-9585,3579],[-4697,4329],[-3892,8434],[-2454,-25],[-5042,-4205],[-3268,-6907],[-2330,-8984],[-757,-10810],[2540,-5456],[7218,1927],[-834,-17693],[-2166,-12462],[-9787,-15315],[-1514,-20971],[-8953,-11211],[-2972,-12938],[-4150,-2152],[834,-20996],[-2617,-9735]],[[324016,509284],[3144,726],[5128,4954],[6854,651],[5895,-5355],[24644,15340],[11052,876]],[[418183,516716],[7180,-4454]],[[437948,416791],[-786,-24324]],[[404888,288914],[-4428,13939]],[[371358,327427],[-4879,8909]]],"bbox":[88.7881,49.7574,99.2206,53.7534],"transform":{"scale":[0.000010432510432510437,0.000003996003996003998],"translate":[88.7881,49.7574]}}