{"type":"Topology","objects":{"muni":{"type":"GeometryCollection","geometries":[{"type":"MultiPolygon","arcs":[[[0,1,2,3,4,5,6]]],"properties":{"GID_2":"RUS.72.1_1","GID_0":"RUS","COUNTRY":"Russia","GID_1":"RUS.72_1","NAME_1":"Tver'","NL_NAME_1":"Тверскаяобласть","NAME_2":"Andreapol'skiyrayon","VARNAME_2":"NA","NL_NAME_2":"Андреапольскийрайон","TYPE_2":"Raion","ENGTYPE_2":"District","CC_2":"R18000","HASC_2":"RU.TV.AN"}},{"type":"MultiPolygon","arcs":[[[7,8,9,10]]],"properties":{"GID_2":"RUS.72.2_1","GID_0":"RUS","COUNTRY":"Russia","GID_1":"RUS.72_1","NAME_1":"Tver'","NL_NAME_1":"Тверскаяобласть","NAME_2":"Bel'skiyrayon","VARNAME_2":"NA","NL_NAME_2":"Бельскийрайон","TYPE_2":"Raion","ENGTYPE_2":"District","CC_2":"R18000","HASC_2":"RU.TV.BE"}},{"type":"MultiPolygon","arcs":[[[11]]],"properties":{"GID_2":"RUS.72.3_1","GID_0":"RUS","COUNTRY":"Russia","GID_1":"RUS.72_1","NAME_1":"Tver'","NL_NAME_1":"Тверскаяобласть","NAME_2":"Bezhetsk","VARNAME_2":"NA","NL_NAME_2":"Бежецк","TYPE_2":"Gorod","ENGTYPE_2":"City","CC_2":"NA","HASC_2":"RU.TV.BT"}},{"type":"MultiPolygon","arcs":[[[12,13,14,15,16,17,18,19],[-12]]],"properties":{"GID_2":"RUS.72.4_1","GID_0":"RUS","COUNTRY":"Russia","GID_1":"RUS.72_1","NAME_1":"Tver'","NL_NAME_1":"Тверскаяобласть","NAME_2":"Bezhetskiyrayon","VARNAME_2":"NA","NL_NAME_2":"Бежецкийрайон","TYPE_2":"Raion","ENGTYPE_2":"District","CC_2":"R18000","HASC_2":"RU.TV.BZ"}},{"type":"MultiPolygon","arcs":[[[20]]],"properties":{"GID_2":"RUS.72.5_1","GID_0":"RUS","COUNTRY":"Russia","GID_1":"RUS.72_1","NAME_1":"Tver'","NL_NAME_1":"Тверскаяобласть","NAME_2":"Bologoe","VARNAME_2":"Bologoye","NL_NAME_2":"Бологое","TYPE_2":"Gorod","ENGTYPE_2":"City","CC_2":"NA","HASC_2":"RU.TV.BG"}},{"type":"MultiPolygon","arcs":[[[21,22,23,24,25],[-21]]],"properties":{"GID_2":"RUS.72.6_1","GID_0":"RUS","COUNTRY":"Russia","GID_1":"RUS.72_1","NAME_1":"Tver'","NL_NAME_1":"Тверскаяобласть","NAME_2":"Bologovskiyrayon","VARNAME_2":"NA","NL_NAME_2":"Бологовскийрайон","TYPE_2":"Raion","ENGTYPE_2":"District","CC_2":"R18000","HASC_2":"RU.TV.BR"}},{"type":"MultiPolygon","arcs":[[[26,-25,27,28,29,30]]],"properties":{"GID_2":"RUS.72.7_1","GID_0":"RUS","COUNTRY":"Russia","GID_1":"RUS.72_1","NAME_1":"Tver'","NL_NAME_1":"Тверскаяобласть","NAME_2":"Firovskiyrayon","VARNAME_2":"NA","NL_NAME_2":"Фировскийрайон","TYPE_2":"Raion","ENGTYPE_2":"District","CC_2":"R18003","HASC_2":"RU.TV.FI"}},{"type":"MultiPolygon","arcs":[[[31,32,33,34,35,36,37,38],[39]]],"properties":{"GID_2":"RUS.72.8_1","GID_0":"RUS","COUNTRY":"Russia","GID_1":"RUS.72_1","NAME_1":"Tver'","NL_NAME_1":"Тверскаяобласть","NAME_2":"Kalininskiyrayon","VARNAME_2":"NA","NL_NAME_2":"Калининскийрайон","TYPE_2":"Raion","ENGTYPE_2":"District","CC_2":"R18001","HASC_2":"RU.TV.KN"}},{"type":"MultiPolygon","arcs":[[[40,41,42]]],"properties":{"GID_2":"RUS.72.9_1","GID_0":"RUS","COUNTRY":"Russia","GID_1":"RUS.72_1","NAME_1":"Tver'","NL_NAME_1":"Тверскаяобласть","NAME_2":"Kalyazinskiyrayon","VARNAME_2":"NA","NL_NAME_2":"Калязинскийрайон","TYPE_2":"Raion","ENGTYPE_2":"District","CC_2":"R18001","HASC_2":"RU.TV.KZ"}},{"type":"MultiPolygon","arcs":[[[43]]],"properties":{"GID_2":"RUS.72.10_1","GID_0":"RUS","COUNTRY":"Russia","GID_1":"RUS.72_1","NAME_1":"Tver'","NL_NAME_1":"Тверскаяобласть","NAME_2":"Kashin","VARNAME_2":"NA","NL_NAME_2":"Кашин","TYPE_2":"Gorod","ENGTYPE_2":"City","CC_2":"NA","HASC_2":"RU.TV.KA"}},{"type":"MultiPolygon","arcs":[[[-13,44,45,-42,46,47],[-44]]],"properties":{"GID_2":"RUS.72.11_1","GID_0":"RUS","COUNTRY":"Russia","GID_1":"RUS.72_1","NAME_1":"Tver'","NL_NAME_1":"Тверскаяобласть","NAME_2":"Kashinskiyrayon","VARNAME_2":"NA","NL_NAME_2":"Кашинскийрайон","TYPE_2":"Raion","ENGTYPE_2":"District","CC_2":"R18001","HASC_2":"RU.TV.KS"}},{"type":"MultiPolygon","arcs":[[[-20,48,49,-45]]],"properties":{"GID_2":"RUS.72.12_1","GID_0":"RUS","COUNTRY":"Russia","GID_1":"RUS.72_1","NAME_1":"Tver'","NL_NAME_1":"Тверскаяобласть","NAME_2":"Kesovogorskiyrayon","VARNAME_2":"NA","NL_NAME_2":"Кесовогорскийрайон","TYPE_2":"Raion","ENGTYPE_2":"District","CC_2":"R18001","HASC_2":"RU.TV.KE"}},{"type":"MultiPolygon","arcs":[[[50,51,-37,52,53,54,-47,-41],[55]]],"properties":{"GID_2":"RUS.72.13_1","GID_0":"RUS","COUNTRY":"Russia","GID_1":"RUS.72_1","NAME_1":"Tver'","NL_NAME_1":"Тверскаяобласть","NAME_2":"Kimrskiyrayon","VARNAME_2":"NA","NL_NAME_2":"Кимрскийрайон","TYPE_2":"Raion","ENGTYPE_2":"District","CC_2":"R18001","HASC_2":"RU.TV.KM"}},{"type":"MultiPolygon","arcs":[[[-56]]],"properties":{"GID_2":"RUS.72.14_1","GID_0":"RUS","COUNTRY":"Russia","GID_1":"RUS.72_1","NAME_1":"Tver'","NL_NAME_1":"Тверскаяобласть","NAME_2":"Kimry","VARNAME_2":"NA","NL_NAME_2":"Кимры","TYPE_2":"Gorod","ENGTYPE_2":"City","CC_2":"NA","HASC_2":"RU.TV.KI"}},{"type":"MultiPolygon","arcs":[[[56]]],"properties":{"GID_2":"RUS.72.15_1","GID_0":"RUS","COUNTRY":"Russia","GID_1":"RUS.72_1","NAME_1":"Tver'","NL_NAME_1":"Тверскаяобласть","NAME_2":"Konakovo","VARNAME_2":"NA","NL_NAME_2":"Конаково","TYPE_2":"Gorod","ENGTYPE_2":"City","CC_2":"NA","HASC_2":"RU.TV.KG"}},{"type":"MultiPolygon","arcs":[[[-38,-52,57],[-57]]],"properties":{"GID_2":"RUS.72.16_1","GID_0":"RUS","COUNTRY":"Russia","GID_1":"RUS.72_1","NAME_1":"Tver'","NL_NAME_1":"Тверскаяобласть","NAME_2":"Konakovskiyrayon","VARNAME_2":"NA","NL_NAME_2":"Конаковскийрайон","TYPE_2":"Raion","ENGTYPE_2":"District","CC_2":"R18001","HASC_2":"RU.TV.KR"}},{"type":"MultiPolygon","arcs":[[[58,-17,59,60,61,62]]],"properties":{"GID_2":"RUS.72.17_1","GID_0":"RUS","COUNTRY":"Russia","GID_1":"RUS.72_1","NAME_1":"Tver'","NL_NAME_1":"Тверскаяобласть","NAME_2":"Krasnokholmskiyrayon","VARNAME_2":"NA","NL_NAME_2":"Краснохолмскийрайон","TYPE_2":"Raion","ENGTYPE_2":"District","CC_2":"R18001","HASC_2":"RU.TV.KK"}},{"type":"MultiPolygon","arcs":[[[63,-29,64,65,66,67,68,69,70,71]]],"properties":{"GID_2":"RUS.72.18_1","GID_0":"RUS","COUNTRY":"Russia","GID_1":"RUS.72_1","NAME_1":"Tver'","NL_NAME_1":"Тверскаяобласть","NAME_2":"Kuvshinovskiyrayon","VARNAME_2":"NA","NL_NAME_2":"Кувшиновскийрайон","TYPE_2":"Raion","ENGTYPE_2":"District","CC_2":"R18001","HASC_2":"RU.TV.KU"}},{"type":"MultiPolygon","arcs":[[[72,73,74,75,76]]],"properties":{"GID_2":"RUS.72.19_1","GID_0":"RUS","COUNTRY":"Russia","GID_1":"RUS.72_1","NAME_1":"Tver'","NL_NAME_1":"Тверскаяобласть","NAME_2":"Lesnoyrayon","VARNAME_2":"NA","NL_NAME_2":"Леснойрайон","TYPE_2":"Raion","ENGTYPE_2":"District","CC_2":"R18001","HASC_2":"RU.TV.LE"}},{"type":"MultiPolygon","arcs":[[[-34,77,78,79,80,81]]],"properties":{"GID_2":"RUS.72.20_1","GID_0":"RUS","COUNTRY":"Russia","GID_1":"RUS.72_1","NAME_1":"Tver'","NL_NAME_1":"Тверскаяобласть","NAME_2":"Likhoslavl'skiyrayon","VARNAME_2":"NA","NL_NAME_2":"Лихославльскийрайон","TYPE_2":"Raion","ENGTYPE_2":"District","CC_2":"R18001","HASC_2":"RU.TV.LI"}},{"type":"MultiPolygon","arcs":[[[-15,82,-81,83,84,85,-75,86]]],"properties":{"GID_2":"RUS.72.21_1","GID_0":"RUS","COUNTRY":"Russia","GID_1":"RUS.72_1","NAME_1":"Tver'","NL_NAME_1":"Тверскаяобласть","NAME_2":"Maksatikhinskiyrayon","VARNAME_2":"NA","NL_NAME_2":"Максатихинскийрайон","TYPE_2":"Raion","ENGTYPE_2":"District","CC_2":"R18002","HASC_2":"RU.TV.MA"}},{"type":"MultiPolygon","arcs":[[[-16,-87,87,88,-60]]],"properties":{"GID_2":"RUS.72.22_1","GID_0":"RUS","COUNTRY":"Russia","GID_1":"RUS.72_1","NAME_1":"Tver'","NL_NAME_1":"Тверскаяобласть","NAME_2":"Molokovskiyrayon","VARNAME_2":"NA","NL_NAME_2":"Молоковскийрайон","TYPE_2":"Raion","ENGTYPE_2":"District","CC_2":"R18002","HASC_2":"RU.TV.MO"}},{"type":"MultiPolygon","arcs":[[[89]]],"properties":{"GID_2":"RUS.72.23_1","GID_0":"RUS","COUNTRY":"Russia","GID_1":"RUS.72_1","NAME_1":"Tver'","NL_NAME_1":"Тверскаяобласть","NAME_2":"Nelidovo","VARNAME_2":"NA","NL_NAME_2":"Нелидово","TYPE_2":"Gorod","ENGTYPE_2":"City","CC_2":"NA","HASC_2":"RU.TV.NG"}},{"type":"MultiPolygon","arcs":[[[-4,90,91,-9,92,93],[-90]]],"properties":{"GID_2":"RUS.72.24_1","GID_0":"RUS","COUNTRY":"Russia","GID_1":"RUS.72_1","NAME_1":"Tver'","NL_NAME_1":"Тверскаяобласть","NAME_2":"Nelidovskiyrayon","VARNAME_2":"NA","NL_NAME_2":"Нелидовскийрайон","TYPE_2":"Raion","ENGTYPE_2":"District","CC_2":"R18002","HASC_2":"RU.TV.NR"}},{"type":"MultiPolygon","arcs":[[[94,-10,-92,95,96]]],"properties":{"GID_2":"RUS.72.25_1","GID_0":"RUS","COUNTRY":"Russia","GID_1":"RUS.72_1","NAME_1":"Tver'","NL_NAME_1":"Тверскаяобласть","NAME_2":"Oleninskiyrayon","VARNAME_2":"NA","NL_NAME_2":"Оленинскийрайон","TYPE_2":"Raion","ENGTYPE_2":"District","CC_2":"R18002","HASC_2":"RU.TV.OL"}},{"type":"MultiPolygon","arcs":[[[97]]],"properties":{"GID_2":"RUS.72.26_1","GID_0":"RUS","COUNTRY":"Russia","GID_1":"RUS.72_1","NAME_1":"Tver'","NL_NAME_1":"Тверскаяобласть","NAME_2":"Ostashkov","VARNAME_2":"NA","NL_NAME_2":"Осташков","TYPE_2":"Gorod","ENGTYPE_2":"City","CC_2":"NA","HASC_2":"RU.TV.OG"}},{"type":"MultiPolygon","arcs":[[[-31,98,-72,99,100,101,102],[-98]]],"properties":{"GID_2":"RUS.72.27_1","GID_0":"RUS","COUNTRY":"Russia","GID_1":"RUS.72_1","NAME_1":"Tver'","NL_NAME_1":"Тверскаяобласть","NAME_2":"Ostashkovskiyrayon","VARNAME_2":"NA","NL_NAME_2":"Осташковскийрайон","TYPE_2":"Raion","ENGTYPE_2":"District","CC_2":"R18002","HASC_2":"RU.TV.OR"}},{"type":"MultiPolygon","arcs":[[[103,-102,104,-2]]],"properties":{"GID_2":"RUS.72.28_1","GID_0":"RUS","COUNTRY":"Russia","GID_1":"RUS.72_1","NAME_1":"Tver'","NL_NAME_1":"Тверскаяобласть","NAME_2":"Penovskiyrayon","VARNAME_2":"NA","NL_NAME_2":"Пеновскийрайон","TYPE_2":"Raion","ENGTYPE_2":"District","CC_2":"R18002","HASC_2":"RU.TV.PE"}},{"type":"MultiPolygon","arcs":[[[-14,105,-54,106,-35,-82,-83]]],"properties":{"GID_2":"RUS.72.29_1","GID_0":"RUS","COUNTRY":"Russia","GID_1":"RUS.72_1","NAME_1":"Tver'","NL_NAME_1":"Тверскаяобласть","NAME_2":"Rameshkovskiyrayon","VARNAME_2":"NA","NL_NAME_2":"Рамешковскийрайон","TYPE_2":"Raion","ENGTYPE_2":"District","CC_2":"R18002","HASC_2":"RU.TV.RA"}},{"type":"MultiPolygon","arcs":[[[107]]],"properties":{"GID_2":"RUS.72.30_1","GID_0":"RUS","COUNTRY":"Russia","GID_1":"RUS.72_1","NAME_1":"Tver'","NL_NAME_1":"Тверскаяобласть","NAME_2":"Rzhev","VARNAME_2":"NA","NL_NAME_2":"Ржев","TYPE_2":"Gorod","ENGTYPE_2":"City","CC_2":"NA","HASC_2":"RU.TV.RG"}},{"type":"MultiPolygon","arcs":[[[108,-97,109,110,111],[-108]]],"properties":{"GID_2":"RUS.72.31_1","GID_0":"RUS","COUNTRY":"Russia","GID_1":"RUS.72_1","NAME_1":"Tver'","NL_NAME_1":"Тверскаяобласть","NAME_2":"Rzhevskiyrayon","VARNAME_2":"NA","NL_NAME_2":"Ржевскийрайон","TYPE_2":"Raion","ENGTYPE_2":"District","CC_2":"R18002","HASC_2":"RU.TV.RR"}},{"type":"MultiPolygon","arcs":[[[112,113,-88,-74]]],"properties":{"GID_2":"RUS.72.32_1","GID_0":"RUS","COUNTRY":"Russia","GID_1":"RUS.72_1","NAME_1":"Tver'","NL_NAME_1":"Тверскаяобласть","NAME_2":"Sandovskiyrayon","VARNAME_2":"NA","NL_NAME_2":"Сандовскийрайон","TYPE_2":"Raion","ENGTYPE_2":"District","CC_2":"R18002","HASC_2":"RU.TV.SA"}},{"type":"MultiPolygon","arcs":[[[-3,-105,-101,114,-70,115,-110,-96,-91]]],"properties":{"GID_2":"RUS.72.33_1","GID_0":"RUS","COUNTRY":"Russia","GID_1":"RUS.72_1","NAME_1":"Tver'","NL_NAME_1":"Тверскаяобласть","NAME_2":"Selizharovskiyrayon","VARNAME_2":"NA","NL_NAME_2":"Селижаровскийрайон","TYPE_2":"Raion","ENGTYPE_2":"District","CC_2":"R18002","HASC_2":"RU.TV.SE"}},{"type":"MultiPolygon","arcs":[[[-19,116,-63,117,-49]]],"properties":{"GID_2":"RUS.72.34_1","GID_0":"RUS","COUNTRY":"Russia","GID_1":"RUS.72_1","NAME_1":"Tver'","NL_NAME_1":"Тверскаяобласть","NAME_2":"Sonkovskiyrayon","VARNAME_2":"NA","NL_NAME_2":"Сонковскийрайон","TYPE_2":"Raion","ENGTYPE_2":"District","CC_2":"R18003","HASC_2":"RU.TV.SN"}},{"type":"MultiPolygon","arcs":[[[-80,118,119,120,-84]]],"properties":{"GID_2":"RUS.72.35_1","GID_0":"RUS","COUNTRY":"Russia","GID_1":"RUS.72_1","NAME_1":"Tver'","NL_NAME_1":"Тверскаяобласть","NAME_2":"Spirovskiyrayon","VARNAME_2":"NA","NL_NAME_2":"Спировскийрайон","TYPE_2":"Raion","ENGTYPE_2":"District","CC_2":"R18003","HASC_2":"RU.TV.SP"}},{"type":"MultiPolygon","arcs":[[[121,-111,-116,-69,122,123,-32,124]]],"properties":{"GID_2":"RUS.72.36_1","GID_0":"RUS","COUNTRY":"Russia","GID_1":"RUS.72_1","NAME_1":"Tver'","NL_NAME_1":"Тверскаяобласть","NAME_2":"Staritskiyrayon","VARNAME_2":"NA","NL_NAME_2":"Старицкийрайон","TYPE_2":"Raion","ENGTYPE_2":"District","CC_2":"R18003","HASC_2":"RU.TV.ST"}},{"type":"MultiPolygon","arcs":[[[-7,125,126,127]]],"properties":{"GID_2":"RUS.72.37_1","GID_0":"RUS","COUNTRY":"Russia","GID_1":"RUS.72_1","NAME_1":"Tver'","NL_NAME_1":"Тверскаяобласть","NAME_2":"Toropetskiyrayon","VARNAME_2":"NA","NL_NAME_2":"Торопецкийрайон","TYPE_2":"Raion","ENGTYPE_2":"District","CC_2":"R18003","HASC_2":"RU.TV.TO"}},{"type":"MultiPolygon","arcs":[[[128]]],"properties":{"GID_2":"RUS.72.38_1","GID_0":"RUS","COUNTRY":"Russia","GID_1":"RUS.72_1","NAME_1":"Tver'","NL_NAME_1":"Тверскаяобласть","NAME_2":"Torzhok","VARNAME_2":"NA","NL_NAME_2":"Торжок","TYPE_2":"Gorod","ENGTYPE_2":"City","CC_2":"NA","HASC_2":"RU.TV.TG"}},{"type":"MultiPolygon","arcs":[[[-33,-124,129,-67,130,131,-120,132,-78],[-129]]],"properties":{"GID_2":"RUS.72.39_1","GID_0":"RUS","COUNTRY":"Russia","GID_1":"RUS.72_1","NAME_1":"Tver'","NL_NAME_1":"Тверскаяобласть","NAME_2":"Torzhokskiyrayon","VARNAME_2":"NA","NL_NAME_2":"Торжокскийрайон","TYPE_2":"Raion","ENGTYPE_2":"District","CC_2":"R18003","HASC_2":"RU.TV.TR"}},{"type":"MultiPolygon","arcs":[[[-40]]],"properties":{"GID_2":"RUS.72.40_1","GID_0":"RUS","COUNTRY":"Russia","GID_1":"RUS.72_1","NAME_1":"Tver'","NL_NAME_1":"Тверскаяобласть","NAME_2":"Tver'","VARNAME_2":"NA","NL_NAME_2":"Тверь","TYPE_2":"Gorsovet","ENGTYPE_2":"District","CC_2":"NA","HASC_2":"RU.TV.TV"}},{"type":"MultiPolygon","arcs":[[[133,-77,134,-85,135,136,-22],[137]]],"properties":{"GID_2":"RUS.72.41_1","GID_0":"RUS","COUNTRY":"Russia","GID_1":"RUS.72_1","NAME_1":"Tver'","NL_NAME_1":"Тверскаяобласть","NAME_2":"Udomel'skiyrayon","VARNAME_2":"NA","NL_NAME_2":"Удомельскийрайон","TYPE_2":"Raion","ENGTYPE_2":"District","CC_2":"R18003","HASC_2":"RU.TV.UR"}},{"type":"MultiPolygon","arcs":[[[-138]]],"properties":{"GID_2":"RUS.72.42_1","GID_0":"RUS","COUNTRY":"Russia","GID_1":"RUS.72_1","NAME_1":"Tver'","NL_NAME_1":"Тверскаяобласть","NAME_2":"Udomlya","VARNAME_2":"NA","NL_NAME_2":"Удомля","TYPE_2":"Gorod","ENGTYPE_2":"City","CC_2":"NA","HASC_2":"RU.TV.UG"}},{"type":"MultiPolygon","arcs":[[[-61,-89,-114,138,139,140,141,142]]],"properties":{"GID_2":"RUS.72.43_1","GID_0":"RUS","COUNTRY":"Russia","GID_1":"RUS.72_1","NAME_1":"Tver'","NL_NAME_1":"Тверскаяобласть","NAME_2":"Ves'egonskiyrayon","VARNAME_2":"NA","NL_NAME_2":"Весьегонскийрайон","TYPE_2":"Raion","ENGTYPE_2":"District","CC_2":"R18000","HASC_2":"RU.TV.VE"}},{"type":"MultiPolygon","arcs":[[[-24,143,-136,-121,-132,144,-65,-28],[145]]],"properties":{"GID_2":"RUS.72.44_1","GID_0":"RUS","COUNTRY":"Russia","GID_1":"RUS.72_1","NAME_1":"Tver'","NL_NAME_1":"Тверскаяобласть","NAME_2":"Vyshnevolotskiyrayon","VARNAME_2":"NA","NL_NAME_2":"Вышневолоцкийрайон","TYPE_2":"Raion","ENGTYPE_2":"District","CC_2":"R18000","HASC_2":"RU.TV.VR"}},{"type":"MultiPolygon","arcs":[[[-146]]],"properties":{"GID_2":"RUS.72.45_1","GID_0":"RUS","COUNTRY":"Russia","GID_1":"RUS.72_1","NAME_1":"Tver'","NL_NAME_1":"Тверскаяобласть","NAME_2":"VyshniyVoloche","VARNAME_2":"VyshniyVolochek","NL_NAME_2":"ВышнийВолочёк","TYPE_2":"Gorod","ENGTYPE_2":"City","CC_2":"NA","HASC_2":"RU.TV.VG"}},{"type":"MultiPolygon","arcs":[[[-142,146,-140,147]]],"properties":{"GID_2":"RUS.72.46_1","GID_0":"RUS","COUNTRY":"Russia","GID_1":"RUS.72_1","NAME_1":"Tver'","NL_NAME_1":"Тверскаяобласть","NAME_2":"Waterbody","VARNAME_2":"NA","NL_NAME_2":"NA","TYPE_2":"Waterbody","ENGTYPE_2":"Waterbody","CC_2":"NA","HASC_2":"NA"}},{"type":"MultiPolygon","arcs":[[[-127,148,-5,-94,149,150]]],"properties":{"GID_2":"RUS.72.47_1","GID_0":"RUS","COUNTRY":"Russia","GID_1":"RUS.72_1","NAME_1":"Tver'","NL_NAME_1":"Тверскаяобласть","NAME_2":"Zapadnodvinskiyrayon","VARNAME_2":"NA","NL_NAME_2":"Западнодвинскийрайон","TYPE_2":"Raion","ENGTYPE_2":"District","CC_2":"R18000","HASC_2":"RU.TV.ZA"}},{"type":"MultiPolygon","arcs":[[[-150,-93,-8,151]]],"properties":{"GID_2":"RUS.72.48_1","GID_0":"RUS","COUNTRY":"Russia","GID_1":"RUS.72_1","NAME_1":"Tver'","NL_NAME_1":"Тверскаяобласть","NAME_2":"Zharkovskiyrayon","VARNAME_2":"NA","NL_NAME_2":"Жарковскийрайон","TYPE_2":"Raion","ENGTYPE_2":"District","CC_2":"R18000","HASC_2":"RU.TV.ZH"}},{"type":"MultiPolygon","arcs":[[[-112,-122,152]]],"properties":{"GID_2":"RUS.72.49_1","GID_0":"RUS","COUNTRY":"Russia","GID_1":"RUS.72_1","NAME_1":"Tver'","NL_NAME_1":"Тверскаяобласть","NAME_2":"Zubtsovskiyrayon","VARNAME_2":"NA","NL_NAME_2":"Зубцовскийрайон","TYPE_2":"Raion","ENGTYPE_2":"District","CC_2":"R18000","HASC_2":"RU.TV.ZU"}}]}},"arcs":[[[79819,408856],[4658,-7524],[26438,-1167],[7358,21804],[8932,3040],[-5651,8445],[3547,2610],[6748,16122],[4380,-4545],[2898,-338],[4645,10073],[9488,2579],[5478,-16582]],[[158738,443373],[1138,-10165],[22270,-17228],[10203,-25027],[19253,-36144],[8892,-10011],[34088,-19408],[3943,-18886],[31626,-13881]],[[290151,292623],[5703,-19162]],[[295854,273461],[-3943,-5742],[-1840,-7248],[-5240,-7063],[-6259,-4299],[-9183,1321],[-2766,9458],[-6219,4453],[-1588,12007],[-10361,1044],[-4512,-15017],[-7503,-153],[-2726,7677],[-10361,-2211],[-3441,-13235]],[[219912,254453],[-8442,5343],[-6061,-12253]],[[205409,247543],[-54756,48551]],[[150653,296094],[-11724,6878],[-22482,5436],[-2422,16460],[12373,15323],[-13683,42194],[-23541,-8138],[-9355,34609]],[[257003,12836],[-1628,14464],[371,17535],[-4645,8076],[3666,15201],[10718,-4729],[1429,16460],[-14754,8537],[-7715,9827]],[[244445,98207],[5889,2487],[10440,-1228],[8310,-4269],[10904,3931],[15231,-9643],[9712,-2979],[8641,14894],[-304,22418]],[[313268,123818],[25909,-11762],[12942,-25580],[35715,1566]],[[387834,88042],[1071,-8169],[-4168,-3900],[199,-9182],[-5465,-4759],[-9475,1596],[1112,-16705],[-5704,-5497],[-6894,-614],[344,-5251],[-9408,-1167],[-7344,3101],[-8694,-10656],[-5108,1413],[-8919,-24076],[-2977,-737],[-3877,14034],[-7027,-11301],[-7794,10779],[-7317,-16797],[-9303,7585],[-16210,2978],[-7873,2119]],[[786809,661497],[-2263,-430],[-529,2119],[1535,1074],[1257,-2763]],[[816582,562246],[-7966,-13297]],[[808616,548949],[-18697,11547],[-18050,-1137],[-25830,19992],[-10519,-8292],[-21927,18456]],[[713593,589515],[7688,6050],[6550,10810],[2687,15078],[833,16122],[9038,1811],[-8813,32644],[-476,13604],[1733,13512],[4711,14985],[-5624,30187],[-3930,13451],[1006,16951],[-1615,11239]],[[727381,785959],[15165,10380],[5399,-7585],[8257,2856],[-2144,-10503],[-6907,-15876],[13603,-16214],[8376,11085],[14583,-19315],[7608,-215],[11076,5497],[9713,1750],[7741,-6019]],[[819851,741800],[6126,-11332]],[[825977,730468],[-4075,-53371]],[[821902,677097],[3665,-22510],[6206,-20237]],[[831773,634350],[1826,-17074],[-6603,-6940],[-6113,-38877],[-4301,-9213]],[[414894,705226],[-4300,890],[1905,4269],[3242,-3194],[-847,-1965]],[[503142,767780],[-4486,-21312],[-7000,-20268],[3203,-26778]],[[494859,699422],[-13842,12652]],[[481017,712074],[-14039,-33227],[-4208,706],[-6921,-28835],[-1707,-22663],[-3560,-11147],[-4499,4237]],[[446083,621145],[-20126,8998],[-3229,16399],[-48259,8291]],[[374469,654833],[-2091,4514],[-3771,1750],[-1562,5528],[4949,12069],[-1310,4145],[7357,8752],[7689,4514],[2223,10748],[-2898,6081],[3996,10011],[-3586,8322],[-11486,4975],[-5809,8168],[3295,9520],[13166,14157],[1072,7216],[4142,5190],[7265,2672],[7172,-4269],[5915,-3531],[4075,368],[18089,28344],[3295,338],[1284,-7738],[15667,3009],[5386,-7923],[7013,-6203],[11168,154],[5770,-10687],[9699,3562],[6034,-8261],[5465,-2548]],[[335366,566545],[-10295,9029],[358,11700],[3612,11792],[3851,-2211],[4327,1750],[2858,4576],[-397,6848],[-3718,6295],[1958,8445],[3216,5221],[-5293,8291],[8125,645],[8733,6971],[11446,-5620],[794,5435],[3110,4545],[4949,584],[1469,3992]],[[446083,621145],[-714,-7216],[-11473,-3532],[-5055,-21250],[3494,-5958],[7860,-3777],[-3798,-20790],[-12809,-1105],[-3877,-41917],[9633,-10042]],[[429344,505558],[-17612,-3440]],[[411732,502118],[-27365,3225]],[[384367,505343],[-2065,17258],[-12279,8199],[5954,8691],[-40611,27054]],[[620568,272049],[10388,24782],[-17428,29695],[14344,15569],[-11803,12591]],[[616069,354686],[-3599,9335],[-6206,7125],[-5809,11055],[2739,12990],[14635,25580],[-1509,11792]],[[616320,432563],[9276,3347],[4116,-4821],[15588,-737],[2792,10595],[14741,368],[5518,18825],[9276,3439]],[[677627,463579],[2276,-16153],[67367,-16245],[2766,-15354]],[[750036,415827],[42529,7708]],[[792565,423535],[847,-22786]],[[793412,400749],[-9792,-13451],[-11407,-44220],[-13510,-860],[-8337,-8629],[-4935,14556],[-5465,7247],[-9329,-276],[-4499,-13389],[-9898,-584],[-6405,-23400],[741,-15631],[10030,-16459],[-3228,-13942],[1786,-12284]],[[719164,259427],[3467,-12314],[-3004,522],[-900,-3439],[-12134,3071],[-2646,-9397],[-3295,-31],[-1231,-14402],[-3745,3715],[1535,2795],[-3229,4637],[-19068,1382],[-11022,8261],[-7477,-5528],[-3890,4207],[1892,17043],[-5756,2150],[-5293,6326],[-6061,-5313],[-264,-5496],[-1946,6755],[-2064,-429],[-4843,-6787],[-7622,14894]],[[698190,366447],[-14370,28928],[-14979,11209],[-9025,-18978],[-3573,-16276],[26386,-92],[14463,-7862],[1098,3071]],[[926664,406706],[2144,4361],[-6749,20360],[-1482,17442],[1416,15785]],[[921993,464654],[16779,35683],[17387,18733],[3851,15262]],[[960010,534332],[9488,-3777],[10745,4145],[3864,10165],[10559,61],[5333,-24843],[-9819,-17596],[-9871,2364],[-357,-17503],[4631,-4115],[-662,-7094],[8006,-3286],[-556,-8537],[-5703,-2979],[5730,-11055],[2210,-10840],[-5002,-9213],[-13603,-3838],[-4619,-3563],[11367,-7216],[371,-5835],[-7040,-16490],[5042,-6081],[-40,-14893],[6312,1136],[6682,-13236],[-3930,3440],[-331,-4085],[-26041,-4053],[-8681,22018],[-820,9704],[-7609,6326],[-4711,-2825],[-3771,8629],[-8376,1259],[-2144,6080]],[[901019,543422],[-2527,982],[2236,1474],[291,-2456]],[[816582,562246],[10454,-1627],[29932,5496],[45745,12345],[16197,10288],[16170,14126]],[[935080,602874],[-2064,-5251],[529,-10134],[3785,-9244],[-1019,-10563],[14211,-22080],[9488,-11270]],[[921993,464654],[-12280,13205],[-10401,552],[-7013,16307],[-13735,-2733],[-8046,-5160],[-11591,-14341],[-12188,338],[-2104,35407],[-5862,12407],[-9090,9151],[-12770,1812],[-14265,-4883]],[[802648,526716],[2594,13297],[3374,8936]],[[831773,634350],[24613,1413],[5624,-4607],[7476,11608],[9488,-3347],[7410,-6602],[4023,11945],[6246,-2180],[2898,-12928],[6629,-2825],[318,11884],[8244,-6449]],[[914742,632262],[1415,-3992],[7874,-4637],[9236,-11854],[1813,-8905]],[[926664,406706],[-3996,338],[397,5036],[-2978,1812],[-264,2365],[-3652,-921],[-3269,-4330],[-8773,-2519],[-662,-2948],[-8482,-4268],[-2157,-7677],[4010,-4607],[106,-2118],[-3256,-1659],[1972,-6756],[-4830,-4483],[-4949,-12376],[-7304,4576],[-10176,-5651],[-1866,-5189],[-6762,3286],[-1455,-1843],[-4658,3317],[-27,2241],[-6391,2334],[-5227,-4023]],[[842015,360643],[-17626,18057],[-489,16798],[-20378,6019],[-10110,-768]],[[792565,423535],[-10533,-1904]],[[782032,421631],[5968,56719]],[[788000,478350],[14648,48366]],[[873390,385548],[1072,2549],[-662,1443],[-2038,277],[-1151,-3071],[2779,-1198]],[[791917,334203],[-2779,2303],[1760,1904],[1799,-1382],[-780,-2825]],[[842015,360643],[-11327,-8383],[7013,-8599],[1258,-14771],[-4936,-9489],[1786,-10011],[-1032,-21864],[-3348,2088],[-1005,-3501],[-8430,1720],[-2792,6234],[-24017,9397],[728,-6326],[-20206,-15017],[-477,-2856],[-3321,-1720],[-2699,1874],[-2673,-5098],[-6352,-338],[-212,-5957],[-2487,-2242],[-9806,215],[-2699,3470],[-9276,-11147],[-9263,-4084],[-3030,-7094],[-4248,12283]],[[823490,702616],[2487,27852]],[[819851,741800],[-106,7124],[10679,34763],[7595,46370]],[[838019,830057],[16686,4975],[1853,4944],[-913,22601],[9898,6173],[17758,-9796]],[[883301,858954],[-8628,-15262],[8429,-11639],[-2567,-5927],[-14635,-15170],[10070,-3255],[940,-7923],[4141,-7309],[7040,1843],[5187,-3593],[4301,1106],[3679,-10196],[10625,-14924],[2686,-6756],[-3374,-2211],[-11843,-307],[-5214,-20114],[-21291,-5651],[-3837,-5896],[-1350,-11178],[17665,1965],[8033,-8936],[-22535,-92],[-8721,-3163]],[[862102,704366],[-14701,-10472],[-13206,12407],[-10705,-3685]],[[386894,505066],[24838,-2948]],[[429344,505558],[29429,-7063],[24295,14648]],[[483068,513143],[4539,-47169]],[[487607,465974],[10110,-20912],[9514,-13635],[-278,-12714],[2144,-9181],[10057,-8445],[-2766,-11854],[-6127,-92],[-1693,-5589],[-4645,1013],[-20153,-10195],[-2012,-10871],[-7608,-3531]],[[474150,359968],[-5068,9304]],[[469082,369272],[-15125,11148],[-34643,-4146]],[[419314,376274],[-2620,36114],[-5426,1474],[2144,6418],[-11142,10748],[-3321,-9643],[-16197,11577],[252,19992]],[[383004,452954],[14542,20421]],[[397546,473375],[2078,7155],[-8151,5681],[-2369,15508],[-2210,3347]],[[587645,809820],[11195,12928],[4274,10165],[133,6295],[-5929,8199],[5108,7585],[4407,-2119],[27550,21681],[10798,491],[24374,-9919],[13603,-1597]],[[683158,863529],[22072,-34762],[11817,-25427]],[[717047,803340],[-52997,-51099],[-9951,-4545],[-13060,7217],[-16700,15323],[-9051,3716],[-7648,-1320]],[[607640,772632],[-9938,20974]],[[597702,793606],[-10057,16214]],[[616320,432563],[-13801,22571],[-3864,15754]],[[598655,470888],[-754,28467]],[[597901,499355],[-5174,5527],[-2051,8507],[1799,9826],[10361,-1873],[1972,6326],[-794,12284],[10136,-768],[2091,17350],[32420,41733],[4658,-3807],[12213,11792]],[[665532,606252],[3494,-9919],[8376,-1996],[5756,-9059],[10480,3040],[2620,-10288]],[[696258,578030],[-7397,-12897],[8694,-9459],[-21026,-30739],[4115,-44773],[9779,-11363],[-12796,-5220]],[[713593,589515],[-8257,-11055],[-9078,-430]],[[665532,606252],[225,9335],[-11313,6326],[-503,26840],[-7278,1381],[-4764,-13235],[-14926,1628]],[[626973,638527],[-2938,17688],[8548,26317],[-2567,19807],[5611,15416],[1045,19101],[-22283,22970]],[[614389,759826],[-6749,12806]],[[717047,803340],[4803,-11208],[5531,-6173]],[[717047,803340],[22747,9244],[1574,10809],[17057,8138],[1694,-10656],[18168,1413],[9395,17596],[12505,-14280],[13683,10103]],[[813870,835707],[11102,-460],[13047,-5190]],[[258869,187907],[-2303,337],[-225,2795],[1946,1013],[1085,-2733],[-503,-1412]],[[295854,273461],[25539,399],[9898,-17104]],[[331291,256756],[-31295,-39308],[10281,-5036],[2872,-30248],[-2236,-11976],[1429,-17903],[6312,-19224],[-5386,-9243]],[[244445,98207],[-2024,10011],[-16594,20206],[-11248,6817],[-9302,1413]],[[205277,136654],[3043,34670],[-5160,6449],[11300,34363],[5452,42317]],[[418546,139233],[-6325,-2149],[-3255,-9489],[-5862,-6326],[10216,-9397],[-5743,-8906],[2037,-8199],[-1971,-6479],[-4883,-1505],[-424,11331],[-5756,5896],[-5399,-4974],[-2805,8690],[-5161,-13297],[4619,-6387]],[[331291,256756],[31361,7431],[28304,11516]],[[390956,275703],[3388,-7708],[8535,-12683],[40,-7093],[-4883,-13696],[13735,-45756],[1919,-18303],[-423,-15784],[5279,-15447]],[[306493,478381],[-4274,1105],[-159,2518],[3837,2119],[1443,-2487],[-847,-3255]],[[384367,505343],[2527,-277]],[[397546,473375],[-25790,-36789]],[[371756,436586],[-5849,3593],[-4512,-3777],[-5717,2426],[-4710,-2703],[-1496,-7708],[-4300,-9673],[-21411,-399],[-20087,-3869],[-1204,-25489],[-8032,-6356]],[[294438,382631],[-15628,13819],[10626,35990],[5081,12744],[-17559,3409],[-7900,9735],[-13841,1812],[-10335,7892],[53,14249],[-28940,19530]],[[215995,501811],[927,8752],[11962,-491],[4115,3869],[-397,7708],[4168,3071],[9157,-2549],[5108,1843],[-648,6449],[9699,20667],[2409,4821],[7251,7094],[6444,3439],[8906,-6817],[1958,5773],[4129,3347],[9977,-11454],[5095,4053],[1799,6050],[9726,4115],[5677,-8046],[1747,-4760],[-1032,-1689],[7317,-6326],[3877,15815]],[[158738,443373],[5505,2856],[-3136,10963],[6563,1289],[-820,10441],[14582,5067],[3718,8844],[12571,-3255],[2938,6480],[-3838,11823],[2594,6448],[6563,-4268],[10017,1750]],[[294438,382631],[-4856,-17811],[13907,-10073],[-1852,-6633],[-15641,-7677],[-953,-20329],[19902,2917],[-874,-22356],[-8535,737],[-5385,-8783]],[[808616,548949],[-20616,-70599]],[[782032,421631],[-31996,-5804]],[[465376,194570],[-2950,1505],[2077,2703],[1800,-1290],[-927,-2918]],[[478702,122313],[-4566,-5006],[-4419,-12467],[-5518,19193],[344,6541],[-5823,5742],[-6960,2887],[-6391,-8077],[-15165,-1228],[-6814,9274],[-4844,61]],[[390956,275703],[993,16091],[24242,14065],[-106,14372],[12531,4422]],[[428616,324653],[3891,-16430],[15429,154],[1958,7616],[16792,-13635],[-1402,-5036],[13378,-13481],[24599,-12499],[6127,17750],[42913,-87581]],[[552301,201511],[-7569,-10533],[-22270,22878],[-13961,-830],[-30117,-67313],[318,-23400]],[[683158,863529],[3229,19531],[11870,-5988],[9540,13757],[6987,-5036],[8456,10595],[3453,-1935],[9594,1935],[2977,-4914],[8932,10165],[10785,-2058],[3202,6234],[-1283,10042],[9448,17627],[7185,706]],[[777533,934190],[31692,-26072],[5862,-43790],[-1217,-28621]],[[371756,436586],[11248,16368]],[[419314,376274],[4843,-29388],[8006,-5681],[-3547,-16552]],[[821902,677097],[1588,25519]],[[862102,704366],[12333,3163],[291,-10257],[7927,-307],[-8840,-9489],[-1561,-7892],[3533,-5036],[22270,-6418],[10136,-14403],[6551,-21465]],[[597901,499355],[794,-13451]],[[598695,485904],[-8033,860],[-6126,8322],[-3361,8537],[-424,10871],[-21397,12284],[-5835,-10411],[-6656,7739],[-12690,-20483],[-4738,-2702],[-10917,8414]],[[518518,509335],[-3149,15047],[24004,22725],[6431,24321],[36099,29818],[-7001,8844],[18129,14065],[10732,-10625],[23210,24997]],[[606224,209894],[-13100,1014],[-10428,4391],[-6920,-2580],[-16356,-16306],[-7119,5098]],[[469082,369272],[9527,-18732]],[[478609,350540],[15509,4115],[3678,-8721],[-7582,-7309],[11129,-8936],[20894,13696],[8654,491],[7146,17596],[5028,-4053],[-6881,-23646],[7622,-4790],[3665,-19224],[11367,-7554],[11023,2886],[15098,14188],[31110,35407]],[[620568,272049],[4301,-9796],[-4288,-12591],[-4181,2303],[1019,2825],[-2395,3317],[-4248,-154],[-820,-2978],[3599,-5804],[-3150,-1259],[-1190,-13205],[8111,338],[2594,4882],[1746,-645],[781,-3193],[-2263,-5958],[-2395,399],[-661,-13204],[2249,-3378],[-13153,-4054]],[[150653,296094],[33147,-30986]],[[183800,265108],[-18777,-45203],[-50945,584]],[[114078,220489],[-37514,6234],[-8059,-2150],[-12518,11424],[6074,9489],[-4804,15815],[-27616,8444],[-900,9981],[4790,36113],[-18552,15140],[-4843,276],[-8376,14832],[8535,10472],[-10295,1106],[6577,14156],[5398,768],[477,7462],[2554,9827],[4142,6602],[1627,17627],[5095,2027],[9487,-2365],[21345,-15661],[5650,5620],[2713,5834],[14754,-706]],[[553333,432471],[-1773,1812],[2025,1750],[1005,-1689],[-1257,-1873]],[[478609,350540],[-4459,9428]],[[487607,465974],[-3771,34118]],[[483836,500092],[8085,1750],[4102,11086],[12134,-11762],[10361,8169]],[[598695,485904],[-40,-15016]],[[503142,767780],[16170,-9336],[8483,10994],[-5796,11946],[2739,9519],[-1932,6971],[10877,13635],[7265,-6910],[6338,-2180],[6034,4054],[2197,-5252],[10414,-7093],[5359,8045],[13590,3102],[2765,4545]],[[597702,793606],[16687,-33780]],[[626973,638527],[-14014,2702],[-13682,6971],[-14662,-1751],[-9885,8537],[-9514,-3900],[-18936,14833],[-5822,13112],[-12081,3808],[-4843,5251],[-9395,-7769]],[[514139,680321],[-19280,19101]],[[558560,688920],[-503,3378],[-2421,-1167],[2924,-2211]],[[777533,934190],[251,17965],[9038,9612],[6233,-3962],[13788,7462],[-9713,21036],[10322,5835],[4909,6571],[3930,184],[8972,-7769],[4922,8875],[12770,-13389],[-807,-3532],[-3864,-3930]],[[838284,979148],[8323,-20821],[-582,-4821],[-2184,-3562],[-15217,-4269],[503,-2610]],[[829127,943065],[14185,-1965],[12730,2671]],[[856042,943771],[3996,-2364],[3123,-11731],[6153,0],[2805,-2672],[1919,-3040],[-26,-3685],[2130,-7063],[6907,-7524],[-1058,-10963],[979,-2917],[3097,-2149],[6669,2640],[2765,-3132],[1972,-7462]],[[897473,881709],[5968,-3716],[2792,-4944],[-2898,-8936],[-7066,1412],[-5426,-9489],[-7542,2918]],[[481017,712074],[33122,-31753]],[[483836,500092],[-768,13051]],[[493866,597469],[-714,3009],[-2687,-952],[516,-2579],[2885,522]],[[856042,943771],[-20590,-2303],[-6325,1597]],[[838284,979148],[3414,3470],[317,-4084],[1721,-3317],[10691,-13757],[6180,-13052],[14754,-22540],[10414,-9949],[3891,-9797],[10255,-11638],[4830,-12836],[-159,-5712],[-7119,5773]],[[183800,265108],[21609,-17565]],[[205277,136654],[-14847,-30617],[-9951,-13020],[-7423,-6633],[-23806,6602],[-7436,-17780],[-11619,-21926],[-10811,-12222]],[[119384,41058],[-7304,-4146],[-18804,5558],[-8640,8169],[436,10256],[-8919,26809],[4222,13666],[-4671,6571],[860,12652],[15786,13573],[3110,11178],[-7569,15048],[-1032,15784],[9792,12314],[-1178,5374],[-7992,5006],[754,15354],[10070,1996],[-7146,8414],[22919,-4145]],[[257003,12836],[-10983,31],[-3454,-12867],[-6020,2303],[198,7340],[7410,11546],[-9686,6234],[-4962,-20606],[-2025,8814],[-5862,6295],[-6471,307],[-3202,-2119],[-3321,-6817],[-11036,522],[-2845,5435],[-12412,-11669],[-8363,8015],[6775,2334],[5266,5804],[-13272,921],[1654,8107],[-1217,6081],[-4076,3040],[-10163,-123],[-13404,-5343],[-1734,-5866],[503,-12836],[-6907,8138],[-8337,614],[-9673,14587]],[[606224,209894],[9660,2211],[2937,-6019],[-2302,-1474],[4221,-8045],[-4208,-4607],[-3136,2733],[-17692,-8015],[1191,-6418],[4843,-3347],[-1350,-3378],[1324,-2395],[-7993,-9612],[1906,-4023],[-3983,-4422],[780,-5006],[4288,523],[2540,-3348],[-2606,-2948],[516,-2549],[-1549,-5220],[-3347,1198],[-2687,-7002],[-4009,1320],[423,-4299],[-2487,-5957],[-3520,-614],[-5770,-13789],[-7039,5098],[-7953,-4975],[-13484,5436],[-7688,-5866],[-8654,4852],[-4089,-5128],[-6140,-13788],[-22813,10840],[-9726,16306],[-7926,4146]]],"bbox":[30.8178,55.5864,38.3749,58.8428],"transform":{"scale":[0.000007557107557107555,0.0000032564032564032557],"translate":[30.8178,55.5864]}}