{"type":"Topology","objects":{"muni":{"type":"GeometryCollection","geometries":[{"type":"MultiPolygon","arcs":[[[0,1,2,3,4,5]]],"properties":{"GID_2":"RUS.73.1_1","GID_0":"RUS","COUNTRY":"Russia","GID_1":"RUS.73_1","NAME_1":"Tyumen'","NL_NAME_1":"Тюменскаяобласть","NAME_2":"Abatskiyrayon","VARNAME_2":"NA","NL_NAME_2":"Абатскийрайон","TYPE_2":"Raion","ENGTYPE_2":"District","CC_2":"R58090","HASC_2":"RU.TY.AB"}},{"type":"MultiPolygon","arcs":[[[6,7,8,9,10,11,12,13]]],"properties":{"GID_2":"RUS.73.2_1","GID_0":"RUS","COUNTRY":"Russia","GID_1":"RUS.73_1","NAME_1":"Tyumen'","NL_NAME_1":"Тюменскаяобласть","NAME_2":"Armizonskiyrayon","VARNAME_2":"NA","NL_NAME_2":"Армизонскийрайон","TYPE_2":"Raion","ENGTYPE_2":"District","CC_2":"R58090","HASC_2":"RU.TY.AZ"}},{"type":"MultiPolygon","arcs":[[[14,15,16,17,18,19,20,21,22]]],"properties":{"GID_2":"RUS.73.3_1","GID_0":"RUS","COUNTRY":"Russia","GID_1":"RUS.73_1","NAME_1":"Tyumen'","NL_NAME_1":"Тюменскаяобласть","NAME_2":"Aromashevskiyrayon","VARNAME_2":"NA","NL_NAME_2":"Аромашевскийрайон","TYPE_2":"Raion","ENGTYPE_2":"District","CC_2":"R58090","HASC_2":"RU.TY.AS"}},{"type":"MultiPolygon","arcs":[[[23,-14,24,25,26,27,28]]],"properties":{"GID_2":"RUS.73.4_1","GID_0":"RUS","COUNTRY":"Russia","GID_1":"RUS.73_1","NAME_1":"Tyumen'","NL_NAME_1":"Тюменскаяобласть","NAME_2":"Berdyuzhskiyrayon","VARNAME_2":"NA","NL_NAME_2":"Бердюжскийрайон","TYPE_2":"Raion","ENGTYPE_2":"District","CC_2":"R58090","HASC_2":"RU.TY.BE"}},{"type":"MultiPolygon","arcs":[[[-12,29,30,31,32,-15,33,-26,34]]],"properties":{"GID_2":"RUS.73.5_1","GID_0":"RUS","COUNTRY":"Russia","GID_1":"RUS.73_1","NAME_1":"Tyumen'","NL_NAME_1":"Тюменскаяобласть","NAME_2":"Golyshmanovskiyrayon","VARNAME_2":"NA","NL_NAME_2":"Голушмановскийрайон","TYPE_2":"Raion","ENGTYPE_2":"District","CC_2":"R58090","HASC_2":"RU.TY.GO"}},{"type":"MultiPolygon","arcs":[[[35,36,37,38]]],"properties":{"GID_2":"RUS.73.6_1","GID_0":"RUS","COUNTRY":"Russia","GID_1":"RUS.73_1","NAME_1":"Tyumen'","NL_NAME_1":"Тюменскаяобласть","NAME_2":"Isetskiyrayon","VARNAME_2":"NA","NL_NAME_2":"Исетскийрайон","TYPE_2":"Raion","ENGTYPE_2":"District","CC_2":"R58090","HASC_2":"RU.TY.IS"}},{"type":"MultiPolygon","arcs":[[[39]]],"properties":{"GID_2":"RUS.73.7_1","GID_0":"RUS","COUNTRY":"Russia","GID_1":"RUS.73_1","NAME_1":"Tyumen'","NL_NAME_1":"Тюменскаяобласть","NAME_2":"Ishim","VARNAME_2":"NA","NL_NAME_2":"Ишим","TYPE_2":"Gorod","ENGTYPE_2":"City","CC_2":"NA","HASC_2":"RU.TY.IG"}},{"type":"MultiPolygon","arcs":[[[40,-3,41,42,43,44,-27,-34,-23,45],[-40]]],"properties":{"GID_2":"RUS.73.8_1","GID_0":"RUS","COUNTRY":"Russia","GID_1":"RUS.73_1","NAME_1":"Tyumen'","NL_NAME_1":"Тюменскаяобласть","NAME_2":"Ishimskiyrayon","VARNAME_2":"NA","NL_NAME_2":"Ишимскийрайон","TYPE_2":"Raion","ENGTYPE_2":"District","CC_2":"R58091","HASC_2":"RU.TY.IR"}},{"type":"MultiPolygon","arcs":[[[46,-29,47,-44,48,49]]],"properties":{"GID_2":"RUS.73.9_1","GID_0":"RUS","COUNTRY":"Russia","GID_1":"RUS.73_1","NAME_1":"Tyumen'","NL_NAME_1":"Тюменскаяобласть","NAME_2":"Kazanskiyrayon","VARNAME_2":"NA","NL_NAME_2":"Казанскийрайон","TYPE_2":"Raion","ENGTYPE_2":"District","CC_2":"R58091","HASC_2":"RU.TY.KA"}},{"type":"MultiPolygon","arcs":[[[50,51,52,53,54,55]]],"properties":{"GID_2":"RUS.73.10_1","GID_0":"RUS","COUNTRY":"Russia","GID_1":"RUS.73_1","NAME_1":"Tyumen'","NL_NAME_1":"Тюменскаяобласть","NAME_2":"Nizhnetavdinskiyrayon","VARNAME_2":"NA","NL_NAME_2":"Нижнетавдинскийрайон","TYPE_2":"Raion","ENGTYPE_2":"District","CC_2":"R58091","HASC_2":"RU.TY.NI"}},{"type":"MultiPolygon","arcs":[[[56,-10,57,58,59,60,61,-31]]],"properties":{"GID_2":"RUS.73.11_1","GID_0":"RUS","COUNTRY":"Russia","GID_1":"RUS.73_1","NAME_1":"Tyumen'","NL_NAME_1":"Тюменскаяобласть","NAME_2":"Omutinskiyrayon","VARNAME_2":"NA","NL_NAME_2":"Омутинскийрайон","TYPE_2":"Raion","ENGTYPE_2":"District","CC_2":"R58091","HASC_2":"RU.TY.OM"}},{"type":"MultiPolygon","arcs":[[[-50,62,-42,-2,63]]],"properties":{"GID_2":"RUS.73.12_1","GID_0":"RUS","COUNTRY":"Russia","GID_1":"RUS.73_1","NAME_1":"Tyumen'","NL_NAME_1":"Тюменскаяобласть","NAME_2":"Sladkovskiyrayon","VARNAME_2":"NA","NL_NAME_2":"Сладковскийрайон","TYPE_2":"Raion","ENGTYPE_2":"District","CC_2":"R58091","HASC_2":"RU.TY.SL"}},{"type":"MultiPolygon","arcs":[[[-5,64,-46,-22,65,66,67,68]]],"properties":{"GID_2":"RUS.73.13_1","GID_0":"RUS","COUNTRY":"Russia","GID_1":"RUS.73_1","NAME_1":"Tyumen'","NL_NAME_1":"Тюменскаяобласть","NAME_2":"Sorokinskiyrayon","VARNAME_2":"NA","NL_NAME_2":"Сорокинскийрайон","TYPE_2":"Raion","ENGTYPE_2":"District","CC_2":"R58091","HASC_2":"RU.TY.SO"}},{"type":"MultiPolygon","arcs":[[[69]]],"properties":{"GID_2":"RUS.73.14_1","GID_0":"RUS","COUNTRY":"Russia","GID_1":"RUS.73_1","NAME_1":"Tyumen'","NL_NAME_1":"Тюменскаяобласть","NAME_2":"Tobol'sk","VARNAME_2":"NA","NL_NAME_2":"Тобольск","TYPE_2":"Gorsovet","ENGTYPE_2":"District","CC_2":"NA","HASC_2":"RU.TY.TB"}},{"type":"MultiPolygon","arcs":[[[70,71,72,73,-52,74],[-70]]],"properties":{"GID_2":"RUS.73.15_1","GID_0":"RUS","COUNTRY":"Russia","GID_1":"RUS.73_1","NAME_1":"Tyumen'","NL_NAME_1":"Тюменскаяобласть","NAME_2":"Tobol'skiyrayon","VARNAME_2":"NA","NL_NAME_2":"Тобольскийрайон","TYPE_2":"Raion","ENGTYPE_2":"District","CC_2":"R58091","HASC_2":"RU.TY.TO"}},{"type":"MultiPolygon","arcs":[[[75]]],"properties":{"GID_2":"RUS.73.16_1","GID_0":"RUS","COUNTRY":"Russia","GID_1":"RUS.73_1","NAME_1":"Tyumen'","NL_NAME_1":"Тюменскаяобласть","NAME_2":"Tyumen'","VARNAME_2":"NA","NL_NAME_2":"Тюмень","TYPE_2":"Gorsovet","ENGTYPE_2":"District","CC_2":"NA","HASC_2":"RU.TY.TG"}},{"type":"MultiPolygon","arcs":[[[-56,76,77,78,-37,79],[-76]]],"properties":{"GID_2":"RUS.73.17_1","GID_0":"RUS","COUNTRY":"Russia","GID_1":"RUS.73_1","NAME_1":"Tyumen'","NL_NAME_1":"Тюменскаяобласть","NAME_2":"Tyumenskiyrayon","VARNAME_2":"NA","NL_NAME_2":"Тюменскийрайон","TYPE_2":"Raion","ENGTYPE_2":"District","CC_2":"R58091","HASC_2":"RU.TY.TR"}},{"type":"MultiPolygon","arcs":[[[-39,80,-8,81]]],"properties":{"GID_2":"RUS.73.18_1","GID_0":"RUS","COUNTRY":"Russia","GID_1":"RUS.73_1","NAME_1":"Tyumen'","NL_NAME_1":"Тюменскаяобласть","NAME_2":"Uporovskiyrayon","VARNAME_2":"NA","NL_NAME_2":"Упоровскийрайон","TYPE_2":"Raion","ENGTYPE_2":"District","CC_2":"R58091","HASC_2":"RU.TY.UP"}},{"type":"MultiPolygon","arcs":[[[82,-71,83]]],"properties":{"GID_2":"RUS.73.19_1","GID_0":"RUS","COUNTRY":"Russia","GID_1":"RUS.73_1","NAME_1":"Tyumen'","NL_NAME_1":"Тюменскаяобласть","NAME_2":"Uvatskiyrayon","VARNAME_2":"NA","NL_NAME_2":"Уватскийрайон","TYPE_2":"Raion","ENGTYPE_2":"District","CC_2":"R58091","HASC_2":"RU.TY.UV"}},{"type":"MultiPolygon","arcs":[[[84,85,86,-67,87,-20,88,-18,89,90,-72,-83]]],"properties":{"GID_2":"RUS.73.20_1","GID_0":"RUS","COUNTRY":"Russia","GID_1":"RUS.73_1","NAME_1":"Tyumen'","NL_NAME_1":"Тюменскаяобласть","NAME_2":"Vagayskiyrayon","VARNAME_2":"NA","NL_NAME_2":"Вагайскийрайон","TYPE_2":"Raion","ENGTYPE_2":"District","CC_2":"R58090","HASC_2":"RU.TY.VA"}},{"type":"MultiPolygon","arcs":[[[-6,-69,91,-86,92]]],"properties":{"GID_2":"RUS.73.21_1","GID_0":"RUS","COUNTRY":"Russia","GID_1":"RUS.73_1","NAME_1":"Tyumen'","NL_NAME_1":"Тюменскаяобласть","NAME_2":"Vikulovskiyrayon","VARNAME_2":"NA","NL_NAME_2":"Викуловскийрайон","TYPE_2":"Raion","ENGTYPE_2":"District","CC_2":"R58090","HASC_2":"RU.TY.VI"}},{"type":"MultiPolygon","arcs":[[[-38,-79,93,94,95]]],"properties":{"GID_2":"RUS.73.22_1","GID_0":"RUS","COUNTRY":"Russia","GID_1":"RUS.73_1","NAME_1":"Tyumen'","NL_NAME_1":"Тюменскаяобласть","NAME_2":"Yalutorovskiyrayon","VARNAME_2":"NA","NL_NAME_2":"Ялуторовскийрайон","TYPE_2":"Raion","ENGTYPE_2":"District","CC_2":"R58092","HASC_2":"RU.TY.YG"}},{"type":"MultiPolygon","arcs":[[[-54,96,-73,-91,97,98,99,-94,-78,100]]],"properties":{"GID_2":"RUS.73.23_1","GID_0":"RUS","COUNTRY":"Russia","GID_1":"RUS.73_1","NAME_1":"Tyumen'","NL_NAME_1":"Тюменскаяобласть","NAME_2":"Yarkovskiyrayon","VARNAME_2":"NA","NL_NAME_2":"Ярковскийрайон","TYPE_2":"Raion","ENGTYPE_2":"District","CC_2":"R58092","HASC_2":"RU.TY.YA"}},{"type":"MultiPolygon","arcs":[[[-17,101,-61,102,-95,-100,103,-98,-90]]],"properties":{"GID_2":"RUS.73.24_1","GID_0":"RUS","COUNTRY":"Russia","GID_1":"RUS.73_1","NAME_1":"Tyumen'","NL_NAME_1":"Тюменскаяобласть","NAME_2":"Yurginskiyrayon","VARNAME_2":"NA","NL_NAME_2":"Юргинскийрайон","TYPE_2":"Raion","ENGTYPE_2":"District","CC_2":"R58092","HASC_2":"RU.TY.YU"}},{"type":"MultiPolygon","arcs":[[[104]]],"properties":{"GID_2":"RUS.73.25_1","GID_0":"RUS","COUNTRY":"Russia","GID_1":"RUS.73_1","NAME_1":"Tyumen'","NL_NAME_1":"Тюменскаяобласть","NAME_2":"Zavodoukovsk","VARNAME_2":"NA","NL_NAME_2":"Заводоуковск","TYPE_2":"Gorod","ENGTYPE_2":"City","CC_2":"NA","HASC_2":"RU.TY.ZG"}},{"type":"MultiPolygon","arcs":[[[-9,-81,-96,-103,-60,105,-58],[-105]]],"properties":{"GID_2":"RUS.73.26_1","GID_0":"RUS","COUNTRY":"Russia","GID_1":"RUS.73_1","NAME_1":"Tyumen'","NL_NAME_1":"Тюменскаяобласть","NAME_2":"Zavodoukovskiyrayon","VARNAME_2":"NA","NL_NAME_2":"Заводоуковскийрайон","TYPE_2":"Raion","ENGTYPE_2":"District","CC_2":"R58090","HASC_2":"RU.TY.ZR"}}]}},"arcs":[[[600871,306134],[5876,-14018],[-639,-7403],[-5412,-7901],[-10803,-8979],[-3959,-290],[-3592,2799],[-4966,-3131],[-1810,-3919],[2304,-5371],[9632,-1970],[4375,-8398],[2546,-9580],[-1510,-2904],[-6844,-4582],[-2033,1576],[-11762,-8171],[1114,-4147],[7802,-5018],[-648,-8647],[4666,-13189],[48,-6801],[-2623,-11198],[-4734,-14661],[-2653,-4396],[-4259,-3836],[-6738,2447],[-11907,-1307],[-3727,-6490]],[[548615,146649],[-8809,7216],[-7232,-5143],[-17521,14371]],[[515053,163093],[-2111,10472],[-11771,16859],[-1559,6013],[2478,20426],[-2216,15884],[-3282,5454],[1181,7983],[2643,5267],[106,2800],[-2952,4168]],[[497570,258419],[-804,15449]],[[496766,273868],[11094,-3132],[7648,6615],[174,2198],[5208,6055],[4860,-6262],[1239,-7009],[14288,6947]],[[541277,279280],[44298,11488],[2817,5910],[12479,9456]],[[315769,125269],[-2255,871],[-11472,-9455],[-11742,-477],[-10136,13914],[-3088,622],[-13117,-7216],[-20213,5972],[-3988,5930],[-2885,8295],[-2633,10990],[-988,13686],[-3155,5620],[-8142,-2530],[-14124,3007]],[[207831,174498],[2469,4852],[1316,9850],[-2255,5433]],[[209361,194633],[774,17896],[9545,6511]],[[219680,219040],[11268,3919],[6564,10348],[6747,-892],[3011,-4728],[8054,975],[8838,-2800],[2391,-6200],[-9370,-22333],[-5615,-18933],[4288,-1576],[10910,1328],[8093,8481],[5809,-3401],[8867,5537],[-6263,14660],[16737,10182]],[[300009,213607],[4502,-6179]],[[304511,207428],[5334,974],[4153,-2550],[1007,-7258],[-2333,-7382],[12178,-2489],[1820,-11633]],[[326670,177090],[-10726,-4500]],[[315944,172590],[-175,-47321]],[[404598,299602],[-12469,3857],[-12759,9144],[-28790,31852]],[[350580,344455],[-8286,3981]],[[342294,348436],[4511,13085],[7270,498],[-1433,12524],[3253,6802],[-3146,4728],[-5392,2302],[184,7133]],[[347541,395508],[4366,4707],[2594,10845],[4531,1390],[3804,-6657],[11394,10493],[13669,124],[9806,3567],[10765,519],[3020,3628],[814,3650],[-697,6760],[5479,-2550],[2817,-7466],[20977,4397],[6128,-2841],[3088,-6035]],[[450096,420039],[11830,3526],[2188,-457]],[[464114,423108],[3165,-4085],[-2555,-12587],[977,-4064]],[[465701,402372],[3795,-6470]],[[469496,395902],[639,-7610],[-10784,-6740],[-11249,-4292],[-3930,-8336],[-910,-14640],[-2033,-9352],[-7551,-1825],[-2042,-2883],[14385,-22208],[-8383,-622],[-14976,-7238]],[[422662,310156],[-5266,954],[-3360,-12089],[-9438,581]],[[383862,43754],[-4859,2696],[-4212,-456],[-2207,-3069],[320,-5184],[-1520,-2738],[-813,-4665],[-4569,-4106],[1568,15013],[-2169,8668],[-5498,8357],[-6351,6988],[-4162,1659],[-6912,11654],[-6951,3318],[-1655,8999],[-6118,7984],[-5024,1970],[-4744,11301],[2517,4044],[-271,4002],[-2527,4313],[-1936,767]],[[315944,172590],[18935,7424]],[[334879,180014],[9874,-10908],[7289,1701],[12575,8087]],[[364617,178894],[34211,-26646],[5663,-5889]],[[404491,146359],[2895,-16175]],[[407386,130184],[-4434,-6677],[-5982,-3401],[-4570,-456],[-1897,-4313],[3485,-16693],[-465,-11032],[4715,-9601],[-1752,-2530],[-6293,-892],[-7676,-4707],[-2827,-8709],[300,-7403],[3872,-10016]],[[304511,207428],[-3040,4085]],[[301471,211513],[2856,16465],[5324,15842],[-3223,13562],[-2198,3774],[2382,25091],[5188,-663],[8229,20529],[-7464,11239],[4414,8212],[5528,14391]],[[322507,339955],[19787,8481]],[[342294,348436],[4288,-1057],[3998,-2924]],[[404598,299602],[-4037,-6595],[-368,-8045],[2488,-21960],[-1800,-9290],[-6874,-8730],[-11810,-32847],[-3194,-4666],[-8616,-1576],[-3050,-2903],[-755,-4915],[1937,-4105],[6418,-6284],[-10349,-4147],[29,-4645]],[[334879,180014],[-8209,-2924]],[[74724,242555],[-1317,2862],[-9215,4292],[-33243,-207],[-4928,2779],[-3059,6573],[1249,5122],[2430,4147],[-12488,23578],[-2527,6947],[-1471,9331],[3950,10306],[-233,6719],[-6554,15469],[1578,4459],[7706,-1162],[15634,5952]],[[32236,349722],[33098,-21794],[7560,4313],[5228,-498],[6854,-3546],[2255,-4396]],[[87231,323801],[939,-7859],[7106,-8834],[9041,-21669],[6206,-10929]],[[110523,274510],[-17406,2738],[-8364,-2904],[-2188,-5121],[-3678,-17875],[-4163,-8793]],[[446911,211264],[-2197,560],[1491,2509],[1171,-830],[-465,-2239]],[[497405,262297],[165,-3878]],[[515053,163093],[-1830,-9000],[-3020,-9041],[-8016,-2737],[-8373,2447],[-3718,-4666]],[[490096,140096],[-16592,-8854]],[[473504,131242],[-9739,-2385],[-5527,6200],[-4366,1618],[-4889,-3526],[-7406,-1244],[-4917,5495],[-7677,2344],[-3475,-3526],[-14240,-5184],[-4521,4044]],[[406747,135078],[-2256,11281]],[[422662,310156],[3078,-4727],[14869,2322],[15286,-9891],[2962,-6698],[8626,-31126],[4269,-3836],[25653,6097]],[[473978,37305],[-10077,6159],[-7299,1576],[-10029,-1929],[-11220,5164],[-16902,-6408],[-1239,830],[-4453,10368],[-5160,4437],[-9661,4293],[-4599,-332],[-2197,-6179],[474,-8585],[4850,249],[2711,-3816],[1452,-6988],[-784,-2779],[-1946,-1140],[-14037,11529]],[[407386,130184],[-639,4894]],[[473504,131242],[9071,4893]],[[482575,136135],[-1404,-6490],[774,-14412],[-5092,-3816],[-590,-35127],[3349,-539],[2130,-3961],[-2343,-4956],[-9419,-5993],[3998,-23536]],[[1336,490585],[11781,23101],[-1336,4292],[-6011,3007],[-4173,8502],[7435,6511],[20581,10617],[22284,15014],[2120,-1224],[4647,-6490],[5702,-2406],[11849,10016],[6157,12421],[5837,3629],[4443,207],[5083,9995],[26882,17315]],[[124617,605092],[6254,-5827],[11578,-1887]],[[142449,597378],[18674,17564]],[[161123,614942],[16457,-13416],[406,-4479],[-3920,-7777],[9738,-11032],[14792,-11384],[4869,-8419],[-12391,-1742],[-7560,-10866],[-959,-9621],[-7676,-1722],[-5586,-4956],[-2159,-5412],[639,-4997],[5915,-8606],[12633,-28326],[2507,-9850],[10920,-1431],[-2149,-5848],[-8858,-5039],[-11452,-3463],[-7415,-103],[-2072,-7984],[-15256,-62],[-1646,-12048],[-4317,-5537]],[[146583,430822],[-13360,8627]],[[133223,439449],[-10842,2405],[-5595,-6366],[-12343,-746],[2759,15842],[-7996,2261],[-2914,-9249],[-2933,-4044],[-4414,-1741],[-18248,6013],[-45828,25008],[-23533,21753]],[[301471,211513],[-1462,2094]],[[219680,219040],[-193,8875],[-3650,6491],[-164,4396],[3204,3318],[552,4437],[-3853,2924],[-784,2530]],[[214792,252011],[-10,19741]],[[214782,271752],[6612,3526],[1297,2758],[-1133,9808],[6632,17253]],[[228190,305097],[3978,2924],[22469,6469],[9245,-269],[1529,3940],[136,5868],[12265,6035],[745,3670],[2353,2509],[7492,3297],[7435,2592],[2904,-1223],[2875,-5703]],[[301616,335206],[20891,4749]],[[482575,136135],[7521,3961]],[[548615,146649],[3108,-6968],[24075,3194],[1830,-3339],[-2846,-4292],[-6515,-747],[-10746,-4624],[-4850,-6698],[-1113,-6449],[6641,-19492],[4918,-3650],[7299,415],[377,-4977],[-5992,-18352],[-7541,-6387],[-2265,2240],[-4628,-581],[-7483,-16568],[-97,-5475],[2876,-6449],[929,-7963],[-3011,1493],[-2981,-1306],[-6186,-16112],[-10620,-5641],[-6660,-7921],[-6544,228],[-9574,11053],[-10610,3255],[-2149,2530],[-4405,14142],[-4124,3857],[-5750,2240]],[[496766,273868],[639,-11571]],[[469496,395902],[2778,-4935]],[[472274,390967],[7038,2302],[17812,746],[3321,6864],[10048,2861],[3021,-15262]],[[513514,388478],[-12779,-1036]],[[500735,387442],[-5343,-1950],[-2604,-8564],[9816,-10223],[4182,2551],[7386,-14495],[7434,1202],[5305,-11259],[-1558,-2323],[5953,-14640],[4541,-4562],[-3408,-16299],[968,-5931],[5073,-9476],[2797,-12193]],[[333669,636052],[-6719,-975],[726,6926],[1549,871],[3640,-767],[1326,-2924],[-522,-3131]],[[270977,819716],[6264,-9975],[17938,-18476],[8073,-726],[3195,-6884],[6263,-21069],[13330,-24054],[13505,-9518],[16457,-7258],[42768,1452],[11113,-2302],[7832,-8336],[-1355,-7279],[3843,-12628],[-552,-10845],[-7735,-892],[-697,-12193],[8800,-6304]],[[420019,662429],[-15634,-35273],[-4356,-13624],[-3756,-15843],[-11762,-4748],[-15576,-15615],[8916,-18601],[-3350,-3815],[-2701,-7486],[1859,-6760],[-6699,-10617],[-16360,-15594],[-35140,-25050]],[[315460,489403],[-18800,15076],[-17260,4043],[-436,5495],[-4995,3215],[-4202,-1867],[-2410,3671],[-494,3981],[842,10119],[-5062,12774],[3039,6097],[523,6283],[-1423,6843],[-9342,7258],[-12091,20156],[-6128,18580],[-26524,11716],[-30726,7403]],[[179971,630246],[-25576,-20778],[-11946,-12090]],[[124617,605092],[3892,2509],[-15982,43070],[-504,20135],[-1578,14392],[-3911,11259],[87,15594],[1917,5433],[4298,1120],[25712,-5391],[50571,17792],[319,35977],[-1026,10949],[20397,18663],[8742,-2799],[4182,-9518],[28335,19243],[16989,8046],[3920,8150]],[[70484,415436],[-4027,-4832],[-4686,2613],[-851,3878],[2633,3421],[3765,1410],[2130,-2550],[1036,-3940]],[[133223,439449],[28606,-20177]],[[161829,419272],[7329,-12214]],[[169158,407058],[-7358,-8502],[-6689,1597],[-5431,-1058],[-5847,-4582],[-5208,-1576],[-7270,-14599],[-3301,-10762],[-2459,-5039],[2953,-3961],[3572,-518],[3814,3318],[1675,4748],[2797,-3629],[378,-2778],[-9342,-7714],[-2565,-5993],[-9923,6615],[-3978,-2571],[-3243,-4915],[-12575,-767],[-7987,-5412],[1985,-6947],[-5925,-8212]],[[32236,349722],[1965,9870],[4724,13417],[-2178,4583],[-12933,-2406],[-2827,5910],[-6166,40747],[-5257,15532],[-4501,21172],[-3253,13375],[-1810,16050],[1336,2613]],[[110523,274510],[890,-11343],[16525,5786],[5276,-3505],[4492,-8128],[6253,1472],[4395,-3214],[12091,-14018],[-2526,-6387],[9090,-13105],[3562,560],[7444,6739],[7909,-4604],[3766,-4686],[-271,-5765],[7696,-11405],[2972,1037],[3030,-1514],[6244,-7797]],[[207831,174498],[-5798,11571],[-3088,-1078],[-7512,-7237],[-9333,1742],[-2865,3276],[-1026,10347],[-3698,1887],[-4744,-3815],[-6573,-10928],[-8083,-4272],[-6921,7465],[-10262,18082],[-4279,1535],[-7831,-3297],[-11646,-9166],[-5343,-891],[-4308,3193],[-26448,37575],[-3349,12068]],[[580590,702554],[-2110,12504],[-4666,9456],[-9904,-5122],[-25033,-2592],[-10746,-7113],[-10687,-1887],[-9661,-3857],[-26835,2427],[-4143,-2240],[-4685,-17626],[-872,-12442],[-4298,-9248],[-2071,-7009],[-8800,-3961],[-6041,62],[-30019,8523]],[[270977,819716],[4725,9766],[4201,4728],[16224,1120],[14812,4106],[24637,11861],[7899,1825],[6815,11384],[5750,14578],[5625,35584],[25343,-166],[51201,45351],[-7890,13894],[-5837,7631],[-1443,5744],[4173,7237],[8189,3670],[17842,1970],[13504,-6822],[-871,-5475],[1355,-8709],[9981,1410],[15033,5848],[17348,9062],[17134,-14433],[17271,-9601],[9070,-2530],[28887,8398],[2836,-7112],[6341,-3920],[14831,9394],[5401,995],[17638,-21213],[34957,-26252],[13659,-16527],[8170,-2675],[11656,0],[16873,-20198],[17822,-25713],[-813,-15636],[2613,-6158],[11017,-8357],[8035,-11426],[6282,1742],[5547,3629],[4957,5619],[5992,560],[6999,-4956],[1994,-4209],[223,-4002],[-8509,-8088],[203,-4417],[16069,-12607],[2595,-2903],[745,-4376],[-3088,-5122],[-10203,-8896],[232,-2571],[12740,-6553],[23698,-7610],[9961,1120],[17164,11156],[6021,-726],[12013,-11903],[13543,3878],[4715,-3774],[12788,-17315],[27493,1866],[21694,-995],[8577,-912],[14114,-4604],[13301,3339],[3330,-602],[9681,-9041],[6137,-8709],[-1326,-5641],[-10755,-6884],[-13079,-16859],[-2158,-5827],[-823,-9103],[-17454,-6242],[-9042,-7880],[-6089,-12089],[-12943,-3961],[-20600,-23163],[-7948,-4645],[-31471,2696],[-19874,-871],[-30513,3691],[-15218,-1265],[-12430,-16008],[-5644,-5371],[3698,-4998],[-16815,-9974],[-19380,7859],[-43940,-1244],[-9371,15138],[-7396,4375],[-9477,-207],[-37047,-8191],[-10320,-912],[-10397,-3463],[-5305,13644],[813,10389],[-1587,15387],[2381,16153],[2740,11157],[-233,4251],[-4327,3815],[-8935,-20],[-4288,3214],[-862,12628],[-7793,3069],[-4356,-767],[-5924,9414],[-3921,892]],[[580590,702554],[-1597,-12483],[-6419,-22064],[-14666,-36227],[-8789,-28616],[-4696,-50908],[-493,-11343],[5324,-4023],[3446,-4832],[3524,-7693],[1239,-9767],[5053,-13769],[4908,-1742],[-561,-4894],[-2052,-4831],[-27619,-25755],[-406,-5226],[6515,-11488],[6331,-5723],[5227,518],[3572,-7009],[10,-2695]],[[558441,431984],[-5808,-6387],[-2217,-10576],[-4289,-5474],[-13185,-4915],[-3872,-3795],[959,-6780],[-2682,-3152]],[[527347,390905],[-13833,-2427]],[[472274,390967],[-6573,11405]],[[464114,423108],[-14018,-3069]],[[347541,395508],[-15112,15677],[-13213,11281],[-13176,8543],[-13368,-3110]],[[292672,427899],[-3350,5453],[-6205,5226],[-6728,-1472],[-2856,5536],[2023,14889],[21336,12359],[4811,5412],[7280,-8025],[5208,13728],[1269,8398]],[[500735,387442],[26612,3463]],[[558441,431984],[1404,-2572],[12555,726],[804,13748],[1965,7714],[4298,3754],[7280,2219],[5372,-4832],[3389,2426],[2100,-1182],[4579,-13956],[4831,-17377],[8770,-10285],[4269,-8523],[25664,-31602],[5033,-12028],[2150,-9207],[-165,-8750],[-1026,-8813],[-5644,-3795],[1229,-6366],[-6263,-5392],[-5585,1597],[-2692,-7216],[-3756,-4500],[-6612,-1244],[-8092,4769],[-5063,-2924],[-9778,6739],[1414,-8978]],[[169158,407058],[3146,-3172],[7744,-311],[9071,2011],[2449,-2136],[6467,-14474]],[[198035,388976],[203,-22250]],[[198238,366726],[-3059,-9435],[-1636,-13749],[-184,-10451],[1500,-5288],[-5914,-18393],[-12982,-2862],[-25624,-11197],[-1520,-7051],[-7493,-2011],[-11307,-6449],[-19496,-5330]],[[161123,614942],[18848,15304]],[[292672,427899],[-6990,-9975],[-15644,374],[-2245,-7362],[-8345,1348],[-8054,5578],[-5586,6656],[-4046,1597],[-14570,-7444]],[[227192,418671],[-13891,-10514],[-4656,-4396]],[[208645,403761],[1829,-7237],[-12439,-7548]],[[161829,419272],[-15246,11550]],[[342294,348436],[-30407,-11695],[-10271,-1535]],[[228190,305097],[851,8253],[-6021,8481],[-4298,-1410],[-5963,-5018],[-4870,4686],[-1084,6408],[3388,3857],[2769,6013],[484,4604],[2440,7984],[-1762,4707],[-5199,2115],[-10687,10949]],[[208645,403761],[18547,14910]],[[162081,274510],[-1007,-642],[-619,1969],[1462,602],[164,-1929]],[[214782,271752],[-300,-2550],[310,-17191]]],"bbox":[64.8759,55.1333,75.2059,59.9557],"transform":{"scale":[0.000010330010330010328,0.000004822404822404824],"translate":[64.8759,55.1333]}}