{"type":"Topology","objects":{"muni":{"type":"GeometryCollection","geometries":[{"type":"MultiPolygon","arcs":[[[0,1,2,3,4,5,6,7]]],"properties":{"GID_2":"RUS.74.1_1","GID_0":"RUS","COUNTRY":"Russia","GID_1":"RUS.74_1","NAME_1":"Udmurt","NL_NAME_1":"УдмуртскаяРеспублика","NAME_2":"Alnashskiyrayon","VARNAME_2":"NA","NL_NAME_2":"Алнашскийрайон","TYPE_2":"Raion","ENGTYPE_2":"District","CC_2":"R47000","HASC_2":"RU.UD.AL"}},{"type":"MultiPolygon","arcs":[[[8,9,10,11,12,13,14,15,16,17]]],"properties":{"GID_2":"RUS.74.2_1","GID_0":"RUS","COUNTRY":"Russia","GID_1":"RUS.74_1","NAME_1":"Udmurt","NL_NAME_1":"УдмуртскаяРеспублика","NAME_2":"Balezinskiyrayon","VARNAME_2":"NA","NL_NAME_2":"Балезинскийрайон","TYPE_2":"Raion","ENGTYPE_2":"District","CC_2":"R47000","HASC_2":"RU.UD.BA"}},{"type":"MultiPolygon","arcs":[[[18,19,20,21,22,23,24,25,26,27]]],"properties":{"GID_2":"RUS.74.3_1","GID_0":"RUS","COUNTRY":"Russia","GID_1":"RUS.74_1","NAME_1":"Udmurt","NL_NAME_1":"УдмуртскаяРеспублика","NAME_2":"Debesskiyrayon","VARNAME_2":"NA","NL_NAME_2":"Дебесскийрайон","TYPE_2":"Raion","ENGTYPE_2":"District","CC_2":"R47000","HASC_2":"RU.UD.DE"}},{"type":"MultiPolygon","arcs":[[[28]]],"properties":{"GID_2":"RUS.74.4_1","GID_0":"RUS","COUNTRY":"Russia","GID_1":"RUS.74_1","NAME_1":"Udmurt","NL_NAME_1":"УдмуртскаяРеспублика","NAME_2":"Glazov","VARNAME_2":"NA","NL_NAME_2":"Глазов","TYPE_2":"Gorod","ENGTYPE_2":"City","CC_2":"NA","HASC_2":"RU.UD.GG"}},{"type":"MultiPolygon","arcs":[[[29,-18,30,31,32,33,34,35],[-29]]],"properties":{"GID_2":"RUS.74.5_1","GID_0":"RUS","COUNTRY":"Russia","GID_1":"RUS.74_1","NAME_1":"Udmurt","NL_NAME_1":"УдмуртскаяРеспублика","NAME_2":"Glazovskiyrayon","VARNAME_2":"NA","NL_NAME_2":"Глазовскийрайон","TYPE_2":"Raion","ENGTYPE_2":"District","CC_2":"R47000","HASC_2":"RU.UD.GR"}},{"type":"MultiPolygon","arcs":[[[36,37,38,39,-2]]],"properties":{"GID_2":"RUS.74.6_1","GID_0":"RUS","COUNTRY":"Russia","GID_1":"RUS.74_1","NAME_1":"Udmurt","NL_NAME_1":"УдмуртскаяРеспублика","NAME_2":"Grakhovskiyrayon","VARNAME_2":"NA","NL_NAME_2":"Граховскийрайон","TYPE_2":"Raion","ENGTYPE_2":"District","CC_2":"R47000","HASC_2":"RU.UD.GK"}},{"type":"MultiPolygon","arcs":[[[-14,40,41,42,-26,43,-24,44,45,46,47,48,49,50,51]]],"properties":{"GID_2":"RUS.74.7_1","GID_0":"RUS","COUNTRY":"Russia","GID_1":"RUS.74_1","NAME_1":"Udmurt","NL_NAME_1":"УдмуртскаяРеспублика","NAME_2":"Igrinskiyrayon","VARNAME_2":"NA","NL_NAME_2":"Игринскийрайон","TYPE_2":"Raion","ENGTYPE_2":"District","CC_2":"R47000","HASC_2":"RU.UD.IG"}},{"type":"MultiPolygon","arcs":[[[52,53,54,55]]],"properties":{"GID_2":"RUS.74.8_1","GID_0":"RUS","COUNTRY":"Russia","GID_1":"RUS.74_1","NAME_1":"Udmurt","NL_NAME_1":"УдмуртскаяРеспублика","NAME_2":"Kambarskiyrayon","VARNAME_2":"NA","NL_NAME_2":"Камбарскийрайон","TYPE_2":"Raion","ENGTYPE_2":"District","CC_2":"R47001","HASC_2":"RU.UD.KM"}},{"type":"MultiPolygon","arcs":[[[56,57]]],"properties":{"GID_2":"RUS.74.9_1","GID_0":"RUS","COUNTRY":"Russia","GID_1":"RUS.74_1","NAME_1":"Udmurt","NL_NAME_1":"УдмуртскаяРеспублика","NAME_2":"Karakulinskiyrayon","VARNAME_2":"NA","NL_NAME_2":"Каракулинскийрайон","TYPE_2":"Raion","ENGTYPE_2":"District","CC_2":"R47001","HASC_2":"RU.UD.KK"}},{"type":"MultiPolygon","arcs":[[[-28,58,-42,59,-12,60,-10,61]]],"properties":{"GID_2":"RUS.74.10_1","GID_0":"RUS","COUNTRY":"Russia","GID_1":"RUS.74_1","NAME_1":"Udmurt","NL_NAME_1":"УдмуртскаяРеспублика","NAME_2":"Kezskiyrayon","VARNAME_2":"NA","NL_NAME_2":"Кезскийрайон","TYPE_2":"Raion","ENGTYPE_2":"District","CC_2":"R47001","HASC_2":"RU.UD.KE"}},{"type":"MultiPolygon","arcs":[[[62,63,64]]],"properties":{"GID_2":"RUS.74.11_1","GID_0":"RUS","COUNTRY":"Russia","GID_1":"RUS.74_1","NAME_1":"Udmurt","NL_NAME_1":"УдмуртскаяРеспублика","NAME_2":"Kiyasovskiyrayon","VARNAME_2":"NA","NL_NAME_2":"Киясовскийрайон","TYPE_2":"Raion","ENGTYPE_2":"District","CC_2":"R47001","HASC_2":"RU.UD.KY"}},{"type":"MultiPolygon","arcs":[[[65,66,-38,67]]],"properties":{"GID_2":"RUS.74.12_1","GID_0":"RUS","COUNTRY":"Russia","GID_1":"RUS.74_1","NAME_1":"Udmurt","NL_NAME_1":"УдмуртскаяРеспублика","NAME_2":"Kiznerskiyrayon","VARNAME_2":"NA","NL_NAME_2":"Кизнерскийрайон","TYPE_2":"Raion","ENGTYPE_2":"District","CC_2":"R47001","HASC_2":"RU.UD.KZ"}},{"type":"MultiPolygon","arcs":[[[68,69,-31,-17,70,-15,-52,71,72,73,74]]],"properties":{"GID_2":"RUS.74.13_1","GID_0":"RUS","COUNTRY":"Russia","GID_1":"RUS.74_1","NAME_1":"Udmurt","NL_NAME_1":"УдмуртскаяРеспублика","NAME_2":"Krasnogorskiyrayon","VARNAME_2":"NA","NL_NAME_2":"Красногорскийрайон","TYPE_2":"Raion","ENGTYPE_2":"District","CC_2":"R47001","HASC_2":"RU.UD.KR"}},{"type":"MultiPolygon","arcs":[[[75,76,77,78,79,80,-64]]],"properties":{"GID_2":"RUS.74.14_1","GID_0":"RUS","COUNTRY":"Russia","GID_1":"RUS.74_1","NAME_1":"Udmurt","NL_NAME_1":"УдмуртскаяРеспублика","NAME_2":"Malopurginskiyrayon","VARNAME_2":"NA","NL_NAME_2":"Малопургинскийрайон","TYPE_2":"Raion","ENGTYPE_2":"District","CC_2":"R47001","HASC_2":"RU.UD.MA"}},{"type":"MultiPolygon","arcs":[[[81]]],"properties":{"GID_2":"RUS.74.15_1","GID_0":"RUS","COUNTRY":"Russia","GID_1":"RUS.74_1","NAME_1":"Udmurt","NL_NAME_1":"УдмуртскаяРеспублика","NAME_2":"Mozhga","VARNAME_2":"NA","NL_NAME_2":"Можга","TYPE_2":"Gorod","ENGTYPE_2":"City","CC_2":"NA","HASC_2":"RU.UD.MG"}},{"type":"MultiPolygon","arcs":[[[82,-8,83,-6,84,-4,85,-39,-67,86,87,88,89,-77],[-82]]],"properties":{"GID_2":"RUS.74.16_1","GID_0":"RUS","COUNTRY":"Russia","GID_1":"RUS.74_1","NAME_1":"Udmurt","NL_NAME_1":"УдмуртскаяРеспублика","NAME_2":"Mozhginskiyrayon","VARNAME_2":"NA","NL_NAME_2":"Можгинскийрайон","TYPE_2":"Raion","ENGTYPE_2":"District","CC_2":"R47001","HASC_2":"RU.UD.MR"}},{"type":"MultiPolygon","arcs":[[[90]]],"properties":{"GID_2":"RUS.74.17_1","GID_0":"RUS","COUNTRY":"Russia","GID_1":"RUS.74_1","NAME_1":"Udmurt","NL_NAME_1":"УдмуртскаяРеспублика","NAME_2":"Sarapul","VARNAME_2":"NA","NL_NAME_2":"Сарапул","TYPE_2":"Gorsovet","ENGTYPE_2":"District","CC_2":"NA","HASC_2":"RU.UD.SG"}},{"type":"MultiPolygon","arcs":[[[91,-55,92,-53,-58,93,-65,-81,94],[-91]]],"properties":{"GID_2":"RUS.74.18_1","GID_0":"RUS","COUNTRY":"Russia","GID_1":"RUS.74_1","NAME_1":"Udmurt","NL_NAME_1":"УдмуртскаяРеспублика","NAME_2":"Sarapul'skiyrayon","VARNAME_2":"NA","NL_NAME_2":"Сарапульскийрайон","TYPE_2":"Raion","ENGTYPE_2":"District","CC_2":"R47001","HASC_2":"RU.UD.SR"}},{"type":"MultiPolygon","arcs":[[[-75,95,-73,96,-50,97,98,99,100,101]]],"properties":{"GID_2":"RUS.74.19_1","GID_0":"RUS","COUNTRY":"Russia","GID_1":"RUS.74_1","NAME_1":"Udmurt","NL_NAME_1":"УдмуртскаяРеспублика","NAME_2":"Seltinskiyrayon","VARNAME_2":"NA","NL_NAME_2":"Селтинскийрайон","TYPE_2":"Raion","ENGTYPE_2":"District","CC_2":"R47001","HASC_2":"RU.UD.SE"}},{"type":"MultiPolygon","arcs":[[[102,103,104,105,106,-45,-23,107,108,-20]]],"properties":{"GID_2":"RUS.74.20_1","GID_0":"RUS","COUNTRY":"Russia","GID_1":"RUS.74_1","NAME_1":"Udmurt","NL_NAME_1":"УдмуртскаяРеспублика","NAME_2":"Sharkanskiyrayon","VARNAME_2":"NA","NL_NAME_2":"Шарканскийрайон","TYPE_2":"Raion","ENGTYPE_2":"District","CC_2":"R47002","HASC_2":"RU.UD.SH"}},{"type":"MultiPolygon","arcs":[[[109,-101,110,111,112]]],"properties":{"GID_2":"RUS.74.21_1","GID_0":"RUS","COUNTRY":"Russia","GID_1":"RUS.74_1","NAME_1":"Udmurt","NL_NAME_1":"УдмуртскаяРеспублика","NAME_2":"Syumsinskiyrayon","VARNAME_2":"NA","NL_NAME_2":"Сюмсинскийрайон","TYPE_2":"Raion","ENGTYPE_2":"District","CC_2":"R47002","HASC_2":"RU.UD.SY"}},{"type":"MultiPolygon","arcs":[[[-90,113,114,115,-111,-100,116,117,118]]],"properties":{"GID_2":"RUS.74.22_1","GID_0":"RUS","COUNTRY":"Russia","GID_1":"RUS.74_1","NAME_1":"Udmurt","NL_NAME_1":"УдмуртскаяРеспублика","NAME_2":"Uvinskiyrayon","VARNAME_2":"NA","NL_NAME_2":"Увинскийрайон","TYPE_2":"Raion","ENGTYPE_2":"District","CC_2":"R47002","HASC_2":"RU.UD.UV"}},{"type":"MultiPolygon","arcs":[[[119,-113,120,-115,121,122,-87,-66]]],"properties":{"GID_2":"RUS.74.23_1","GID_0":"RUS","COUNTRY":"Russia","GID_1":"RUS.74_1","NAME_1":"Udmurt","NL_NAME_1":"УдмуртскаяРеспублика","NAME_2":"Vavozhskiyrayon","VARNAME_2":"NA","NL_NAME_2":"Вавожскийрайон","TYPE_2":"Raion","ENGTYPE_2":"District","CC_2":"R47000","HASC_2":"RU.UD.VA"}},{"type":"MultiPolygon","arcs":[[[123]]],"properties":{"GID_2":"RUS.74.24_1","GID_0":"RUS","COUNTRY":"Russia","GID_1":"RUS.74_1","NAME_1":"Udmurt","NL_NAME_1":"УдмуртскаяРеспублика","NAME_2":"Votkinsk","VARNAME_2":"NA","NL_NAME_2":"Воткинск","TYPE_2":"Gorod","ENGTYPE_2":"City","CC_2":"NA","HASC_2":"RU.UD.VG"}},{"type":"MultiPolygon","arcs":[[[124,125,126,127,128,129,-104],[-124]]],"properties":{"GID_2":"RUS.74.25_1","GID_0":"RUS","COUNTRY":"Russia","GID_1":"RUS.74_1","NAME_1":"Udmurt","NL_NAME_1":"УдмуртскаяРеспублика","NAME_2":"Votkinskiyrayon","VARNAME_2":"NA","NL_NAME_2":"Воткинскийрайон","TYPE_2":"Raion","ENGTYPE_2":"District","CC_2":"R47000","HASC_2":"RU.UD.VR"}},{"type":"MultiPolygon","arcs":[[[-49,130,-47,131,-106,132,-129,133,-118,134,-98]]],"properties":{"GID_2":"RUS.74.26_1","GID_0":"RUS","COUNTRY":"Russia","GID_1":"RUS.74_1","NAME_1":"Udmurt","NL_NAME_1":"УдмуртскаяРеспублика","NAME_2":"Yakshur-Bod'inskiyrayon","VARNAME_2":"NA","NL_NAME_2":"Якшур-Бодьинскийрайон","TYPE_2":"Raion","ENGTYPE_2":"District","CC_2":"R47002","HASC_2":"RU.UD.YB"}},{"type":"MultiPolygon","arcs":[[[135,-36,136,-34,137]]],"properties":{"GID_2":"RUS.74.27_1","GID_0":"RUS","COUNTRY":"Russia","GID_1":"RUS.74_1","NAME_1":"Udmurt","NL_NAME_1":"УдмуртскаяРеспублика","NAME_2":"Yarskiyrayon","VARNAME_2":"NA","NL_NAME_2":"Ярскийрайон","TYPE_2":"Raion","ENGTYPE_2":"District","CC_2":"R47002","HASC_2":"RU.UD.YA"}},{"type":"MultiPolygon","arcs":[[[-138,138,-32,-70,139]]],"properties":{"GID_2":"RUS.74.28_1","GID_0":"RUS","COUNTRY":"Russia","GID_1":"RUS.74_1","NAME_1":"Udmurt","NL_NAME_1":"УдмуртскаяРеспублика","NAME_2":"Yukamenskiyrayon","VARNAME_2":"NA","NL_NAME_2":"Юкаменскийрайон","TYPE_2":"Raion","ENGTYPE_2":"District","CC_2":"R47002","HASC_2":"RU.UD.YU"}},{"type":"MultiPolygon","arcs":[[[140,141,-78,-119,-134,-128,142,-126,-95]]],"properties":{"GID_2":"RUS.74.29_1","GID_0":"RUS","COUNTRY":"Russia","GID_1":"RUS.74_1","NAME_1":"Udmurt","NL_NAME_1":"УдмуртскаяРеспублика","NAME_2":"Zav'yalovskiyrayon","VARNAME_2":"NA","NL_NAME_2":"Завьяловскийрайон","TYPE_2":"Raion","ENGTYPE_2":"District","CC_2":"R47000","HASC_2":"RU.UD.ZA"}}]}},"arcs":[[[477047,180135],[-5328,-8317],[-13094,-3971],[-19656,-11315],[512,-6744],[33502,-10753],[33955,-6931],[16766,-9703],[6984,-10079],[-7616,-14874],[-34556,11802],[-9332,-7081],[20198,-35855],[-21823,-12326],[-23419,23941],[-11318,-1162],[-30132,-17309],[-13094,6707],[-2619,12775],[-19716,10041],[-10054,-1611]],[[367207,87370],[-4244,19857],[3732,7568]],[[366695,114795],[-5448,23491]],[[361247,138286],[1806,8280]],[[363053,146566],[13124,10828],[8820,3334]],[[384997,160728],[13034,-187],[-16435,17721],[-4395,9854],[722,5732],[6051,7680]],[[383974,201528],[28265,8543]],[[412239,210071],[17730,-3934],[26880,-19932],[11860,-5545],[8338,-525]],[[567201,993517],[35279,6482],[35429,-44809],[45905,-2098],[3612,14274],[12372,3035],[10686,-8467],[23750,9029],[20107,-5283],[15202,11540],[31787,2585],[12341,-16373]],[[813671,963432],[-31305,-9366],[-46417,-20943],[-22816,-3260],[-21282,-13075],[1234,-11652],[13004,-12514],[1505,-9741],[-7556,-11127],[-14177,-5770],[-2740,-8505],[783,-4908],[11890,-9516],[-24051,-12851],[10295,-10378],[9813,-3559],[451,-6781],[-14388,-7718],[-11258,-16635]],[[666656,785133],[-3823,-16185],[903,-24203]],[[663736,744745],[14900,-18433],[-1113,-7644]],[[677523,718668],[-59391,-26937]],[[618132,691731],[-19716,-5470],[-36814,-2436],[-43406,2735]],[[518196,686560],[-5358,25440]],[[512838,712000],[-4546,9928],[-7435,10116]],[[500857,732044],[-19686,17609]],[[481171,749653],[-1656,9778],[27363,29224],[3040,22966],[33653,20119],[-331,19370],[-5930,10977],[11710,9891],[10926,14762],[482,14499],[-12101,20044],[11198,16710],[14208,5845],[813,5770],[-4847,8017],[-2498,35892]],[[927123,732606],[-7013,-15886],[-13124,-17384],[4545,-16785],[-3823,-14237],[-19716,-22666],[2919,-8917]],[[890911,636731],[-29589,-12289],[-21884,-18658],[-903,-5732]],[[838535,600052],[-5087,-4459],[-19626,-5320],[-15894,150]],[[797928,590423],[-8007,4459],[-6441,5320]],[[783480,600202],[-12974,19257]],[[770506,619459],[15833,8542],[3642,14237],[-2980,8880],[-7043,1498],[-34858,-18807]],[[745100,633809],[-18392,12888]],[[726708,646697],[7465,11052],[-11559,20157],[-28656,23229]],[[693958,701135],[38620,-5545]],[[732578,695590],[13425,1948],[15322,4720],[20318,17872],[23329,8954],[20680,-8242],[40667,16335],[34135,-6407],[26669,1836]],[[462267,842905],[-4455,1761],[3733,1723],[2348,-2210],[-1626,-1274]],[[357575,965381],[40245,-11952],[54785,-2173],[27121,2248],[40848,-6332],[14750,9704],[6863,28549],[25014,8092]],[[481171,749653],[-30162,4720],[-13696,-4008]],[[437313,750365],[-19325,21430],[-32630,21168],[-3732,17572],[-14329,15286],[-5809,12888],[4726,2622],[-8970,11128],[-7255,1386]],[[349989,853845],[-10836,-4234],[-16406,-224],[-6833,3409]],[[315914,852796],[-2739,5620],[723,6856],[40486,24990],[7525,13075]],[[361909,903337],[3010,12401],[783,30835]],[[365702,946573],[-8127,18808]],[[367207,87370],[-11348,-1798],[-18031,-10453],[-3130,-14350],[11137,-34655],[-933,-7681],[-14960,-8729],[-15533,-1874],[-12010,11989],[-22426,14425],[-20619,2285],[-34256,-7568],[-21703,5208],[-15532,-1986],[-20048,7980]],[[167815,40163],[-5388,14724],[8669,15886],[20138,19107],[16586,-861],[29379,13787],[16466,22142],[7766,18808]],[[261431,143756],[8669,-9141],[14208,149],[22847,17984],[19475,-225],[17158,-8617],[19054,-15511]],[[362842,128395],[3853,-13600]],[[618132,691731],[51444,22666]],[[669576,714397],[7585,-8280]],[[677161,706117],[16797,-4982]],[[726708,646697],[10355,-8468],[8037,-4420]],[[770506,619459],[-16225,-1761],[-6893,-7231],[-873,-5732],[-8489,-8093],[-36212,-19707]],[[701814,576935],[-33352,-599]],[[668462,576336],[-16255,-12401],[-9120,-3260]],[[643087,560675],[-49698,-4421]],[[593389,556254],[-17218,-9478],[-11709,-1199],[-23660,16972],[-44821,10527],[-31396,14462],[-13064,-187],[-22516,-17909]],[[429005,569442],[-3461,6931],[-18633,-1161],[-22606,-18995],[-10746,-3897],[-7375,2248],[-723,10865],[3311,7531],[-10866,42112]],[[357906,615076],[36152,-1124]],[[394058,613952],[25405,17796],[19115,1761],[36212,-11839],[14388,-900],[12522,6969],[11710,11802],[5960,22779],[-1174,24240]],[[925859,131168],[-30011,32145],[-47139,29861]],[[848709,193174],[-23087,9591],[-9422,6706]],[[816200,209471],[-2589,9404],[10144,10790],[40276,9741],[27181,21019],[25918,6556]],[[917130,266981],[16616,-9966],[12522,-17346],[27061,-5957],[3131,-22405],[18843,-36117],[-9391,-13713],[-43918,-11951],[-12643,-8655],[-3492,-9703]],[[925859,131168],[-1866,-5246],[-13245,-12438],[-11137,-16485],[-40095,-23866],[-22546,-10827],[-12793,-1911],[-15894,-20906],[-73748,-20606],[-50450,-18883],[-19837,6369],[-18181,17871],[5960,12139],[43526,20906],[5750,10228],[-4756,14912],[21643,13862],[19024,5283],[6983,9179],[-6261,14049],[1475,10978]],[[739411,135776],[23750,-5620],[16526,7493],[15622,-6931],[16827,9367],[9813,8879],[14991,-2061],[16525,-9891],[31878,7231],[40516,-13075]],[[732578,695590],[-55417,10527]],[[669576,714397],[7947,4271]],[[663736,744745],[-1776,7830],[4696,32558]],[[813671,963432],[-1174,-7643],[13516,-8692],[7013,-12101],[2439,-12776],[-2439,-15286],[-19024,-17009],[6984,-12102],[29529,-28287],[2409,-12738],[51774,-44472],[5238,-12963],[-1265,-16335],[15533,-21505],[2919,-8917]],[[697028,157956],[-26670,3184],[-10023,-10865],[21131,-37578],[-16104,-14274],[-27423,4046],[-45634,23791],[-15321,10827],[-4455,18771],[2859,10490],[693,25215],[-8067,13225],[7435,13075],[14599,13488],[11318,15848]],[[601366,247199],[14659,-5770],[2950,-8879],[-1083,-16485],[8759,974],[3191,11989],[24051,2136]],[[653893,231164],[13516,-13450],[8277,-19820],[23329,-21842],[-2378,-6557],[391,-11539]],[[80792,309467],[26911,-1948],[21673,3260],[19235,-4346],[10445,-8205],[10295,-22667],[23388,-18508],[12282,-3560],[12943,2211]],[[217964,255704],[43045,-17721],[12884,-10303],[8097,-14874],[2529,-14575],[-5660,-24690],[-17428,-29785]],[[167815,40163],[-44610,-13862],[-13636,2735],[-14178,11465],[2469,10527],[29800,32221],[13636,9853],[32419,15549],[-14810,5732],[-27753,-10977],[-15051,3784],[-21552,-5583],[-1445,1761],[10475,4046],[12823,15436],[-30342,15698],[2920,6070],[26700,17909],[-30854,11314],[-19145,12514],[-6562,11839],[-1234,9142],[-21071,9179],[-14057,9891],[-10536,11801],[3161,8767],[7706,8468],[-1927,11464],[-7224,13675],[1836,12813],[8609,7007],[15051,3671],[15653,-2098],[12281,-5395],[8097,2323],[5328,10565]],[[222660,663894],[4846,4570],[1897,17272],[3763,7493],[11107,8093],[-60,12551]],[[244213,713873],[27663,12064],[78234,6294],[33231,20307],[10536,2285],[35068,-12663],[8368,8205]],[[500857,732044],[11981,-20044]],[[394058,613952],[-20409,-750],[-24142,4271]],[[349507,617473],[-37235,-8542],[-17519,-974]],[[294753,607957],[-34797,12514]],[[259956,620471],[-19596,19370],[-17700,24053]],[[601366,247199],[-3221,6969],[-10385,6444],[-15020,-6706],[-9964,-10903],[-11168,749],[-7886,-6256],[10565,-15099],[-6170,-14050],[-15743,-12476],[-22998,-4308]],[[509376,191563],[-16646,11651],[-23058,6257],[-15291,8430],[-7044,14125],[3793,7455],[-4365,9891],[-13756,6782],[-6833,8317],[2438,8130],[6562,7306],[23630,18770],[2528,8505],[-2077,5919]],[[459257,313101],[18121,-2060],[31396,12476],[11228,-712],[29319,-13450],[41660,14649]],[[590981,324004],[37506,-5395]],[[628487,318609],[56591,-38552]],[[685078,280057],[-4214,-9329],[-22215,-7156],[-6261,-14012],[3763,-3148],[-2258,-15248]],[[333855,194635],[-6291,1274],[4786,2809],[2799,-2622],[-1294,-1461]],[[509376,191563],[-19957,-2586],[-12372,-8842]],[[412239,210071],[-16827,-3447],[-11438,-5096]],[[384997,160728],[-17850,-8542],[-4094,-5620]],[[361247,138286],[1595,-9891]],[[217964,255704],[13787,9853],[-4335,11765],[2438,9816],[6412,5245],[15352,5320]],[[251618,297703],[6532,6219],[9452,16485],[10625,6145],[7134,1011]],[[285361,327563],[77512,-26975]],[[362873,300588],[36272,-4084],[31847,5807],[28265,10790]],[[812889,222434],[-6111,-1311],[-1475,3334],[5749,2885],[2559,-1723],[-722,-3185]],[[828331,355588],[-5840,-10154],[963,-11651],[13425,-13526],[-5869,-10190],[2829,-17534],[6833,-10153],[11800,-5695],[4937,21805],[17669,4458],[12432,6782],[17369,-6145],[-7466,-11015],[-361,-10565],[20078,-15024]],[[816200,209471],[32509,-16297]],[[739411,135776],[-60,7381],[-25075,10715],[-17248,4084]],[[685078,280057],[21944,5207],[1204,26901],[26248,14537],[14028,-975],[14689,-5882],[7345,11053],[18633,10190],[13395,-4833],[25767,19333]],[[259956,620471],[19325,-8767],[15472,-3747]],[[349507,617473],[8399,-2397]],[[429005,569442],[-2739,-10453],[-8489,-10115]],[[417777,548874],[-19897,-9442]],[[397880,539432],[-20739,-4571],[-11078,-8017],[-8157,-8243],[-1385,-11464],[-22726,-21843],[-16466,-5807],[-18843,-1873],[-49367,7530]],[[249119,485144],[-20017,13600],[-8368,2361],[-23269,-2660],[-18452,1910],[-5629,14762],[-331,10603],[-17368,-1049],[-12583,3521],[-20439,11615],[-14328,674],[-11830,-3297],[-11860,11165],[4576,17122],[14539,15698],[5358,10341]],[[109118,591510],[-2469,3971],[16887,-4683],[26700,6406],[-1294,15474],[23870,6519],[16977,9741],[4756,17122],[28115,17834]],[[890911,636731],[16255,-7006],[15623,-2173],[8609,-9367],[14659,-7905],[7285,-16972],[-24473,-16485],[-8579,-25439],[8549,-9329]],[[928839,542055],[-31305,-14986],[-3763,-14200],[632,-13600],[-12251,-13563],[-15412,-6556],[-29319,5095],[-48854,-300],[-23991,2698]],[[764576,486643],[-7827,-4309]],[[756749,482334],[-812,13600],[-36393,25739],[-120,8693],[4003,7418],[-2438,12738],[-32479,24465]],[[688510,574987],[13304,1948]],[[783480,600202],[14448,-9779]],[[797928,590423],[29229,1761],[11378,7868]],[[126065,370686],[-2770,4833],[-27934,13975],[-6652,7756],[-14359,26938],[-27542,31433],[-903,12476],[-12914,22855],[-32991,41174],[6773,22480],[10054,15398],[14147,12551],[24413,11727],[45453,3822],[8278,-6594]],[[249119,485144],[3311,-8842],[-662,-5769]],[[251768,470533],[-16134,-16485]],[[235634,454048],[-36001,-15436],[-22878,-13263],[-15712,-150],[-13877,-9891],[2769,-14612],[-23870,-30010]],[[362873,300588],[-39463,12851]],[[323410,313439],[14147,11726],[783,18246],[-8639,11053],[-10596,6406],[-22787,11840],[-19566,3034],[-10656,6369],[-7856,18696],[-7405,10041],[-13124,10340],[-8760,11053],[-2919,12701]],[[226032,444944],[25736,25589]],[[397880,539432],[10837,6107]],[[408717,545539],[9422,-5357],[31967,-31809],[26219,-8355],[6532,-5245],[10505,-40163],[-1776,-13413]],[[491586,441197],[-23118,-13038],[-10234,-12851],[3130,-8879],[21673,-19632],[-4214,-43123],[-5057,-17010],[-14509,-13563]],[[80792,309467],[1144,10940],[12613,19108],[27241,12813],[4275,18358]],[[235634,454048],[-9602,-9104]],[[323410,313439],[-38049,14124]],[[285361,327563],[-13666,-3372],[-20077,-26488]],[[876764,431681],[-5479,1536],[5358,3259],[2288,-3596],[-2167,-1199]],[[928839,542055],[18061,4421],[13907,-3035],[2167,-12738],[-2257,-13338],[11890,-23154],[-1295,-7606],[-9813,-6968],[7465,-15061],[25466,-2024],[5569,-9104],[-14840,-11389],[-32991,-8992],[-21974,-11839],[-9422,-13750],[-3793,-14162],[-16917,-24765],[-11228,-7831],[-60503,-5132]],[[828331,355588],[-8730,7380],[-12913,17385],[-10656,4608],[-30011,-712]],[[766021,384249],[-43316,33944]],[[722705,418193],[1896,22067],[-14027,11577]],[[710574,451837],[18603,18958]],[[729177,470795],[35399,15848]],[[593389,556254],[14810,2885],[34888,1536]],[[668462,576336],[20048,-1349]],[[756749,482334],[-27572,-11539]],[[710574,451837],[-25646,-8842],[-2800,-19107],[-9301,-5133],[-48825,-1911],[-60504,6294],[-71912,18059]],[[408717,545539],[9060,3335]],[[245086,800644],[-14840,-1162],[-12432,7381],[4184,11352],[-5960,12851],[-20198,17421],[-14509,2660],[-13636,10304],[2167,6631],[21493,21131],[9361,17833],[5027,19033],[30132,16822],[10565,14874],[17278,7793],[33714,7868],[26881,487],[33262,-8542]],[[365702,946573],[421,-8730],[-4214,-34506]],[[315914,852796],[-65982,-35031],[-6713,-7380],[1867,-9741]],[[315914,852796],[14600,-4346],[19475,5395]],[[244213,713873],[-1927,22292],[-3943,3672],[-9331,8579],[3883,21993],[18964,25064],[-6773,5171]],[[685078,280057],[-16917,9853],[-25225,20981],[-14449,7718]],[[628487,318609],[-17850,4084],[-19656,1311]],[[722705,418193],[18994,-15811],[24322,-18133]]],"bbox":[51.1127,55.8749,54.4348,58.544],"transform":{"scale":[0.000003322103322103328,0.0000026691026691026695],"translate":[51.1127,55.8749]}}