{"type":"Topology","objects":{"muni":{"type":"GeometryCollection","geometries":[{"type":"MultiPolygon","arcs":[[[0]]],"properties":{"GID_2":"RUS.75.1_1","GID_0":"RUS","COUNTRY":"Russia","GID_1":"RUS.75_1","NAME_1":"Ul'yanovsk","NL_NAME_1":"Ульяновскаяобласть","NAME_2":"Barysh","VARNAME_2":"NA","NL_NAME_2":"Барыш","TYPE_2":"Gorod","ENGTYPE_2":"City","CC_2":"NA","HASC_2":"RU.UL.BG"}},{"type":"MultiPolygon","arcs":[[[1,2,3,4,5,6,7,8,9],[-1]]],"properties":{"GID_2":"RUS.75.2_1","GID_0":"RUS","COUNTRY":"Russia","GID_1":"RUS.75_1","NAME_1":"Ul'yanovsk","NL_NAME_1":"Ульяновскаяобласть","NAME_2":"Baryshskiyrayon","VARNAME_2":"NA","NL_NAME_2":"Барушскийрайон","TYPE_2":"Raion","ENGTYPE_2":"District","CC_2":"R38000","HASC_2":"RU.UL.BR"}},{"type":"MultiPolygon","arcs":[[[10,11,-3,12]]],"properties":{"GID_2":"RUS.75.3_1","GID_0":"RUS","COUNTRY":"Russia","GID_1":"RUS.75_1","NAME_1":"Ul'yanovsk","NL_NAME_1":"Ульяновскаяобласть","NAME_2":"Bazarnosyzganskiyrayon","VARNAME_2":"NA","NL_NAME_2":"Базарносызганскийрайон","TYPE_2":"Raion","ENGTYPE_2":"District","CC_2":"R38000","HASC_2":"RU.UL.IN"}},{"type":"MultiPolygon","arcs":[[[13,14,15,16,17,18,19,20]]],"properties":{"GID_2":"RUS.75.4_1","GID_0":"RUS","COUNTRY":"Russia","GID_1":"RUS.75_1","NAME_1":"Ul'yanovsk","NL_NAME_1":"Ульяновскаяобласть","NAME_2":"Cherdaklinskiyrayon","VARNAME_2":"NA","NL_NAME_2":"Чердаклинскийрайон","TYPE_2":"Raion","ENGTYPE_2":"District","CC_2":"R38002","HASC_2":"RU.UL.CH"}},{"type":"MultiPolygon","arcs":[[[21]]],"properties":{"GID_2":"RUS.75.5_1","GID_0":"RUS","COUNTRY":"Russia","GID_1":"RUS.75_1","NAME_1":"Ul'yanovsk","NL_NAME_1":"Ульяновскаяобласть","NAME_2":"Dimitrovgrad","VARNAME_2":"NA","NL_NAME_2":"Димитровград","TYPE_2":"Gorod","ENGTYPE_2":"City","CC_2":"NA","HASC_2":"RU.UL.DI"}},{"type":"MultiPolygon","arcs":[[[22,23,24,25,-11,26]]],"properties":{"GID_2":"RUS.75.6_1","GID_0":"RUS","COUNTRY":"Russia","GID_1":"RUS.75_1","NAME_1":"Ul'yanovsk","NL_NAME_1":"Ульяновскаяобласть","NAME_2":"Inzenskirayon","VARNAME_2":"Inzenskiy","NL_NAME_2":"Базарносызганскийрайон","TYPE_2":"Raion","ENGTYPE_2":"District","CC_2":"R38000","HASC_2":"RU.UL.IN"}},{"type":"MultiPolygon","arcs":[[[27,28,29,30,31,32,-23]]],"properties":{"GID_2":"RUS.75.7_1","GID_0":"RUS","COUNTRY":"Russia","GID_1":"RUS.75_1","NAME_1":"Ul'yanovsk","NL_NAME_1":"Ульяновскаяобласть","NAME_2":"Karsunskiyrayon","VARNAME_2":"NA","NL_NAME_2":"Карсунскийрайон","TYPE_2":"Raion","ENGTYPE_2":"District","CC_2":"R38000","HASC_2":"RU.UL.KA"}},{"type":"MultiPolygon","arcs":[[[33,34,35,36,-9,37,-7,38,39,40,41]]],"properties":{"GID_2":"RUS.75.8_1","GID_0":"RUS","COUNTRY":"Russia","GID_1":"RUS.75_1","NAME_1":"Ul'yanovsk","NL_NAME_1":"Ульяновскаяобласть","NAME_2":"Kuzovatovskiyrayon","VARNAME_2":"NA","NL_NAME_2":"Кузоватовскийрайон","TYPE_2":"Raion","ENGTYPE_2":"District","CC_2":"R38000","HASC_2":"RU.UL.KU"}},{"type":"MultiPolygon","arcs":[[[42,43,44,-39,-6,45,46,-30,47]]],"properties":{"GID_2":"RUS.75.9_1","GID_0":"RUS","COUNTRY":"Russia","GID_1":"RUS.75_1","NAME_1":"Ul'yanovsk","NL_NAME_1":"Ульяновскаяобласть","NAME_2":"Maynskiyrayon","VARNAME_2":"NA","NL_NAME_2":"Майнскийрайон","TYPE_2":"Raion","ENGTYPE_2":"District","CC_2":"R38000","HASC_2":"RU.UL.MA"}},{"type":"MultiPolygon","arcs":[[[48,49,50,-17,51,-15,52,53,54],[-22]]],"properties":{"GID_2":"RUS.75.10_1","GID_0":"RUS","COUNTRY":"Russia","GID_1":"RUS.75_1","NAME_1":"Ul'yanovsk","NL_NAME_1":"Ульяновскаяобласть","NAME_2":"Melekesskiyrayon","VARNAME_2":"NA","NL_NAME_2":"Мелекесскийрайон","TYPE_2":"Raion","ENGTYPE_2":"District","CC_2":"R38000","HASC_2":"RU.UL.ME"}},{"type":"MultiPolygon","arcs":[[[55,-10,-37,56,57,58,59,60,61,62]]],"properties":{"GID_2":"RUS.75.11_1","GID_0":"RUS","COUNTRY":"Russia","GID_1":"RUS.75_1","NAME_1":"Ul'yanovsk","NL_NAME_1":"Ульяновскаяобласть","NAME_2":"Nikolaevskiyrayon","VARNAME_2":"NA","NL_NAME_2":"Николаевскийрайон","TYPE_2":"Raion","ENGTYPE_2":"District","CC_2":"R38000","HASC_2":"RU.UL.NI"}},{"type":"MultiPolygon","arcs":[[[-55,63]]],"properties":{"GID_2":"RUS.75.12_1","GID_0":"RUS","COUNTRY":"Russia","GID_1":"RUS.75_1","NAME_1":"Ul'yanovsk","NL_NAME_1":"Ульяновскаяобласть","NAME_2":"Novomalyklinskiyrayon","VARNAME_2":"NA","NL_NAME_2":"Новомалыклинский","TYPE_2":"Raion","ENGTYPE_2":"District","CC_2":"R38000","HASC_2":"RU.UL.NM"}},{"type":"MultiPolygon","arcs":[[[64,65,66,-58,67,-35]]],"properties":{"GID_2":"RUS.75.13_1","GID_0":"RUS","COUNTRY":"Russia","GID_1":"RUS.75_1","NAME_1":"Ul'yanovsk","NL_NAME_1":"Ульяновскаяобласть","NAME_2":"Novospasskiyrayon","VARNAME_2":"NA","NL_NAME_2":"Новоспасскийрайон","TYPE_2":"Raion","ENGTYPE_2":"District","CC_2":"R38001","HASC_2":"RU.UL.NS"}},{"type":"MultiPolygon","arcs":[[[-63,68,69,70]]],"properties":{"GID_2":"RUS.75.14_1","GID_0":"RUS","COUNTRY":"Russia","GID_1":"RUS.75_1","NAME_1":"Ul'yanovsk","NL_NAME_1":"Ульяновскаяобласть","NAME_2":"Pavlovskiyrayon","VARNAME_2":"NA","NL_NAME_2":"Павловскийрайон","TYPE_2":"Raion","ENGTYPE_2":"District","CC_2":"R38001","HASC_2":"RU.UL.PA"}},{"type":"MultiPolygon","arcs":[[[71,72,73,74,-59,-67,75,76]]],"properties":{"GID_2":"RUS.75.15_1","GID_0":"RUS","COUNTRY":"Russia","GID_1":"RUS.75_1","NAME_1":"Ul'yanovsk","NL_NAME_1":"Ульяновскаяобласть","NAME_2":"Radishchevskiyrayon","VARNAME_2":"NA","NL_NAME_2":"Радищевскийрайон","TYPE_2":"Raion","ENGTYPE_2":"District","CC_2":"R38001","HASC_2":"RU.UL.RA"}},{"type":"MultiPolygon","arcs":[[[77,78,79,80,81]]],"properties":{"GID_2":"RUS.75.16_1","GID_0":"RUS","COUNTRY":"Russia","GID_1":"RUS.75_1","NAME_1":"Ul'yanovsk","NL_NAME_1":"Ульяновскаяобласть","NAME_2":"Sengileevskiyrayon","VARNAME_2":"NA","NL_NAME_2":"Сенгилеевскийрайон","TYPE_2":"Raion","ENGTYPE_2":"District","CC_2":"R38001","HASC_2":"RU.UL.SE"}},{"type":"MultiPolygon","arcs":[[[-70,82,-61,83,-74,84,-72,85]]],"properties":{"GID_2":"RUS.75.17_1","GID_0":"RUS","COUNTRY":"Russia","GID_1":"RUS.75_1","NAME_1":"Ul'yanovsk","NL_NAME_1":"Ульяновскаяобласть","NAME_2":"Starokulatkinskiyrayon","VARNAME_2":"NA","NL_NAME_2":"Старокулаткинскийрайон","TYPE_2":"Raion","ENGTYPE_2":"District","CC_2":"R38001","HASC_2":"RU.UL.SK"}},{"type":"MultiPolygon","arcs":[[[86,-21,87,88,89]]],"properties":{"GID_2":"RUS.75.18_1","GID_0":"RUS","COUNTRY":"Russia","GID_1":"RUS.75_1","NAME_1":"Ul'yanovsk","NL_NAME_1":"Ульяновскаяобласть","NAME_2":"Staromaynskiyrayon","VARNAME_2":"NA","NL_NAME_2":"Старомайнскийрайон","TYPE_2":"Raion","ENGTYPE_2":"District","CC_2":"R38001","HASC_2":"RU.UL.SM"}},{"type":"MultiPolygon","arcs":[[[-48,-29,90]]],"properties":{"GID_2":"RUS.75.19_1","GID_0":"RUS","COUNTRY":"Russia","GID_1":"RUS.75_1","NAME_1":"Ul'yanovsk","NL_NAME_1":"Ульяновскаяобласть","NAME_2":"Surskiyrayon","VARNAME_2":"NA","NL_NAME_2":"Сурскийрайон","TYPE_2":"Raion","ENGTYPE_2":"District","CC_2":"R38001","HASC_2":"RU.UL.SU"}},{"type":"MultiPolygon","arcs":[[[91,-42,92,-40,93,-78]]],"properties":{"GID_2":"RUS.75.20_1","GID_0":"RUS","COUNTRY":"Russia","GID_1":"RUS.75_1","NAME_1":"Ul'yanovsk","NL_NAME_1":"Ульяновскаяобласть","NAME_2":"Teren'gul'skiyrayon","VARNAME_2":"NA","NL_NAME_2":"Тереньгульскийрайон","TYPE_2":"Raion","ENGTYPE_2":"District","CC_2":"R38001","HASC_2":"RU.UL.TE"}},{"type":"MultiPolygon","arcs":[[[94,-44,95]]],"properties":{"GID_2":"RUS.75.21_1","GID_0":"RUS","COUNTRY":"Russia","GID_1":"RUS.75_1","NAME_1":"Ul'yanovsk","NL_NAME_1":"Ульяновскаяобласть","NAME_2":"Tsil'ninskiyrayon","VARNAME_2":"NA","NL_NAME_2":"Цильнинскийрайон","TYPE_2":"Raion","ENGTYPE_2":"District","CC_2":"R38001","HASC_2":"RU.UL.TS"}},{"type":"MultiPolygon","arcs":[[[96]]],"properties":{"GID_2":"RUS.75.22_1","GID_0":"RUS","COUNTRY":"Russia","GID_1":"RUS.75_1","NAME_1":"Ul'yanovsk","NL_NAME_1":"Ульяновскаяобласть","NAME_2":"Ul'yanovsk","VARNAME_2":"NA","NL_NAME_2":"Ульяновск","TYPE_2":"Gorsovet","ENGTYPE_2":"District","CC_2":"NA","HASC_2":"RU.UL.UG"}},{"type":"MultiPolygon","arcs":[[[97,98,99,-79,-94,-45,-95],[-97]]],"properties":{"GID_2":"RUS.75.23_1","GID_0":"RUS","COUNTRY":"Russia","GID_1":"RUS.75_1","NAME_1":"Ul'yanovsk","NL_NAME_1":"Ульяновскаяобласть","NAME_2":"Ul'yanovskiyrayon","VARNAME_2":"NA","NL_NAME_2":"Ульяновскийрайон","TYPE_2":"Raion","ENGTYPE_2":"District","CC_2":"R38001","HASC_2":"RU.UL.UR"}},{"type":"MultiPolygon","arcs":[[[-5,100,-25,101,-32,102,-46]]],"properties":{"GID_2":"RUS.75.24_1","GID_0":"RUS","COUNTRY":"Russia","GID_1":"RUS.75_1","NAME_1":"Ul'yanovsk","NL_NAME_1":"Ульяновскаяобласть","NAME_2":"Veshkaymskiyrayon","VARNAME_2":"NA","NL_NAME_2":"Вешкаймскийрайон","TYPE_2":"Raion","ENGTYPE_2":"District","CC_2":"R38000","HASC_2":"RU.UL.VE"}},{"type":"MultiPolygon","arcs":[[[103,-81,104,-99,105,-89,106,-19,107,-50]]],"properties":{"GID_2":"RUS.75.25_1","GID_0":"RUS","COUNTRY":"Russia","GID_1":"RUS.75_1","NAME_1":"Ul'yanovsk","NL_NAME_1":"Ульяновскаяобласть","NAME_2":"Waterbody","VARNAME_2":"NA","NL_NAME_2":"NA","TYPE_2":"Waterbody","ENGTYPE_2":"Waterbody","CC_2":"NA","HASC_2":"NA"}}]}},"arcs":[[[281487,452861],[-4279,2177],[3101,3457],[1766,-1494],[-588,-4140]],[[242591,344927],[-7743,8749],[-14535,7683],[-2898,9901],[-16505,7639]],[[200910,378899],[10618,22876],[-9712,13145],[22,13145],[-15576,17541],[3916,4396],[23433,8663],[4913,5421],[2966,14212],[14739,18565],[6928,14169],[1019,16431]],[[244176,527463],[-7811,8792]],[[236365,536255],[21666,12974],[18701,5335],[23682,15065],[19742,4183],[22414,-18949],[15554,-17712],[8785,-3457],[8897,5335],[2060,8749]],[[377866,547778],[22301,-21211]],[[400167,526567],[19222,-24455]],[[419389,502112],[1879,-6572],[-113,-6616]],[[421155,488924],[-24656,-13742],[-20534,-726],[-10981,-18437],[-4188,-24028],[-18611,-7383],[-5931,-6487],[19312,-13401],[-15826,-26034],[-10958,-25010],[-1132,-14212]],[[327650,339464],[-4867,-3200],[-15418,11096],[-9781,-8621],[-40571,20059],[-7789,-4311],[-6633,-9560]],[[135638,471469],[89271,74260]],[[224909,545729],[19267,-18266]],[[200910,378899],[-2943,16432],[-10709,3286],[-16482,-9944],[-13607,-43],[-11705,10926],[-2015,10925],[928,14255],[3826,15364],[-1041,14255],[-11524,17114]],[[837034,821518],[3328,-15493]],[[840362,806025],[-6701,-17199]],[[833661,788826],[-22007,-26333]],[[811654,762493],[-6633,8024],[-3464,13273],[-12996,-470],[-11116,-30173],[-14218,-8109],[-25584,7682],[-14354,-12505],[-5456,-14041],[6520,-12291],[-8309,-10627],[-1403,-11993],[16572,-35722],[1608,-11054],[16708,-1792],[10370,-18437]],[[759899,624258],[-18882,-15535]],[[741017,608723],[-8581,-19333],[-7064,-5122],[-12837,-512],[-23138,16389],[-10460,12547],[-14580,40118],[-10483,14681],[-23523,9731],[-16301,21510],[-2649,12163],[1426,16389],[6498,19504],[-8694,10243],[159,6572],[18655,25607],[14377,12590],[10890,-3755],[14060,1579],[5795,-6829],[5977,-256],[1200,5420],[-3260,24284],[317,10969]],[[678801,833212],[12181,19717]],[[690982,852929],[4098,-31582],[9916,-2561],[7449,13913],[8150,4055],[11773,-7085],[21803,-32734],[13788,-4993],[8694,19333],[15282,6956],[19674,17712],[7630,-9176],[17795,-5249]],[[860535,710639],[-4302,1451],[-973,6146],[5230,2817],[3441,-4055],[-3396,-6359]],[[128891,713712],[10551,-17242],[-4823,-23004],[9985,-17541],[8059,-37258],[5932,-2177],[12815,7640],[29636,-4481]],[[201046,619649],[-8875,-14212]],[[192171,605437],[1992,-21894],[15735,-43],[5909,-13188],[3894,-19717]],[[219701,550595],[5208,-4866]],[[135638,471469],[-13131,14553],[-16845,29448],[-13878,15237],[-8060,19674],[1879,8792],[-136,13145],[-14988,20699],[-11909,4268],[-14014,15194],[-19697,-2433],[-14648,-10072],[-10211,5207],[7471,12504],[9238,13785],[12791,31711],[6317,9858],[26580,14127],[11999,0],[43628,12889],[10867,13657]],[[128891,713712],[19969,9987],[21486,21083],[20670,5889],[4709,18566],[-3962,15449]],[[191763,784686],[18112,-6146],[8989,-7724],[9984,6529],[-11999,24199],[36020,8493],[8966,-7725],[17025,5335],[20943,-14468],[12044,13017],[17954,-9005],[20082,10670]],[[349883,807861],[5864,-13273],[9871,-11097],[-3328,-36106],[4800,-18736],[860,-12035]],[[367950,716614],[-25900,-8365]],[[342050,708249],[-13970,-8578],[-8807,16516],[-12927,-939],[-34912,-29192],[-20851,-14084],[-12883,-3201],[-6928,9902],[-3962,15364],[-7924,6615],[-2988,-29576],[-8920,-44855]],[[206978,626221],[-5932,-6572]],[[499196,390081],[-317,-17541],[-12769,-9560],[-2106,-8749]],[[484004,354231],[-15803,-14084],[-18542,-7212]],[[449659,332935],[-60948,6658],[-14558,-811]],[[374153,338782],[-29183,-10499],[-17320,11181]],[[421155,488924],[-1766,13188]],[[400167,526567],[23750,12675],[21870,17072],[14286,30344],[32172,34271],[13222,18266],[5977,2049]],[[511444,641244],[4166,-36277]],[[515610,604967],[-9532,-31497],[-7267,-18437]],[[498811,555033],[-23886,-16900],[-2218,-64530],[11863,6274],[9713,-2433],[3509,-19803],[408,-27357],[3373,-24198],[-4234,-13188],[1857,-2817]],[[354841,841619],[3940,2988],[2128,15321],[10052,-213],[7947,-11139],[9011,-3500],[10414,3628],[3826,-15407]],[[402159,833297],[-5229,-18565],[-12204,-19504],[7902,-8920],[20965,725],[17840,-9133],[15917,-2560]],[[447350,775340],[11750,-13401],[4301,-40630],[23501,-18096],[-2083,-6530],[-12022,-6274],[-158,-8791],[21350,-22407],[4686,-14339],[12769,-3628]],[[377866,547778],[-1811,13145],[2332,28424],[-30066,47586],[2105,13103],[-16640,21040],[14942,7469],[3170,20784],[6090,13060]],[[357988,712389],[9962,4225]],[[349883,807861],[4075,10883],[883,22875]],[[940364,612607],[-16617,-18864],[19425,-26205],[-10392,-12633],[-20399,4354],[-9282,11437],[-8762,1537],[-17252,-13401],[-31085,-17157],[-15984,17157],[-17297,9560],[-15668,683],[-14037,-8195],[-9893,-1792],[-14422,8279],[-6045,-213]],[[752654,567154],[-3985,7213],[10075,6060],[7788,-2561],[4415,12932],[8219,8365],[8829,-1537],[7449,13871],[10709,-3841],[1290,7597],[12951,2560],[-1336,15450],[6090,4054],[7766,20401],[16753,21040],[2242,6445],[-3758,4609],[-15169,-6829],[-40119,-36276]],[[792863,646707],[-32964,-22449]],[[811654,762493],[11411,11481],[10596,14852]],[[840362,806025],[-10210,42124]],[[830152,848149],[14580,20742],[14897,-4140],[28346,4951],[11229,-18267],[12566,-10584],[37356,5335]],[[949126,846186],[3419,-12334],[-3577,-51300],[-8626,-33460],[-51145,-53006],[-498,-10926],[20875,2134],[11637,-4993],[3509,-8963],[2989,-19888],[6678,-24498],[5977,-16345]],[[241096,155392],[5932,52580],[-883,20827],[5796,15322],[1019,12035],[-12452,23046],[-951,7640],[9713,21894],[996,12035],[-7698,10969],[23,13187]],[[374153,338782],[23546,-939]],[[397699,337843],[-17501,-52794],[2649,-18650],[10777,11822],[13630,6316],[5592,-11053],[-2015,-6530],[-1291,-20742],[-7177,-27229],[-2943,-3243]],[[399420,215740],[-26059,-7213],[2626,-18608],[10483,-5676],[-1200,-16389],[19176,-384]],[[404446,167470],[-23297,-19248]],[[381149,148222],[-36496,-8151],[-2920,-3244],[-159,-13145],[-5796,-4268]],[[335778,119414],[-18995,13359]],[[316783,132773],[-28640,9133],[-23976,-5250],[-23071,18736]],[[949126,846186],[8830,-3841],[21984,-44386],[10324,-12633],[4143,-16687],[-6815,-17157],[3306,-13358],[9101,-15834],[-17320,-29747],[2626,-26460],[-1584,-11993],[-4370,-8493],[-11252,-7469],[-13675,-19674],[-14060,-5847]],[[484004,354231],[9305,-22107],[15101,-20059],[17230,-9176],[-5185,-18522],[1630,-15365],[14060,-18992],[-2378,-21894],[-6067,-15193],[5569,-11097],[-7312,-6615]],[[525957,195211],[-76796,4183],[-23976,3798]],[[425185,203192],[-25765,12548]],[[397699,337843],[51960,-4908]],[[316783,132773],[34209,-22364]],[[350992,110409],[-18293,-9560],[-3985,-15279],[793,-14254],[-5909,-17413],[3690,-11011],[34957,-23559],[4777,-10712]],[[367022,8621],[-9577,-8621],[-25561,10157],[-16210,-3115],[-11298,13230],[-9509,86],[-6701,-7640],[-9532,-4310],[-1856,10968],[-11321,17626],[-11410,2220],[-23841,-16346],[-14240,12078],[5750,24113],[22958,24028],[8603,5463],[3894,19675],[-13267,28551],[-2808,18608]],[[480948,105501],[-22075,-4908],[-27009,-14724],[-14196,7981],[-838,7682]],[[416830,101532],[10189,39222]],[[427019,140754],[8942,18394],[-8444,10072],[-13336,6829]],[[414181,176049],[-9735,-8579]],[[425185,203192],[100772,-7981]],[[525957,195211],[28685,19248],[11411,-6871],[1698,-8834],[-5864,-6402],[31560,-4183],[11343,-6914],[8173,-18906],[-6248,-21766],[-6045,-12974],[-14807,-20443],[-11501,-1878],[-13132,11352],[-7652,214],[-26195,-20187],[-46435,8834]],[[610292,522086],[-2559,28637],[-5343,19888],[-14308,16901],[-17547,7127],[-11546,11310],[-8309,23217]],[[550680,629166],[8897,853],[4415,19547],[17728,-2731],[7426,8962]],[[589146,655797],[3826,-4524]],[[592972,651273],[10980,2860],[17433,-13828],[52367,-66877],[15034,-22620],[1743,-6658],[-3419,-14084],[-9463,-20400],[-1223,-7639]],[[676424,502027],[1743,-11993],[-24497,7682],[-43378,24370]],[[350992,110409],[-15214,9005]],[[381149,148222],[33032,27827]],[[427019,140754],[-7110,-25053],[-3079,-14169]],[[480948,105501],[25538,-3969],[-13946,-32606],[-18181,-5079],[-13086,17840],[-8580,1237],[-11660,-15108],[-4958,-14212],[10188,-21040],[1720,-13188],[-11546,-10755],[-17886,14596],[-22753,6957],[-15283,-6359],[-13493,-15194]],[[830152,848149],[1516,-11011],[5366,-15620]],[[690982,852929],[4664,5890]],[[695646,858819],[2354,10883],[26172,981],[-24179,30771],[-634,12121],[10346,8280],[9826,22619],[15237,2561]],[[734768,947035],[8309,6231],[-6905,5804],[-23297,5975],[2332,2732],[24406,3201],[9735,18223],[8332,6189],[4709,-10115],[12701,14724],[7041,-1451],[29184,-32308],[3441,-15535],[5547,-13486],[4641,-10157],[14332,-19462],[520,-12078],[9690,-9346],[1517,-11054],[-20851,-26973]],[[191763,784686],[-14082,-2006],[-10098,2689],[-5297,8920],[1109,9133],[15124,12718],[1924,9560],[-3215,3884],[-5456,256],[-11411,-9048],[-10369,-2817],[-3939,6103],[4233,5591],[14196,6487],[136,9091],[-861,6914],[-8694,7383],[-15870,-3884],[-2038,4951],[17659,13529],[4913,6829],[-1539,15791],[-7789,9730],[-7041,14981],[-1584,7895],[1290,11310],[23070,-21297],[24452,-15108],[24587,1451],[5004,-3627],[5252,-13828],[6362,-3414],[9238,2560],[7041,6658],[6045,16389],[4664,4481],[14942,4609],[5977,-2134],[19018,-17754],[11071,5420],[8083,15322],[6135,2859],[6023,-11096],[20014,-22364],[-8128,-10797],[9780,-39777],[3147,2390]],[[610292,522086],[-6883,-897],[-8988,-7426],[-3125,-7596],[7608,-8963],[26194,-8450],[3623,-11054],[-8988,-7426],[-42655,12206],[-13923,-10627],[-2242,-13060],[15305,-13571],[-1200,-9816],[6385,-18822],[-159,-6572],[-8218,-19504],[-3940,-2091],[-38466,18479],[-31424,-16815]],[[498811,555033],[16799,49934]],[[511444,641244],[4075,6444],[11049,7384],[24112,-25906]],[[542461,937347],[-4437,-21766],[3962,-51641],[-16256,-10499],[-8377,-17327],[-15056,-2902],[-11297,-16133],[-20806,12590],[-24316,-19205],[1472,-35124]],[[402159,833297],[-9916,42422],[30678,38795],[-2830,18736],[16255,6188],[14015,-11352],[-2332,-21894],[4845,-14426],[13991,-9175],[5117,7554],[-3803,13273],[2241,15321],[4120,6487],[9147,3031],[5955,-6786],[8082,-256],[8400,19546],[6180,6402],[9079,-1408],[-113,-6615],[8988,-5762],[12203,3969]],[[575584,716102],[-27055,-12420],[-17026,13956],[19516,36490],[21780,15791],[8128,-19973],[-5343,-33844]],[[542461,937347],[8128,1921],[4936,-5634],[-3192,-7597],[-1268,-12035],[31107,-8792],[20580,-23814],[-17478,-15834]],[[585274,865562],[-17750,-29022],[-3577,-25137],[1540,-19803],[16029,-41185],[-2513,-21851],[-3283,-11950],[702,-12078],[-6272,-12932]],[[570150,691604],[18996,-35807]],[[236365,536255],[-16664,14340]],[[192171,605437],[14807,20784]],[[342050,708249],[15938,4140]],[[752654,567154],[11275,-19461],[-44217,6060],[-19697,-28040],[-15622,-33502],[-6248,-1964],[-1721,11780]],[[592972,651273],[-6724,7938],[-16098,32393]],[[585274,865562],[14445,14809],[38375,5079],[10958,-3756],[14263,10243],[10483,-1152],[6543,5633],[14512,27912],[18361,26802],[13947,4311],[14241,-3415],[-6634,-4993]],[[695646,858819],[-16845,-25607]],[[741017,608723],[5139,5249],[46707,32735]]],"bbox":[45.8486,52.56,50.2655,54.9031],"transform":{"scale":[0.000004416904416904422,0.000002343102343102343],"translate":[45.8486,52.56]}}