{"type":"Topology","objects":{"muni":{"type":"GeometryCollection","geometries":[{"type":"MultiPolygon","arcs":[[[0,1,2,3,4,5]]],"properties":{"GID_2":"RUS.76.1_1","GID_0":"RUS","COUNTRY":"Russia","GID_1":"RUS.76_1","NAME_1":"Vladimir","NL_NAME_1":"Владимирскаяобласть","NAME_2":"Aleksandrovskiyrayon","VARNAME_2":"NA","NL_NAME_2":"Александровскийрайон","TYPE_2":"Raion","ENGTYPE_2":"District","CC_2":"R10000","HASC_2":"RU.VL.AG"}},{"type":"MultiPolygon","arcs":[[[6,7,8,9]]],"properties":{"GID_2":"RUS.76.2_1","GID_0":"RUS","COUNTRY":"Russia","GID_1":"RUS.76_1","NAME_1":"Vladimir","NL_NAME_1":"Владимирскаяобласть","NAME_2":"Gorokhovetskiyrayon","VARNAME_2":"NA","NL_NAME_2":"Гороховецкийрайон","TYPE_2":"Raion","ENGTYPE_2":"District","CC_2":"R10000","HASC_2":"RU.VL.GO"}},{"type":"MultiPolygon","arcs":[[[10,11,12,13,14]]],"properties":{"GID_2":"RUS.76.3_1","GID_0":"RUS","COUNTRY":"Russia","GID_1":"RUS.76_1","NAME_1":"Vladimir","NL_NAME_1":"Владимирскаяобласть","NAME_2":"Gus'-Khrustal'nyyrayon","VARNAME_2":"NA","NL_NAME_2":"Гусь-Хрустальныйрайон","TYPE_2":"Raion","ENGTYPE_2":"District","CC_2":"R10000","HASC_2":"RU.VL.GG"}},{"type":"MultiPolygon","arcs":[[[15,16,17,18]]],"properties":{"GID_2":"RUS.76.4_1","GID_0":"RUS","COUNTRY":"Russia","GID_1":"RUS.76_1","NAME_1":"Vladimir","NL_NAME_1":"Владимирскаяобласть","NAME_2":"Kameshkovskiyrayon","VARNAME_2":"NA","NL_NAME_2":"Камешковскийрайон","TYPE_2":"Raion","ENGTYPE_2":"District","CC_2":"R10000","HASC_2":"RU.VL.KA"}},{"type":"MultiPolygon","arcs":[[[-4,19,20,21,22]],[[23]]],"properties":{"GID_2":"RUS.76.5_1","GID_0":"RUS","COUNTRY":"Russia","GID_1":"RUS.76_1","NAME_1":"Vladimir","NL_NAME_1":"Владимирскаяобласть","NAME_2":"Kirzhachskiyrayon","VARNAME_2":"NA","NL_NAME_2":"Киржачскийрайон","TYPE_2":"Raion","ENGTYPE_2":"District","CC_2":"R10000","HASC_2":"RU.VL.KI"}},{"type":"MultiPolygon","arcs":[[[24]]],"properties":{"GID_2":"RUS.76.6_1","GID_0":"RUS","COUNTRY":"Russia","GID_1":"RUS.76_1","NAME_1":"Vladimir","NL_NAME_1":"Владимирскаяобласть","NAME_2":"Kol'chugino","VARNAME_2":"NA","NL_NAME_2":"Кольчугино","TYPE_2":"Gorod","ENGTYPE_2":"City","CC_2":"NA","HASC_2":"RU.VL.KL"}},{"type":"MultiPolygon","arcs":[[[-3,25,26,27,28,29,30,-20],[-25]]],"properties":{"GID_2":"RUS.76.7_1","GID_0":"RUS","COUNTRY":"Russia","GID_1":"RUS.76_1","NAME_1":"Vladimir","NL_NAME_1":"Владимирскаяобласть","NAME_2":"Kol'chuginskiyrayon","VARNAME_2":"NA","NL_NAME_2":"Кольчугинскийрайон","TYPE_2":"Raion","ENGTYPE_2":"District","CC_2":"R10000","HASC_2":"RU.VL.KC"}},{"type":"MultiPolygon","arcs":[[[31]]],"properties":{"GID_2":"RUS.76.8_1","GID_0":"RUS","COUNTRY":"Russia","GID_1":"RUS.76_1","NAME_1":"Vladimir","NL_NAME_1":"Владимирскаяобласть","NAME_2":"Kovrov","VARNAME_2":"NA","NL_NAME_2":"Ковров","TYPE_2":"Gorod","ENGTYPE_2":"City","CC_2":"NA","HASC_2":"RU.VL.KG"}},{"type":"MultiPolygon","arcs":[[[32,33,34,35,36,-17],[-32]]],"properties":{"GID_2":"RUS.76.9_1","GID_0":"RUS","COUNTRY":"Russia","GID_1":"RUS.76_1","NAME_1":"Vladimir","NL_NAME_1":"Владимирскаяобласть","NAME_2":"Kovrovskiyrayon","VARNAME_2":"NA","NL_NAME_2":"Ковровскийрайон","TYPE_2":"Raion","ENGTYPE_2":"District","CC_2":"R10000","HASC_2":"RU.VL.KR"}},{"type":"MultiPolygon","arcs":[[[37,-14,38,39,40]]],"properties":{"GID_2":"RUS.76.10_1","GID_0":"RUS","COUNTRY":"Russia","GID_1":"RUS.76_1","NAME_1":"Vladimir","NL_NAME_1":"Владимирскаяобласть","NAME_2":"Melenkovskiyrayon","VARNAME_2":"NA","NL_NAME_2":"Меленковскийрайон","TYPE_2":"Raion","ENGTYPE_2":"District","CC_2":"R10000","HASC_2":"RU.VL.ME"}},{"type":"MultiPolygon","arcs":[[[41,42]]],"properties":{"GID_2":"RUS.76.11_1","GID_0":"RUS","COUNTRY":"Russia","GID_1":"RUS.76_1","NAME_1":"Vladimir","NL_NAME_1":"Владимирскаяобласть","NAME_2":"Murom","VARNAME_2":"NA","NL_NAME_2":"Муром","TYPE_2":"Gorsovet","ENGTYPE_2":"District","CC_2":"NA","HASC_2":"RU.VL.MG"}},{"type":"MultiPolygon","arcs":[[[-41,43,44,45,-7,46,-43,47]]],"properties":{"GID_2":"RUS.76.12_1","GID_0":"RUS","COUNTRY":"Russia","GID_1":"RUS.76_1","NAME_1":"Vladimir","NL_NAME_1":"Владимирскаяобласть","NAME_2":"Muromskiyrayon","VARNAME_2":"NA","NL_NAME_2":"Муромскийрайон","TYPE_2":"Raion","ENGTYPE_2":"District","CC_2":"R10001","HASC_2":"RU.VL.MR"}},{"type":"MultiPolygon","arcs":[[[-22,48,-30,49,50,51]]],"properties":{"GID_2":"RUS.76.13_1","GID_0":"RUS","COUNTRY":"Russia","GID_1":"RUS.76_1","NAME_1":"Vladimir","NL_NAME_1":"Владимирскаяобласть","NAME_2":"Petushinskiyrayon","VARNAME_2":"NA","NL_NAME_2":"Петушинскийрайон","TYPE_2":"Raion","ENGTYPE_2":"District","CC_2":"R10001","HASC_2":"RU.VL.PE"}},{"type":"MultiPolygon","arcs":[[[52,53,54,-35,55,-44,-40]]],"properties":{"GID_2":"RUS.76.14_1","GID_0":"RUS","COUNTRY":"Russia","GID_1":"RUS.76_1","NAME_1":"Vladimir","NL_NAME_1":"Владимирскаяобласть","NAME_2":"Selivanovskiyrayon","VARNAME_2":"NA","NL_NAME_2":"Селивановскийрайон","TYPE_2":"Raion","ENGTYPE_2":"District","CC_2":"R10001","HASC_2":"RU.VL.SE"}},{"type":"MultiPolygon","arcs":[[[56]]],"properties":{"GID_2":"RUS.76.15_1","GID_0":"RUS","COUNTRY":"Russia","GID_1":"RUS.76_1","NAME_1":"Vladimir","NL_NAME_1":"Владимирскаяобласть","NAME_2":"Sobinka","VARNAME_2":"NA","NL_NAME_2":"Собинка","TYPE_2":"Gorsovet","ENGTYPE_2":"District","CC_2":"NA","HASC_2":"RU.VL.SO"}},{"type":"MultiPolygon","arcs":[[[57,-51,58,-28,59,60,61,62,-11],[-57]]],"properties":{"GID_2":"RUS.76.16_1","GID_0":"RUS","COUNTRY":"Russia","GID_1":"RUS.76_1","NAME_1":"Vladimir","NL_NAME_1":"Владимирскаяобласть","NAME_2":"Sobinskiyrayon","VARNAME_2":"NA","NL_NAME_2":"Собинскийрайон","TYPE_2":"Raion","ENGTYPE_2":"District","CC_2":"R10001","HASC_2":"RU.VL.SB"}},{"type":"MultiPolygon","arcs":[[[63,-12,-63,64,65,-18,-37,66,-54]]],"properties":{"GID_2":"RUS.76.17_1","GID_0":"RUS","COUNTRY":"Russia","GID_1":"RUS.76_1","NAME_1":"Vladimir","NL_NAME_1":"Владимирскаяобласть","NAME_2":"Sudogodskiyrayon","VARNAME_2":"NA","NL_NAME_2":"Судогодскийрайон","TYPE_2":"Raion","ENGTYPE_2":"District","CC_2":"R10001","HASC_2":"RU.VL.SU"}},{"type":"MultiPolygon","arcs":[[[67]]],"properties":{"GID_2":"RUS.76.18_1","GID_0":"RUS","COUNTRY":"Russia","GID_1":"RUS.76_1","NAME_1":"Vladimir","NL_NAME_1":"Владимирскаяобласть","NAME_2":"Suzdal'","VARNAME_2":"NA","NL_NAME_2":"Суздаль","TYPE_2":"Gorod","ENGTYPE_2":"City","CC_2":"NA","HASC_2":"RU.VL.SG"}},{"type":"MultiPolygon","arcs":[[[68,-19,-66,69,-61,70],[-68],[71]]],"properties":{"GID_2":"RUS.76.19_1","GID_0":"RUS","COUNTRY":"Russia","GID_1":"RUS.76_1","NAME_1":"Vladimir","NL_NAME_1":"Владимирскаяобласть","NAME_2":"Suzdal'skiyrayon","VARNAME_2":"NA","NL_NAME_2":"Суздальскийрайон","TYPE_2":"Raion","ENGTYPE_2":"District","CC_2":"R10001","HASC_2":"RU.VL.SR"}},{"type":"MultiPolygon","arcs":[[[-72]]],"properties":{"GID_2":"RUS.76.20_1","GID_0":"RUS","COUNTRY":"Russia","GID_1":"RUS.76_1","NAME_1":"Vladimir","NL_NAME_1":"Владимирскаяобласть","NAME_2":"Vladimir","VARNAME_2":"NA","NL_NAME_2":"Владимир","TYPE_2":"Gorod","ENGTYPE_2":"City","CC_2":"NA","HASC_2":"RU.VL.VL"}},{"type":"MultiPolygon","arcs":[[[72]]],"properties":{"GID_2":"RUS.76.21_1","GID_0":"RUS","COUNTRY":"Russia","GID_1":"RUS.76_1","NAME_1":"Vladimir","NL_NAME_1":"Владимирскаяобласть","NAME_2":"Vyazniki","VARNAME_2":"NA","NL_NAME_2":"Вязники","TYPE_2":"Gorod","ENGTYPE_2":"City","CC_2":"NA","HASC_2":"RU.VL.VG"}},{"type":"MultiPolygon","arcs":[[[-9,73,-45,-56,-34,74],[-73]]],"properties":{"GID_2":"RUS.76.22_1","GID_0":"RUS","COUNTRY":"Russia","GID_1":"RUS.76_1","NAME_1":"Vladimir","NL_NAME_1":"Владимирскаяобласть","NAME_2":"Vyaznikovskiyrayon","VARNAME_2":"NA","NL_NAME_2":"Вязниковскийрайон","TYPE_2":"Raion","ENGTYPE_2":"District","CC_2":"R10000","HASC_2":"RU.VL.VR"}},{"type":"MultiPolygon","arcs":[[[-71,-60,-27,75,-1,76]]],"properties":{"GID_2":"RUS.76.23_1","GID_0":"RUS","COUNTRY":"Russia","GID_1":"RUS.76_1","NAME_1":"Vladimir","NL_NAME_1":"Владимирскаяобласть","NAME_2":"Yur'ev-Pol'skiyrayon","VARNAME_2":"NA","NL_NAME_2":"Юрьев-Польскийрайон","TYPE_2":"Raion","ENGTYPE_2":"District","CC_2":"R10001","HASC_2":"RU.VL.YP"}}]}},"arcs":[[[222677,844809],[-21030,-27860]],[[201647,816949],[-12747,-24809]],[[188900,792140],[-9540,-6686],[2277,-20528],[-954,-21408],[-7415,-19882],[-12683,-23461]],[[160585,700175],[-19620,235],[-11621,9853],[-18948,-39355],[-8889,-3167],[-10298,7566],[-28618,-44809]],[[62591,630498],[-13702,16070]],[[48889,646568],[-7068,-7624],[-715,11788],[-5876,-645],[-6569,10616],[109,7683],[-2884,5807],[6569,14076],[1735,12551],[-5572,6041],[3534,21232],[-3469,7214],[8477,3109],[-997,9560],[-10233,3753],[-1800,8036],[4575,15777],[-2732,10616],[-12271,-939],[152,13724],[-8282,9385],[7610,10967],[-9366,59],[-3816,9150],[2125,6627],[16867,19883],[-1149,10850],[-6613,6862],[3382,11613],[-2926,4399],[2124,10205],[-7284,25103],[4639,-2287],[13073,8504],[23827,-32962],[3014,-43519],[14135,-6686],[12531,21642],[15155,-3343],[7176,16833],[17517,-4223],[17713,-30029],[31263,704],[11144,21055],[12357,-8328],[1214,-10088],[11122,-2698],[4987,-11730],[15284,7918]],[[879934,395014],[-19382,13431],[-10667,15074]],[[849885,423519],[-8954,29266]],[[840931,452785],[8803,19121],[-9691,35953],[-1952,18709],[3014,13197],[16282,6451],[7328,25338],[15956,22698],[15588,13313],[8867,35602],[5616,46158],[10645,28035],[5680,28387]],[[927067,745747],[-10862,9560],[15935,8387],[12640,-11026],[7826,-19003],[6374,-64809],[15393,-16364],[25626,-8563],[-1344,-24164],[-8672,-11203],[-11317,-23284],[-25344,-8504],[-11144,-20059],[8130,-14487],[-2775,-29443],[-15176,-25220],[-8152,-8445],[-15588,3167],[-8802,-9032],[-4336,-42112],[-5811,-26627],[-9734,-9502]],[[371685,331202],[7848,22815],[11795,-6451],[11447,29970],[7891,4047],[13377,-5396],[12965,18299]],[[437008,394486],[16000,33725],[8715,117],[9995,-17243],[50601,-1291],[67317,-20352],[3773,-23636],[-7068,-44985],[6417,-10147],[16997,2581],[11318,12375],[11143,-821],[5745,-16129]],[[637961,308680],[15502,-102580]],[[653463,206100],[-3469,-16775],[-24108,-37595],[-9952,-20469],[-1040,-36305],[10796,-31672]],[[625690,63284],[-11729,-9618],[-5485,-16423],[282,-28739],[-10124,2933],[-3881,13607],[-3881,28328],[-7133,8387],[-3555,19297],[-20531,3929],[-5399,-35425],[-9973,-2639],[-2276,13724],[-7848,2815],[-6353,-17536],[-32650,-1760],[-12575,36716],[3578,34428],[-12727,5924],[-14243,-29619],[-17670,-997],[-6352,18768],[14721,7214],[-4510,14194],[-27924,-7508],[-5702,9033],[-4791,30263],[-6504,12493],[5051,10909],[-2081,14076],[7892,-1114],[650,21936],[-5051,4281],[-1822,12727],[-23826,-528],[-629,32083],[5962,-646],[2949,14546],[-7025,22639],[6374,10088],[-17214,15132]],[[540661,865864],[5550,-24047],[2038,-20176],[15089,-14604],[2428,11965],[22158,-12551],[3533,-15249],[10841,-5044],[5658,18651]],[[607956,804809],[7371,-32024],[2472,-35132],[-5897,-32903],[-17756,-59296],[5268,-33314],[7220,-8622],[3143,-14017]],[[609777,589501],[-31718,-21349],[-21832,-7801],[-9604,17654],[-9193,4223],[-5398,-10264],[-15436,10030],[-15350,-3520]],[[501246,578474],[-9886,37185],[2927,28681],[6894,15483],[-434,23637],[-10775,15132],[-4878,12140],[34559,51965],[21008,103167]],[[160585,700175],[1496,-20645],[-6981,-14311],[-3469,-22170],[1366,-15014],[6179,-25924],[4575,-9971],[6937,587],[5941,6686],[10211,-21290]],[[186840,578123],[-65518,-78124]],[[121322,499999],[-7067,-16246]],[[114255,483753],[-19122,24634],[-5572,2932],[-14851,-4457],[-7566,2170],[-3643,8797],[9019,9971],[-5658,4985],[173,18241],[-9040,6921],[-3599,17360],[325,11555],[-3751,6099],[1214,15367],[-4618,16598],[5355,16892],[9670,-11320]],[[48889,646568],[2818,-3812],[-7284,-2757],[4466,6569]],[[232130,683929],[-4813,-5631],[-13203,4282],[2688,9208],[9539,4340],[5789,-12199]],[[188900,792140],[9517,14956]],[[198417,807096],[12445,-11144],[40086,-7038],[24542,-51026],[-867,-23461],[6461,-19354],[11100,1407],[22331,-21466]],[[314515,675014],[-5269,-61173],[-2406,-6803]],[[306840,607038],[-23675,-16775]],[[283165,590263],[-6092,8036],[-11816,-176],[-20834,-22757],[-9518,-19531],[-21117,-5220],[-32303,18534]],[[181485,569149],[5355,8974]],[[650428,706803],[-10234,-14135],[-7913,8211],[5442,20176],[-108,8915],[9257,3284],[3035,-7038],[521,-19413]],[[607956,804809],[22092,13431],[7155,-15895],[20010,-6569],[25453,2816],[13572,-28505],[16498,20000],[34515,6159],[28770,21524],[6656,-30439],[303,-23871]],[[782980,763460],[-8759,-3226],[-7501,-15367],[-32455,-29208],[-12206,-26803],[-9735,-12610],[2537,-13725],[18623,1584],[6201,-11320],[1864,-11261],[-3490,-8797],[-16781,-21994],[-11685,-25690],[-8109,-28152],[-1712,-26334],[29853,11906],[11534,-2346],[4336,-19531]],[[745495,520586],[-10688,-10733],[-8759,-18592],[-6396,-880],[-7978,19706],[-13550,-2463],[-7566,-12434],[-14396,-10440],[-19274,-2580]],[[656888,482170],[-7740,13137]],[[649148,495307],[2017,10558],[-4857,9384],[-17994,9267],[-10645,13372],[-7892,51613]],[[824996,195542],[2212,-16070],[-5247,-18475],[-18038,-25044],[-10623,-117],[-4683,-33725],[846,-14897],[-8694,-17361],[3143,-12258],[-9669,-15601],[-3794,-25044],[-15393,-9267],[-19534,4751],[-7414,-12434],[-12076,24340],[-13182,-12317],[-8368,8388],[-15415,-16599],[-14005,13197],[-4922,19765],[-21225,23754],[-13225,2756]],[[653463,206100],[-6071,37536]],[[647392,243636],[18342,-2698],[10688,19648],[9453,7097],[18406,-1994],[25236,11789]],[[729517,277478],[27404,-33373],[9279,-27683],[11469,-19824],[16823,-10440],[30504,9384]],[[815934,252375],[-24195,23226]],[[791739,275601],[1800,10968],[13615,3343],[8780,-37537]],[[729517,277478],[867,15425],[-3729,35132],[25344,29619],[22201,49736],[32932,27214],[8022,26510]],[[815154,461114],[10558,1759],[-390,19297],[5680,-1291]],[[831002,480879],[18883,-57360]],[[879934,395014],[-25431,-19413],[-9582,-27038],[-19383,-31789],[-2645,-10499],[-6048,-9970],[-911,-43930]],[[791739,275601],[24173,-23871],[-411,-20293],[7132,-18593],[2363,-17302]],[[121322,499999],[60163,69150]],[[283165,590263],[11794,7625]],[[294959,597888],[11295,-35367],[-7111,-12199],[19578,-50029],[2601,-17596],[-3620,-16011],[-7133,-10557],[-3621,-10968],[2602,-9678],[-434,-20469]],[[309116,415014],[-4011,-12023],[-8542,-7214],[-3317,5748],[-6872,-4986],[-8304,4399],[-9951,-8094],[-369,-19413],[-7241,-5631],[-4011,2346],[-173,15484],[-7827,-469],[-1322,3930],[-6049,-3402],[-975,3460],[-10168,-6451],[-4076,1700],[-1041,18241],[-6201,17419],[9605,14076],[-1583,3285],[-15349,-13197],[-32022,5748],[-16043,34663],[5745,16422],[-1561,704],[-2428,-9325],[-6418,5102],[217,5513],[6027,3285],[-6352,3226],[-14179,-10206],[-11274,7801],[-5875,-8387],[-9322,-3461],[-3599,8446]],[[647392,243636],[-6829,46276]],[[640563,289912],[12011,16422],[11946,52317],[7436,46099],[-1236,50909],[-7501,18593]],[[663219,474252],[-6331,7918]],[[745495,520586],[11491,-18827],[10861,8387],[8694,-13314],[11512,13901],[16217,-25572],[10884,-24047]],[[371187,496891],[-5182,-5630],[-8087,4398],[-1517,4575],[13376,5396],[1410,-8739]],[[371685,331202],[-10059,21114],[-4705,-703],[-4574,10615],[2233,13607],[-2277,23637],[-4401,18533],[-16520,2933],[-3512,-4868],[-1908,7449],[-10819,352],[-6027,-8857]],[[294959,597888],[11881,9150]],[[314515,675014],[18623,13959],[6656,-6628],[22677,11027]],[[362471,693372],[-1604,-33549],[8282,-25102],[19815,-20118],[10840,-19061],[2385,-66862],[3512,-11320]],[[405701,517360],[17540,-18006]],[[423241,499354],[433,-18651],[-3252,-18885],[11361,-55543],[5225,-11789]],[[640563,289912],[-2602,18768]],[[423241,499354],[-11209,9795]],[[412032,509149],[33236,24223],[9929,20117],[11794,-4223],[5074,-11378],[29181,40586]],[[649148,495307],[14071,-21055]],[[459945,739823],[-7935,6862],[-1561,11144],[1605,6276],[8282,-293],[1842,-15308],[-2233,-8681]],[[407566,771084],[5073,-5337],[5637,23460],[13854,36012],[10753,-4692],[4184,16833],[21290,1994],[4922,16774],[17604,10557],[8802,-5454],[21095,14017],[19881,-9384]],[[412032,509149],[-6331,8211]],[[362471,693372],[6634,20058],[1800,42522],[9713,2581],[27555,-27977],[10233,13490],[-10840,27038]],[[457691,566216],[11078,44106],[-32043,-5982],[-22417,-41115],[-4618,6159],[-5204,-2874],[6309,-13138],[30504,4047],[16391,8797]],[[840953,645864],[-2580,-4457],[-10732,2698],[-8715,6217],[0,7742],[6287,6393],[12553,-10557],[3187,-8036]],[[840931,452785],[-9929,28094]],[[782980,763460],[282,-21056],[27252,-16892],[13615,22464],[12900,12082],[1409,25044],[9778,-1525],[10428,10205],[31306,-10205],[5204,-23754],[14504,1936],[17409,-16012]],[[198417,807096],[3230,9853]],[[222677,844809],[-3208,18944],[8238,3695],[6092,29208],[-7154,880],[-2060,32023],[7371,9208],[889,19355],[9388,14135],[12076,-2698],[11295,19883],[19339,10557],[15545,-293],[24802,-15895],[13875,-8973],[1886,-38945],[-15566,-51260],[19360,-2464],[15718,-43050],[-3078,-25806],[7978,-15132],[27360,-8622],[14743,-18475]]],"bbox":[38.321,55.1029,42.9335,56.8079],"transform":{"scale":[0.000004612504612504616,0.0000017050017050017035],"translate":[38.321,55.1029]}}