{"type":"Topology","objects":{"muni":{"type":"GeometryCollection","geometries":[{"type":"MultiPolygon","arcs":[[[0,1,2,3,4,5,6,7]]],"properties":{"GID_2":"RUS.77.1_1","GID_0":"RUS","COUNTRY":"Russia","GID_1":"RUS.77_1","NAME_1":"Volgograd","NL_NAME_1":"Волгоградскаяобласть","NAME_2":"Alekseevskiyrayon","VARNAME_2":"NA","NL_NAME_2":"Алексеевскийрайон","TYPE_2":"Raion","ENGTYPE_2":"District","CC_2":"R34000","HASC_2":"RU.VG.AL"}},{"type":"MultiPolygon","arcs":[[[8,9,10,11,12,13,14,15]]],"properties":{"GID_2":"RUS.77.2_1","GID_0":"RUS","COUNTRY":"Russia","GID_1":"RUS.77_1","NAME_1":"Volgograd","NL_NAME_1":"Волгоградскаяобласть","NAME_2":"Bykovskiyrayon","VARNAME_2":"NA","NL_NAME_2":"Быковскийрайон","TYPE_2":"Raion","ENGTYPE_2":"District","CC_2":"R34000","HASC_2":"RU.VG.BY"}},{"type":"MultiPolygon","arcs":[[[16,17,18]]],"properties":{"GID_2":"RUS.77.3_1","GID_0":"RUS","COUNTRY":"Russia","GID_1":"RUS.77_1","NAME_1":"Volgograd","NL_NAME_1":"Волгоградскаяобласть","NAME_2":"Chernyshkovskiyrayon","VARNAME_2":"NA","NL_NAME_2":"Чернышковскийрайон","TYPE_2":"Raion","ENGTYPE_2":"District","CC_2":"R34003","HASC_2":"RU.VG.CH"}},{"type":"MultiPolygon","arcs":[[[19,20,21,22,23,24,25]]],"properties":{"GID_2":"RUS.77.4_1","GID_0":"RUS","COUNTRY":"Russia","GID_1":"RUS.77_1","NAME_1":"Volgograd","NL_NAME_1":"Волгоградскаяобласть","NAME_2":"Danilovskiyrayon","VARNAME_2":"NA","NL_NAME_2":"Даниловскийрайон","TYPE_2":"Raion","ENGTYPE_2":"District","CC_2":"R34000","HASC_2":"RU.VG.DA"}},{"type":"MultiPolygon","arcs":[[[-9,26,27,28,29,30]]],"properties":{"GID_2":"RUS.77.5_1","GID_0":"RUS","COUNTRY":"Russia","GID_1":"RUS.77_1","NAME_1":"Volgograd","NL_NAME_1":"Волгоградскаяобласть","NAME_2":"Dubovskiyrayon","VARNAME_2":"NA","NL_NAME_2":"Дубовскийрайон","TYPE_2":"Raion","ENGTYPE_2":"District","CC_2":"R34000","HASC_2":"RU.VG.DU"}},{"type":"MultiPolygon","arcs":[[[31,32,33,-20,34,35,36]]],"properties":{"GID_2":"RUS.77.6_1","GID_0":"RUS","COUNTRY":"Russia","GID_1":"RUS.77_1","NAME_1":"Volgograd","NL_NAME_1":"Волгоградскаяобласть","NAME_2":"Elanskiyrayon","VARNAME_2":"NA","NL_NAME_2":"Еланскийрайон","TYPE_2":"Raion","ENGTYPE_2":"District","CC_2":"R34000","HASC_2":"RU.VG.EL"}},{"type":"MultiPolygon","arcs":[[[37]]],"properties":{"GID_2":"RUS.77.7_1","GID_0":"RUS","COUNTRY":"Russia","GID_1":"RUS.77_1","NAME_1":"Volgograd","NL_NAME_1":"Волгоградскаяобласть","NAME_2":"Frolovo","VARNAME_2":"NA","NL_NAME_2":"Фролово","TYPE_2":"Gorod","ENGTYPE_2":"City","CC_2":"NA","HASC_2":"RU.VG.FG"}},{"type":"MultiPolygon","arcs":[[[-25,38,39,40,41],[-38]]],"properties":{"GID_2":"RUS.77.8_1","GID_0":"RUS","COUNTRY":"Russia","GID_1":"RUS.77_1","NAME_1":"Volgograd","NL_NAME_1":"Волгоградскаяобласть","NAME_2":"Frolovskiyrayon","VARNAME_2":"NA","NL_NAME_2":"Фроловскийрайон","TYPE_2":"Raion","ENGTYPE_2":"District","CC_2":"R34003","HASC_2":"RU.VG.FR"}},{"type":"MultiPolygon","arcs":[[[-28,42,43,44,45,46,47,48],[49]]],"properties":{"GID_2":"RUS.77.9_1","GID_0":"RUS","COUNTRY":"Russia","GID_1":"RUS.77_1","NAME_1":"Volgograd","NL_NAME_1":"Волгоградскаяобласть","NAME_2":"Gorodishchenskiyrayon","VARNAME_2":"NA","NL_NAME_2":"Городищенскийрайон","TYPE_2":"Raion","ENGTYPE_2":"District","CC_2":"R34000","HASC_2":"RU.VG.GO"}},{"type":"MultiPolygon","arcs":[[[-29,-49,50,51,-40,52]]],"properties":{"GID_2":"RUS.77.10_1","GID_0":"RUS","COUNTRY":"Russia","GID_1":"RUS.77_1","NAME_1":"Volgograd","NL_NAME_1":"Волгоградскаяобласть","NAME_2":"Ilovlinskiyrayon","VARNAME_2":"NA","NL_NAME_2":"Иловлинскийрайон","TYPE_2":"Raion","ENGTYPE_2":"District","CC_2":"R34000","HASC_2":"RU.VG.IL"}},{"type":"MultiPolygon","arcs":[[[-46,53,54,55,56,57]],[[58,59,60,61,62,-51]]],"properties":{"GID_2":"RUS.77.11_1","GID_0":"RUS","COUNTRY":"Russia","GID_1":"RUS.77_1","NAME_1":"Volgograd","NL_NAME_1":"Волгоградскаяобласть","NAME_2":"Kalachevskiyrayon","VARNAME_2":"NA","NL_NAME_2":"Калачевскийрайон","TYPE_2":"Raion","ENGTYPE_2":"District","CC_2":"R34000","HASC_2":"RU.VG.KA"}},{"type":"MultiPolygon","arcs":[[[63]]],"properties":{"GID_2":"RUS.77.12_1","GID_0":"RUS","COUNTRY":"Russia","GID_1":"RUS.77_1","NAME_1":"Volgograd","NL_NAME_1":"Волгоградскаяобласть","NAME_2":"Kamyshin","VARNAME_2":"NA","NL_NAME_2":"Камышин","TYPE_2":"Gorod","ENGTYPE_2":"City","CC_2":"NA","HASC_2":"RU.VG.KG"}},{"type":"MultiPolygon","arcs":[[[64,65,66,-10,-31,67,68,69],[-64]]],"properties":{"GID_2":"RUS.77.13_1","GID_0":"RUS","COUNTRY":"Russia","GID_1":"RUS.77_1","NAME_1":"Volgograd","NL_NAME_1":"Волгоградскаяобласть","NAME_2":"Kamyshinskiyrayon","VARNAME_2":"NA","NL_NAME_2":"Камушинскийрайон","TYPE_2":"Raion","ENGTYPE_2":"District","CC_2":"R34001","HASC_2":"RU.VG.KR"}},{"type":"MultiPolygon","arcs":[[[70,-37,71,72,73,74,75]]],"properties":{"GID_2":"RUS.77.14_1","GID_0":"RUS","COUNTRY":"Russia","GID_1":"RUS.77_1","NAME_1":"Volgograd","NL_NAME_1":"Волгоградскаяобласть","NAME_2":"Kikvidzenskiyrayon","VARNAME_2":"NA","NL_NAME_2":"Киквидзенскийрайон","TYPE_2":"Raion","ENGTYPE_2":"District","CC_2":"R34001","HASC_2":"RU.VG.KI"}},{"type":"MultiPolygon","arcs":[[[76,77,-52,-63,78,79]]],"properties":{"GID_2":"RUS.77.15_1","GID_0":"RUS","COUNTRY":"Russia","GID_1":"RUS.77_1","NAME_1":"Volgograd","NL_NAME_1":"Волгоградскаяобласть","NAME_2":"Kletskiyrayon","VARNAME_2":"NA","NL_NAME_2":"Клетскийрайон","TYPE_2":"Raion","ENGTYPE_2":"District","CC_2":"R34001","HASC_2":"RU.VG.KL"}},{"type":"MultiPolygon","arcs":[[[80,81,82,83,84,85]]],"properties":{"GID_2":"RUS.77.16_1","GID_0":"RUS","COUNTRY":"Russia","GID_1":"RUS.77_1","NAME_1":"Volgograd","NL_NAME_1":"Волгоградскаяобласть","NAME_2":"Kotel'nikovskiyrayon","VARNAME_2":"NA","NL_NAME_2":"Котельниковскийрайон","TYPE_2":"Raion","ENGTYPE_2":"District","CC_2":"R34001","HASC_2":"RU.VG.KT"}},{"type":"MultiPolygon","arcs":[[[86,-22,87,88,-69,89]]],"properties":{"GID_2":"RUS.77.17_1","GID_0":"RUS","COUNTRY":"Russia","GID_1":"RUS.77_1","NAME_1":"Volgograd","NL_NAME_1":"Волгоградскаяобласть","NAME_2":"Kotovskiyrayon","VARNAME_2":"NA","NL_NAME_2":"Котовскийрайон","TYPE_2":"Raion","ENGTYPE_2":"District","CC_2":"R34001","HASC_2":"RU.VG.KV"}},{"type":"MultiPolygon","arcs":[[[90,91,92,93,-14,94,95]]],"properties":{"GID_2":"RUS.77.18_1","GID_0":"RUS","COUNTRY":"Russia","GID_1":"RUS.77_1","NAME_1":"Volgograd","NL_NAME_1":"Волгоградскаяобласть","NAME_2":"Leninskiyrayon","VARNAME_2":"NA","NL_NAME_2":"Ленинскийрайон","TYPE_2":"Raion","ENGTYPE_2":"District","CC_2":"R34001","HASC_2":"RU.VG.LE"}},{"type":"MultiPolygon","arcs":[[[96]]],"properties":{"GID_2":"RUS.77.19_1","GID_0":"RUS","COUNTRY":"Russia","GID_1":"RUS.77_1","NAME_1":"Volgograd","NL_NAME_1":"Волгоградскаяобласть","NAME_2":"Mikhaylovka","VARNAME_2":"NA","NL_NAME_2":"Михайловка","TYPE_2":"Gorsovet","ENGTYPE_2":"District","CC_2":"NA","HASC_2":"RU.VG.MG"}},{"type":"MultiPolygon","arcs":[[[-7,97,-73,98,-35,-26,-42,99,100],[-97]]],"properties":{"GID_2":"RUS.77.20_1","GID_0":"RUS","COUNTRY":"Russia","GID_1":"RUS.77_1","NAME_1":"Volgograd","NL_NAME_1":"Волгоградскаяобласть","NAME_2":"Mikhaylovskiyrayon","VARNAME_2":"NA","NL_NAME_2":"Михайловскийрайон","TYPE_2":"Raion","ENGTYPE_2":"District","CC_2":"R34001","HASC_2":"RU.VG.MR"}},{"type":"MultiPolygon","arcs":[[[101,102,-2]]],"properties":{"GID_2":"RUS.77.21_1","GID_0":"RUS","COUNTRY":"Russia","GID_1":"RUS.77_1","NAME_1":"Volgograd","NL_NAME_1":"Волгоградскаяобласть","NAME_2":"Nekhaevskiyrayon","VARNAME_2":"NA","NL_NAME_2":"Нехаевскийрайон","TYPE_2":"Raion","ENGTYPE_2":"District","CC_2":"R34001","HASC_2":"RU.VG.NE"}},{"type":"MultiPolygon","arcs":[[[-11,-67,103,104]]],"properties":{"GID_2":"RUS.77.22_1","GID_0":"RUS","COUNTRY":"Russia","GID_1":"RUS.77_1","NAME_1":"Volgograd","NL_NAME_1":"Волгоградскаяобласть","NAME_2":"Nikolaevskiyrayon","VARNAME_2":"NA","NL_NAME_2":"Николаевскийрайон","TYPE_2":"Raion","ENGTYPE_2":"District","CC_2":"R34001","HASC_2":"RU.VG.NI"}},{"type":"MultiPolygon","arcs":[[[-8,-101,105,106]],[[107,-4,108,109,110,-74,-98,-6]]],"properties":{"GID_2":"RUS.77.23_1","GID_0":"RUS","COUNTRY":"Russia","GID_1":"RUS.77_1","NAME_1":"Volgograd","NL_NAME_1":"Волгоградскаяобласть","NAME_2":"Novoanninskiyrayon","VARNAME_2":"Kumylzhenskiy|Podtelkovskiy","NL_NAME_2":"Новоаннинскийрайон","TYPE_2":"Raion","ENGTYPE_2":"District","CC_2":"R34002","HASC_2":"RU.VG.KU"}},{"type":"MultiPolygon","arcs":[[[-76,111,-110,112,113]]],"properties":{"GID_2":"RUS.77.24_1","GID_0":"RUS","COUNTRY":"Russia","GID_1":"RUS.77_1","NAME_1":"Volgograd","NL_NAME_1":"Волгоградскаяобласть","NAME_2":"Novonikolaevskiyrayon","VARNAME_2":"NA","NL_NAME_2":"Новониколаевскийрайон","TYPE_2":"Raion","ENGTYPE_2":"District","CC_2":"R34002","HASC_2":"RU.VG.NN"}},{"type":"MultiPolygon","arcs":[[[114,-86,115,116,117,118,-56,119,120]]],"properties":{"GID_2":"RUS.77.25_1","GID_0":"RUS","COUNTRY":"Russia","GID_1":"RUS.77_1","NAME_1":"Volgograd","NL_NAME_1":"Волгоградскаяобласть","NAME_2":"Oktyabr'skiy","VARNAME_2":"NA","NL_NAME_2":"Октябрьскийрайон","TYPE_2":"Raion","ENGTYPE_2":"District","CC_2":"R34002","HASC_2":"RU.VG.OK"}},{"type":"MultiPolygon","arcs":[[[-24,121,-90,-68,-30,-53,-39]]],"properties":{"GID_2":"RUS.77.26_1","GID_0":"RUS","COUNTRY":"Russia","GID_1":"RUS.77_1","NAME_1":"Volgograd","NL_NAME_1":"Волгоградскаяобласть","NAME_2":"Ol'khovskiyrayon","VARNAME_2":"NA","NL_NAME_2":"Ольховскийрайон","TYPE_2":"Raion","ENGTYPE_2":"District","CC_2":"R34002","HASC_2":"RU.VG.OL"}},{"type":"MultiPolygon","arcs":[[[122,-96,123,-12,-105,124]]],"properties":{"GID_2":"RUS.77.27_1","GID_0":"RUS","COUNTRY":"Russia","GID_1":"RUS.77_1","NAME_1":"Volgograd","NL_NAME_1":"Волгоградскаяобласть","NAME_2":"Pallasovskiyrayon","VARNAME_2":"NA","NL_NAME_2":"Палласовскийрайон","TYPE_2":"Raion","ENGTYPE_2":"District","CC_2":"R34002","HASC_2":"RU.VG.PA"}},{"type":"MultiPolygon","arcs":[[[-21,-34,125,-88]]],"properties":{"GID_2":"RUS.77.28_1","GID_0":"RUS","COUNTRY":"Russia","GID_1":"RUS.77_1","NAME_1":"Volgograd","NL_NAME_1":"Волгоградскаяобласть","NAME_2":"Rudnyanskiyrayon","VARNAME_2":"NA","NL_NAME_2":"Руднянскийрайон","TYPE_2":"Raion","ENGTYPE_2":"District","CC_2":"R34002","HASC_2":"RU.VG.RU"}},{"type":"MultiPolygon","arcs":[[[-106,-100,-41,-78,126]]],"properties":{"GID_2":"RUS.77.29_1","GID_0":"RUS","COUNTRY":"Russia","GID_1":"RUS.77_1","NAME_1":"Volgograd","NL_NAME_1":"Волгоградскаяобласть","NAME_2":"Serafimovichskiyrayon","VARNAME_2":"NA","NL_NAME_2":"Серафимовичскийрайон","TYPE_2":"Raion","ENGTYPE_2":"District","CC_2":"R34002","HASC_2":"RU.VG.SE"}},{"type":"MultiPolygon","arcs":[[[-16,127,-93,128,129,-43,-27]]],"properties":{"GID_2":"RUS.77.30_1","GID_0":"RUS","COUNTRY":"Russia","GID_1":"RUS.77_1","NAME_1":"Volgograd","NL_NAME_1":"Волгоградскаяобласть","NAME_2":"Sredneakhtubinskiyrayon","VARNAME_2":"NA","NL_NAME_2":"Среднеахтубинскийрайон","TYPE_2":"Raion","ENGTYPE_2":"District","CC_2":"R34002","HASC_2":"RU.VG.SR"}},{"type":"MultiPolygon","arcs":[[[-125,-104,-66,130]]],"properties":{"GID_2":"RUS.77.31_1","GID_0":"RUS","COUNTRY":"Russia","GID_1":"RUS.77_1","NAME_1":"Volgograd","NL_NAME_1":"Волгоградскаяобласть","NAME_2":"Staropoltavskiyrayon","VARNAME_2":"NA","NL_NAME_2":"Старополтавскийрайон","TYPE_2":"Raion","ENGTYPE_2":"District","CC_2":"R34002","HASC_2":"RU.VG.ST"}},{"type":"MultiPolygon","arcs":[[[131,-80,132,-61,133,134,135,136,-17]]],"properties":{"GID_2":"RUS.77.32_1","GID_0":"RUS","COUNTRY":"Russia","GID_1":"RUS.77_1","NAME_1":"Volgograd","NL_NAME_1":"Волгоградскаяобласть","NAME_2":"Surovikinskiyrayon","VARNAME_2":"NA","NL_NAME_2":"Суровикинскийрайон","TYPE_2":"Raion","ENGTYPE_2":"District","CC_2":"R34003","HASC_2":"RU.VG.SU"}},{"type":"MultiPolygon","arcs":[[[137,-121,138,-54,-45,139,-129,-92]]],"properties":{"GID_2":"RUS.77.33_1","GID_0":"RUS","COUNTRY":"Russia","GID_1":"RUS.77_1","NAME_1":"Volgograd","NL_NAME_1":"Волгоградскаяобласть","NAME_2":"Svetloyarskiyrayon","VARNAME_2":"NA","NL_NAME_2":"Светлоярскийрайон","TYPE_2":"Raion","ENGTYPE_2":"District","CC_2":"R34002","HASC_2":"RU.VG.SV"}},{"type":"MultiPolygon","arcs":[[[140]]],"properties":{"GID_2":"RUS.77.34_1","GID_0":"RUS","COUNTRY":"Russia","GID_1":"RUS.77_1","NAME_1":"Volgograd","NL_NAME_1":"Волгоградскаяобласть","NAME_2":"Uryupinsk","VARNAME_2":"NA","NL_NAME_2":"Урюпинск","TYPE_2":"Gorod","ENGTYPE_2":"City","CC_2":"NA","HASC_2":"RU.VG.UG"}},{"type":"MultiPolygon","arcs":[[[-3,-103,141,-113,-109],[-141]]],"properties":{"GID_2":"RUS.77.35_1","GID_0":"RUS","COUNTRY":"Russia","GID_1":"RUS.77_1","NAME_1":"Volgograd","NL_NAME_1":"Волгоградскаяобласть","NAME_2":"Uryupinskiyrayon","VARNAME_2":"NA","NL_NAME_2":"Урюпинскийрайон","TYPE_2":"Raion","ENGTYPE_2":"District","CC_2":"R34003","HASC_2":"RU.VG.UR"}},{"type":"MultiPolygon","arcs":[[[-50]]],"properties":{"GID_2":"RUS.77.36_1","GID_0":"RUS","COUNTRY":"Russia","GID_1":"RUS.77_1","NAME_1":"Volgograd","NL_NAME_1":"Волгоградскаяобласть","NAME_2":"Volzhskiy","VARNAME_2":"NA","NL_NAME_2":"Волжский","TYPE_2":"Gorsovet","ENGTYPE_2":"District","CC_2":"NA","HASC_2":"RU.VG.VZ"}},{"type":"MultiPolygon","arcs":[[[-18,-137,142,-135,143,-59,-48,-57,-119,144,145,-116,146,-84,147,-82,148]]],"properties":{"GID_2":"RUS.77.37_1","GID_0":"RUS","COUNTRY":"Russia","GID_1":"RUS.77_1","NAME_1":"Volgograd","NL_NAME_1":"Волгоградскаяобласть","NAME_2":"Waterbody","VARNAME_2":"NA","NL_NAME_2":"NA","TYPE_2":"Waterbody","ENGTYPE_2":"Waterbody","CC_2":"NA","HASC_2":"NA"}},{"type":"MultiPolygon","arcs":[[[149,-70,-89,-126,-33]]],"properties":{"GID_2":"RUS.77.38_1","GID_0":"RUS","COUNTRY":"Russia","GID_1":"RUS.77_1","NAME_1":"Volgograd","NL_NAME_1":"Волгоградскаяобласть","NAME_2":"Zhirnovskiyrayon","VARNAME_2":"NA","NL_NAME_2":"Жирновскийрайон","TYPE_2":"Raion","ENGTYPE_2":"District","CC_2":"R34000","HASC_2":"RU.VG.ZH"}}]}},"arcs":[[[98979,648668],[-9446,-2077],[-13071,8073],[-13625,3842],[-1479,8748]],[[61358,667254],[5723,416],[23915,30502],[3122,908],[4747,-6853],[13250,16770],[12291,-4984],[11446,14641],[-4910,10799],[2748,10072],[-3853,14848],[-2244,20872]],[[127593,775245],[12844,13472],[3755,15420],[7934,9112],[911,7995]],[[153037,821244],[15169,-22636],[2243,-7113],[14958,-4880]],[[185407,786615],[14112,-15524],[3267,-1765]],[[202786,769326],[7430,7087],[17348,-883],[-2780,-11370],[-3577,-6801],[1561,-7814],[19249,-17912]],[[242017,731633],[-1431,-13914],[-3430,-12045]],[[237156,705674],[-20778,-8515],[-10470,7243],[-7349,-8359],[7349,-9397],[-374,-7243],[-11055,-11240],[-23136,6360],[-17737,-1246],[-9739,5244],[-23444,-16173],[-13884,-1038],[-7560,-12642]],[[614993,453429],[-3935,28737],[13982,19806],[11511,45922],[14112,30269],[17168,14017],[6796,15446]],[[674627,607626],[2536,14537],[-1138,13058],[3008,19313],[3983,19548],[7934,20897]],[[690950,694979],[29460,-39380],[11559,-33202],[22452,3167],[28728,-6100]],[[783149,619464],[-5283,-25077],[-40483,-5425],[-6276,-19937],[6813,-3115]],[[737920,565910],[3836,-76710]],[[741756,489200],[-25378,1610],[-7772,-31281],[-8535,-4257],[-4341,4465]],[[695730,459737],[-23135,-12824]],[[672595,446913],[-13429,-3245],[-21526,11526],[-11592,-3868],[-11055,2103]],[[193145,293806],[8113,-9008],[14145,-831],[11770,-3634],[374,-6671],[-2064,-9450],[-9154,2415],[-3788,-1454],[-4975,-14200],[-9055,-10306],[699,-12045],[5235,-1194],[25671,13447],[23135,-6905],[9170,8930],[8665,-3193],[-1544,-6126],[8877,-5945],[-49,-8774]],[[278370,218862],[-2422,-2752],[-5301,1272],[-5430,-6178],[-19444,-10462],[5381,-2622],[8422,805],[-2228,-14277],[244,-20352],[-4146,-13655],[7658,-6022],[1951,-8178]],[[263055,136441],[-23590,-24920],[-3691,8514],[-19445,11448],[-16209,20015],[-7186,4049],[-14209,5140],[-35914,-363],[-19055,3089],[-3983,3816],[-699,17419],[4048,4075],[6942,12071],[-8113,19158],[2976,4050],[14925,4958],[178,4413],[-7836,14641],[-2520,8437],[764,7684],[7268,7476],[15412,8514],[9739,8411],[30288,5270]],[[415490,820076],[19510,23908],[9348,15576],[11690,3089]],[[456038,862649],[17087,-27932],[12356,2362],[26680,-19158],[13656,3661],[17169,-4907]],[[542986,816675],[22875,-22195],[-10942,-8852],[15917,-31099],[926,-10020],[-6552,-104],[-4796,7269],[-10063,8514],[-12535,3063],[-7495,-13472],[17997,-10981],[-374,-10020]],[[547944,728778],[-19152,-17705]],[[528792,711073],[-9380,-14199],[-5463,-14122],[-829,-14719],[-11690,-2881]],[[501430,665152],[-32467,37900],[-32630,24973],[-8227,-7554],[-910,-13317],[-12893,-3064],[-2194,8515]],[[412109,712605],[1804,4725],[-1609,10539],[-4975,15056],[-21672,30944],[4276,8774],[16306,-2648],[11950,14355],[-12047,11448],[9348,14278]],[[614993,453429],[-12617,-23701],[-27232,-33539]],[[575144,396189],[-44303,6645],[-22143,8826]],[[508698,411660],[829,10436],[-13169,12512],[12600,10228],[5365,52749],[-13478,7970],[4764,10825],[12990,2803],[12031,25700]],[[530630,544883],[8031,-3998],[7576,23623],[15624,2804],[25590,17626],[36028,20326],[10877,-9449],[4438,4724],[-3560,7451],[6877,10098]],[[642111,618088],[12714,-6075],[19802,-4387]],[[361611,938735],[5804,2259],[8877,8359],[11722,1869],[7723,4335],[7609,8281],[9641,6360],[14550,-3349],[9024,5659],[3105,6101],[10438,3063],[5365,-3764],[-2959,-11370],[-2504,-4076],[4747,-5789],[7105,4906],[11820,442],[18566,19859]],[[492244,981880],[3545,-9813],[8129,-9034],[-4455,-6100]],[[499463,956933],[504,-19885],[-26192,-28062],[-11104,-25570],[-276,-13914],[-6357,-6853]],[[415490,820076],[-16550,9241],[-7073,-2284],[-11527,-27595],[-24582,19392]],[[355758,818830],[11462,7113]],[[367220,825943],[7381,13576],[-6113,8307],[-6113,28789],[3138,3453],[1577,11318],[11560,5841],[-5674,14277],[-17575,-1505],[-179,5269],[10698,11760],[-4309,11707]],[[395265,618192],[-2227,-1428],[-2536,2362],[2146,3037],[2487,-1324],[130,-2647]],[[501430,665152],[-18388,-17055],[-14047,11006],[-9819,1765],[3918,-20559],[-7284,-16173],[2878,-7943],[8763,-8489],[-4308,-7424]],[[463143,600280],[-8357,-3531],[-4536,-18794],[-10210,-5555],[1431,14044],[-10910,-3583],[-4926,-8125],[-17867,-8437],[-7528,11111],[-38808,-39822]],[[361432,537588],[-1821,17315],[-8112,10358],[-23363,44156],[8682,9605]],[[336818,619022],[13900,8515],[7154,-1713],[4178,10072],[11868,-7502],[3089,4750],[293,11292],[6877,7528],[1025,7996],[-1447,5244],[7511,8229],[10535,15627],[927,11967],[9381,11578]],[[575144,396189],[-22306,-46000],[-10958,-17315],[-4259,-11136]],[[537621,321738],[18371,-20975]],[[555992,300763],[-5967,-11734],[-11640,-6282],[-36126,6179]],[[502259,288926],[586,26088],[-2407,8645],[-11461,8489],[-3138,8177],[-5739,8151],[-15283,3375],[-10828,16925],[-13705,10773],[-20502,-8281],[-13770,571]],[[406012,371839],[-7040,9345]],[[398972,381184],[6747,15732],[1057,9968]],[[406776,406884],[5430,-3972],[10926,3505],[4812,8151],[8682,22325],[6828,7476],[8113,-5296],[3772,-10098],[50822,-18690],[2537,1375]],[[529053,334873],[780,14537],[-22143,7503],[-4894,-13785],[20745,-15056],[5512,6801]],[[406776,406884],[5365,10176],[-13023,12590],[-14502,3790],[-504,10721],[-12779,9761],[-5479,6568],[1691,6048],[-1073,9994],[-14551,7606]],[[351921,484138],[-3528,7243],[-926,7295],[5901,14822],[9820,13603],[-1756,10487]],[[463143,600280],[13949,-7113],[-6341,-5451],[4422,-13318],[19364,-11084],[14502,14277],[14697,-7891],[6894,-24817]],[[502259,288926],[-3625,-11708],[-4244,-3479],[-4243,1584],[-6649,-2466],[-5431,-7425],[-13640,6568],[-23330,-20923],[1284,-12357],[-12876,-18145],[-14941,-12616]],[[414564,207959],[-5349,2855]],[[409215,210814],[-7967,10254],[-11185,9527],[-4634,675],[-2943,-13654],[-8681,-6828],[-12698,3349],[-24696,25025]],[[336411,239162],[829,6801],[6504,10228],[2763,17652],[14454,8956],[14925,2155],[6275,4101],[-1479,2700],[-12210,6698],[-16,2699],[2292,2726],[26566,15108],[12925,2804],[8226,4802],[-1723,6776],[-4780,3348],[-27476,-233],[-6844,5321],[-4390,8048],[845,4517],[3236,4309],[16160,15030],[5479,7476]],[[398972,381184],[5105,-6801],[1935,-2544]],[[406776,406884],[-22664,-28373],[-7641,-3687],[-8747,1272],[-5089,-4231],[-1999,-6022],[1642,-14771]],[[362278,351072],[7170,-15420]],[[369448,335652],[-15511,-13031],[-8308,7969],[5918,10877],[-4438,9371],[8064,7528],[-2422,8697],[-8227,7917],[1040,5374],[6162,6853],[-7348,17263],[-5317,2570],[-1658,7969],[-4308,9242]],[[333095,424251],[15120,9734]],[[348215,433985],[10551,-3764],[3154,16121],[-14811,13005],[1577,8697],[-12356,1661],[1707,6049],[13884,8384]],[[675440,697030],[-1382,-1766],[-3593,182],[-1138,3920],[4325,2492],[1820,-1012],[-32,-3816]],[[644582,832355],[81,-3998],[7479,-9968],[9885,752],[15624,9502],[49652,-4491],[5772,8722],[8844,-12746]],[[741919,820128],[6276,-14122],[3137,-22896],[-8763,-20170],[-9559,-14122]],[[733010,748818],[-34532,-40366],[-7528,-13473]],[[642111,618088],[-4438,13499],[-8796,7398],[-36581,12616],[2780,15472],[-2243,8722],[-9657,14667],[-7121,18665],[2390,8073]],[[578445,717200],[14144,10877],[10698,-6594],[8779,-8644],[17364,14251],[18485,22247],[-9706,18717],[-7430,7294],[-9560,13266],[6617,26166]],[[627836,814780],[16746,17575]],[[324039,964591],[19022,-18847],[9998,-5451],[8552,-1558]],[[367220,825943],[-17136,-12019]],[[350084,813924],[-4227,-10098],[-7609,-4336]],[[338248,799490],[-7885,3557],[-32581,7554],[-11283,9293],[-4227,8982],[-992,9839],[-6080,6905],[-6552,2258],[422,5971],[12096,5322],[-2357,11084]],[[278809,870255],[-16095,13577]],[[262714,883832],[11283,9890],[-3528,7061],[10567,11863],[4845,9501],[18876,416],[6259,6931],[13023,35097]],[[239643,397876],[-7462,10955],[-7267,6957],[-13657,7943],[-8259,234],[-11885,-3894],[-4601,4361],[894,10592],[3593,5477],[-1463,5166],[-5284,6282]],[[184252,451949],[5821,14823],[14941,25180],[28874,9423],[28175,33046],[14925,-6567],[40857,-30165],[8275,2285],[5137,18119],[11674,15653],[18501,3842]],[[348215,433985],[-35931,-21624]],[[312284,412361],[-11884,6308],[-30061,-19625],[-1789,-3374],[-9007,986],[781,11993],[-7333,7009],[-7072,-14874],[-6276,-2908]],[[408824,80681],[-7169,-7554],[-5463,-12434],[-618,-20171],[3333,-15186],[-829,-7528],[-21152,-4725],[-3902,1740],[-11559,-8489],[-31069,-6334],[-7284,2207],[-7674,9682],[-1691,4751],[391,4231],[6129,7996],[-2910,4594],[-14096,3115],[-4747,-1116],[-2813,-3089],[-2650,-8489],[-11998,-2362],[-8455,11682],[-31752,60563],[21201,-312]],[[262047,93453],[11283,5555],[7625,10306],[3853,8904]],[[284808,118218],[2049,986],[3918,-5451],[1577,-7788]],[[292352,105965],[-1154,-30164],[4731,-5452],[4341,468],[3560,15367],[5382,13707],[-12682,34811],[-1496,10228],[3772,10254],[6715,6178]],[[305521,161362],[3853,78],[17396,-4050]],[[326770,157390],[12210,-5425],[14632,-2700],[1480,-10254],[-1968,-8229],[1529,-2725],[23623,-8930],[25769,-1558],[1414,-4828],[-3739,-6594],[-1252,-8670],[6763,-2103],[1593,-14693]],[[539003,720600],[8941,8178]],[[542986,816675],[6227,13447],[18225,7035]],[[567438,837157],[18843,-18301],[41555,-4076]],[[578445,717200],[-13267,5166],[-8275,-8826],[-17900,7060]],[[732229,324360],[-32304,-21131],[-12227,2233],[-12795,-4959],[-27508,-2933],[-3040,-3349],[3121,-5763],[18859,-4854],[3008,-7243],[-1577,-3504],[-5479,-3427],[-4422,1142],[-9999,8048],[-7072,2440],[-6097,-1532],[-5462,-6048]],[[629235,273480],[-14064,-2466],[-4357,8281]],[[610814,279295],[1756,9812],[6666,9995],[-13576,13732],[2244,29905],[16518,1402],[13998,11629],[-2536,14200],[3658,4076],[19591,-3090],[5447,10021],[6080,4153],[10194,66378]],[[680854,451508],[14876,8229]],[[741756,489200],[1122,-20715]],[[742878,468485],[-6097,-8073],[-4324,-77826],[-228,-58226]],[[317845,692746],[-2179,-2492],[-4390,2518],[1610,3531],[2926,571],[2033,-4128]],[[242017,731633],[15266,3531],[2683,-3790],[6357,1687],[13526,17886],[14649,4075],[5333,-4984],[21769,3738],[8032,-8852],[-6097,-10851],[6682,-7606],[9560,3764],[4861,9449],[2260,10670],[13949,8566],[5950,-4361],[3756,4128],[520,4646],[-5999,5685],[-3528,9761],[-15851,9839],[-7447,10876]],[[350084,813924],[5674,4906]],[[336818,619022],[162,15238],[-10909,-1116],[-3609,12383],[-27037,-17756]],[[295425,627771],[-21250,43118],[-29557,22714],[-7462,12071]],[[61358,667254],[7527,10202],[-1187,4310],[-24891,13031],[-894,11837],[-3365,9527],[-6568,5348],[-6146,1635],[12210,17653],[7592,17938],[1577,8904],[-2195,12486],[-6015,12953],[-146,4362],[3072,11370],[8894,3089],[5674,4569],[-5935,9916],[-10421,4361],[-7918,10618]],[[32223,841363],[20616,-130],[12453,7606],[4536,-11500],[22843,-5452],[24436,546],[5235,-14771],[-7219,-9761],[12470,-32656]],[[733010,748818],[20631,-3764],[31557,2233],[25623,-2519],[7592,-3893],[7966,-11137],[13934,-6568],[15282,-4023]],[[855595,719147],[4276,-26297],[-42515,-4906],[-1479,-7866],[9998,-7891],[-829,-7217],[-11527,-2596],[-8129,-26297],[-12681,-5321],[-9560,-11292]],[[295425,627771],[-521,-3323],[-56594,-47064],[-878,-11890],[-13787,-6022],[-42872,-6490],[-41848,-908]],[[138925,552074],[894,1531],[2455,7217],[1057,9838],[9039,15550],[1122,9215],[-3983,11319],[-38060,30865],[-3301,7424],[-5560,4284],[-3609,-649]],[[202786,769326],[-17379,17289]],[[153037,821244],[-195,17782],[5690,2362],[5430,7632],[5398,-4880],[1886,-13057],[7885,-3401],[6194,5685],[2829,8774],[374,5945]],[[188528,848086],[8942,1921],[11641,14615],[16550,6360],[2911,-7736],[14599,6853],[4520,16121],[4910,6879]],[[252601,893099],[26208,-22844]],[[262714,883832],[-10113,9267]],[[188528,848086],[-12307,14978],[5771,1065],[781,10617],[-8601,4024],[2813,8774],[-3105,10358],[-5366,3582],[2943,18717],[-8194,19910],[-7251,1480],[7137,12408],[-16,12565]],[[163133,966564],[17819,1168],[17038,8021],[19055,-1609],[11933,2414],[3707,3608],[2487,6594],[3886,4984],[6991,3323],[15949,363],[9462,4569],[3902,-3349],[8926,-1376],[8796,-9916],[30955,-20767]],[[501463,187970],[-2992,-13888],[26062,-11084],[6243,-6386],[-5381,-12461],[-9072,-13862],[-9137,-8618],[-15429,-883],[-11202,3738],[-13120,9501],[-8633,-1479],[-7934,-7243],[-2309,-12902],[2569,-7684],[-13494,-9163],[-19022,-7399],[-9788,-7476]],[[326770,157390],[2309,2674],[-114,2804],[-2829,2232]],[[326136,165100],[-19558,7840]],[[306578,172940],[276,13629],[-1593,6515]],[[305261,193084],[683,5737],[9559,12305],[-1772,15601],[7869,8904],[14811,3531]],[[409215,210814],[11592,-6178]],[[420807,204636],[10779,545],[15819,5348],[7755,-11059],[-23753,-21338],[1739,-4076],[5301,-4932],[2373,-5971],[8422,701],[16876,20041],[10941,8229],[24404,-4154]],[[528792,711073],[10211,9527]],[[978327,733502],[-6406,-7242],[10666,-17341],[2097,-6957],[-11885,-25362],[-6861,-10695],[-10145,-10514],[-8616,-5893],[-22046,-8774],[-8910,-130],[-1772,-2050],[-2357,-5634],[-3138,-24194],[130,-17314],[-2406,-18483],[-6455,-13317],[-6048,-58201],[19949,-13966],[18876,-18171],[3772,-5581],[1316,-5841],[-2259,-11838],[-5707,-15264],[-10763,-14744],[-25866,-16926],[-9674,-22948],[-8129,-25414],[-10064,-25024],[2342,7190],[-6683,7658],[-23297,17912],[-29476,17263],[-20567,2233],[-10323,-857],[-7853,-7399],[-6666,-7346],[-17558,-27179],[-13316,-10799]],[[742878,468485],[-4958,97425]],[[855595,719147],[7934,6541],[5235,39432],[43523,-16510],[488,-21104],[6373,1324],[4633,5970],[14958,-2596],[9462,18561],[22712,-5763],[797,-10591],[6617,-909]],[[499463,956933],[16014,-8774],[5056,9449],[16502,-1506],[11934,-32241],[13299,-4984],[1821,-22559],[7348,-4491],[293,-13291],[7771,-23156],[-12063,-18223]],[[184252,451949],[-6487,4906],[-15282,4362],[-11869,-2726],[-7999,-5088],[-7560,830],[-2601,2441],[1528,9942],[-2959,12928],[7105,12278],[-7885,27647],[4699,25829],[3983,6776]],[[672595,446913],[8259,4595]],[[610814,279295],[-4910,1090],[-4975,8904],[-10454,5399],[-22029,-6126]],[[568446,288562],[-7414,6100],[-23411,27076]],[[741919,820128],[-21851,34837],[1171,8073],[6487,6724],[8519,4698],[13283,-1297],[10031,-6049],[7446,-8722],[14697,-6750],[8097,-8099],[146,-8073],[-3121,-10098],[861,-10072],[6780,-8126],[10568,1272],[15055,8645],[4536,4698],[13347,-5529],[9316,-1454],[16307,13992],[4308,20871],[8552,4621],[20713,-11733],[9300,-1480],[9039,-9423],[-1041,-9891],[4228,-5918],[13429,-14460],[10421,-7190],[4000,5295],[7592,1376],[11169,-1194],[797,-9189],[11072,-15031],[12957,-545],[9869,2674],[-943,-2934],[-3056,-1946],[-179,-9839],[-14356,-2103],[-2829,-5399],[65,-13265],[3252,-1480],[650,-3037],[-4276,-4076]],[[193145,293806],[22664,7502],[8633,6957],[6617,8904],[-309,6646],[-2877,6567],[-309,6620],[5235,11500],[10925,13706],[2862,7399],[943,8021],[-7512,10981],[-374,9267]],[[312284,412361],[20811,11890]],[[369448,335652],[1820,-5140]],[[371268,330512],[163,-5659]],[[371431,324853],[-4617,-7736],[-11495,-17444]],[[355319,299673],[-14047,-15732],[-11657,-1479],[-10015,-6905],[-5381,2647],[-1772,6205],[1463,9293],[-4227,5322],[-8243,-3505],[-14226,9813],[-5869,545],[-2130,-2077],[-845,-2700],[1675,-4101],[9641,-11786],[13494,-28113],[-1724,-13551],[-8519,-18405],[-6048,-6853],[-8519,571]],[[629235,273480],[-16323,-23337],[-4764,-15784],[1902,-7087],[6812,-8229],[7999,-4309],[12860,-2829],[20453,-22507],[-6064,-5373],[-5496,-779],[-9803,2414],[-9853,7632],[-12925,5555],[-14713,-337],[-4244,-8567],[5577,-5737],[667,-7164],[-10373,-6101],[-12909,-934],[-8080,9604],[-15283,-10098],[-8616,-1505],[-5626,7035],[4666,26089],[-22891,9111],[-7414,-207],[-7348,-5374],[-4845,-10461],[-1138,-6231]],[[420807,204636],[-6243,3323]],[[555992,300763],[12454,-12201]],[[116846,875732],[-2194,-285],[-1268,2804],[3771,415],[-309,-2934]],[[32223,841363],[-3267,8592],[-6975,8203],[-21981,12642],[4747,7451],[8113,-831],[12242,8047],[9414,-337],[1512,4932],[666,11604],[12454,11785],[4487,1662],[2959,-2544],[4975,-649],[6048,7398],[12633,3167],[7056,5867],[3479,5529],[2471,15783],[11446,20041],[16372,6360],[42059,-9501]],[[355319,299673],[16112,25180]],[[371268,330512],[-8990,20560]],[[305261,193084],[1853,-11655],[-1284,-5685],[748,-2804]],[[306578,172940],[2520,-1558],[17038,-6282]],[[326770,157390],[-21249,3972]],[[292352,105965],[-3626,12279],[-3918,-26]],[[262047,93453],[-20583,234],[-3593,17885],[11462,9060],[13722,15809]],[[492244,981880],[3919,1479],[6617,-1116],[11104,3686],[18485,571],[8227,-13057],[5967,-1817],[11640,10954],[9316,-2440],[19802,1817],[15511,-14926],[19200,-1636],[5512,-10539],[10714,-6490],[4747,-5918],[3463,-8619],[1577,-13317],[14811,-14459],[-114,-27387],[-3755,-10721],[-7072,-8774],[-10422,-6802],[3089,-20014]]],"bbox":[41.2828,47.4012,47.4336,51.2534],"transform":{"scale":[0.000006150806150806148,0.000003852203852203848],"translate":[41.2828,47.4012]}}