{"type":"Topology","objects":{"muni":{"type":"GeometryCollection","geometries":[{"type":"MultiPolygon","arcs":[[[0,1,2,3,4,5,6]]],"properties":{"GID_2":"RUS.78.1_1","GID_0":"RUS","COUNTRY":"Russia","GID_1":"RUS.78_1","NAME_1":"Vologda","NL_NAME_1":"Вологодскаяобласть","NAME_2":"Babaevskiyrayon","VARNAME_2":"NA","NL_NAME_2":"Бабаевскийрайон","TYPE_2":"Raion","ENGTYPE_2":"District","CC_2":"R04000","HASC_2":"RU.VO.BV"}},{"type":"MultiPolygon","arcs":[[[7,8,9,10,11,12]]],"properties":{"GID_2":"RUS.78.2_1","GID_0":"RUS","COUNTRY":"Russia","GID_1":"RUS.78_1","NAME_1":"Vologda","NL_NAME_1":"Вологодскаяобласть","NAME_2":"Babushkinskiyrayon","VARNAME_2":"Babaevskiy","NL_NAME_2":"Бабушкинскийрайон","TYPE_2":"Raion","ENGTYPE_2":"District","CC_2":"R04000","HASC_2":"RU.VO.BV"}},{"type":"MultiPolygon","arcs":[[[-3,13,14,15,16,17,18,19,20]]],"properties":{"GID_2":"RUS.78.3_1","GID_0":"RUS","COUNTRY":"Russia","GID_1":"RUS.78_1","NAME_1":"Vologda","NL_NAME_1":"Вологодскаяобласть","NAME_2":"Belozerskiyrayon","VARNAME_2":"NA","NL_NAME_2":"Белозерскийрайон","TYPE_2":"Raion","ENGTYPE_2":"District","CC_2":"R04000","HASC_2":"RU.VO.BE"}},{"type":"MultiPolygon","arcs":[[[-7,21,22,23]]],"properties":{"GID_2":"RUS.78.4_1","GID_0":"RUS","COUNTRY":"Russia","GID_1":"RUS.78_1","NAME_1":"Vologda","NL_NAME_1":"Вологодскаяобласть","NAME_2":"Chagodoshchenskiyrayon","VARNAME_2":"NA","NL_NAME_2":"Чагодощенскийрайон","TYPE_2":"Raion","ENGTYPE_2":"District","CC_2":"R04002","HASC_2":"RU.VO.CH"}},{"type":"MultiPolygon","arcs":[[[24,25,26,27,-19,28,29,30,31,32,33,34,35,36,37,38,39,40,41]]],"properties":{"GID_2":"RUS.78.5_1","GID_0":"RUS","COUNTRY":"Russia","GID_1":"RUS.78_1","NAME_1":"Vologda","NL_NAME_1":"Вологодскаяобласть","NAME_2":"Cherepovetskiyrayon","VARNAME_2":"NA","NL_NAME_2":"Череповецкийрайон","TYPE_2":"Raion","ENGTYPE_2":"District","CC_2":"R04002","HASC_2":"RU.VO.CG"}},{"type":"MultiPolygon","arcs":[[[42,43,44]]],"properties":{"GID_2":"RUS.78.6_1","GID_0":"RUS","COUNTRY":"Russia","GID_1":"RUS.78_1","NAME_1":"Vologda","NL_NAME_1":"Вологодскаяобласть","NAME_2":"Gryazovetskiyrayon","VARNAME_2":"NA","NL_NAME_2":"Грязовецкийрайон","TYPE_2":"Raion","ENGTYPE_2":"District","CC_2":"R04001","HASC_2":"RU.VO.GR"}},{"type":"MultiPolygon","arcs":[[[-4,-21,45,-27,46]]],"properties":{"GID_2":"RUS.78.7_1","GID_0":"RUS","COUNTRY":"Russia","GID_1":"RUS.78_1","NAME_1":"Vologda","NL_NAME_1":"Вологодскаяобласть","NAME_2":"Kaduyskiyrayon","VARNAME_2":"NA","NL_NAME_2":"Кадуйскийрайон","TYPE_2":"Raion","ENGTYPE_2":"District","CC_2":"R04001","HASC_2":"RU.VO.KA"}},{"type":"MultiPolygon","arcs":[[[47,48,49,50,51,52,53,54]]],"properties":{"GID_2":"RUS.78.8_1","GID_0":"RUS","COUNTRY":"Russia","GID_1":"RUS.78_1","NAME_1":"Vologda","NL_NAME_1":"Вологодскаяобласть","NAME_2":"Kharovskiyrayon","VARNAME_2":"NA","NL_NAME_2":"Харовскийрайон","TYPE_2":"Raion","ENGTYPE_2":"District","CC_2":"R04002","HASC_2":"RU.VO.KH"}},{"type":"MultiPolygon","arcs":[[[55,-11,56,57,58,59]]],"properties":{"GID_2":"RUS.78.9_1","GID_0":"RUS","COUNTRY":"Russia","GID_1":"RUS.78_1","NAME_1":"Vologda","NL_NAME_1":"Вологодскаяобласть","NAME_2":"Kichmengsko-Gorodetskiyrayon","VARNAME_2":"NA","NL_NAME_2":"Кичменгско-Городецкийрайон","TYPE_2":"Raion","ENGTYPE_2":"District","CC_2":"R04001","HASC_2":"RU.VO.KG"}},{"type":"MultiPolygon","arcs":[[[60,61,62,63,64,65,-29,-18,66,67,68,69]]],"properties":{"GID_2":"RUS.78.10_1","GID_0":"RUS","COUNTRY":"Russia","GID_1":"RUS.78_1","NAME_1":"Vologda","NL_NAME_1":"Вологодскаяобласть","NAME_2":"Kirillovskiyrayon","VARNAME_2":"NA","NL_NAME_2":"Кирилловскийрайон","TYPE_2":"Raion","ENGTYPE_2":"District","CC_2":"R04001","HASC_2":"RU.VO.KL"}},{"type":"MultiPolygon","arcs":[[[70,-44,71,72,73]]],"properties":{"GID_2":"RUS.78.11_1","GID_0":"RUS","COUNTRY":"Russia","GID_1":"RUS.78_1","NAME_1":"Vologda","NL_NAME_1":"Вологодскаяобласть","NAME_2":"Mezhdurechenskiyrayon","VARNAME_2":"NA","NL_NAME_2":"Междуреченскийрайон","TYPE_2":"Raion","ENGTYPE_2":"District","CC_2":"R04001","HASC_2":"RU.VO.ME"}},{"type":"MultiPolygon","arcs":[[[-12,-56,74]]],"properties":{"GID_2":"RUS.78.12_1","GID_0":"RUS","COUNTRY":"Russia","GID_1":"RUS.78_1","NAME_1":"Vologda","NL_NAME_1":"Вологодскаяобласть","NAME_2":"Nikol'skiyrayon","VARNAME_2":"NA","NL_NAME_2":"Никольскийрайон","TYPE_2":"Raion","ENGTYPE_2":"District","CC_2":"R04001","HASC_2":"RU.VO.NI"}},{"type":"MultiPolygon","arcs":[[[75,76,-58,77,-9,78,79,80]]],"properties":{"GID_2":"RUS.78.13_1","GID_0":"RUS","COUNTRY":"Russia","GID_1":"RUS.78_1","NAME_1":"Vologda","NL_NAME_1":"Вологодскаяобласть","NAME_2":"Nyuksenskiyrayon","VARNAME_2":"NA","NL_NAME_2":"Нюксенскийрайон","TYPE_2":"Raion","ENGTYPE_2":"District","CC_2":"R04001","HASC_2":"RU.VO.NY"}},{"type":"MultiPolygon","arcs":[[[-31,81,-65,82,83,84,85]]],"properties":{"GID_2":"RUS.78.14_1","GID_0":"RUS","COUNTRY":"Russia","GID_1":"RUS.78_1","NAME_1":"Vologda","NL_NAME_1":"Вологодскаяобласть","NAME_2":"Sheksninskiyrayon","VARNAME_2":"NA","NL_NAME_2":"Шекснинскийрайон","TYPE_2":"Raion","ENGTYPE_2":"District","CC_2":"R04002","HASC_2":"RU.VO.SH"}},{"type":"MultiPolygon","arcs":[[[86]]],"properties":{"GID_2":"RUS.78.15_1","GID_0":"RUS","COUNTRY":"Russia","GID_1":"RUS.78_1","NAME_1":"Vologda","NL_NAME_1":"Вологодскаяобласть","NAME_2":"Sokol","VARNAME_2":"NA","NL_NAME_2":"Сокол","TYPE_2":"Gorod","ENGTYPE_2":"City","CC_2":"NA","HASC_2":"RU.VO.SG"}},{"type":"MultiPolygon","arcs":[[[-48,87,88,-73,89,90,91],[-87]]],"properties":{"GID_2":"RUS.78.16_1","GID_0":"RUS","COUNTRY":"Russia","GID_1":"RUS.78_1","NAME_1":"Vologda","NL_NAME_1":"Вологодскаяобласть","NAME_2":"Sokol'skiyrayon","VARNAME_2":"NA","NL_NAME_2":"Сокольскийрайон","TYPE_2":"Raion","ENGTYPE_2":"District","CC_2":"R04001","HASC_2":"RU.VO.SR"}},{"type":"MultiPolygon","arcs":[[[-55,92,93,94,95,96,97,-88]]],"properties":{"GID_2":"RUS.78.17_1","GID_0":"RUS","COUNTRY":"Russia","GID_1":"RUS.78_1","NAME_1":"Vologda","NL_NAME_1":"Вологодскаяобласть","NAME_2":"Syamzhenskiyrayon","VARNAME_2":"NA","NL_NAME_2":"Сямженскийрайон","TYPE_2":"Raion","ENGTYPE_2":"District","CC_2":"R04001","HASC_2":"RU.VO.SY"}},{"type":"MultiPolygon","arcs":[[[98,-81,99,100,101]]],"properties":{"GID_2":"RUS.78.18_1","GID_0":"RUS","COUNTRY":"Russia","GID_1":"RUS.78_1","NAME_1":"Vologda","NL_NAME_1":"Вологодскаяобласть","NAME_2":"Tarnogskiyrayon","VARNAME_2":"NA","NL_NAME_2":"Тарногскийрайон","TYPE_2":"Raion","ENGTYPE_2":"District","CC_2":"R04001","HASC_2":"RU.VO.TA"}},{"type":"MultiPolygon","arcs":[[[102,-74,-89,-98,103,104,105,-101,106,-79,-8]]],"properties":{"GID_2":"RUS.78.19_1","GID_0":"RUS","COUNTRY":"Russia","GID_1":"RUS.78_1","NAME_1":"Vologda","NL_NAME_1":"Вологодскаяобласть","NAME_2":"Totemskiyrayon","VARNAME_2":"NA","NL_NAME_2":"Тотемскийрайон","TYPE_2":"Raion","ENGTYPE_2":"District","CC_2":"R04002","HASC_2":"RU.VO.TO"}},{"type":"MultiPolygon","arcs":[[[-49,-92,107,-63,108,109]]],"properties":{"GID_2":"RUS.78.20_1","GID_0":"RUS","COUNTRY":"Russia","GID_1":"RUS.78_1","NAME_1":"Vologda","NL_NAME_1":"Вологодскаяобласть","NAME_2":"Ust'-Kubinskiyrayon","VARNAME_2":"NA","NL_NAME_2":"Усt.-Кубинскийрайон","TYPE_2":"Raion","ENGTYPE_2":"District","CC_2":"R04002","HASC_2":"RU.VO.UK"}},{"type":"MultiPolygon","arcs":[[[-23,110,-5,-47,-26,111]]],"properties":{"GID_2":"RUS.78.21_1","GID_0":"RUS","COUNTRY":"Russia","GID_1":"RUS.78_1","NAME_1":"Vologda","NL_NAME_1":"Вологодскаяобласть","NAME_2":"Ustyuzhenskiyrayon","VARNAME_2":"NA","NL_NAME_2":"Устюженскийрайон","TYPE_2":"Raion","ENGTYPE_2":"District","CC_2":"R04002","HASC_2":"RU.VO.UU"}},{"type":"MultiPolygon","arcs":[[[-15,112,-69,113,114]]],"properties":{"GID_2":"RUS.78.22_1","GID_0":"RUS","COUNTRY":"Russia","GID_1":"RUS.78_1","NAME_1":"Vologda","NL_NAME_1":"Вологодскаяобласть","NAME_2":"Vashkinskiyrayon","VARNAME_2":"NA","NL_NAME_2":"Вашкинскийрайон","TYPE_2":"Raion","ENGTYPE_2":"District","CC_2":"R04000","HASC_2":"RU.VO.VA"}},{"type":"MultiPolygon","arcs":[[[115]]],"properties":{"GID_2":"RUS.78.23_1","GID_0":"RUS","COUNTRY":"Russia","GID_1":"RUS.78_1","NAME_1":"Vologda","NL_NAME_1":"Вологодскаяобласть","NAME_2":"VelikiyUstyug","VARNAME_2":"NA","NL_NAME_2":"ВеликийУстюг","TYPE_2":"Gorsovet","ENGTYPE_2":"District","CC_2":"NA","HASC_2":"RU.VO.VU"}},{"type":"MultiPolygon","arcs":[[[-59,-77,116],[-116]]],"properties":{"GID_2":"RUS.78.24_1","GID_0":"RUS","COUNTRY":"Russia","GID_1":"RUS.78_1","NAME_1":"Vologda","NL_NAME_1":"Вологодскаяобласть","NAME_2":"Velikoustyugskiyrayon","VARNAME_2":"NA","NL_NAME_2":"Великоустюгскийрайон","TYPE_2":"Raion","ENGTYPE_2":"District","CC_2":"R04000","HASC_2":"RU.VO.VL"}},{"type":"MultiPolygon","arcs":[[[117,-102,118,-105,119,-96,120,121]]],"properties":{"GID_2":"RUS.78.25_1","GID_0":"RUS","COUNTRY":"Russia","GID_1":"RUS.78_1","NAME_1":"Vologda","NL_NAME_1":"Вологодскаяобласть","NAME_2":"Verkhovazhskiyrayon","VARNAME_2":"NA","NL_NAME_2":"Верховажскийрайон","TYPE_2":"Raion","ENGTYPE_2":"District","CC_2":"R04000","HASC_2":"RU.VO.VE"}},{"type":"MultiPolygon","arcs":[[[122]]],"properties":{"GID_2":"RUS.78.26_1","GID_0":"RUS","COUNTRY":"Russia","GID_1":"RUS.78_1","NAME_1":"Vologda","NL_NAME_1":"Вологодскаяобласть","NAME_2":"Vologda","VARNAME_2":"NA","NL_NAME_2":"Вологда","TYPE_2":"Gorsovet","ENGTYPE_2":"District","CC_2":"NA","HASC_2":"RU.VO.VG"}},{"type":"MultiPolygon","arcs":[[[-43,123,-85,124,-83,-64,125,-90,-72],[-123]]],"properties":{"GID_2":"RUS.78.27_1","GID_0":"RUS","COUNTRY":"Russia","GID_1":"RUS.78_1","NAME_1":"Vologda","NL_NAME_1":"Вологодскаяобласть","NAME_2":"Vologodskiyrayon","VARNAME_2":"NA","NL_NAME_2":"Вологодскийрайон","TYPE_2":"Raion","ENGTYPE_2":"District","CC_2":"R04000","HASC_2":"RU.VO.VR"}},{"type":"MultiPolygon","arcs":[[[126,-122,127,-94,128,-53,129,-51,130,-109,-62]]],"properties":{"GID_2":"RUS.78.28_1","GID_0":"RUS","COUNTRY":"Russia","GID_1":"RUS.78_1","NAME_1":"Vologda","NL_NAME_1":"Вологодскаяобласть","NAME_2":"Vozhegodskiyrayon","VARNAME_2":"NA","NL_NAME_2":"Вожегодскийрайон","TYPE_2":"Raion","ENGTYPE_2":"District","CC_2":"R04000","HASC_2":"RU.VO.VO"}},{"type":"MultiPolygon","arcs":[[[-70,-113,-14,-2,131,132,133]]],"properties":{"GID_2":"RUS.78.29_1","GID_0":"RUS","COUNTRY":"Russia","GID_1":"RUS.78_1","NAME_1":"Vologda","NL_NAME_1":"Вологодскаяобласть","NAME_2":"Vytegorskiyrayon","VARNAME_2":"NA","NL_NAME_2":"Вытегорскийрайон","TYPE_2":"Raion","ENGTYPE_2":"District","CC_2":"R04000","HASC_2":"RU.VO.VY"}},{"type":"MultiPolygon","arcs":[[[-38,134]],[[-35,135,136]],[[-33,137]],[[-40,138]],[[-42,139]],[[-16,-115,140,141]],[[-133,142]]],"properties":{"GID_2":"RUS.78.30_1","GID_0":"RUS","COUNTRY":"Russia","GID_1":"RUS.78_1","NAME_1":"Vologda","NL_NAME_1":"Вологодскаяобласть","NAME_2":"Waterbody","VARNAME_2":"NA","NL_NAME_2":"NA","TYPE_2":"Waterbody","ENGTYPE_2":"Waterbody","CC_2":"NA","HASC_2":"NA"}}]}},"arcs":[[[49349,258804],[2919,14296],[-348,9075],[6145,15347],[865,4490],[-2344,3407],[-4302,11909],[6913,11431],[4431,16461],[-1407,22066],[955,8629],[9420,-13628],[-1440,27861],[-3177,3152],[-8377,637],[-3987,2898],[-2102,10157],[-679,38114],[1439,17958],[4019,7132],[1576,6337],[-5110,5858],[-10366,3312],[-1698,5254],[-3218,3152],[-6962,2706],[-413,4840],[5119,4203],[194,12546],[-7334,11749],[2256,18245],[-704,18086],[6194,17003],[4455,48048],[3057,14296],[792,16048]],[[46130,661879],[9534,-11940],[5264,-1656],[6646,-13692],[7334,3949],[13318,-1688],[12501,-7833],[5644,9202],[5555,4968],[17555,3534]],[[129481,646723],[-550,-15125],[4285,-6209],[-655,-19295],[3704,-15539],[-793,-11845],[736,-9775],[6396,-12258],[-299,-24200],[-679,-7673],[1301,-6273],[2362,-3471],[-987,-26046],[1771,-6973],[5854,-5795],[2418,-38368],[2709,-19996]],[[157054,417882],[-6016,-8375],[-9291,2261],[-5782,-5859],[1666,-11144],[3509,-8120],[-1237,-11176],[-5142,-13978],[-12582,-24581],[-1456,-7929],[1440,-7896],[17271,-27256],[4997,-17640],[-4997,-9807],[-2078,-21397],[5717,32],[744,-15571]],[[143817,229446],[-13649,-8278],[-3712,-10253],[-9404,-41998],[-2595,-3312],[-5596,4076],[-5684,15697],[-5280,4999],[-7747,32],[-4503,-4776]],[[85647,185633],[-2709,8279]],[[82938,193912],[614,7705],[7205,22289],[-316,9075],[-13956,10507],[-13786,3025],[-12105,-12322],[-2474,4999],[1851,7291],[-622,12323]],[[656839,228746],[-4059,24199],[2005,16589],[6679,8120],[1496,5062],[4940,-2738],[7318,16335],[3623,1209],[-2944,20952],[-970,23594],[-4196,4458],[-4456,-1306],[-4148,2834],[-11231,23276],[687,20537],[-3752,17577],[-8296,17894],[639,6623],[9234,23977],[6097,3152],[2385,3534],[12080,28339],[8095,-9776],[5458,-3534],[12403,-414],[6429,-10030],[3291,287],[6024,7960],[978,12354],[19431,43463]],[[732079,533273],[3040,-7132],[-145,-13915],[5086,-6145],[5191,11049],[5911,-6082],[16325,-34770],[291,7387],[2758,9202],[6040,11049]],[[776576,503916],[6121,6145]],[[782697,510061],[22058,-5986]],[[804755,504075],[591,-13851],[-1925,-10730],[-7196,-18436],[-275,-10635],[5967,-14328],[-3145,-11622],[-3599,-7579],[-6218,3662],[-5312,-2802],[-5256,-6081],[-5175,-10986],[2871,-25950],[-2653,-41011],[-3687,-24773],[-1269,-22957],[-10827,-8151],[-3995,-48622]],[[753652,229223],[-6364,-4171],[-9153,9425],[-7956,-1401],[1568,13437],[-1787,4936],[-14846,-14902],[1092,-9361],[-6315,-6400],[-2563,6240],[2506,7833],[-3541,10826],[687,13533],[-6331,-8534],[-6542,-2420],[534,-16684],[-3413,-2611],[-2700,8597],[-2280,-3980],[-7803,13946],[-6962,-10348],[380,-7610],[-11685,-6814],[-1641,5795],[-1698,191]],[[129481,646723],[6873,4489],[12323,22608],[3331,955],[4989,-4394],[4868,-8597],[8668,3247],[2862,7419],[4399,3694],[11013,-11940],[5822,1592]],[[194629,665796],[-2393,-8120],[897,-18850],[-881,-17640]],[[192252,621186],[-3049,7483],[1399,-7928],[-16,-5795],[-1779,-4649],[3954,-26333],[-7301,7992],[-3534,-3438],[3906,-1210],[3048,-4012],[6194,-14456],[4754,-4299],[3251,-6846],[412,-7355],[-1140,-5890],[-105,-6273],[1181,-8151],[1900,-6209],[3097,-5063],[10738,-7929],[9186,-12895],[8829,11399],[14313,-8820],[3679,7546],[4463,1943]],[[259632,509998],[10560,-9043]],[[270192,500955],[-202,-36522],[-1479,-22734],[3266,-25728],[-153,-17449],[865,-20505]],[[272489,378017],[-3898,-10062],[-8441,-2930],[-11361,10412],[-9113,988],[-11603,13564],[-12695,-25728],[-3235,-859]],[[212143,363402],[-10245,17162]],[[201898,380564],[-9007,4999],[-19213,2961],[-12525,13087],[-4099,16271]],[[82938,193912],[4940,-15889]],[[87878,178023],[-2992,-8470],[-9840,5955],[3024,-17322],[-2062,-29835],[-3622,-20346]],[[72386,108005],[-11119,12131],[-6913,191],[-2887,-4298],[-4682,-21620],[-3210,-5254],[-2110,5954],[533,17704],[-2506,828],[-3259,-9489],[-1568,-541],[-510,10698],[477,13501],[1828,7291],[1277,13819],[-3258,4713],[-11984,1719],[-4989,5795],[-3412,6337],[1488,6368],[3177,1083],[-2951,5667],[-8983,4394],[-4456,6369],[-2369,10443],[3040,2771],[-347,13245],[6185,13883],[2475,9202],[3436,7865],[6687,-15252],[3809,12991],[6954,-4298],[4390,6495],[243,6750],[3396,3630],[9081,-286]],[[195389,98484],[-7803,13883]],[[187586,112367],[8,15252],[-6226,31427],[-7617,27670]],[[173751,186716],[23619,4203],[2741,7387],[10561,-382],[4576,10348],[938,10221],[-6242,8247],[4819,12927],[1852,8788],[954,10190],[2418,6463],[-10189,42062],[-752,17226],[-1132,10476],[1981,7164],[-5959,14997],[251,8375],[2434,6463]],[[206621,371871],[5522,-8469]],[[272489,378017],[7601,10125],[3080,-3407],[-3557,-22384],[17805,4266]],[[297418,366617],[3897,-3247]],[[301315,363370],[-12679,-21206],[-8336,-4490],[5668,-32573],[1536,-18659],[-3282,-19837],[-1415,-16908],[-4407,-7673],[-202,-9999],[14667,-35279],[2046,-21015],[9477,-3503],[7641,-13851],[9178,1306],[9622,-6846],[8361,-13310]],[[339190,139527],[3170,-9775],[1310,-8087],[-712,-10572],[-4722,-17576],[1504,-9489],[-4472,-7705],[-6849,7674],[-6113,-6305],[-4148,2165],[461,6496],[-10099,1337],[-518,-11685],[-9363,-5987],[-20854,54449]],[[277785,124467],[-7981,24103],[-1948,-2929],[-914,-4936],[-1722,-541],[-6534,16717],[2660,-956],[696,5095],[-4472,4076],[-2571,8692],[-9194,8470],[13625,5795],[10479,-6878],[2822,-4203],[-638,-2611],[444,-3247],[7092,-3025],[2684,4585],[-4075,9106],[-1763,-796],[-3946,5190],[-3355,7833],[-5022,6337],[542,10921],[1278,2420],[5514,1497],[-4843,12354],[-3113,-1242],[-2248,-8692],[-89,-11017],[-1245,-6273],[-3825,-5636],[-3671,-701],[-2984,2994],[-2256,11176],[-2353,-1529],[-1253,-7291],[-1739,-3152],[-2280,7801],[-15347,15633],[13512,-26778],[-607,-3088],[-1876,1751],[-1221,-6018],[3663,-7387],[32,-5477],[-3299,-2834],[-48,-3916],[6671,-4553],[32,-4617],[-1366,-6687],[-2143,-1942],[-5693,414],[-2757,4776],[24,-7292],[-1156,-5285],[-5191,5381],[-1626,-4872],[1189,-9711],[-121,-22576],[1868,-7291],[-65,8342],[898,5922],[2563,9744],[2636,5763],[3444,1751],[6227,-4744],[3363,4840],[6235,-6687],[2231,-8438],[3469,-605],[-444,-5190],[1698,-6973],[2134,-605],[2539,5063],[2224,382],[542,-5509],[4221,-4903],[469,-2993],[-3089,-924],[-1989,-5030],[1770,-7515]],[[265203,83296],[-3929,-15666],[-2766,6846],[-889,-1942],[1213,-10094],[5272,-11049],[-6582,-3661],[922,-4840],[1326,-701],[-2814,-12736],[-4132,5636],[994,6209],[-13358,7387],[-2239,-11176],[-906,4075]],[[237315,41584],[-2814,32],[-1795,-4585],[2749,-6495]],[[235455,30536],[-2595,-7101],[388,-2834]],[[233248,20601],[5522,-5954],[-1568,-7483],[0,-6527],[-2062,1369],[-2256,8470]],[[232884,10476],[-3776,-3598]],[[229108,6878],[-2143,3470],[-1067,7387]],[[225898,17735],[1560,5509],[-2701,9807],[-1382,350],[-1820,-8215]],[[221555,25186],[-1196,1465],[-7116,22448]],[[213243,49099],[5409,5349],[3534,14392],[-776,1688],[-9008,-8151],[-4100,15952],[-3072,-1178],[-2111,3248],[-1698,8437],[-986,14297],[-6760,5922],[1714,-10571]],[[398468,132873],[2062,7005],[-2062,9456],[3655,7324],[6954,-2707],[5029,12514],[5855,3598],[3161,9648],[5749,-11208],[3550,1496],[4116,6559],[6962,6209],[4285,12323],[5588,10062]],[[453372,205152],[4730,2515],[5232,-8915],[7528,-6878],[17385,7928],[9064,-4999],[15954,-27669],[2830,-383],[-4747,18914],[-1180,9648],[9355,-2579],[8118,-12641],[1909,2770],[1609,10890],[3145,2133],[502,8279],[3832,5508],[23716,13405],[17401,-1592],[13609,3152]],[[593364,224638],[-930,-11271],[-307,-16080],[-4512,-2643],[-2604,5986],[-3210,-5572],[2054,-5922],[-2717,-2197],[-3525,-1179],[-1181,3758],[-6396,923],[-6865,-3821],[-6242,-4553],[-3671,-7897],[-7415,-6814],[-4108,-8501],[-3024,-1274],[-4310,-13946],[-3267,18372],[-4034,-4935],[202,-8629],[-3663,-1974],[-2846,-10699],[954,-3630],[4528,-4171],[226,-17353],[-3477,3757],[-1585,-10253],[-3323,-9743],[8709,-21111],[-6194,-24199],[-5960,-2324],[-5466,-16239],[-2579,-446],[3299,-10157],[-1269,-3662],[-3025,3343],[-4026,-7833],[-8774,414],[-2167,-4553],[57,10635],[-4197,3471],[-14377,-255],[-3776,-6018],[-3606,6846],[-4601,-12482],[-8442,10444],[-2895,-8215],[-9581,9839],[-1569,8501],[-5280,1306],[-2450,11080],[4892,2675],[-971,9584],[-5166,4426],[-11483,26842],[-3970,2388],[-2886,7929],[1487,5636],[-1973,6049],[-9185,-4744],[-2871,9871],[566,6973],[-3040,6814],[3121,5668]],[[201898,380564],[4723,-8693]],[[173751,186716],[-817,23021],[-1843,8597],[-3420,8151],[-17013,4139],[-6841,-1178]],[[488885,411195],[-6388,-4330],[-13495,-1465],[-8159,-10444],[-6655,2101],[-7625,-3789],[-8069,5955],[-5208,14742],[-6380,4585]],[[426906,418550],[-11142,26014],[-4439,14838],[-1496,22034],[-3323,8470],[-7545,-14679],[-2215,11145],[-4884,6463],[-5547,3057],[-1415,11304],[2579,6272],[4480,1720],[2224,5381],[-12833,14870],[-8175,52123]],[[373175,587562],[15461,24582]],[[388636,612144],[14684,7769]],[[403320,619913],[16026,-1974],[6881,-3694]],[[426227,614245],[10520,-18786],[19609,-8151],[2708,-4490],[-2118,-8629],[-13463,-6464],[-3162,-3852],[5426,-8980],[9840,3376],[9687,-2484],[7035,20155],[2814,12036],[8118,-4458],[7051,-8788],[1035,15029],[4739,-3407],[7512,10253]],[[503578,596605],[8053,-2897]],[[511631,593708],[-1706,-9330],[-6105,-14137],[-3558,-4681],[-5345,-21461],[-3485,-6336],[-6056,5636],[-3234,-2165],[-4997,-18978],[355,-8215],[6113,-7228],[1173,-8087],[-4941,-796],[-2256,-5318],[1626,-8820],[6064,-16302],[-2620,-6209],[1027,-4776],[-679,-3407],[-6251,1433],[-161,-5796],[5700,-8119],[1100,-6432],[4666,-3343],[824,-19646]],[[942540,350856],[-7714,3694],[-3695,5667],[-8,3248],[-1650,4872],[-4932,4808],[-20951,3662],[-16827,-1306],[-30532,21716],[-2531,8087],[364,5732],[-906,9743],[-5895,14424],[-1738,9743],[-930,11399],[-9630,13406],[-1310,7291],[1156,7419],[-3024,12100],[-5442,5444],[-21590,2070]],[[782697,510061],[4471,6018]],[[787168,516079],[15614,12418],[4431,10890],[1545,43431],[3558,15729],[16034,26174]],[[828350,624721],[5013,1878],[3825,-5540],[11321,-46934],[15072,-4298],[11741,-9393],[2886,5827],[-56,9807],[4544,9106],[4609,-2292],[7924,4298],[19261,-6113],[12978,-9107],[9339,-11781]],[[936807,560179],[-2248,-3502],[356,-3726],[2394,-7801],[1956,-10157],[114,-7292],[2320,-9234],[17733,-21078],[7334,-3503],[5247,828],[7674,10157],[5248,16526],[7301,8501],[-2781,-52474],[-412,-7769],[-4197,-25314],[-2038,-18181],[-3275,-10571],[4229,-7483],[13698,-6973],[2539,-11813],[-137,-15475],[-1124,-17640],[-26223,1943],[-801,-5350],[-3452,-1432],[-300,-4808],[-6792,-2516],[-1528,9648],[-17102,-2834]],[[292639,757816],[4027,-7546],[10843,-3534],[3825,-7451],[4609,-22193],[6897,-1911],[6178,3694],[8716,-12323]],[[337734,706552],[6453,-11558],[3978,-10762],[4148,-21493],[1173,-21270],[-3526,-19773],[-5805,-8693],[-8474,-5922],[4431,-33847]],[[340112,573234],[-647,-25791],[1835,-25250],[4658,-8948],[4180,-23116],[-1463,-18532],[-2725,-17958],[2353,-12736]],[[348303,440903],[-3534,-10667],[-4973,-6878],[-89,-5795],[2345,-12736],[-2522,-6337],[4067,-36330],[-1706,-13596],[-6809,-17226],[-1682,-13596]],[[333400,317742],[-6994,923],[-3614,13246],[-5216,5413],[-12388,22798]],[[305188,360122],[-7770,6495]],[[270192,500955],[-2304,3598]],[[267888,504553],[-2394,10730]],[[265494,515283],[-840,7547],[-106,14901],[9970,732],[5192,3726],[2886,7323],[2830,1497],[9792,24677],[33,13245],[1916,2930],[5159,-2134],[898,5987],[-4359,9807],[574,18340],[-986,16335],[-7738,16461],[72,5827],[3663,9107],[979,11813],[-801,13086],[-7770,16399],[-1739,14519]],[[285119,727408],[3453,19837],[4067,10571]],[[594739,294498],[-4197,3216],[-3695,-21652],[-2297,-20092],[-2304,-3503],[1900,-6686],[9283,-8565],[-65,-12578]],[[453372,205152],[-1585,17799],[-4738,15570],[2191,14360]],[[449240,252881],[4302,3280],[3735,7228],[4092,-892],[9970,13246],[4116,8120],[2530,-11909],[3663,-191],[5394,16526],[7196,2865],[-2215,14424],[11749,1083],[3218,11208],[17749,-6241],[2733,2898],[64,9042],[7609,3630],[3962,-19104],[-24,-10667],[32279,30949],[-5272,23053],[1197,987],[4229,-4330],[5199,-9107],[2442,319],[914,9170],[226,18054]],[[580297,366522],[1844,5986],[4455,1433],[4278,-5986],[1835,-6305],[-291,-16430],[2167,-3821],[2329,3598],[3250,414],[3016,-5317],[-452,-11527],[-6793,-17289],[-129,-9011],[-1067,-7769]],[[942540,350856],[-3727,-30090],[3493,-9488],[-2644,-31109],[-17531,-4139],[-3097,-10922],[-6412,2134],[-9873,-45820],[-13067,2325],[-517,5445],[-5224,4298],[-2159,-9170],[-28341,8820],[-3728,-11527],[-17320,892],[-5490,-21938],[-24848,8628],[-11078,-509],[-3639,4458],[-15590,-7515],[-452,9362],[-9501,4648],[-1812,13724],[-6331,-4140]],[[777021,781793],[10616,-4204],[34560,351],[17231,-6146]],[[839428,771794],[-11078,-147073]],[[787168,516079],[-10592,-12163]],[[732079,533273],[-558,7292],[-9695,6559]],[[721826,547124],[-3024,5477]],[[718802,552601],[8304,700],[6428,12004],[9833,31109],[-3089,8756],[-615,10603],[2790,7610],[-1835,8056],[-4771,8629],[-558,7355],[711,6623],[9421,35153],[1884,12450],[-178,9839],[9428,16270],[6639,7005],[10592,-95],[2305,14901],[930,32224]],[[301315,363370],[3873,-3248]],[[333400,317742],[-7131,-25569],[32,-14870],[2248,-11048],[3582,-13246],[5709,-15252],[8708,-3853],[2232,-3630],[7787,-24708],[6727,-5127],[2984,-10889],[-283,-9967]],[[365995,179583],[-7463,-26332]],[[358532,153251],[-4132,-5222]],[[354400,148029],[-4375,-9425],[-6671,11144],[-4164,-10221]],[[428119,313921],[-1431,-2420],[-2199,4426],[776,5540],[3024,127],[566,-2961],[-736,-4712]],[[488885,411195],[20288,-4171],[2959,-2006],[2895,-11081],[14304,1369],[5830,8279],[11814,2547],[8717,-2866],[8490,3662]],[[564182,406928],[-647,-4999],[5458,-15634],[2773,2834],[3477,-6082],[5054,-16525]],[[449240,252881],[-1245,9680],[-73,10667],[-4836,8183],[-5708,573],[-5547,-11717],[-4682,4871]],[[427149,275138],[-12274,24550]],[[414875,299688],[614,7005],[-477,9807],[4035,764],[2846,8788],[-3210,15889],[-81,27192],[-2126,18595],[1964,10253],[4278,4935],[4188,15634]],[[511631,593708],[3970,-5190]],[[515601,588518],[4593,10603],[5248,-5827],[5361,1592],[5684,-6591],[3704,1337],[2749,4521]],[[542940,594153],[1116,14998]],[[544056,609151],[7851,-8820],[1189,-9744],[3566,-6081],[4480,3056],[7625,20824]],[[568767,608386],[20020,-23817]],[[588787,584569],[-4657,-22830],[-7237,-19869],[-2911,-11908],[663,-7324],[3687,-11048],[283,-8184],[-3792,-22702],[-372,-13214],[1318,-26938],[-2555,-9393],[-9032,-24231]],[[681913,739476],[5143,-6973],[5563,-2070],[10924,5699],[1173,5827],[218,10667],[6243,7801],[3994,15029],[5523,1178],[3355,3471],[1132,9106],[275,9011],[8903,4617],[12646,12196],[11143,-1083],[2668,-8056],[-2054,-5859],[2256,-8915],[3914,-5540],[12089,-3789]],[[718802,552601],[-10900,22798]],[[707902,575399],[-1051,-9107],[1552,-13819],[-4552,-1209],[-4334,7769],[-3591,11144],[2240,11686],[-1423,7260],[-15274,27255],[-3696,-2833],[-3485,-11017],[1035,-8120],[-1374,-11622],[-4852,10189],[-5264,-6304],[-1488,-6719],[1561,-12163],[4528,-14297],[-19778,8566],[-1132,40947]],[[647524,603005],[1399,10030],[-10755,25123],[1092,5890],[12938,17831],[3970,8661],[2644,10953],[4116,3726],[1609,19072],[13034,22257],[4342,12928]],[[656839,228746],[-380,-16685],[-4229,-3088],[-7997,28752],[-4011,159],[-1269,8311],[558,5827],[-4973,14233],[-10674,-7037],[-8474,-1401],[-4965,-11176],[-6177,15984],[-2968,16143],[639,12673],[-7180,3057]],[[588787,584569],[-8700,10444]],[[580087,595013],[2224,8502],[3161,5381],[15695,-7133],[18768,1433],[6371,10603]],[[626306,613799],[10593,-4553],[10625,-6241]],[[707902,575399],[13924,-28275]],[[414875,299688],[-49155,101063],[-17417,40152]],[[340112,573234],[4213,-733],[14231,7101],[7989,-828]],[[366545,578774],[6630,8788]],[[87878,178023],[-2231,7610]],[[187586,112367],[-3008,-9202],[-5482,8056],[-2402,-191],[-2999,-6814],[-6308,-6050],[5936,-21811],[-8426,-7738],[-3808,4108],[-3122,-4012],[-2401,-5954],[-154,-18627],[-4390,-733],[-5774,-18276],[784,-10412],[-1956,-6464],[-6590,2133],[-10682,2834],[-4180,7833],[-647,13914],[-5434,8247],[-784,15539],[-5491,14073],[-4835,96],[-4237,7801],[-8418,9775],[-7010,1911],[-1763,6909],[-3938,8693],[-986,-2802],[-3477,-1974],[-3218,4776]],[[194629,665796],[10415,21015],[6331,6623],[6776,95],[23118,-9871],[8911,-254],[7649,32509],[6849,5827],[18234,1274],[2207,4394]],[[265494,515283],[-5927,15411]],[[259567,530694],[2814,14774],[-5053,13692],[-882,7228],[-2644,8470],[-11636,17863],[-5393,5253],[-5531,1083],[-6145,-2388],[-7463,-7738],[-8766,-13086],[-2943,32],[-695,3980],[736,7642],[-4173,23817],[-444,6495],[1787,4617],[9832,4267],[-1997,4458],[-7326,2197],[-4989,-7133],[-1318,-5317],[210,-9075],[-1706,-17863],[-1876,2802],[-897,18850],[-817,5572]],[[939856,714258],[-3025,-4904],[-3088,4776],[566,5031],[2021,2293],[3162,-2993],[364,-4203]],[[839428,771794],[4156,-1496],[1173,20474],[266,30280],[3728,27065],[1221,15571],[10779,-3917],[7309,892],[14636,-3121],[9469,-4871],[873,-4872],[-1286,-10635],[-5118,-26205],[3428,-6496],[18404,-17130],[24824,3152],[4302,6496],[4326,11367],[3016,2420],[2983,-2484],[4237,-11494],[5095,-8247],[3848,-892],[6874,3121],[4245,-4968],[-898,-6495],[-3509,-12991],[5919,-9935],[5094,-3375],[9808,-1051],[5911,2834],[-5620,-31936],[89,-19169],[5377,-34165],[-2191,-8915],[-7302,-6591],[-5150,-14233],[-2078,-12355],[-73,-16716],[-2863,-17131],[-234,-11017],[-1852,-14233],[-4059,-6718],[-7366,3662],[-11102,-4681],[-13310,-414]],[[527189,704451],[6800,11526],[1860,7642],[2757,6113],[-3776,11081],[56,10699],[17094,23435],[2701,-4617],[323,-9839],[10544,-10380],[1925,19996],[2789,6081],[6995,-5826],[1051,-6496],[8021,-12322],[6000,12959],[3542,-4585],[-1019,-9139],[2240,-3884],[19260,-21175],[8127,13915],[4682,-382],[5482,18563],[3719,4458],[3841,-478],[3558,-6304],[3429,-1337],[3994,-7069],[12606,-31841],[2903,2706],[4657,20092],[2855,5954],[5708,-4521]],[[647524,603005],[-21218,10794]],[[580087,595013],[-11320,13373]],[[544056,609151],[1560,14232]],[[545616,623383],[-6800,46902],[-4876,17481],[-6751,16685]],[[413104,208081],[-2555,-860],[-2653,15666],[2442,4617],[2847,-1337],[2417,-7133],[-2498,-10953]],[[398468,132873],[-7682,-10126],[-6185,-1051],[-17070,17449],[-6469,-1719],[-6662,10603]],[[358532,153251],[3105,9743],[4358,16589]],[[348303,440903],[34980,-77852],[43866,-87913]],[[337734,706552],[6720,1306],[11045,-8661],[4375,14042],[5126,-733],[3688,-5922],[7107,2133],[6881,-2069],[2968,8756],[6655,11909],[5660,-3153],[4981,2484],[4592,-7483],[3510,-11781],[4956,-6623],[5960,-669],[6048,6751],[3372,541],[4374,6464],[5054,796],[7407,-4649],[4633,10603],[752,12482],[4601,1528],[14102,-12768],[6040,8279],[3372,445],[5515,-10762],[15646,-21779],[7763,-3917],[7972,1847],[8580,8502]],[[545616,623383],[-2676,-29230]],[[515601,588518],[-7423,7960],[-4600,127]],[[426227,614245],[-14061,4872],[-8846,796]],[[388636,612144],[-22091,-33370]],[[46130,661879],[-218,13182],[-3469,26301],[-7536,33274],[9299,22894],[4900,3216],[9315,-8661],[5054,11558],[347,6687],[3170,10539],[2660,-2897]],[[69652,777972],[13164,7387],[5612,-10763],[1536,2166],[4334,-6114],[2903,1656],[437,5126],[-8846,13915],[8911,1847],[4665,6368],[6663,25186],[4302,11208],[1973,-2770],[5151,-96],[9905,17704],[2854,7514],[1933,14615],[-1068,14520],[-2417,9234],[1593,7865],[5563,12386]],[[138820,916926],[-1504,17799],[5498,12545],[882,10189],[6169,20188],[5070,7419],[5272,63],[10577,-11431],[1156,7005],[4342,11272],[4350,5509],[5523,2515],[9339,-12705],[4755,669],[3436,-4712],[1262,-10317],[7099,-6878],[7908,4872],[23975,3566],[1262,-13691],[-2903,-23722],[6590,-15761],[404,-13915],[11417,-32064],[-1778,-13564],[4932,-10476],[5563,414],[3687,-4139],[2547,-14297],[1796,-5604],[-1124,-5795],[841,-7228],[-1124,-10157],[-3097,-13055],[5644,-8692],[6193,-3630],[2442,9616],[4618,9234],[2708,-10158],[-671,-10857],[-2256,-12864],[1019,-6273]],[[232884,10476],[986,-3694],[-2288,-6145],[-768,-637],[-615,2961],[-1908,5222],[817,-1305]],[[237315,41584],[736,-3343],[-1391,-21333],[-3412,3693]],[[233248,20601],[-211,3343],[2418,6592]],[[277785,124467],[20910,-54640],[-33855,8247],[-2127,-3088],[2490,8310]],[[225898,17735],[1002,-6973],[-1900,2484],[-1439,2834],[-2006,9106]],[[213243,49099],[5984,-18882],[-4035,5286],[-8313,21461],[-4479,15442],[-7181,16176],[-299,6432],[469,3470]],[[259567,530694],[6987,-18181],[1334,-7960]],[[267888,504553],[-1722,700],[-6534,4745]],[[69652,777972],[-8757,12195],[-404,10603],[5434,12513],[3396,1019],[2240,4044],[1633,12100],[2604,10698],[315,12482],[-3275,9457],[4270,6591],[59731,61485],[509,3311],[1472,-17544]]],"bbox":[34.7717,58.4899,47.1388,61.6305],"transform":{"scale":[0.000012367112367112367,0.00000314060314060314],"translate":[34.7717,58.4899]}}