{"type":"Topology","objects":{"muni":{"type":"GeometryCollection","geometries":[{"type":"MultiPolygon","arcs":[[[0,1,2,3,4,5,6,7,8,9,10,11,12,13,14,15]]],"properties":{"GID_2":"RUS.79.1_1","GID_0":"RUS","COUNTRY":"Russia","GID_1":"RUS.79_1","NAME_1":"Voronezh","NL_NAME_1":"Воронежскаяобласть","NAME_2":"Anninskiyrayon","VARNAME_2":"NA","NL_NAME_2":"Аннинскийрайон","TYPE_2":"Raion","ENGTYPE_2":"District","CC_2":"R27000","HASC_2":"RU.VR.AN"}},{"type":"MultiPolygon","arcs":[[[-11,16,17,18,19,20,21,22,23,24,25]]],"properties":{"GID_2":"RUS.79.2_1","GID_0":"RUS","COUNTRY":"Russia","GID_1":"RUS.79_1","NAME_1":"Voronezh","NL_NAME_1":"Воронежскаяобласть","NAME_2":"Bobrovskiyrayon","VARNAME_2":"NA","NL_NAME_2":"Бобровскийрайон","TYPE_2":"Raion","ENGTYPE_2":"District","CC_2":"R27000","HASC_2":"RU.VR.BB"}},{"type":"MultiPolygon","arcs":[[[26,27,28,29,30,31,32]]],"properties":{"GID_2":"RUS.79.3_1","GID_0":"RUS","COUNTRY":"Russia","GID_1":"RUS.79_1","NAME_1":"Voronezh","NL_NAME_1":"Воронежскаяобласть","NAME_2":"Bogucharskiyrayon","VARNAME_2":"NA","NL_NAME_2":"Богучарскийрайон","TYPE_2":"Raion","ENGTYPE_2":"District","CC_2":"R27000","HASC_2":"RU.VR.BO"}},{"type":"MultiPolygon","arcs":[[[33]]],"properties":{"GID_2":"RUS.79.4_1","GID_0":"RUS","COUNTRY":"Russia","GID_1":"RUS.79_1","NAME_1":"Voronezh","NL_NAME_1":"Воронежскаяобласть","NAME_2":"Borisoglebsk","VARNAME_2":"NA","NL_NAME_2":"Борисоглебск","TYPE_2":"Gorod","ENGTYPE_2":"City","CC_2":"NA","HASC_2":"RU.VR.BG"}},{"type":"MultiPolygon","arcs":[[[34,35,36,37]]],"properties":{"GID_2":"RUS.79.5_1","GID_0":"RUS","COUNTRY":"Russia","GID_1":"RUS.79_1","NAME_1":"Voronezh","NL_NAME_1":"Воронежскаяобласть","NAME_2":"Borisoglebskiyrayon","VARNAME_2":"NA","NL_NAME_2":"Борисоглебскийрайон","TYPE_2":"Raion","ENGTYPE_2":"District","CC_2":"R27000","HASC_2":"RU.VR.BR"}},{"type":"MultiPolygon","arcs":[[[-21,38,39,40,41,42,43,44,45]]],"properties":{"GID_2":"RUS.79.6_1","GID_0":"RUS","COUNTRY":"Russia","GID_1":"RUS.79_1","NAME_1":"Voronezh","NL_NAME_1":"Воронежскаяобласть","NAME_2":"Buturlinovskiyrayon","VARNAME_2":"NA","NL_NAME_2":"Бутурлиновскийрайон","TYPE_2":"Raion","ENGTYPE_2":"District","CC_2":"R27000","HASC_2":"RU.VR.BU"}},{"type":"MultiPolygon","arcs":[[[46,47,48,-13,49,50]]],"properties":{"GID_2":"RUS.79.7_1","GID_0":"RUS","COUNTRY":"Russia","GID_1":"RUS.79_1","NAME_1":"Voronezh","NL_NAME_1":"Воронежскаяобласть","NAME_2":"Ertil'skiyrayon","VARNAME_2":"NA","NL_NAME_2":"Ертильскийрайон","TYPE_2":"Raion","ENGTYPE_2":"District","CC_2":"R27003","HASC_2":"RU.VR.ER"}},{"type":"MultiPolygon","arcs":[[[-37,51,52,53,54,-1,55,56,57],[-34]]],"properties":{"GID_2":"RUS.79.8_1","GID_0":"RUS","COUNTRY":"Russia","GID_1":"RUS.79_1","NAME_1":"Voronezh","NL_NAME_1":"Воронежскаяобласть","NAME_2":"Gribanovskiyrayon","VARNAME_2":"NA","NL_NAME_2":"Грибановскийрайон","TYPE_2":"Raion","ENGTYPE_2":"District","CC_2":"R27000","HASC_2":"RU.VR.GR"}},{"type":"MultiPolygon","arcs":[[[58,59,60,61,62,63,64]]],"properties":{"GID_2":"RUS.79.9_1","GID_0":"RUS","COUNTRY":"Russia","GID_1":"RUS.79_1","NAME_1":"Voronezh","NL_NAME_1":"Воронежскаяобласть","NAME_2":"Kalacheevskiyrayon","VARNAME_2":"NA","NL_NAME_2":"Калачевскийрайон","TYPE_2":"Raion","ENGTYPE_2":"District","CC_2":"R27001","HASC_2":"RU.VR.KL"}},{"type":"MultiPolygon","arcs":[[[65,66,67,68,69,70,71,72]]],"properties":{"GID_2":"RUS.79.10_1","GID_0":"RUS","COUNTRY":"Russia","GID_1":"RUS.79_1","NAME_1":"Voronezh","NL_NAME_1":"Воронежскаяобласть","NAME_2":"Kamenskiyrayon","VARNAME_2":"NA","NL_NAME_2":"Каменскийрайон","TYPE_2":"Raion","ENGTYPE_2":"District","CC_2":"R27001","HASC_2":"RU.VR.KM"}},{"type":"MultiPolygon","arcs":[[[73,74,75,76,-27,77]]],"properties":{"GID_2":"RUS.79.11_1","GID_0":"RUS","COUNTRY":"Russia","GID_1":"RUS.79_1","NAME_1":"Voronezh","NL_NAME_1":"Воронежскаяобласть","NAME_2":"Kantemirovskiyrayon","VARNAME_2":"NA","NL_NAME_2":"Кантемировскийрайон","TYPE_2":"Raion","ENGTYPE_2":"District","CC_2":"R27001","HASC_2":"RU.VR.KN"}},{"type":"MultiPolygon","arcs":[[[-25,78,79,80,81,82,83]]],"properties":{"GID_2":"RUS.79.12_1","GID_0":"RUS","COUNTRY":"Russia","GID_1":"RUS.79_1","NAME_1":"Voronezh","NL_NAME_1":"Воронежскаяобласть","NAME_2":"Kashirskiyrayon","VARNAME_2":"NA","NL_NAME_2":"Каширскийрайон","TYPE_2":"Raion","ENGTYPE_2":"District","CC_2":"R27001","HASC_2":"RU.VR.KS"}},{"type":"MultiPolygon","arcs":[[[-81,84,85,86,87,88,89,90,91,92,93,94,95]]],"properties":{"GID_2":"RUS.79.13_1","GID_0":"RUS","COUNTRY":"Russia","GID_1":"RUS.79_1","NAME_1":"Voronezh","NL_NAME_1":"Воронежскаяобласть","NAME_2":"Khokhol'skiyrayon","VARNAME_2":"NA","NL_NAME_2":"Хохольскийрайон","TYPE_2":"Raion","ENGTYPE_2":"District","CC_2":"R27003","HASC_2":"RU.VR.KH"}},{"type":"MultiPolygon","arcs":[[[96]]],"properties":{"GID_2":"RUS.79.14_1","GID_0":"RUS","COUNTRY":"Russia","GID_1":"RUS.79_1","NAME_1":"Voronezh","NL_NAME_1":"Воронежскаяобласть","NAME_2":"Liski","VARNAME_2":"NA","NL_NAME_2":"Лиски","TYPE_2":"Gorsovet","ENGTYPE_2":"District","CC_2":"NA","HASC_2":"RU.VR.LG"}},{"type":"MultiPolygon","arcs":[[[-24,97,98,99,100,-68,101,102,103,104,-86,105,-79],[-97]]],"properties":{"GID_2":"RUS.79.15_1","GID_0":"RUS","COUNTRY":"Russia","GID_1":"RUS.79_1","NAME_1":"Voronezh","NL_NAME_1":"Воронежскаяобласть","NAME_2":"Liskinskiyrayon","VARNAME_2":"NA","NL_NAME_2":"Лискинскийрайон","TYPE_2":"Raion","ENGTYPE_2":"District","CC_2":"R27001","HASC_2":"RU.VR.LG"}},{"type":"MultiPolygon","arcs":[[[106,107,-91,108]]],"properties":{"GID_2":"RUS.79.16_1","GID_0":"RUS","COUNTRY":"Russia","GID_1":"RUS.79_1","NAME_1":"Voronezh","NL_NAME_1":"Воронежскаяобласть","NAME_2":"Nizhnedevitskiyrayon","VARNAME_2":"NA","NL_NAME_2":"Нижнедевицкийрайон","TYPE_2":"Raion","ENGTYPE_2":"District","CC_2":"R27001","HASC_2":"RU.VR.NI"}},{"type":"MultiPolygon","arcs":[[[109,-42,110,111,112,-3,-54,113,114]]],"properties":{"GID_2":"RUS.79.17_1","GID_0":"RUS","COUNTRY":"Russia","GID_1":"RUS.79_1","NAME_1":"Voronezh","NL_NAME_1":"Воронежскаяобласть","NAME_2":"Novokhoperskiyrayon","VARNAME_2":"NA","NL_NAME_2":"Новохоперскийрайон","TYPE_2":"Raion","ENGTYPE_2":"District","CC_2":"R27001","HASC_2":"RU.VR.NK"}},{"type":"MultiPolygon","arcs":[[[115,116,-95,117,118,119,120,121,122,123,124,125]]],"properties":{"GID_2":"RUS.79.18_1","GID_0":"RUS","COUNTRY":"Russia","GID_1":"RUS.79_1","NAME_1":"Voronezh","NL_NAME_1":"Воронежскаяобласть","NAME_2":"Novousmanskiyrayon","VARNAME_2":"NA","NL_NAME_2":"Новоусманскийрайон","TYPE_2":"Raion","ENGTYPE_2":"District","CC_2":"R27001","HASC_2":"RU.VR.NU"}},{"type":"MultiPolygon","arcs":[[[-73,126,127,128,129]]],"properties":{"GID_2":"RUS.79.19_1","GID_0":"RUS","COUNTRY":"Russia","GID_1":"RUS.79_1","NAME_1":"Voronezh","NL_NAME_1":"Воронежскаяобласть","NAME_2":"Ol'khovatskiyrayon","VARNAME_2":"NA","NL_NAME_2":"Ольховатскийрайон","TYPE_2":"Raion","ENGTYPE_2":"District","CC_2":"R27001","HASC_2":"RU.VR.OL"}},{"type":"MultiPolygon","arcs":[[[130,131,132,-88,133,-104,134,-102,-67]]],"properties":{"GID_2":"RUS.79.20_1","GID_0":"RUS","COUNTRY":"Russia","GID_1":"RUS.79_1","NAME_1":"Voronezh","NL_NAME_1":"Воронежскаяобласть","NAME_2":"Ostrogozhskiyrayon","VARNAME_2":"NA","NL_NAME_2":"Острогожскийрайон","TYPE_2":"Raion","ENGTYPE_2":"District","CC_2":"R27001","HASC_2":"RU.VR.OG"}},{"type":"MultiPolygon","arcs":[[[-12,-26,-84,135,-126,136,137,-50]]],"properties":{"GID_2":"RUS.79.21_1","GID_0":"RUS","COUNTRY":"Russia","GID_1":"RUS.79_1","NAME_1":"Voronezh","NL_NAME_1":"Воронежскаяобласть","NAME_2":"Paninskiyrayon","VARNAME_2":"NA","NL_NAME_2":"Панинскийрайон","TYPE_2":"Raion","ENGTYPE_2":"District","CC_2":"R27002","HASC_2":"RU.VR.PN"}},{"type":"MultiPolygon","arcs":[[[-22,-46,138,139,140,-62,141,142,143,144,145,146,147,148,-99,149]]],"properties":{"GID_2":"RUS.79.22_1","GID_0":"RUS","COUNTRY":"Russia","GID_1":"RUS.79_1","NAME_1":"Voronezh","NL_NAME_1":"Воронежскаяобласть","NAME_2":"Pavlovskiyrayon","VARNAME_2":"NA","NL_NAME_2":"Павловскийрайон","TYPE_2":"Raion","ENGTYPE_2":"District","CC_2":"R27002","HASC_2":"RU.VR.PV"}},{"type":"MultiPolygon","arcs":[[[150,-32,151,-30,152,153,-59]]],"properties":{"GID_2":"RUS.79.23_1","GID_0":"RUS","COUNTRY":"Russia","GID_1":"RUS.79_1","NAME_1":"Voronezh","NL_NAME_1":"Воронежскаяобласть","NAME_2":"Petropavlovskiyrayon","VARNAME_2":"NA","NL_NAME_2":"Петропавловскийрайон","TYPE_2":"Raion","ENGTYPE_2":"District","CC_2":"R27002","HASC_2":"RU.VR.PE"}},{"type":"MultiPolygon","arcs":[[[-72,154,-147,155,156,157,158,-127]]],"properties":{"GID_2":"RUS.79.24_1","GID_0":"RUS","COUNTRY":"Russia","GID_1":"RUS.79_1","NAME_1":"Voronezh","NL_NAME_1":"Воронежскаяобласть","NAME_2":"Podgorenskiyrayon","VARNAME_2":"NA","NL_NAME_2":"Подгоренскийрайон","TYPE_2":"Raion","ENGTYPE_2":"District","CC_2":"R27002","HASC_2":"RU.VR.PD"}},{"type":"MultiPolygon","arcs":[[[159]]],"properties":{"GID_2":"RUS.79.25_1","GID_0":"RUS","COUNTRY":"Russia","GID_1":"RUS.79_1","NAME_1":"Voronezh","NL_NAME_1":"Воронежскаяобласть","NAME_2":"Povorino","VARNAME_2":"NA","NL_NAME_2":"Поворино","TYPE_2":"Gorod","ENGTYPE_2":"City","CC_2":"NA","HASC_2":"RU.VR.PG"}},{"type":"MultiPolygon","arcs":[[[160,-115,161,-35],[-160]]],"properties":{"GID_2":"RUS.79.26_1","GID_0":"RUS","COUNTRY":"Russia","GID_1":"RUS.79_1","NAME_1":"Voronezh","NL_NAME_1":"Воронежскаяобласть","NAME_2":"Povorinskiyrayon","VARNAME_2":"NA","NL_NAME_2":"Поворинскийрайон","TYPE_2":"Raion","ENGTYPE_2":"District","CC_2":"R27002","HASC_2":"RU.VR.PR"}},{"type":"MultiPolygon","arcs":[[[162,163,-122,164,165,166]]],"properties":{"GID_2":"RUS.79.27_1","GID_0":"RUS","COUNTRY":"Russia","GID_1":"RUS.79_1","NAME_1":"Voronezh","NL_NAME_1":"Воронежскаяобласть","NAME_2":"Ramonskiyrayon","VARNAME_2":"NA","NL_NAME_2":"Рамонскийрайон","TYPE_2":"Raion","ENGTYPE_2":"District","CC_2":"R27002","HASC_2":"RU.VR.RA"}},{"type":"MultiPolygon","arcs":[[[167,-109,-90,168,-132]]],"properties":{"GID_2":"RUS.79.28_1","GID_0":"RUS","COUNTRY":"Russia","GID_1":"RUS.79_1","NAME_1":"Voronezh","NL_NAME_1":"Воронежскаяобласть","NAME_2":"Rep'evskiyrayon","VARNAME_2":"NA","NL_NAME_2":"Репьевскийрайон","TYPE_2":"Raion","ENGTYPE_2":"District","CC_2":"R27002","HASC_2":"RU.VR.RE"}},{"type":"MultiPolygon","arcs":[[[169]]],"properties":{"GID_2":"RUS.79.29_1","GID_0":"RUS","COUNTRY":"Russia","GID_1":"RUS.79_1","NAME_1":"Voronezh","NL_NAME_1":"Воронежскаяобласть","NAME_2":"Rossosh'","VARNAME_2":"NA","NL_NAME_2":"Россошь","TYPE_2":"Gorsovet","ENGTYPE_2":"District","CC_2":"NA","HASC_2":"RU.VR.RG"}},{"type":"MultiPolygon","arcs":[[[170,-129,171,-158,172,-144,173,174,175,176,177,-76,178,-74],[-170]]],"properties":{"GID_2":"RUS.79.30_1","GID_0":"RUS","COUNTRY":"Russia","GID_1":"RUS.79_1","NAME_1":"Voronezh","NL_NAME_1":"Воронежскаяобласть","NAME_2":"Rossoshanskiyrayon","VARNAME_2":"NA","NL_NAME_2":"Россошанскийрайон","TYPE_2":"Raion","ENGTYPE_2":"District","CC_2":"R27002","HASC_2":"RU.VR.RR"}},{"type":"MultiPolygon","arcs":[[[179,-166,180,-119,181,-93,182]]],"properties":{"GID_2":"RUS.79.31_1","GID_0":"RUS","COUNTRY":"Russia","GID_1":"RUS.79_1","NAME_1":"Voronezh","NL_NAME_1":"Воронежскаяобласть","NAME_2":"Semilukskiyrayon","VARNAME_2":"NA","NL_NAME_2":"Семилукскийрайон","TYPE_2":"Raion","ENGTYPE_2":"District","CC_2":"R27002","HASC_2":"RU.VR.SE"}},{"type":"MultiPolygon","arcs":[[[-9,183,-7,184,-5,185,-112,186,-40,187,188,-18,189]]],"properties":{"GID_2":"RUS.79.32_1","GID_0":"RUS","COUNTRY":"Russia","GID_1":"RUS.79_1","NAME_1":"Voronezh","NL_NAME_1":"Воронежскаяобласть","NAME_2":"Talovskiyrayon","VARNAME_2":"NA","NL_NAME_2":"Таловскийрайон","TYPE_2":"Raion","ENGTYPE_2":"District","CC_2":"R27002","HASC_2":"RU.VR.TA"}},{"type":"MultiPolygon","arcs":[[[190,-57,191,-15,192,-48]]],"properties":{"GID_2":"RUS.79.33_1","GID_0":"RUS","COUNTRY":"Russia","GID_1":"RUS.79_1","NAME_1":"Voronezh","NL_NAME_1":"Воронежскаяобласть","NAME_2":"Ternovskiyrayon","VARNAME_2":"NA","NL_NAME_2":"Терновскийрайон","TYPE_2":"Raion","ENGTYPE_2":"District","CC_2":"R27003","HASC_2":"RU.VR.TE"}},{"type":"MultiPolygon","arcs":[[[-51,-138,193,-124,194,-163,195]]],"properties":{"GID_2":"RUS.79.34_1","GID_0":"RUS","COUNTRY":"Russia","GID_1":"RUS.79_1","NAME_1":"Voronezh","NL_NAME_1":"Воронежскаяобласть","NAME_2":"Verkhnekhavskiyrayon","VARNAME_2":"NA","NL_NAME_2":"Верхнехавскийрайон","TYPE_2":"Raion","ENGTYPE_2":"District","CC_2":"R27000","HASC_2":"RU.VR.VK"}},{"type":"MultiPolygon","arcs":[[[-29,196,-177,197,-175,198,-142,-61,199,-153]]],"properties":{"GID_2":"RUS.79.35_1","GID_0":"RUS","COUNTRY":"Russia","GID_1":"RUS.79_1","NAME_1":"Voronezh","NL_NAME_1":"Воронежскаяобласть","NAME_2":"Verkhnemamonskiyrayon","VARNAME_2":"NA","NL_NAME_2":"Верхнемамонскийрайон","TYPE_2":"Raion","ENGTYPE_2":"District","CC_2":"R27000","HASC_2":"RU.VR.VM"}},{"type":"MultiPolygon","arcs":[[[-64,200,-140,201,-44,202]]],"properties":{"GID_2":"RUS.79.36_1","GID_0":"RUS","COUNTRY":"Russia","GID_1":"RUS.79_1","NAME_1":"Voronezh","NL_NAME_1":"Воронежскаяобласть","NAME_2":"Vorob'evskiyrayon","VARNAME_2":"NA","NL_NAME_2":"Воробьевскийрайон","TYPE_2":"Raion","ENGTYPE_2":"District","CC_2":"R27000","HASC_2":"RU.VR.VB"}}]}},"arcs":[[[636580,759820],[10837,-20271]],[[647417,739549],[801,-9407],[-1012,-9880]],[[647206,720262],[-10858,-20625],[-2172,-14209],[-6093,-7518]],[[628083,677910],[-24563,6337]],[[603520,684247],[-13282,-7990],[-1244,-14997],[-2446,-3306],[-7021,-1377]],[[579527,656577],[-6810,4998],[-10942,13580]],[[561775,675155],[-5840,14524]],[[555935,689679],[-14274,12910],[-7337,2204]],[[534324,704793],[-7675,-1889],[-40818,-23183],[-4975,-8109],[-2488,-16413]],[[478368,655199],[-28231,6849]],[[450137,662048],[-17985,18932],[-25258,19562]],[[406894,700542],[12988,17280],[2909,9210],[18174,13383],[10605,34283],[11385,7164],[8961,13619],[6262,5471],[16909,6967]],[[495087,807919],[11954,-7007],[10353,-2164],[45435,3699],[6810,-2440],[4638,-7597],[2678,-12595],[4575,-6298],[8560,-5274]],[[590090,768243],[15117,-276],[13051,-8147]],[[618258,759820],[12313,2361]],[[630571,762181],[6009,-2361]],[[450137,662048],[32658,-7951]],[[482795,654097],[4639,-8069],[2256,-13422],[-17141,826],[-4829,-9997],[2952,-7164],[7569,-7164],[759,-19995]],[[479000,589112],[10036,-15154],[3964,-9879]],[[493000,564079],[-5018,-13816]],[[487982,550263],[-17605,-18736],[-4660,-18381],[-6261,-9250],[-16762,-2952],[-11807,4251],[-4617,-12792],[2635,-14603]],[[428905,477800],[-11174,-23459],[-8202,-2086],[-8770,512],[-18259,24561]],[[382500,477328],[-4955,20743]],[[377545,498071],[-780,32315],[-2024,8896],[-11237,20743],[-8581,7045],[-2931,6337],[-4343,30072],[-13093,9840],[-4407,6928]],[[330149,620247],[9952,19680],[5629,2283],[3627,6337],[6072,20389],[8939,14327],[4533,17201],[-991,9053]],[[367910,709517],[5271,197],[9340,12241],[5419,236],[5165,-8463],[13789,-13186]],[[473645,14012],[-11111,42864],[-11217,21609],[401,13619],[-2530,9014]],[[449188,101118],[-8265,14957],[-9066,30465]],[[431857,146540],[16298,12202],[13978,-8305],[11617,2637],[51993,61324]],[[525743,214398],[6472,-2401]],[[532215,211997],[8139,-16138],[9445,-41919]],[[549799,153940],[34978,-46761],[17268,-9407]],[[602045,97772],[-9931,-29245],[-2003,-13619],[-6156,-7793],[-17310,-3425],[-12355,-8895],[-25532,-6534],[-17732,-15547],[-9783,-4763],[-8159,-945],[-19439,7006]],[[828399,716051],[-18364,-3228],[-9635,10785],[10246,19956],[13262,-2834],[4491,-24679]],[[992683,731008],[-13304,-7794],[-9509,-15350],[-6240,-4448],[-6410,3109],[-6557,-4487],[-11912,-17791],[-27029,-11021],[-5630,-6298],[-2488,-8305],[-3942,-4447],[-1181,-7755],[-4912,-3857],[-5208,1614],[-12714,13697],[-5207,20862],[-6874,4565],[-7948,552],[-907,-25073],[-9930,-11848],[-18912,2086],[-9087,4605],[-19313,16729],[-11680,-4881]],[[785789,665472],[6030,10431]],[[791819,675903],[32848,27198],[10015,16256],[11722,32512],[7569,4015],[32659,5117],[11849,13185],[3858,10116],[-5945,15941]],[[896394,800243],[4659,3464],[19988,-11454],[14737,-21491],[11891,-6927],[28906,-7715],[16108,-25112]],[[487982,550263],[3057,6259]],[[491039,556522],[12798,-19563],[10120,-9683],[16972,17870],[7169,-1102],[14168,-9289],[6852,2165],[14274,12320]],[[573392,549240],[26228,7636]],[[599620,556876],[10500,-9447],[3879,-35424],[1729,-38338]],[[615728,473667],[-7295,-6534],[-6051,-1417]],[[602382,465716],[-4322,6259],[-12081,6140],[-10120,-27198],[-18828,-33300],[-8644,-9879],[-8729,-19169],[-12671,-16492]],[[526987,372077],[-12081,-4133],[-10057,394]],[[504849,368338],[-7527,4841],[-13768,16217],[-6936,16256],[1644,7675],[-632,8305],[2319,4802],[-1265,4487],[-19882,41054],[-8202,9171],[-6493,1181],[-15202,-4527]],[[450305,936353],[18828,1653],[27156,-4645],[8686,1496],[19966,-10667],[21611,-1614],[16361,-10627],[18217,1260],[12924,-13226],[1012,-8620],[-2151,-26175],[-3352,-14366],[5018,-7557],[8686,-4291],[5672,-1102],[7948,3976]],[[616887,841848],[10437,-9014],[1497,-15508],[9466,-11375],[-527,-9408],[-3099,-5943],[-11554,-3739],[-3479,-6495],[991,-7793],[-1117,-5708],[-6578,-3385]],[[612924,763480],[-16382,6534],[-6452,-1771]],[[495087,807919],[5039,8108],[14147,4959],[3627,4920],[1222,5983],[-2234,4369],[-20367,2519],[-5566,4291],[-7190,19877],[-10710,9171]],[[473055,872116],[-3268,11926],[-11807,16729],[-7675,35582]],[[791819,675903],[-9551,-21334]],[[782268,654569],[-9614,1299],[-14063,-13028]],[[758591,642840],[-26165,15272],[-17478,17869],[-16150,-354],[-7886,4448],[-34240,28143],[-9466,12044]],[[647206,720262],[211,19287]],[[636580,759820],[3731,-1535]],[[640311,758285],[9446,3857],[5102,17791],[8349,15075],[7316,236],[5145,-2991],[-1518,-7164],[2656,-12871],[7127,-3660],[25658,4881],[6347,4093],[7716,-708],[-253,-7243],[3816,-8462],[9214,-5983],[9045,393],[3647,3661],[654,12438],[8623,-512],[13979,-10666],[19797,1259],[7379,3306],[211,15745],[9867,11808],[5377,10509],[-9066,13265]],[[805945,816342],[19081,708],[15728,-12202],[3985,4802],[-1329,9093],[85,7793],[3521,5235],[8180,787],[19355,-6415],[-2593,-20468],[11996,-14288],[6642,2126],[5798,6730]],[[673286,220814],[-12060,5786],[-14948,17319],[-9424,6297],[-7865,3031],[-17204,-3464],[-4870,2913],[-52878,43257],[-7611,-1731],[-3289,-10116],[-13178,-12792],[-7042,-23499]],[[522917,247815],[-2888,6731]],[[520029,254546],[-443,14721],[-2930,6927],[-10943,9053],[-10036,79],[-5334,4094],[-8960,11139],[-3205,9564]],[[478178,310123],[18701,11730]],[[496879,321853],[43686,48532],[4048,1298]],[[544613,371683],[11469,-10233],[10563,-1614],[15918,3975],[27156,-4093],[8159,1614],[6030,5510],[3163,8266],[274,10116],[6599,16728],[9762,-3621],[5945,1495],[3353,9014],[-3479,14445],[3858,4802],[14991,6377],[7653,16689]],[[676027,451153],[9045,-12438],[4238,-13029],[10268,-16098],[13514,-6613],[7696,-15036],[-7358,-6927],[-11533,-4684],[-3985,-17240],[190,-6613],[7801,-19641],[2846,-18932],[-2045,-13501],[-9846,-27198],[-15834,-26765],[-6093,-8306],[-1645,-17318]],[[207274,355939],[3668,8974],[-6957,8384],[-3121,8227],[1286,7714],[7633,5275],[12123,-6219],[5207,5431],[-1497,6967],[-6831,7951]],[[218785,408643],[7148,4960],[-1392,12280],[2024,6259],[18596,31921],[3542,10195],[-4976,19129]],[[243727,493387],[9087,-13501]],[[252814,479886],[5208,-3385],[44381,4842],[10774,-1969]],[[313177,479374],[37402,-16885]],[[350579,462489],[-13936,-9683],[-11322,-12871]],[[325321,439935],[-17014,-6849],[-2341,-5471],[-1707,-14012],[-3437,-4173],[-20072,-4211],[-13978,-17791],[-23403,-11651],[-3858,-10234],[-7886,-3778]],[[231625,361765],[-5250,2952],[-11385,-8620],[-7716,-158]],[[227704,113831],[20873,-11257],[19607,-6652],[8603,11926],[25996,10470],[3732,9290],[-4808,8816],[-20746,10470],[-3521,4724],[-422,6297],[1814,4133],[12144,1181],[12018,-4369],[7885,1023],[10078,7321]],[[320957,167204],[17267,1654]],[[338224,168858],[15982,-10785],[-2488,-8109],[-2172,-27355],[15644,-2637],[15898,-8817],[50052,9407],[6473,5589]],[[437613,126151],[11575,-25033]],[[473645,14012],[-37086,10943],[-15750,-24247],[-9593,13226],[-2403,7124],[5397,-118],[-9340,2204],[-5229,-5904],[-9719,1338],[-21949,-3778],[-2804,-8817],[-6430,-5983],[-11322,3897],[-13662,-433],[-12187,15626],[-3626,2834],[-4069,-1732],[-10858,8305],[-1286,7203],[-1919,197],[-2551,14406],[-5102,7557],[632,7046],[-1919,118],[4491,6455],[-13367,1023],[-20303,8069],[-17795,-10037],[-21716,11573],[-7864,21018],[7716,8384],[5672,2322]],[[330149,620247],[-8665,23380],[-5229,7400],[-17394,14091],[-7885,944],[-12882,-8383],[-25364,19326],[-7717,275],[-9593,-5983]],[[235420,671297],[-14442,8148]],[[220978,679445],[-10521,-39],[-3162,7990],[506,5786],[15433,21688],[-5123,17751],[2235,7636],[-127,7007]],[[220219,747264],[23361,-7203]],[[243580,740061],[61016,-3228],[44550,-6101],[14358,-5983]],[[363504,724749],[3479,-7478],[927,-7754]],[[220978,679445],[4238,-3739]],[[225216,675706],[822,-5353],[-32047,-36763]],[[193991,633590],[-7885,11257]],[[186106,644847],[-29370,2244]],[[156736,647091],[-169,8502]],[[156567,655593],[-10563,11690],[-14674,944],[-8813,3818],[-27430,23420]],[[95087,695465],[-1286,15784],[-7569,18224],[-2930,18499],[3373,5826],[11744,7399],[232,7754],[-7949,11258],[-2319,6848],[4997,23223]],[[93380,810280],[-1582,6770]],[[91798,817050],[9256,5038],[11659,14013],[14801,-9486],[443,-15666],[17900,-16177],[13915,-25584],[4196,1889],[2825,13343],[6367,6652]],[[173160,791072],[20873,-5353]],[[194033,785719],[7358,-7282],[-3963,-10194],[2382,-14367]],[[199810,753876],[20409,-6612]],[[304765,573407],[1918,-16649],[-35758,4920],[3100,20940],[19144,944],[11596,-10155]],[[377545,498071],[5377,-28812]],[[382922,469259],[-9846,-13265],[-6199,-1220]],[[366877,454774],[-53700,24600]],[[313177,479374],[-22560,2559],[-28188,-5668],[-9615,3621]],[[243727,493387],[10352,15469],[-10499,2322],[-822,5235],[5713,17122],[7274,6298],[2867,8344]],[[258612,548177],[-3289,14918]],[[255323,563095],[-9719,11532],[-23171,-13855],[-1371,5157],[14506,22002],[-2256,22160],[-10479,4842],[-14421,354]],[[208412,615287],[-14421,18303]],[[225216,675706],[10204,-4409]],[[70462,664331],[-30045,6533],[-7084,5550],[6831,18264],[717,11887],[-9656,32512],[1434,15390],[-9931,33181],[-9108,14170],[-13430,14721],[-190,7124],[53721,15626],[16825,-13422],[12186,9722]],[[82732,835589],[6030,-10037],[4618,-15272]],[[95087,695465],[-15285,-16650],[-1118,-6455],[-8222,-8029]],[[804532,629929],[-21231,-9643],[-14843,-30387],[-3205,-23931],[-4512,-8384],[-9150,-8895],[-16382,-4802],[-7843,-11218],[-6452,984],[-3837,3857],[-5819,-2519],[-16150,-17870],[-865,-17594],[-1960,-7478],[-12208,511],[-15876,-12202],[-20261,552],[-28210,-7243]],[[599620,556876],[23044,20743]],[[622664,577619],[7485,10667],[5482,13697],[-338,22672],[2889,7675],[2825,5983],[11997,6259],[2635,7045],[-63,6809],[-11217,11494]],[[644359,669920],[-16276,7990]],[[758591,642840],[17541,14484],[6136,-2755]],[[782268,654569],[22264,-24640]],[[327683,734314],[-84103,5747]],[[243580,740061],[-40924,11257],[-2846,2558]],[[194033,785719],[-13557,4487]],[[180476,790206],[5587,9368],[-2002,52153]],[[184061,851727],[1918,7872],[5398,10234]],[[191377,869833],[19101,-5904],[17437,1692],[9087,9919]],[[237002,875540],[3373,15390]],[[240375,890930],[9952,591],[19481,-4763],[18111,2244]],[[287919,889002],[2087,-9998],[4702,-7597],[9255,-6179],[7696,-1220],[20409,16571],[7274,-1929],[4406,-6495],[106,-7911],[-3774,-13147],[400,-6219],[7822,-6612],[4997,-13107]],[[353299,825159],[-13219,-22042]],[[340080,803117],[-2130,-18343],[-10267,-50460]],[[231625,361765],[12334,-20350],[22138,-10627]],[[266097,330788],[10057,-19012]],[[276154,311776],[-2382,-17909],[8686,-47469],[-3500,-6888],[-16656,-11021],[-8180,-12162],[-17057,-15745]],[[237065,200582],[-18512,17870],[-4701,24364],[-21,11651],[-1223,12320],[-7126,19680],[6789,19130],[-9045,9131],[-5630,13659],[-2340,12556],[3985,8029],[8033,6967]],[[218785,408643],[-5650,3582],[-19545,2834],[-13767,24246],[-9024,-4605],[-6304,3582],[-17310,26332],[1012,5156],[3648,3818],[-1350,8896],[-14421,7085],[-7653,7439],[6051,32473],[7210,708],[9256,-9289],[5018,118],[7211,10667],[-3142,7990],[-6198,5707]],[[153827,545382],[10352,10825],[3668,7793],[-3162,13147],[5292,31646],[-2699,11021],[-4575,6415],[-9340,5865]],[[153363,632094],[3373,14997]],[[186106,644847],[22306,-29560]],[[255323,563095],[2277,-6101],[1012,-8817]],[[363504,724749],[-4533,3189],[-31288,6376]],[[340080,803117],[19755,32708]],[[359835,835825],[7569,6652],[15813,6849],[6894,9486],[6536,1771],[17436,-12202],[10732,3622],[6536,7872],[8349,1810],[8623,-2834],[15413,10943],[9319,2322]],[[504849,368338],[24077,-512]],[[528926,367826],[190,-8817]],[[529116,359009],[-32237,-37156]],[[478178,310123],[-22096,-32118],[-13936,-15311],[-25279,-22515],[-12419,-6770]],[[404448,233409],[2109,11612]],[[406557,245021],[-2003,12005],[-16403,16374]],[[388151,273400],[-5314,511]],[[382837,273911],[6853,13540],[5608,17831],[8560,15390],[2256,7990]],[[406114,328662],[-865,6534],[-25110,28025],[-8244,19129],[-12545,13462],[-19650,45973],[-7527,4959]],[[332173,446744],[8286,9368],[10120,6377]],[[350579,462489],[16298,-7715]],[[382922,469259],[-422,8069]],[[673286,220814],[3057,-13422],[-10120,-20389],[-14758,-16020],[-13705,-5235],[-13978,-16886],[-8729,-14170],[-8159,-28969],[-4849,-7951]],[[549799,153940],[-12587,50657],[-4997,7400]],[[525743,214398],[63,8463],[2614,6809],[-527,8817]],[[527893,238487],[-4976,9328]],[[325321,439935],[6852,6809]],[[406114,328662],[-23277,-54751]],[[382837,273911],[-19122,-196]],[[363715,273715],[-18870,19444],[-28948,-5944],[-16171,9762],[-13599,2125]],[[286127,299102],[-6389,5944],[-13641,25742]],[[853214,643784],[-1475,1496],[1307,1299],[168,-2795]],[[992683,731008],[3858,-10746],[-2361,-34283],[5819,-11139],[-443,-8620],[-12270,-6928],[-20684,-551],[-9066,-5038],[-5039,-7557],[-3225,-9998],[-4807,-5471],[-15476,-3660],[-24710,2440],[-22096,-12162],[-23107,-1772],[-54544,14406]],[[782268,654569],[3521,10903]],[[286295,978390],[-10373,-18775],[-1855,-14406],[-2783,-5156],[-6599,-3858],[-3880,-11690],[6663,-10706],[19987,-6219],[6557,-5589],[1286,-4881]],[[295298,897110],[-3141,-5550],[-12039,-4369],[-39743,3739]],[[237002,875540],[-3711,-5235],[-13177,-7045],[-28737,6573]],[[191377,869833],[-2277,12399],[-3817,7596],[-2108,24994],[-6283,13737],[-10689,-905],[-1750,-7361],[-16635,10628],[-1265,-8108],[1581,-7282],[-2361,-3582],[-7506,6770],[-907,9683],[1307,9446],[-1370,3346],[-15075,2598],[2762,13383],[-10204,8777],[6725,7597],[2720,8974],[-4786,11257]],[[119439,993780],[8096,-4133],[10922,10076],[16403,-6927],[12692,-28182],[8686,-9683],[11934,-4920],[8876,0],[4533,6809],[1413,29363],[3837,6180],[6262,2991],[18574,-5038],[5208,3346],[22539,-1417],[23255,-10194],[3626,-3661]],[[153827,545382],[-6178,5668],[7084,19405],[-2235,8778],[-9319,6534],[-5292,10273],[-4680,3542],[-8413,-4408],[-19333,-24010],[-8624,748],[-37761,17712],[-4258,8148],[-802,9564],[2467,9644],[5398,6179],[7400,1653],[5861,5472],[3142,9249],[-1919,9998],[-5903,14800]],[[156567,655593],[738,-5275],[-3942,-18224]],[[305292,257065],[4870,-14445],[-27092,12871],[-1793,6376],[15370,-512],[8645,-4290]],[[227704,113831],[5081,31725],[4934,13973],[7421,10982],[-1982,20231],[-6093,9840]],[[276154,311776],[9973,-12674]],[[363715,273715],[24436,-315]],[[406557,245021],[-5292,-33024]],[[401265,211997],[1707,-16295]],[[402972,195702],[6579,-15272]],[[409551,180430],[19755,-23656]],[[429306,156774],[8307,-30623]],[[338224,168858],[-7569,433],[-9698,-2087]],[[82732,835589],[8792,13776],[-3942,6259],[-18723,3660],[-6072,7636],[4660,27789],[-9003,25545],[-5925,9722],[-19312,5196],[-6051,8777],[34935,28183],[10163,4014],[24478,-8502],[8454,8109],[2488,9643],[-1433,9565],[3120,5038],[10078,-6219]],[[191377,869833],[-7316,-18106]],[[180476,790206],[-7316,866]],[[91798,817050],[-9066,18539]],[[534324,704793],[15770,-8738],[5841,-6376]],[[561775,675155],[5039,-7124],[12713,-11454]],[[603520,684247],[9741,-708],[31098,-13619]],[[622664,577619],[-17836,-17279],[-31436,-11100]],[[491039,556522],[1961,7557]],[[493000,564079],[-1455,4054],[-12545,20979]],[[482795,654097],[-4427,1102]],[[616887,841848],[23424,5707],[16678,-2519],[6030,3385],[5144,16689],[6768,4487],[25237,-9801],[29348,-945],[30319,-22435],[20050,7833],[7211,-6377],[7464,-14603],[5502,-5904],[5883,-1023]],[[640311,758285],[-9740,3896]],[[618258,759820],[-5334,3660]],[[359835,835825],[-6536,-10666]],[[287919,889002],[7379,8108]],[[286295,978390],[85,-29875],[4996,-7439],[36096,-16846],[5777,-1378],[12291,3975],[13136,-6140],[6704,2519],[7105,16138],[6072,2716],[6663,-6101],[9171,-433],[18617,5904],[37297,-5077]],[[431857,146540],[-2551,10234]],[[409551,180430],[-3732,7951],[-2847,7321]],[[401265,211997],[3183,21412]],[[520029,254546],[7864,-16059]],[[544613,371683],[-15497,-12674]],[[528926,367826],[-7505,1693],[5566,2558]],[[602382,465716],[22391,11494],[28905,4408],[-6156,-11296],[28505,-19169]]],"bbox":[38.2116,49.5608,42.9546,52.1014],"transform":{"scale":[0.000004743004743004745,0.0000025406025406025383],"translate":[38.2116,49.5608]}}