{"type":"Topology","objects":{"muni":{"type":"GeometryCollection","geometries":[{"type":"MultiPolygon","arcs":[[[0,1,2,3,4,5,6,7]]],"properties":{"GID_2":"RUS.81.1_1","GID_0":"RUS","COUNTRY":"Russia","GID_1":"RUS.81_1","NAME_1":"Yaroslavl'","NL_NAME_1":"Ярославскаяобласть","NAME_2":"Bol'shesel'skiyrayon","VARNAME_2":"NA","NL_NAME_2":"Большесельскийрайон","TYPE_2":"Raion","ENGTYPE_2":"District","CC_2":"R20000","HASC_2":"RU.YS.BS"}},{"type":"MultiPolygon","arcs":[[[-1,8,9,10,11,12,13]]],"properties":{"GID_2":"RUS.81.2_1","GID_0":"RUS","COUNTRY":"Russia","GID_1":"RUS.81_1","NAME_1":"Yaroslavl'","NL_NAME_1":"Ярославскаяобласть","NAME_2":"Borisoglebskiyrayon","VARNAME_2":"NA","NL_NAME_2":"Борисоглебскийрайон","TYPE_2":"Raion","ENGTYPE_2":"District","CC_2":"R20000","HASC_2":"RU.YS.BG"}},{"type":"MultiPolygon","arcs":[[[14,15,16,17]],[[18,19]]],"properties":{"GID_2":"RUS.81.3_1","GID_0":"RUS","COUNTRY":"Russia","GID_1":"RUS.81_1","NAME_1":"Yaroslavl'","NL_NAME_1":"Ярославскаяобласть","NAME_2":"Breytovskiyrayon","VARNAME_2":"NA","NL_NAME_2":"Брейтовскийрайон","TYPE_2":"Raion","ENGTYPE_2":"District","CC_2":"R20000","HASC_2":"RU.YS.BR"}},{"type":"MultiPolygon","arcs":[[[20,21,22,23,24,25,26,27,28,29,30,31]]],"properties":{"GID_2":"RUS.81.4_1","GID_0":"RUS","COUNTRY":"Russia","GID_1":"RUS.81_1","NAME_1":"Yaroslavl'","NL_NAME_1":"Ярославскаяобласть","NAME_2":"Danilovskiyrayon","VARNAME_2":"NA","NL_NAME_2":"Даниловскийрайон","TYPE_2":"Raion","ENGTYPE_2":"District","CC_2":"R20000","HASC_2":"RU.YS.DA"}},{"type":"MultiPolygon","arcs":[[[32,-10,33,34,35]]],"properties":{"GID_2":"RUS.81.5_1","GID_0":"RUS","COUNTRY":"Russia","GID_1":"RUS.81_1","NAME_1":"Yaroslavl'","NL_NAME_1":"Ярославскаяобласть","NAME_2":"Gavrilov-Yamskiyrayon","VARNAME_2":"NA","NL_NAME_2":"Гаврилов-Ямскийрайон","TYPE_2":"Raion","ENGTYPE_2":"District","CC_2":"R20000","HASC_2":"RU.YS.GA"}},{"type":"MultiPolygon","arcs":[[[-32,36,37]]],"properties":{"GID_2":"RUS.81.6_1","GID_0":"RUS","COUNTRY":"Russia","GID_1":"RUS.81_1","NAME_1":"Yaroslavl'","NL_NAME_1":"Ярославскаяобласть","NAME_2":"Lyubimskiyrayon","VARNAME_2":"NA","NL_NAME_2":"Любимскийрайон","TYPE_2":"Raion","ENGTYPE_2":"District","CC_2":"R20000","HASC_2":"RU.YS.LY"}},{"type":"MultiPolygon","arcs":[[[38,39,40,41,-3,42]]],"properties":{"GID_2":"RUS.81.7_1","GID_0":"RUS","COUNTRY":"Russia","GID_1":"RUS.81_1","NAME_1":"Yaroslavl'","NL_NAME_1":"Ярославскаяобласть","NAME_2":"Myshkinskiyrayon","VARNAME_2":"NA","NL_NAME_2":"Мышкинскийрайон","TYPE_2":"Raion","ENGTYPE_2":"District","CC_2":"R20000","HASC_2":"RU.YS.MY"}},{"type":"MultiPolygon","arcs":[[[-17,43,44,45,-40,46]]],"properties":{"GID_2":"RUS.81.8_1","GID_0":"RUS","COUNTRY":"Russia","GID_1":"RUS.81_1","NAME_1":"Yaroslavl'","NL_NAME_1":"Ярославскаяобласть","NAME_2":"Nekouzskiyrayon","VARNAME_2":"NA","NL_NAME_2":"Некоузскийрайон","TYPE_2":"Raion","ENGTYPE_2":"District","CC_2":"R20000","HASC_2":"RU.YS.NU"}},{"type":"MultiPolygon","arcs":[[[47,-35,48,49,-22]]],"properties":{"GID_2":"RUS.81.9_1","GID_0":"RUS","COUNTRY":"Russia","GID_1":"RUS.81_1","NAME_1":"Yaroslavl'","NL_NAME_1":"Ярославскаяобласть","NAME_2":"Nekrasovskiyrayon","VARNAME_2":"NA","NL_NAME_2":"Некрасовскийрайон","TYPE_2":"Raion","ENGTYPE_2":"District","CC_2":"R20000","HASC_2":"RU.YS.NS"}},{"type":"MultiPolygon","arcs":[[[50,-13,51,52,53]]],"properties":{"GID_2":"RUS.81.10_1","GID_0":"RUS","COUNTRY":"Russia","GID_1":"RUS.81_1","NAME_1":"Yaroslavl'","NL_NAME_1":"Ярославскаяобласть","NAME_2":"Pereslavskiyrayon","VARNAME_2":"NA","NL_NAME_2":"Переславскийрайон","TYPE_2":"Raion","ENGTYPE_2":"District","CC_2":"R20001","HASC_2":"RU.YS.PR"}},{"type":"MultiPolygon","arcs":[[[54,-37,-31,55,-29,56,57]]],"properties":{"GID_2":"RUS.81.11_1","GID_0":"RUS","COUNTRY":"Russia","GID_1":"RUS.81_1","NAME_1":"Yaroslavl'","NL_NAME_1":"Ярославскаяобласть","NAME_2":"Pervomayskiyrayon","VARNAME_2":"NA","NL_NAME_2":"Первомайскийрайон","TYPE_2":"Raion","ENGTYPE_2":"District","CC_2":"R20001","HASC_2":"RU.YS.PE"}},{"type":"MultiPolygon","arcs":[[[-58,58,-27,59,60,61,62]]],"properties":{"GID_2":"RUS.81.12_1","GID_0":"RUS","COUNTRY":"Russia","GID_1":"RUS.81_1","NAME_1":"Yaroslavl'","NL_NAME_1":"Ярославскаяобласть","NAME_2":"Poshekhonskiyrayon","VARNAME_2":"NA","NL_NAME_2":"Пошехонскийрайон","TYPE_2":"Raion","ENGTYPE_2":"District","CC_2":"R20001","HASC_2":"RU.YS.PO"}},{"type":"MultiPolygon","arcs":[[[63]]],"properties":{"GID_2":"RUS.81.13_1","GID_0":"RUS","COUNTRY":"Russia","GID_1":"RUS.81_1","NAME_1":"Yaroslavl'","NL_NAME_1":"Ярославскаяобласть","NAME_2":"Rostov","VARNAME_2":"NA","NL_NAME_2":"Ростов","TYPE_2":"Gorod","ENGTYPE_2":"City","CC_2":"NA","HASC_2":"RU.YS.RS"}},{"type":"MultiPolygon","arcs":[[[64,-53,65,-11,-33],[-64]]],"properties":{"GID_2":"RUS.81.14_1","GID_0":"RUS","COUNTRY":"Russia","GID_1":"RUS.81_1","NAME_1":"Yaroslavl'","NL_NAME_1":"Ярославскаяобласть","NAME_2":"Rostovskiyrayon","VARNAME_2":"NA","NL_NAME_2":"Ростовскийрайон","TYPE_2":"Raion","ENGTYPE_2":"District","CC_2":"R20001","HASC_2":"RU.YS.RO"}},{"type":"MultiPolygon","arcs":[[[66]]],"properties":{"GID_2":"RUS.81.15_1","GID_0":"RUS","COUNTRY":"Russia","GID_1":"RUS.81_1","NAME_1":"Yaroslavl'","NL_NAME_1":"Ярославскаяобласть","NAME_2":"Rybinsk","VARNAME_2":"NA","NL_NAME_2":"Рыбинск","TYPE_2":"Gorod","ENGTYPE_2":"City","CC_2":"NA","HASC_2":"RU.YS.RG"}},{"type":"MultiPolygon","arcs":[[[-5,67,-41,-46,68,69,-61,70],[-67]]],"properties":{"GID_2":"RUS.81.16_1","GID_0":"RUS","COUNTRY":"Russia","GID_1":"RUS.81_1","NAME_1":"Yaroslavl'","NL_NAME_1":"Ярославскаяобласть","NAME_2":"Rybinskiyrayon","VARNAME_2":"NA","NL_NAME_2":"Рыбинскийрайон","TYPE_2":"Raion","ENGTYPE_2":"District","CC_2":"R20001","HASC_2":"RU.YS.RR"}},{"type":"MultiPolygon","arcs":[[[71]]],"properties":{"GID_2":"RUS.81.17_1","GID_0":"RUS","COUNTRY":"Russia","GID_1":"RUS.81_1","NAME_1":"Yaroslavl'","NL_NAME_1":"Ярославскаяобласть","NAME_2":"Tutaev","VARNAME_2":"Tufayev","NL_NAME_2":"Тутаев","TYPE_2":"Gorod","ENGTYPE_2":"City","CC_2":"NA","HASC_2":"RU.YS.TG"}},{"type":"MultiPolygon","arcs":[[[-6,-71,72,-25,73,74],[-72]]],"properties":{"GID_2":"RUS.81.18_1","GID_0":"RUS","COUNTRY":"Russia","GID_1":"RUS.81_1","NAME_1":"Yaroslavl'","NL_NAME_1":"Ярославскаяобласть","NAME_2":"Tutaevskiyrayon","VARNAME_2":"NA","NL_NAME_2":"Тутаевскийрайон","TYPE_2":"Raion","ENGTYPE_2":"District","CC_2":"R20001","HASC_2":"RU.YS.TR"}},{"type":"MultiPolygon","arcs":[[[75]]],"properties":{"GID_2":"RUS.81.19_1","GID_0":"RUS","COUNTRY":"Russia","GID_1":"RUS.81_1","NAME_1":"Yaroslavl'","NL_NAME_1":"Ярославскаяобласть","NAME_2":"Uglich","VARNAME_2":"NA","NL_NAME_2":"Углич","TYPE_2":"Gorod","ENGTYPE_2":"City","CC_2":"NA","HASC_2":"RU.YS.UG"}},{"type":"MultiPolygon","arcs":[[[76,-43,-2,-14,-51],[-76]]],"properties":{"GID_2":"RUS.81.20_1","GID_0":"RUS","COUNTRY":"Russia","GID_1":"RUS.81_1","NAME_1":"Yaroslavl'","NL_NAME_1":"Ярославскаяобласть","NAME_2":"Uglichskiyrayon","VARNAME_2":"NA","NL_NAME_2":"Угличскийрайон","TYPE_2":"Raion","ENGTYPE_2":"District","CC_2":"R20001","HASC_2":"RU.YS.UR"}},{"type":"MultiPolygon","arcs":[[[77,-19,78,-62,-70,79,-44,80,-15]]],"properties":{"GID_2":"RUS.81.21_1","GID_0":"RUS","COUNTRY":"Russia","GID_1":"RUS.81_1","NAME_1":"Yaroslavl'","NL_NAME_1":"Ярославскаяобласть","NAME_2":"Waterbody","VARNAME_2":"NA","NL_NAME_2":"NA","TYPE_2":"Waterbody","ENGTYPE_2":"Waterbody","CC_2":"NA","HASC_2":"NA"}},{"type":"MultiPolygon","arcs":[[[81]]],"properties":{"GID_2":"RUS.81.22_1","GID_0":"RUS","COUNTRY":"Russia","GID_1":"RUS.81_1","NAME_1":"Yaroslavl'","NL_NAME_1":"Ярославскаяобласть","NAME_2":"Yaroslavl'","VARNAME_2":"Yaroslavl","NL_NAME_2":"Ярославль","TYPE_2":"Gorod","ENGTYPE_2":"City","CC_2":"NA","HASC_2":"RU.YS.YG"}},{"type":"MultiPolygon","arcs":[[[-8,82,-74,-24,83,-49,-34,-9],[-82]]],"properties":{"GID_2":"RUS.81.23_1","GID_0":"RUS","COUNTRY":"Russia","GID_1":"RUS.81_1","NAME_1":"Yaroslavl'","NL_NAME_1":"Ярославскаяобласть","NAME_2":"Yaroslavskiyrayon","VARNAME_2":"NA","NL_NAME_2":"Ярославскийрайон","TYPE_2":"Raion","ENGTYPE_2":"District","CC_2":"R20001","HASC_2":"RU.YS.YR"}}]}},"arcs":[[[493996,428160],[-16312,3826],[-61746,-16376],[-19605,-15265]],[[396333,400345],[-17298,17857],[3424,23412],[-9336,14442],[-15301,16335],[-19812,15676]],[[338010,488067],[-3164,17899],[8661,9916]],[[343507,515882],[6198,20737]],[[349705,536619],[-726,9546],[5757,7282],[7287,3374],[10244,42],[19450,-13949],[10891,-206],[28449,9258],[37680,-14524],[15275,3456]],[[484012,540898],[22743,-15841],[17634,-5184],[13356,-9711],[7157,-11726],[-933,-8353],[-14367,-21148]],[[529602,468935],[-23443,0]],[[506159,468935],[8376,-24976],[-4720,-7735],[-15819,-8064]],[[493996,428160],[9829,-15307],[5964,-16663],[22328,-21355]],[[532117,374835],[4357,-12344]],[[536474,362491],[2204,-31064],[-9517,-14154],[-10321,1687],[-4850,-19339],[-33479,-52255],[-15119,-5760],[-23755,4279],[-12344,-3168],[-3682,-12056],[-5991,-6912],[-25180,1851],[-11437,-2633]],[[383003,222967],[-7676,-12097]],[[375327,210870],[-35787,23700]],[[339540,234570],[7287,11439],[129,21354],[4642,37689],[14912,5637],[3086,47441],[20824,12056],[4849,8023],[1064,22136]],[[79044,781599],[6379,-11932],[13330,-5596],[10736,-9628],[1115,-7859],[20383,-15100],[5991,-7489],[12499,-30242],[5576,21602],[3656,3497],[34413,-14236],[26,-5719],[19424,-8024],[597,11974],[7676,-3210],[21317,-18680]],[[242162,680957],[1296,-6542],[-907,-5513]],[[242551,668902],[-60839,-24317],[-23288,-20491],[-24066,13043],[-19760,1235]],[[114598,638372],[-19217,-8312],[-5264,9052],[-20824,19997],[-7210,13660],[-8428,-1481],[-10166,4814],[-13796,-2469],[-8117,9793],[-1841,10615],[-19735,4362],[28682,20326],[5031,7941],[-16519,15594],[16908,20449],[14782,-3909],[10632,12714],[13848,-1892],[5680,11973]],[[189129,861997],[5886,-6912],[2438,-9052],[-1737,-5761],[-16208,2675],[-571,-5761],[7676,-4073],[3786,-6789],[-933,-5843],[10944,-11685],[-104,-4896],[-6898,-617],[-22303,13043],[-18905,-1276],[-5861,9999],[-25155,17404],[-5757,10657],[-5471,1810],[1244,-9011],[-7339,-6460],[-7468,4115]],[[96393,843564],[-3994,11397],[5861,11768],[1322,2674],[42842,-9545],[-3190,-8024],[13252,-7283],[9024,16459],[27619,987]],[[884260,585623],[-39003,-24769]],[[845257,560854],[-113949,-5308]],[[731308,555546],[4668,7694]],[[735976,563240],[-5990,10286],[-14134,7983],[-22354,-3662],[-16623,-7530]],[[676875,570317],[-11307,23124],[3864,13825],[-58090,49745],[-18568,8064],[-1141,16993],[-3526,6583]],[[588107,688651],[-7339,4485]],[[580768,693136],[24273,25510],[311,9546],[3786,9011],[-5109,10945],[6847,28555],[3086,1563],[-623,3662]],[[613339,781928],[-5368,1399],[20280,2386]],[[628251,785713],[14055,-3908],[37992,-32011],[34102,-12673]],[[714400,737121],[29615,576],[48313,-6584]],[[792328,731113],[17868,-7529]],[[810196,723584],[3994,-16993],[18101,-24235],[3916,-9175],[-6847,-12509],[-7416,-6295],[-2879,-8311],[4461,-7653],[47612,-33246],[13122,-19544]],[[661860,258640],[-39781,29090],[-4253,11644],[-804,13619],[-10062,9011],[-20383,-3209],[-9129,5760],[6872,13990],[-47846,23946]],[[532117,374835],[1038,16252],[4590,17570],[5057,8846],[9336,-5102],[9102,-24070],[25829,6583],[13226,-5308],[28085,-26251],[18594,13620],[32572,-1770],[11566,-17980],[13485,3826],[8817,-6377],[-9647,-14483],[4305,-5102],[27956,10944]],[[736028,346033],[16026,823],[28423,-6377]],[[780477,340479],[30367,-23371],[2931,-7077],[-21058,-10369],[-12681,5884],[-13952,-6665],[-20253,8846],[-16157,-2963],[26322,-13619],[-6198,-9216],[-7105,3415],[-4642,-4403],[2697,-8023],[-2386,-4773],[-12941,-1893],[-9932,8888],[-8273,6254],[-23054,-11686],[-7702,-10245],[-14600,-823]],[[810196,723584],[9258,34027],[21239,2716],[-2308,7529],[-14081,17611],[-3450,15676],[3061,9710],[26192,1646],[-7469,21725]],[[842638,834224],[46109,329],[13459,-4485],[-182,-13742],[6950,5884],[28138,-535],[28967,-11727],[7002,-33410],[10762,-14031],[16156,-14565],[-18827,-20614],[-26218,-7077],[-11463,-11768],[493,-8681],[-13330,-13331],[-18179,-8476],[10659,-22466],[-17531,-12796],[-24273,-12467],[596,-11027],[6536,-15347],[-4202,-18269]],[[122559,439845],[-8636,7571],[-15430,6213],[-11177,22424]],[[87316,476053],[18776,22753],[-338,17816],[12370,3415],[21317,-3908],[9440,-6008],[12033,494],[11306,12467],[8818,19585],[12473,7036],[42686,-6583],[12759,5555],[6172,8887],[-5031,20655],[6354,1564],[17530,-4238],[12241,5102]],[[286222,580645],[15870,-8970],[19813,-25716],[25285,-19421]],[[347190,526538],[-3683,-10656]],[[338010,488067],[-42427,-27773],[-17686,-15512],[-37291,29995],[-20876,9711],[-9440,-2222],[-4123,-9628],[7780,-14401],[-104,-6378],[-11488,-3867],[-55367,6007],[-24429,-14154]],[[242551,668902],[-6276,-9258],[-545,-8147],[1452,-8599],[5161,-5061],[-3760,-9834],[6120,-10451],[-3890,-23041],[4746,-535],[7468,9381],[28942,-11192],[2904,617],[2412,5514]],[[287285,598296],[4486,-7488]],[[291771,590808],[-5549,-10163]],[[87316,476053],[-4434,11685],[-19865,19297],[-43645,8600],[-6924,6748],[3060,10574],[17323,12714],[-15534,411],[-570,13743],[37084,123],[-15741,11974],[-34621,-2634],[2645,14977],[7521,7900],[41726,7571],[10217,26950],[23210,412],[25830,11274]],[[845257,560854],[4824,-16253],[15352,-25181],[-18412,-23124],[-4513,-15306],[21758,-33657],[-7676,-12302],[-18438,8394],[-6354,-12550],[-11773,9381],[2904,-19708],[-20746,-4609],[5290,-17898],[-15637,-7694],[8220,-32793],[-10580,-1029],[10399,-13948],[-3553,-13660],[-15845,11562]],[[736028,346033],[5990,13537],[20150,19668],[5394,26209],[3216,33657],[-12655,14195],[-18361,-2304],[-5887,12508],[11359,13578],[-4279,46906],[-16104,13208]],[[724851,537195],[6457,18351]],[[245896,233953],[8636,18063],[6509,7118],[570,10163],[16416,13701],[11151,-3538],[-1323,-10245],[8117,-7571],[28060,2798],[6872,-6583],[-493,-13167],[9129,-10122]],[[375327,210870],[-6639,-13824]],[[368688,197046],[3735,-7201],[18023,-14236],[59542,-27938],[22873,-18063],[30445,-41721],[22977,-16417]],[[526283,71470],[-8818,-6460],[2464,-22466],[8558,-617],[-7287,-20490],[-9855,-2592],[3838,-13290],[-18282,-5555],[-5965,8229],[-13304,1893],[-1452,7077],[-14782,5842],[-13329,-14771],[-37395,-494],[-21188,21067],[-20953,2962],[-8584,-11808],[-18127,2345],[-14990,-15183],[-16908,4691],[-3604,30530],[-28501,23124],[-28578,28966],[-13096,17734],[-12370,-1523],[78,19956],[-9881,8147],[13797,22095],[-726,7817],[-22277,9670],[9051,4772],[26659,5144],[9803,12343],[-4331,14525],[-11229,14812],[11177,3991]],[[604263,953052],[9206,-12755],[29460,6131],[6327,-7818],[-4771,-7283],[9258,-10245],[12733,-3086],[36825,-34685],[16571,-5720],[3112,-12384],[-15690,-3457],[7858,-14318],[16934,-1687],[5031,-10986],[30731,-12714],[9284,10615],[27074,-13495],[14755,16129],[11566,-8847],[12111,7777]],[[792328,731113],[-22043,3992],[-55885,2016]],[[628251,785713],[-42219,-6583]],[[586032,779130],[-3345,7571],[1556,7283],[-1556,10533],[-8143,13784],[-16831,5842],[-15585,1276],[-7443,18515],[6768,18927],[-2826,23865],[16078,5060],[-3475,18475],[9621,16623],[43412,26168]],[[586032,779130],[27307,2798]],[[580768,693136],[-17687,1605]],[[563081,694741],[-2541,10615],[-7858,8188],[-15274,-2427],[-16182,-20326],[-6899,658],[-15559,19791],[-14704,7448],[-9699,-3374],[-15690,6377]],[[458675,721691],[-7883,11644],[-28967,26416],[-2049,10039],[7287,9381],[47613,23042],[-56300,-4567],[-16960,3332],[-32209,12632],[-35450,25140]],[[333757,838750],[-47587,58221],[30030,7735],[1660,15101],[32390,-1729],[-1478,-8393],[13303,-2798],[19606,8147],[21965,-9916],[14341,9957],[-4824,12261],[15145,22712],[2282,13661],[-4201,10451],[-10166,12631],[13356,13208],[21394,-14401],[14030,12179],[21369,-13701],[20746,2222],[54744,-22548],[19839,1358],[14626,5760],[9751,-8805],[-1815,-9011]],[[540234,263084],[-12525,-9628],[-21006,3991],[3838,16993],[34335,20203],[-4642,-31559]],[[661860,258640],[-7806,-15224],[-16856,-13331],[-6587,5637],[-37759,-19503],[1478,-12343],[-14289,288],[-15430,-14072],[20617,-18269],[-2282,-6706],[-13667,452],[-6431,-13084],[-10840,1728],[-6146,-6542],[8558,-8641],[-8610,-12713],[-13615,205],[6380,-31558],[-11229,-9916],[-1063,-13578]],[[368688,197046],[14315,25921]],[[386815,597514],[-4590,-1522],[-3527,3415],[3631,4361],[5783,-2263],[-1297,-3991]],[[349705,536619],[-2515,-10081]],[[291771,590808],[-36461,42667]],[[255310,633475],[13070,15018],[22639,-3538],[7547,5843],[22483,-25099],[17142,16540],[6068,-5513],[2853,5472],[-3994,16047],[312,9793],[-16001,21107],[-389,5061],[9232,-2962],[22588,-23577],[18931,-33574],[3501,-4444],[5134,864],[-3812,41968],[-5549,23659],[9906,27238],[14989,16829],[10114,3703],[15197,-6008],[21705,-15676],[9699,-535]],[[563081,694741],[-14600,-16829],[-4279,-15223],[-959,-13002],[-15456,-13496],[-2671,-7612],[4278,-30160],[-6664,-12549],[-17816,-14730],[-20902,-30242]],[[576463,573609],[-5783,-3703],[-3838,2139],[337,4650],[5861,3291],[3993,-3374],[-570,-3003]],[[563081,694741],[11540,206],[13486,-6296]],[[676875,570317],[-3397,-7571],[4045,-9587],[2127,-13578],[-11566,-7858],[-18361,4443],[-18023,9670],[-11099,-83],[-8169,-34233],[-11592,-19585],[-27619,-16870],[-25155,-8146]],[[548066,466919],[-18464,2016]],[[265968,387549],[-5887,-658],[908,5390],[3812,1234],[1919,-1234],[-752,-4732]],[[245896,233953],[1089,11438],[-15689,4403],[1296,9505],[-9076,5513],[700,23453],[19346,-3168],[19242,23576],[-10451,33287],[-20694,-82],[-7573,-13620],[-21057,-5554],[-18594,5061],[-18594,15100],[-27852,29584],[1997,14154],[-7417,12384],[-1037,13578],[4045,7036],[-3553,11932],[-9465,8312]],[[79044,781599],[-3216,3868],[311,7653],[-7313,13454],[9621,8682],[4072,-6172],[6612,-1769],[0,8435],[5031,9669],[-6768,2921],[4460,27568],[4539,-12344]],[[189129,861997],[-7184,1399],[-24688,-1481],[-2956,6254],[21109,4732],[-16908,14277],[-3890,13043],[2853,2510],[8869,-8846],[3967,8188],[7469,5308],[108581,-10657],[47406,-57974]],[[255310,633475],[31975,-35179]],[[242551,668902],[-389,12055]],[[626020,459142],[-3293,-1605],[-2827,2716],[5368,4691],[2360,-823],[-1608,-4979]],[[506159,468935],[41907,-2016]],[[735976,563240],[-11125,-26045]]],"bbox":[37.3615,56.5298,41.2176,58.9602],"transform":{"scale":[0.000003856103856103854,0.0000024304024304024294],"translate":[37.3615,56.5298]}}