{"type":"Topology","objects":{"muni":{"type":"GeometryCollection","geometries":[{"type":"MultiPolygon","arcs":[[[0,1,2,3,4,5,6]]],"properties":{"GID_2":"RUS.82.1_1","GID_0":"RUS","COUNTRY":"Russia","GID_1":"RUS.82_1","NAME_1":"Yevrey","NL_NAME_1":"EврейскаяАОб","NAME_2":"Birobidzhanskiyrayon","VARNAME_2":"NA","NL_NAME_2":"Биробиджанскийрайон","TYPE_2":"Raion","ENGTYPE_2":"District","CC_2":"R67010","HASC_2":"RU.YV.BG"}},{"type":"MultiPolygon","arcs":[[[7,8,9,10,-2,11]]],"properties":{"GID_2":"RUS.82.2_1","GID_0":"RUS","COUNTRY":"Russia","GID_1":"RUS.82_1","NAME_1":"Yevrey","NL_NAME_1":"EврейскаяАОб","NAME_2":"Leninskiyrayon","VARNAME_2":"NA","NL_NAME_2":"Ленинскийрайон","TYPE_2":"Raion","ENGTYPE_2":"District","CC_2":"R67010","HASC_2":"RU.YV.LE"}},{"type":"MultiPolygon","arcs":[[[12,-5,13,-9,14,15]]],"properties":{"GID_2":"RUS.82.3_1","GID_0":"RUS","COUNTRY":"Russia","GID_1":"RUS.82_1","NAME_1":"Yevrey","NL_NAME_1":"EврейскаяАОб","NAME_2":"Obluchenskiyrayon","VARNAME_2":"NA","NL_NAME_2":"Облученскийрайон","TYPE_2":"Raion","ENGTYPE_2":"District","CC_2":"R67010","HASC_2":"RU.YV.OB"}},{"type":"MultiPolygon","arcs":[[[16,-15,-8,17]]],"properties":{"GID_2":"RUS.82.4_1","GID_0":"RUS","COUNTRY":"Russia","GID_1":"RUS.82_1","NAME_1":"Yevrey","NL_NAME_1":"EврейскаяАОб","NAME_2":"Oktyabr'skiy","VARNAME_2":"NA","NL_NAME_2":"Октябрьскийрайон","TYPE_2":"Raion","ENGTYPE_2":"District","CC_2":"R67010","HASC_2":"RU.YV.OK"}},{"type":"MultiPolygon","arcs":[[[-7,18]]],"properties":{"GID_2":"RUS.82.5_1","GID_0":"RUS","COUNTRY":"Russia","GID_1":"RUS.82_1","NAME_1":"Yevrey","NL_NAME_1":"EврейскаяАОб","NAME_2":"Smidovichskiyrayon","VARNAME_2":"NA","NL_NAME_2":"Смидовичскийрайон","TYPE_2":"Raion","ENGTYPE_2":"District","CC_2":"R67010","HASC_2":"RU.YV.SM"}}]}},"arcs":[[[645214,242919],[-4679,0],[-9676,-8857],[-75312,20066]],[[555547,254128],[-26747,14543],[-22205,-4811],[-46579,32914],[-22593,44669],[-10019,40951],[-9540,69984]],[[417864,452378],[-15473,12575]],[[402391,464953],[7235,13559]],[[409626,478512],[3035,16950],[5546,7162],[8079,-7709],[15632,20065],[42563,30727],[8216,20503],[1323,22854],[-2373,30290],[35328,22198],[26906,32368],[35351,-15419],[28892,36195]],[[618124,694696],[1278,-14489],[8581,-14543]],[[627983,665664],[-6983,-34227],[-24670,-50792],[11593,-40405],[11457,-14598],[14195,-53253],[5545,-57190],[6094,-172280]],[[313204,10169],[5478,11974],[-18281,20230],[3515,40951],[-10909,24166],[-19626,33407],[6367,53034],[1278,44614],[-20973,47677],[4952,14762],[14537,127446],[14446,64735]],[[293988,493165],[10407,-5577],[25652,-26134],[48290,-4647],[11160,-9623]],[[389497,447184],[12894,17769]],[[402391,464953],[10635,-6944],[4838,-5631]],[[555547,254128],[43841,-12685],[-10498,-13778],[-16797,-11099],[-2579,-5795],[-23,-10990],[-2738,-4100],[-17778,-8147],[958,-1804],[-13145,0],[-16272,-39803],[-25971,14434],[-4975,-3828],[-3309,-12411],[3172,-16183],[-662,-5030],[-17002,-52215],[913,-25423],[-2921,-10006],[-4770,-5249],[-11388,-2132],[-25766,13286],[-5385,10005],[-13146,-1257],[-8581,-8912],[-4176,-12356],[-3880,-4101],[-10977,4757],[-24807,-9295],[-20266,4647],[-4039,-17878],[-3537,-4648],[-15839,8037]],[[44183,461837],[-15519,-11373],[-6915,1039],[-4268,15801],[982,23073],[-1233,12138],[-2396,6834],[-14834,11974],[205,13504],[18395,73155],[7006,22909],[8946,19409],[-639,9459],[-7851,6670],[-16294,-9513],[4427,15855],[5318,9076],[40736,38437],[18919,10224],[20061,-1203],[7348,20175],[-205,18261],[3491,15473],[16706,30563],[4108,26517],[11730,20121],[16728,14598],[13739,-5686],[24214,1585],[21224,-14653],[16660,20667],[22662,16512],[22798,26299],[23324,-8366],[11616,-23018],[15131,5741],[-1438,39311],[11982,11537],[4998,38655],[24693,16402],[12620,-7217],[15176,-22089],[24260,-12192],[6869,-24385],[-4564,-26845],[18166,-21815],[19672,17386],[22320,-10279],[11091,4320],[9037,12137],[10909,-44505],[23757,-492],[12895,-8365],[17070,2679],[14013,-18808],[13670,-5194],[12712,-57354],[7713,-82285]],[[409626,478512],[-20129,-31328]],[[293988,493165],[-19603,2406],[-27341,28376],[-22388,8912],[-33639,-2132],[-15747,-11318],[-22137,-38163],[-27888,437],[-33251,-39912],[-8193,-2952],[-25012,31492]],[[58789,470311],[-11571,-54],[-3035,-8420]],[[44183,461837],[1437,6178],[13169,2296]],[[313204,10169],[-21269,-5030],[-20951,18973],[-6732,984],[-8741,-21105],[-11639,-3991],[-7851,7600],[-13168,29305],[-12688,7545],[-19422,-9732],[-24442,5468],[-17641,-20941],[-18326,-7763],[-21178,4866],[-11091,16457],[-457,53690],[-13168,42592],[-6961,19519],[-28892,37124],[-5842,16949],[-7645,6670],[-6231,32039],[5911,18098],[15565,26408],[1346,22143],[3674,13012],[8444,12357],[4884,16402],[-5774,24330],[-7828,5687],[-7736,36741],[-593,11099],[6663,24604],[-4130,9240],[-5112,328]],[[627983,665664],[28619,-47895],[75425,-53910],[72893,-22307],[25583,-3116],[13715,13887],[7554,13067],[5386,16621],[7851,12248],[15039,-1914],[10612,-14926],[3310,-14653],[14058,-3937],[1620,-25041],[11411,-17331],[8353,16785],[11867,-4866],[9311,-18371],[18121,15965],[27705,-15692],[3583,-12192],[-1620,-22799],[-9448,-30946],[-22822,-23018],[-17185,2897],[-18691,16567],[-19033,6725],[-16683,-7764],[-34438,-49645],[-38774,-21213],[-16865,-984],[-8832,-12302],[23,-17441],[-26199,-9514],[-5774,-18753],[1301,-16895],[-3332,-7271],[-18440,8693],[-5842,-9459],[-22617,-14543],[-6869,-13997],[-16317,-6670],[-4610,-16129],[-4154,-4374],[-10977,-6561],[-8376,2132],[-18211,18097]]],"bbox":[130.5245,47.6603,134.9063,49.4893],"transform":{"scale":[0.0000043818043818043796,0.0000018290018290018297],"translate":[130.5245,47.6603]}}