{"type":"Topology","objects":{"muni":{"type":"GeometryCollection","geometries":[{"type":"MultiPolygon","arcs":[[[0,1,2,3,4,5]]],"properties":{"GID_2":"RUS.83.1_1","GID_0":"RUS","COUNTRY":"Russia","GID_1":"RUS.83_1","NAME_1":"Zabaykal'ye","NL_NAME_1":"Забайкальскийкрай","NAME_2":"Aginskiyrayon","VARNAME_2":"NA","NL_NAME_2":"Агинскийрайон","TYPE_2":"Raion","ENGTYPE_2":"District","CC_2":"R64010","HASC_2":"RU.AB.AG"}},{"type":"MultiPolygon","arcs":[[[6,7,8,9,10,11,12]]],"properties":{"GID_2":"RUS.83.2_1","GID_0":"RUS","COUNTRY":"Russia","GID_1":"RUS.83_1","NAME_1":"Zabaykal'ye","NL_NAME_1":"Забайкальскийкрай","NAME_2":"Akshinskiyrayon","VARNAME_2":"NA","NL_NAME_2":"Акшинскийрайон","TYPE_2":"Raion","ENGTYPE_2":"District","CC_2":"R64090","HASC_2":"RU.CT.AK"}},{"type":"MultiPolygon","arcs":[[[13,14,15,16,17,18,19,20,21,22,23,24,25,26,27]]],"properties":{"GID_2":"RUS.83.3_1","GID_0":"RUS","COUNTRY":"Russia","GID_1":"RUS.83_1","NAME_1":"Zabaykal'ye","NL_NAME_1":"Забайкальскийкрай","NAME_2":"Aleksandrovo-Zavodskiyrayon","VARNAME_2":"NA","NL_NAME_2":"Александрово-Заводскийрайон","TYPE_2":"Raion","ENGTYPE_2":"District","CC_2":"R64090","HASC_2":"RU.CT.AL"}},{"type":"MultiPolygon","arcs":[[[28]]],"properties":{"GID_2":"RUS.83.4_1","GID_0":"RUS","COUNTRY":"Russia","GID_1":"RUS.83_1","NAME_1":"Zabaykal'ye","NL_NAME_1":"Забайкальскийкрай","NAME_2":"Baley","VARNAME_2":"NA","NL_NAME_2":"Балей","TYPE_2":"Gorod","ENGTYPE_2":"City","CC_2":"NA","HASC_2":"RU.CT.BG"}},{"type":"MultiPolygon","arcs":[[[29,30,31,32,33,34,35,36,37],[-29]]],"properties":{"GID_2":"RUS.83.5_1","GID_0":"RUS","COUNTRY":"Russia","GID_1":"RUS.83_1","NAME_1":"Zabaykal'ye","NL_NAME_1":"Забайкальскийкрай","NAME_2":"Baleyskiyrayon","VARNAME_2":"NA","NL_NAME_2":"Балейскийрайон","TYPE_2":"Raion","ENGTYPE_2":"District","CC_2":"R64090","HASC_2":"RU.CT.BR"}},{"type":"MultiPolygon","arcs":[[[38,39,40,-32,41,-18,42,-16,43,44],[45]]],"properties":{"GID_2":"RUS.83.6_1","GID_0":"RUS","COUNTRY":"Russia","GID_1":"RUS.83_1","NAME_1":"Zabaykal'ye","NL_NAME_1":"Забайкальскийкрай","NAME_2":"Borzinskiyrayon","VARNAME_2":"NA","NL_NAME_2":"Борзинскийрайон","TYPE_2":"Raion","ENGTYPE_2":"District","CC_2":"R64090","HASC_2":"RU.CT.BO"}},{"type":"MultiPolygon","arcs":[[[-46]]],"properties":{"GID_2":"RUS.83.7_1","GID_0":"RUS","COUNTRY":"Russia","GID_1":"RUS.83_1","NAME_1":"Zabaykal'ye","NL_NAME_1":"Забайкальскийкрай","NAME_2":"Borzya","VARNAME_2":"NA","NL_NAME_2":"Борзя","TYPE_2":"Gorsovet","ENGTYPE_2":"District","CC_2":"NA","HASC_2":"RU.CT.BZ"}},{"type":"MultiPolygon","arcs":[[[46,47,48,49,50,51]]],"properties":{"GID_2":"RUS.83.8_1","GID_0":"RUS","COUNTRY":"Russia","GID_1":"RUS.83_1","NAME_1":"Zabaykal'ye","NL_NAME_1":"Забайкальскийкрай","NAME_2":"Chernyshevskiyrayon","VARNAME_2":"NA","NL_NAME_2":"Чернышевскийрайон","TYPE_2":"Raion","ENGTYPE_2":"District","CC_2":"R64092","HASC_2":"RU.CT.CN"}},{"type":"MultiPolygon","arcs":[[[52]]],"properties":{"GID_2":"RUS.83.9_1","GID_0":"RUS","COUNTRY":"Russia","GID_1":"RUS.83_1","NAME_1":"Zabaykal'ye","NL_NAME_1":"Забайкальскийкрай","NAME_2":"Chita","VARNAME_2":"NA","NL_NAME_2":"Чита","TYPE_2":"Gorsovet","ENGTYPE_2":"District","CC_2":"NA","HASC_2":"RU.CT.CG"}},{"type":"MultiPolygon","arcs":[[[53,54,55,56,57,58,59,60],[-53]]],"properties":{"GID_2":"RUS.83.10_1","GID_0":"RUS","COUNTRY":"Russia","GID_1":"RUS.83_1","NAME_1":"Zabaykal'ye","NL_NAME_1":"Забайкальскийкрай","NAME_2":"Chitinskiyrayon","VARNAME_2":"NA","NL_NAME_2":"Читинскийрайон","TYPE_2":"Raion","ENGTYPE_2":"District","CC_2":"R64092","HASC_2":"RU.CT.CR"}},{"type":"MultiPolygon","arcs":[[[-1,61,-11,62,63,-56,64,65]]],"properties":{"GID_2":"RUS.83.11_1","GID_0":"RUS","COUNTRY":"Russia","GID_1":"RUS.83_1","NAME_1":"Zabaykal'ye","NL_NAME_1":"Забайкальскийкрай","NAME_2":"Dul'durginskiyrayon","VARNAME_2":"NA","NL_NAME_2":"Дульдургинскийрайон","TYPE_2":"Raion","ENGTYPE_2":"District","CC_2":"R64010","HASC_2":"RU.AB.DU"}},{"type":"MultiPolygon","arcs":[[[66,67,68,69,-22,70,71,72,73]]],"properties":{"GID_2":"RUS.83.12_1","GID_0":"RUS","COUNTRY":"Russia","GID_1":"RUS.83_1","NAME_1":"Zabaykal'ye","NL_NAME_1":"Забайкальскийкрай","NAME_2":"Gazimuro-Zavodskiyrayon","VARNAME_2":"NA","NL_NAME_2":"Газимуро-Заводскийрайон","TYPE_2":"Raion","ENGTYPE_2":"District","CC_2":"R64090","HASC_2":"RU.CT.GA"}},{"type":"MultiPolygon","arcs":[[[74,75,76,77,78]]],"properties":{"GID_2":"RUS.83.13_1","GID_0":"RUS","COUNTRY":"Russia","GID_1":"RUS.83_1","NAME_1":"Zabaykal'ye","NL_NAME_1":"Забайкальскийкрай","NAME_2":"Kalarskiyrayon","VARNAME_2":"NA","NL_NAME_2":"Каларскийрайон","TYPE_2":"Raion","ENGTYPE_2":"District","CC_2":"R64090","HASC_2":"RU.CT.KA"}},{"type":"MultiPolygon","arcs":[[[79,80,81,-24,82,-70,83,84,85,86]]],"properties":{"GID_2":"RUS.83.14_1","GID_0":"RUS","COUNTRY":"Russia","GID_1":"RUS.83_1","NAME_1":"Zabaykal'ye","NL_NAME_1":"Забайкальскийкрай","NAME_2":"Kalganskiyrayon","VARNAME_2":"NA","NL_NAME_2":"Калганскийрайон","TYPE_2":"Raion","ENGTYPE_2":"District","CC_2":"R64090","HASC_2":"RU.CT.KL"}},{"type":"MultiPolygon","arcs":[[[-3,87,-65,-55,88,89,90]]],"properties":{"GID_2":"RUS.83.15_1","GID_0":"RUS","COUNTRY":"Russia","GID_1":"RUS.83_1","NAME_1":"Zabaykal'ye","NL_NAME_1":"Забайкальскийкрай","NAME_2":"Karymskiyrayon","VARNAME_2":"NA","NL_NAME_2":"Карымскийрайон","TYPE_2":"Raion","ENGTYPE_2":"District","CC_2":"R64090","HASC_2":"RU.CT.KM"}},{"type":"MultiPolygon","arcs":[[[91,-60,92,93,94,95,96,97,98]]],"properties":{"GID_2":"RUS.83.16_1","GID_0":"RUS","COUNTRY":"Russia","GID_1":"RUS.83_1","NAME_1":"Zabaykal'ye","NL_NAME_1":"Забайкальскийкрай","NAME_2":"Khilokskiyrayon","VARNAME_2":"NA","NL_NAME_2":"Хилокскийрайон","TYPE_2":"Raion","ENGTYPE_2":"District","CC_2":"R64092","HASC_2":"RU.CT.KH"}},{"type":"MultiPolygon","arcs":[[[99]],[[100,101,-95,102,103,104,105,106]]],"properties":{"GID_2":"RUS.83.17_1","GID_0":"RUS","COUNTRY":"Russia","GID_1":"RUS.83_1","NAME_1":"Zabaykal'ye","NL_NAME_1":"Забайкальскийкрай","NAME_2":"Krasnochikoyskiyrayon","VARNAME_2":"NA","NL_NAME_2":"Красночикойскийрайон","TYPE_2":"Raion","ENGTYPE_2":"District","CC_2":"R64091","HASC_2":"RU.CT.KC"}},{"type":"MultiPolygon","arcs":[[[107]]],"properties":{"GID_2":"RUS.83.18_1","GID_0":"RUS","COUNTRY":"Russia","GID_1":"RUS.83_1","NAME_1":"Zabaykal'ye","NL_NAME_1":"Забайкальскийкрай","NAME_2":"Krasnokamensk","VARNAME_2":"NA","NL_NAME_2":"Краснокаменск","TYPE_2":"Gorsovet","ENGTYPE_2":"District","CC_2":"NA","HASC_2":"RU.CT.KG"}},{"type":"MultiPolygon","arcs":[[[108,109,-44,-15,110,111],[-108]]],"properties":{"GID_2":"RUS.83.19_1","GID_0":"RUS","COUNTRY":"Russia","GID_1":"RUS.83_1","NAME_1":"Zabaykal'ye","NL_NAME_1":"Забайкальскийкрай","NAME_2":"Krasnokamenskiyrayon","VARNAME_2":"NA","NL_NAME_2":"Краснокаменскийрайон","TYPE_2":"Raion","ENGTYPE_2":"District","CC_2":"R64091","HASC_2":"RU.CT.KR"}},{"type":"MultiPolygon","arcs":[[[112]],[[-106,113,114,115,116,117,-7,118]]],"properties":{"GID_2":"RUS.83.20_1","GID_0":"RUS","COUNTRY":"Russia","GID_1":"RUS.83_1","NAME_1":"Zabaykal'ye","NL_NAME_1":"Забайкальскийкрай","NAME_2":"Kyrinskiyrayon","VARNAME_2":"NA","NL_NAME_2":"Кыринскийрайон","TYPE_2":"Raion","ENGTYPE_2":"District","CC_2":"R64091","HASC_2":"RU.CT.KY"}},{"type":"MultiPolygon","arcs":[[[-74,119,120,121,-47,122,123,124,125]]],"properties":{"GID_2":"RUS.83.21_1","GID_0":"RUS","COUNTRY":"Russia","GID_1":"RUS.83_1","NAME_1":"Zabaykal'ye","NL_NAME_1":"Забайкальскийкрай","NAME_2":"Mogochinskiyrayon","VARNAME_2":"NA","NL_NAME_2":"Могочинскийрайон","TYPE_2":"Raion","ENGTYPE_2":"District","CC_2":"R64091","HASC_2":"RU.CT.MO"}},{"type":"MultiPolygon","arcs":[[[-4,-91,126,127,128,129,130]]],"properties":{"GID_2":"RUS.83.22_1","GID_0":"RUS","COUNTRY":"Russia","GID_1":"RUS.83_1","NAME_1":"Zabaykal'ye","NL_NAME_1":"Забайкальскийкрай","NAME_2":"Mogoytuyskiyrayon","VARNAME_2":"NA","NL_NAME_2":"Могойтуйскийрайон","TYPE_2":"Raion","ENGTYPE_2":"District","CC_2":"R64010","HASC_2":"RU.AB.MO"}},{"type":"MultiPolygon","arcs":[[[-35,131,132,133,-50,134,135]]],"properties":{"GID_2":"RUS.83.23_1","GID_0":"RUS","COUNTRY":"Russia","GID_1":"RUS.83_1","NAME_1":"Zabaykal'ye","NL_NAME_1":"Забайкальскийкрай","NAME_2":"Nerchinskiyrayon","VARNAME_2":"NA","NL_NAME_2":"Нерчинскийрайон","TYPE_2":"Raion","ENGTYPE_2":"District","CC_2":"R64091","HASC_2":"RU.CT.NE"}},{"type":"MultiPolygon","arcs":[[[136,-87,137,-85,138,-68]]],"properties":{"GID_2":"RUS.83.24_1","GID_0":"RUS","COUNTRY":"Russia","GID_1":"RUS.83_1","NAME_1":"Zabaykal'ye","NL_NAME_1":"Забайкальскийкрай","NAME_2":"Nerchinsko-Zavodskiyrayon","VARNAME_2":"Nerchinskiy","NL_NAME_2":"Нерчинско-Заводскийрайон","TYPE_2":"Raion","ENGTYPE_2":"District","CC_2":"R64091","HASC_2":"RU.CT.NE"}},{"type":"MultiPolygon","arcs":[[[-33,-41,139,140,-128,141]]],"properties":{"GID_2":"RUS.83.25_1","GID_0":"RUS","COUNTRY":"Russia","GID_1":"RUS.83_1","NAME_1":"Zabaykal'ye","NL_NAME_1":"Забайкальскийкрай","NAME_2":"Olovyanninskiyrayon","VARNAME_2":"NA","NL_NAME_2":"Оловяннинскийрайон","TYPE_2":"Raion","ENGTYPE_2":"District","CC_2":"R64091","HASC_2":"RU.CT.OL"}},{"type":"MultiPolygon","arcs":[[[142,-12,-62,-6,143,-130,144,-140,-40]]],"properties":{"GID_2":"RUS.83.26_1","GID_0":"RUS","COUNTRY":"Russia","GID_1":"RUS.83_1","NAME_1":"Zabaykal'ye","NL_NAME_1":"Забайкальскийкрай","NAME_2":"Ononskiyrayon","VARNAME_2":"NA","NL_NAME_2":"Ононскийрайон","TYPE_2":"Raion","ENGTYPE_2":"District","CC_2":"R64091","HASC_2":"RU.CT.ON"}},{"type":"MultiPolygon","arcs":[[[145,-99,146,-97,147,-101]]],"properties":{"GID_2":"RUS.83.27_1","GID_0":"RUS","COUNTRY":"Russia","GID_1":"RUS.83_1","NAME_1":"Zabaykal'ye","NL_NAME_1":"Забайкальскийкрай","NAME_2":"Petrovsk-Zabaykal'skiyrayon","VARNAME_2":"NA","NL_NAME_2":"Петровск-Забайкальскийрайон","TYPE_2":"Raion","ENGTYPE_2":"District","CC_2":"R64091","HASC_2":"RU.CT.PG"}},{"type":"MultiPolygon","arcs":[[[-112,148,-28,149,-26,150,-81,151]]],"properties":{"GID_2":"RUS.83.28_1","GID_0":"RUS","COUNTRY":"Russia","GID_1":"RUS.83_1","NAME_1":"Zabaykal'ye","NL_NAME_1":"Забайкальскийкрай","NAME_2":"Priargunskiyrayon","VARNAME_2":"NA","NL_NAME_2":"Приаргунскийрайон","TYPE_2":"Raion","ENGTYPE_2":"District","CC_2":"R64091","HASC_2":"RU.CT.PI"}},{"type":"MultiPolygon","arcs":[[[-21,152,-37,153,-71]]],"properties":{"GID_2":"RUS.83.29_1","GID_0":"RUS","COUNTRY":"Russia","GID_1":"RUS.83_1","NAME_1":"Zabaykal'ye","NL_NAME_1":"Забайкальскийкрай","NAME_2":"Shelopuginskiyrayon","VARNAME_2":"NA","NL_NAME_2":"Шелопугинскийрайон","TYPE_2":"Raion","ENGTYPE_2":"District","CC_2":"R64092","HASC_2":"RU.CT.SP"}},{"type":"MultiPolygon","arcs":[[[-34,-142,-127,-90,154,155,156,-132]]],"properties":{"GID_2":"RUS.83.30_1","GID_0":"RUS","COUNTRY":"Russia","GID_1":"RUS.83_1","NAME_1":"Zabaykal'ye","NL_NAME_1":"Забайкальскийкрай","NAME_2":"Shilkinskiyrayon","VARNAME_2":"NA","NL_NAME_2":"Шилкинскийрайон","TYPE_2":"Raion","ENGTYPE_2":"District","CC_2":"R64092","HASC_2":"RU.CT.SK"}},{"type":"MultiPolygon","arcs":[[[157,-135,-49,158,-121,159,-72,-154]]],"properties":{"GID_2":"RUS.83.31_1","GID_0":"RUS","COUNTRY":"Russia","GID_1":"RUS.83_1","NAME_1":"Zabaykal'ye","NL_NAME_1":"Забайкальскийкрай","NAME_2":"Sretenskiyrayon","VARNAME_2":"NA","NL_NAME_2":"Сретенскийрайон","TYPE_2":"Raion","ENGTYPE_2":"District","CC_2":"R64092","HASC_2":"RU.CT.SR"}},{"type":"MultiPolygon","arcs":[[[-125,160,161,162,-75,163]]],"properties":{"GID_2":"RUS.83.32_1","GID_0":"RUS","COUNTRY":"Russia","GID_1":"RUS.83_1","NAME_1":"Zabaykal'ye","NL_NAME_1":"Забайкальскийкрай","NAME_2":"Tungiro-Olekminskiyrayon","VARNAME_2":"NA","NL_NAME_2":"Тунгиро-Олекминскийрайон","TYPE_2":"Raion","ENGTYPE_2":"District","CC_2":"R64092","HASC_2":"RU.CT.TO"}},{"type":"MultiPolygon","arcs":[[[-78,164,-76,-163,165,-161,-124,166,-51,-134,167,168,-155,-89,-54,169]]],"properties":{"GID_2":"RUS.83.33_1","GID_0":"RUS","COUNTRY":"Russia","GID_1":"RUS.83_1","NAME_1":"Zabaykal'ye","NL_NAME_1":"Забайкальскийкрай","NAME_2":"Tungokochenskiyrayon","VARNAME_2":"NA","NL_NAME_2":"Тунгокоченскийрайон","TYPE_2":"Raion","ENGTYPE_2":"District","CC_2":"R64092","HASC_2":"RU.CT.TK"}},{"type":"MultiPolygon","arcs":[[[-9,170,-117,171,-115,172,-104,173,-93,-59,174,-57,-64,175]]],"properties":{"GID_2":"RUS.83.34_1","GID_0":"RUS","COUNTRY":"Russia","GID_1":"RUS.83_1","NAME_1":"Zabaykal'ye","NL_NAME_1":"Забайкальскийкрай","NAME_2":"Uletovskiyrayon","VARNAME_2":"NA","NL_NAME_2":"Улетовскийрайон","TYPE_2":"Raion","ENGTYPE_2":"District","CC_2":"R64092","HASC_2":"RU.CT.UL"}},{"type":"MultiPolygon","arcs":[[[176,-45,-110]]],"properties":{"GID_2":"RUS.83.35_1","GID_0":"RUS","COUNTRY":"Russia","GID_1":"RUS.83_1","NAME_1":"Zabaykal'ye","NL_NAME_1":"Забайкальскийкрай","NAME_2":"Zabaykal'skiyrayon","VARNAME_2":"NA","NL_NAME_2":"Забайкальскийрайон","TYPE_2":"Raion","ENGTYPE_2":"District","CC_2":"R64090","HASC_2":"RU.CT.ZA"}}]}},"arcs":[[[457125,140943],[347,2738],[-903,6854],[722,4947],[-2750,11079],[-3541,4267],[-10382,3891],[-7716,4580],[-5708,-1336],[-1444,1746],[-3146,9139],[-2535,2575],[-4972,2026],[-965,3600],[1305,6520]],[[415437,203569],[2542,787]],[[417979,204356],[354,6434],[2778,1821],[1027,4246],[-8465,5184],[1035,6186],[7562,1487],[4195,7200],[3771,1196],[4632,-313],[2493,4635],[1965,118],[2083,-5561],[4556,2263],[1701,-2306],[-514,-2263],[3646,-3524],[8486,-1434]],[[459284,229725],[1334,-2446],[2805,-1401],[1778,-2641],[1000,-4548],[2736,-5216],[5181,-5421],[6548,-4278],[2403,108],[292,2629],[5041,-43],[3306,-3190],[6146,-2457],[1812,-2360],[1952,-4871],[6152,-1337],[5702,-8912],[3159,-7027],[3007,-8967],[7861,-16327]],[[527499,151020],[-2493,787]],[[525006,151807],[-5722,-291],[-5673,-3330],[-5181,-5001],[-5736,1250],[-6889,-162],[-5625,-4095],[-9257,528],[-8597,2878],[-4479,-3126],[-4792,-442],[-5930,927]],[[380965,69566],[-2972,6682],[-2368,33],[-2834,-3869],[-5909,-2555],[-7813,1682],[-2903,4968],[-5639,743],[-3750,-2661],[-4979,-1919],[-4784,981],[-3896,2080],[-15854,668],[-6889,9333],[-111,5583],[3326,1821],[2285,2317],[2382,6714],[2895,15390]],[[321152,117557],[6882,18838]],[[328034,136395],[3716,6003],[5152,1455],[3209,3384],[403,9398]],[[340514,156635],[1041,-2425]],[[341555,154210],[3917,-3740],[3028,-560],[6062,3880],[7799,-1671],[2403,905],[2590,3158],[4541,-657],[1244,-4290],[4868,-614],[3104,1692],[-1084,-5518],[4153,-2468],[528,-2813],[-806,-5377],[8153,-1164],[3007,4106],[2070,1584],[4548,367],[1417,4720],[2944,560],[4604,-916],[9153,-4634],[2042,-5001],[4785,496]],[[426625,136255],[3527,-4429],[1285,-5270],[-576,-6262],[1507,-3341],[5291,-4321],[410,-2468]],[[438069,110164],[-9194,-8913],[-5084,1024],[-14257,-8255],[-3736,-4117],[-3000,-474],[-2680,-3568],[-15584,-11520],[-3569,-4775]],[[683805,132494],[-4333,-442]],[[679472,132052],[-4556,1789],[-2236,-679]],[[672680,133162],[1958,3363]],[[674638,136525],[1320,4882],[645,4946]],[[676603,146353],[-805,4893],[1924,5550],[2243,2436],[2243,4009],[965,5787],[-2389,3622],[-5792,1692],[-9382,-2199],[-7652,4742],[-5278,5367],[-3118,6790],[257,4397],[-729,5464],[-2771,3901]],[[646319,202804],[8514,8342]],[[654833,211146],[6083,4267],[7153,3891]],[[668069,219304],[7923,2144],[1327,2759],[2673,1811],[11000,711],[2639,3244],[2611,367],[3528,-2662],[1597,-4753],[4861,2974],[7445,8913]],[[713673,234812],[2403,-3934],[3180,-3103],[5174,-324],[9104,4214],[3215,6585],[3702,4279],[6694,3696],[5215,1283],[4396,-1595],[5111,-5314],[7,-4968],[-1118,-4763],[3209,-3255]],[[763965,227613],[-7237,-8277],[-2263,-3643]],[[754465,215693],[-1730,-12275],[-4444,-4709]],[[748291,198709],[-5736,-1671],[-12035,-7156]],[[730520,189882],[-3847,-4375],[-8431,-6488],[-3548,-3955],[-1236,-7986]],[[713458,167078],[-4424,-4354]],[[709034,162724],[-2389,420],[42,4882],[-2639,270],[-3514,-2199],[-722,-5119],[-2174,-7350],[1340,-1908],[-222,-2651],[-6791,-1670],[-896,-3320],[-7535,-7015],[271,-4570]],[[619569,264611],[-2285,474],[-55,1045],[1604,1369],[1562,-690],[-826,-2198]],[[668069,219304],[-13236,-8158]],[[654833,211146],[-12396,-12254],[-3486,-2457]],[[638951,196435],[-7063,-1994]],[[631888,194441],[646,5119],[-340,4537],[-1521,5227],[-3090,6035],[-556,4990],[5903,6003],[-2188,3115],[-4618,1530],[-1361,4343],[-3187,1293],[-4056,-3772],[-5694,1876],[-5924,-1789],[-958,1573],[-243,3460],[-3514,-712],[-1063,-2435],[-2250,-1423],[-3444,808],[-3479,-1250],[1236,-4925],[-3264,-3265],[-3444,-11],[-3014,-3632],[-3132,-1552],[-1931,2619],[2285,6897],[-1840,3320],[-8688,-884]],[[569159,231536],[2333,5852],[4514,3793],[2660,4645],[-3611,7102],[9590,7038],[2771,-2177],[3125,603],[292,1886]],[[590833,260278],[3389,4150],[3889,10],[6215,-1972],[1986,3029],[4778,-1854],[2437,1272],[2361,3341],[10924,8384],[8604,10551],[2701,1713],[5118,-732],[3445,1325],[1660,3697],[9076,2392],[4472,3417]],[[661888,299001],[3625,1164]],[[665513,300165],[1063,-4473],[1701,-2683],[-2937,-10562],[166,-3438],[2056,-4828],[180,-6218],[-1083,-5799],[424,-3405],[3770,-2694],[1452,-2727],[-1465,-5195],[-2667,-3976],[444,-4344],[-1833,-5938],[-3340,-3599],[-465,-3600]],[[662979,226686],[5090,-7382]],[[581840,93351],[-15014,-8470],[-6667,-4915],[-2667,-269],[-11666,2446],[-3042,-1207],[-3555,1358],[-2785,-808]],[[536444,81486],[1430,3783],[4612,7662],[3729,2393],[12979,2877],[3951,4527],[632,11995],[-4889,4483],[-2222,5000],[833,6704],[2098,4321]],[[559597,135231],[9847,2199],[3750,3082],[1639,4516],[10028,-593],[6819,7458],[5833,1412],[2577,4386],[3514,2489],[2958,3449],[1451,4430],[2424,3265],[6951,3309],[5466,3858],[3715,7393],[5319,8557]],[[638951,196435],[7368,6369]],[[676603,146353],[-1965,-9828]],[[672680,133162],[-4229,1089],[-1459,-2350],[841,-5647],[-2577,-5195]],[[665256,121059],[-4396,-765],[-8201,-6509],[-2924,2834],[-3319,-2511],[-4785,6628],[-5534,-1864],[-2292,-10206],[-5445,-1272],[216,5809],[-7792,-2479],[-1646,-5140],[-12319,-1822],[264,2554],[-6722,-43],[-1480,-4472],[-9173,-205],[-1000,-4688],[-5688,-323],[-1180,-3234]],[[618124,132645],[896,2576],[-1972,808],[-1653,-1746],[1625,-1843],[1104,205]],[[714020,491987],[2340,-1789],[5799,3254],[2181,-2780],[326,-3039],[3951,-4343],[757,-6316],[-243,-3007],[-6291,-3642],[-1681,-7135],[229,-5873],[6139,-8687],[-910,-6725],[4341,-2629],[1875,-2210],[-313,-4731],[1111,-2834],[4653,-2112],[3035,-9064],[4861,-948]],[[746180,417377],[-2590,-5270]],[[743590,412107],[-695,-6380],[-3542,-2662],[-4576,-9786],[-5806,1175],[-4430,-5012],[-5181,-830],[-2604,2910],[-4312,1391],[-4153,-1919],[-5201,1606],[-1209,-2662],[-2284,-2489],[-2987,1756],[-3409,-883],[-2424,-6154],[-3285,-3169],[-5701,280],[-4431,-5550],[-11923,-20692],[305,-4688],[2993,-3492],[-2354,-4224],[-7375,-1789],[-3159,-1682],[-6931,-5582],[-10993,-11887]],[[637923,319693],[-5146,-1121],[-4042,1681],[-3395,3567],[-1938,4753],[-7396,-4084],[-4514,1983],[-1173,3545],[-1229,13461],[-6098,6520],[2292,12211],[-3396,15648],[7,6617],[2799,4343],[-139,1865],[-3813,2500],[-1715,3244],[-2680,2231],[-7591,-2759],[-2916,7059]],[[585840,402957],[1597,1466],[-1021,9677],[3590,2447],[4236,-345],[5299,5399],[3500,1746],[2951,-2899],[1098,7770],[2048,3093],[5688,2048],[1014,-2360],[2048,-2199],[3945,-2737],[5632,2155],[3854,2468],[3507,4678],[14562,6865],[3660,6056],[-6965,8547],[-2473,6671],[3042,5690],[5820,1800],[7409,-517],[5479,-6381],[7535,-5862],[5007,-280],[6035,2521],[6250,3999],[9785,4138],[4944,4397],[4771,7501]],[[709687,480509],[4333,11478]],[[399020,314703],[-3715,-1099],[-2285,991],[792,3718],[2542,1401],[2583,-1121],[83,-3890]],[[456208,423832],[2792,711],[11743,-1724],[2257,1153],[6,-5949],[-2062,-12501],[882,-7663],[4514,-2823],[2076,-4581],[-687,-9160]],[[477729,381295],[-2264,-5001],[-2556,-2317],[-4014,-603],[-958,-4979],[729,-9678],[1264,-6542],[-1465,-7113],[-2202,-5744],[459,-15142],[-1771,-4322],[-7083,-6401],[-195,-4440],[-2326,-4635],[-5104,-4882],[1361,-4052],[5416,-6412],[-1680,-4570],[-7590,-6531],[-5625,-2037],[-19452,615],[-2757,-992],[-2312,-2004],[-2167,-8482],[-2229,-2942],[-2375,-1379],[-611,-5637],[-2472,-12049],[-3556,-3826],[-7181,-12609],[-1986,-8492],[-34,-5098]],[[394993,212999],[-4306,-1756],[-4910,2079],[-3777,-9710],[-5917,-3114],[-7229,-1628],[-1799,-1422],[-1146,-3934],[-3951,-1433],[-9313,5766],[-1326,17200]],[[351319,215047],[4625,-1315]],[[355944,213732],[3514,582],[3576,884]],[[363034,215198],[2667,2813],[5993,11046],[479,6391],[10722,16079],[2077,5863],[-986,5626],[-2653,3675],[-2563,-1768],[-8076,1929],[-5826,2005],[-3479,2382],[-3063,4957],[-4951,1315],[-5598,-205],[-9847,-8568],[-7590,-10852],[-3667,851],[-3847,5292],[-8729,-2468],[-3695,-5820],[-18097,-13741]],[[292305,242000],[-7111,6133],[-4048,53],[-2042,1779],[-7618,-377],[-3167,819],[639,9634],[4486,6424],[-1396,4224],[1986,5087],[487,5022],[-2563,3072],[-3764,1530],[-1625,2608],[375,6046],[-3076,3352]],[[263868,297406],[-2222,-1261],[5722,3513],[5437,1595],[3368,3794],[5146,7641],[6632,7059],[4500,7123],[4083,4042],[5035,2446],[1486,4397],[6493,1671],[2945,-3762],[4646,-431],[4729,-2780],[5528,205],[3187,1444],[4528,9505],[5778,2371],[7756,895],[14730,-2070],[3958,4398],[5424,4504],[4430,2167],[24854,3858],[5799,-765],[3382,2662],[2618,4526],[8451,9107],[8764,2252],[8910,992],[2597,2187],[11674,15573],[1090,11295],[2201,248],[743,1153],[646,11186],[1639,2382],[-4347,1304]],[[457125,140943],[-8952,4882],[-5083,-312],[-2063,-2910],[-4993,-1369],[-3451,798],[-3174,-1024],[-104,-3201],[-2680,-1552]],[[341555,154210],[-2028,4742]],[[339527,158952],[2348,3632],[2014,6391],[-1202,3233],[-2430,-1423],[-3202,162],[-1715,3319],[-2597,787],[-8618,-2921],[-3986,-528],[-2160,1940],[-1813,5410],[-243,9269],[3077,5151],[4889,6272],[6479,6801],[1986,6466],[5889,4720],[7083,-3136],[5993,550]],[[394993,212999],[3590,-4418],[6028,-658],[4771,-1767],[4479,-3050]],[[413861,203106],[1576,463]],[[881985,410350],[-3750,-1940],[-833,-3837],[-2806,-506],[-576,-1164],[104,-1864],[-5986,-3352],[-1576,-2845],[-2834,334],[-4458,-3524],[-2931,-1197],[2174,-6822],[-2146,-6530],[229,-3201],[1577,-2792],[9146,-1282],[6111,4634],[8736,0]],[[882166,374462],[-1486,-4699],[1514,-2619],[4437,-2952],[5201,-8062],[-1020,-4763],[-8091,2080],[-4041,-2942],[-1473,-5777],[750,-4666],[-5916,-10250],[1722,-4440],[-896,-4278],[-6576,-6865],[-9549,-8277],[-9076,-5432],[-7445,-5593],[-3270,3201],[1423,4041],[-528,2727],[-4083,1789],[-7458,-8611],[-7813,-2845],[-3194,-7253],[-3778,1368],[-4889,-3481],[-340,-3513],[-2778,-4386],[-4833,-3083],[-2882,-4364],[-5889,-528],[-7049,-6930],[-1139,-8880],[-2791,-4807],[-2104,-9042],[-3070,-7943]],[[773756,232387],[-5889,-5841]],[[767867,226546],[-3902,1067]],[[713673,234812],[2160,2543],[750,3417],[-21,6089],[993,7382],[1403,7361],[2784,9893],[4500,5518],[12757,8180],[10257,9430],[9264,16672],[-62,4430],[1326,2942]],[[759784,318669],[5764,5044],[3847,5442],[7847,14959],[3084,2457],[4125,-701],[1784,-3675],[-1014,-4666],[820,-2899],[5528,-1412],[5680,-3104],[3736,1240],[2743,3567],[521,4386],[1938,4408],[4027,6100],[1514,8234],[-1375,6455],[-2986,3707],[-4243,3428],[-7035,2133],[-6930,4042],[-1132,5130],[389,5453],[3035,5852],[3111,2867],[5000,1929],[7576,302],[5465,5711],[1799,5669],[3299,2705],[8923,3708],[3084,2651],[3291,4645],[3077,1918],[9437,1379],[3146,4268]],[[848659,432001],[3965,9290]],[[852624,441291],[1715,1886],[5528,-215],[7486,-9980],[6917,700],[2764,3126],[2417,646],[3812,345],[3007,-1692],[-549,-2942],[-3069,-4171],[-986,-5183],[319,-13461]],[[847638,728361],[-7319,-6487],[-15118,-9495],[-9153,-1563],[-6271,-2101],[-2090,-3449],[2979,-9796],[-6333,-11758],[-2625,-3718],[-2931,-291],[-2868,1735],[-1035,1778],[-3173,377],[-3605,-4903],[-12312,-9085],[-6674,-2641],[-6152,981],[-5445,-711],[-257,-3697],[2285,-2382],[1229,-2640],[-1167,-2662],[-9854,140],[-11486,-5076]],[[738263,650917],[-11986,302],[-6958,2759],[-2236,2446],[-986,5917],[-7056,5496],[-2000,3406],[806,6391],[-3820,3211],[-5097,571],[-11611,4063],[-7306,-172],[-10778,1810],[-4250,-172],[-4437,-938],[-3340,-1789],[-1660,-4073],[-2354,-3632],[-3354,3976],[-63,5464],[1861,5561],[910,5152],[-2556,3589],[-1576,3772],[2694,3653],[1987,6434],[-174,5389],[1000,6552],[-1181,5303],[-7986,6164],[-9701,-140],[-924,-4440],[341,-4915],[-3591,-4677],[-5333,-5108],[-9938,-2436],[-24034,1595]],[[591576,717401],[-3709,-636],[-3868,-916]],[[583999,715849],[-3305,-2241],[-3208,-9614],[-2132,-862],[-4188,3772],[-3174,-118]],[[567992,706786],[771,3157],[-1923,4635],[-549,6466],[2479,7533],[-5840,11294],[21,4311],[930,3233],[3542,5087],[-472,3718],[-9945,20315],[42,6682],[2715,1196],[3174,205],[-861,3697],[-3452,2015],[-1895,3406],[354,3340],[-1722,2867],[-11528,3460],[-4320,3782],[452,2522],[3923,798],[4938,3308],[2042,3223],[-146,5086],[-2056,5389],[153,4904],[9104,5636],[1861,3115],[3403,851],[11055,-6984],[4362,-258],[3430,-4893],[4424,-1379],[7701,4591],[4021,-615],[2354,-3588],[6792,-1574],[1840,-3190],[5333,-991],[12098,129],[3416,-2619],[3250,830],[4097,3675],[7341,-830],[-1111,4257],[2666,442],[3882,-2328],[2847,1509],[3625,8007],[4084,1444],[3826,5141],[3938,-2964],[375,-4720],[5472,-4300],[4764,2091],[4514,-2587],[3055,5184],[-1715,5421],[3674,1616],[1833,4753],[1986,7846],[-6007,9279],[7438,2727],[2881,7845],[4667,2016],[-5076,2920],[-6785,2177],[-4417,-463],[-1069,-4613],[-7979,-4742],[-4389,3158],[3861,4925],[-1222,3988],[-5660,-410],[-812,4095],[847,7383],[-5820,3341],[-2409,4936],[3923,3513],[1764,6876],[-8215,614],[-3729,4990],[3847,6057],[-2507,7059],[-4215,2371],[3368,3233],[12007,-464],[2097,4591],[3451,798],[361,3449],[-2368,786],[549,5130],[1986,2802],[-618,3966],[2444,2511],[-1576,6370],[3639,4677],[5167,-4602],[4333,1412],[-3028,11208],[-7173,4311],[2513,4515],[5250,2630],[5764,1121],[5466,6111],[5902,269],[15118,-5432],[5618,2123],[7195,-1551],[7590,-4473],[3764,-6283],[6507,-5680],[13306,-5280],[12770,3405],[18639,1628],[3354,-10411],[-2097,-3373],[1806,-5184],[-3792,-6930],[208,-8568],[-2604,-12070],[-2736,-2619],[195,-4397],[7354,-3233],[2271,-5206],[-1278,-8729],[3889,-5895],[3868,2640],[423,6801],[4660,1638],[5694,-1046],[3605,-2888],[-1146,-4612],[-2264,-4031],[-389,-8740],[8382,-9538],[854,-6714],[4625,-6111],[4965,-5076],[-4187,-4677],[-479,-6898],[2896,-8136],[10027,-8072],[695,-3234],[-11681,-9720],[771,-3449],[12965,-5981],[1236,-2749],[-4000,-2360],[-597,-4839],[10827,-7102],[1145,-4774],[5834,-1897],[4715,323],[1736,-1972],[8382,798],[2653,-1401],[-1722,-7199],[6916,-2318],[-90,-5690],[6479,-1487],[2938,-2824],[-2084,-3136],[-19472,-2662],[-3014,-3804],[-5430,-3287],[-1299,-8536],[2229,-7005],[-666,-6348],[798,-4591],[2445,-2166],[-8320,-215],[-6229,1605]],[[823964,193320],[-3277,-4084],[715,-1973],[-215,-2026],[-729,-1799],[-1292,-841],[910,-2296],[263,-3157],[-1020,-1046],[-757,-4267],[-3098,-3449],[-513,-1520],[-3896,-1325],[-63,-2608],[-1889,-2738],[-1291,625],[-1334,-2026]],[[806478,158790],[-10569,4096],[-6833,-1919],[-13861,1261],[-6403,-830],[-3014,841],[-3083,2920],[-841,4193],[-8784,4893],[-1834,4558],[-701,4031],[-2070,4720],[-8805,4559],[660,3761]],[[740340,195874],[7951,2835]],[[754465,215693],[6229,8461],[3271,3459]],[[767867,226546],[3723,3427]],[[771590,229973],[4861,-1649],[4138,-2489],[-2000,-3794],[-1374,-1067],[1458,-4235],[3819,1013],[3653,5723],[3917,-65],[1819,-2781],[3056,-1067],[666,-2985],[-10882,-9915],[313,-4548],[2576,-3007],[-2271,-6423]],[[785339,192684],[5931,-6121]],[[791270,186563],[6847,1703],[8750,5528],[6639,-754],[5375,797],[5083,-517]],[[417979,204356],[-4118,-1250]],[[477729,381295],[1229,-4300],[2667,-4193],[16812,-6627],[8375,-4807],[8111,625],[1195,-8277],[1972,-1142],[1618,1390],[-2972,-9936],[-2487,-5271]],[[514249,338757],[-6111,-9386],[1931,-4688],[2715,-2016],[764,-3427],[7278,-4526],[-3070,-4742],[-10791,-6456],[-2486,-2942],[-1195,-5270],[-507,-5723],[722,-4957],[-3381,-13461]],[[500118,271163],[-1556,636],[-12472,-11909],[-5250,-2899],[-4285,-9365],[-11271,-5356],[-6000,-12545]],[[132667,245417],[1958,549],[7347,8557],[4556,3826],[6583,4441],[4715,1120],[18320,-1077],[8527,301],[1716,-4472],[2521,-3266],[8472,-2381],[8465,485],[3813,1735],[1034,2910],[2396,1756],[3431,1380],[1194,3082],[-444,4063],[1368,2942],[9020,6175],[1653,2781],[834,3330],[2409,2457],[4716,2371],[7798,1541],[3868,3320],[10799,2026],[4132,2037]],[[292305,242000],[-6896,-6541],[-1798,-4128],[-6542,-3535],[-4611,-8298],[-3854,-3697],[-3438,-776],[-3930,959],[-5070,-4127],[-14840,1465],[-2653,-1228],[-1361,-4225],[-5944,-603],[-3410,-1423],[-1069,-4483],[-188,-4527],[-1576,-5539],[-2716,-5173]],[[222409,186121],[-7944,-6542]],[[214465,179579],[-11125,-4612],[-16111,-1714],[-13472,-6843],[-15063,215]],[[158694,166625],[-2625,-668]],[[156069,165957],[3035,4440],[1139,5863],[-174,3438],[-2083,2791],[-1111,3373],[104,4430],[3715,12189],[-1298,8546],[-6577,2371],[-4298,-119],[-6827,-4623],[-8152,-7857],[-4723,-2457],[-5819,-151],[-3833,1757],[-667,7932],[-1681,3018],[-3423,2198],[-2160,3373],[-826,4236]],[[110410,220705],[1840,1509],[1972,776]],[[114222,222990],[6049,-388],[9027,5582],[6452,1897],[861,2964],[-424,5399],[-1972,5410],[-1548,1563]],[[1062,87597],[-1062,-324],[1465,614],[-403,-290]],[[63104,142064],[2104,3729],[5104,4149],[12098,-991],[6208,2532],[5868,-959],[4660,852],[4541,3049],[3507,5357],[3993,2996],[6611,-1703],[14202,5960],[7153,-2641]],[[139153,164394],[19541,2231]],[[214465,179579],[3778,2533]],[[218243,182112],[-702,-6639],[3757,-4731],[3611,-1401],[2438,-3503],[2799,-1896],[840,-3460],[-1063,-6703],[-222,-6941],[-1778,-3987],[-555,-5432],[-2375,-7867],[1465,-10271],[-1430,-9290],[-2160,-2586],[-5486,140],[-1910,-1897],[-806,-8783],[-2020,-7124],[4236,-6757],[3639,-1520],[1875,-3459],[-570,-6208],[-1472,-5022],[-2007,-3675],[-4396,-2457]],[[213951,60643],[2049,-18030]],[[216000,42613],[-604,-3481],[-1959,-2964],[-3125,-237],[-4458,1541],[-1174,9355],[-4319,1950],[-5729,-2910],[-7438,2727],[-2541,-2145],[-2028,-5798],[-3188,-3729],[-5569,313],[-2681,-1390],[-41,-4527],[-1695,-3233],[-2778,-3168],[-16993,-1294],[-4243,6725],[625,4451],[-4409,2102],[-2084,-862],[-2319,-4096],[-3132,-1131],[-299,8255],[-2257,1272],[-6659,-5076],[-549,-10573],[1368,-6929]],[[125722,17761],[-535,-4419],[-764,2069],[-2263,733],[-7355,4915],[-2305,301],[-7604,2048],[-11181,-2824],[-5347,2522],[-6014,-1843],[-6430,981],[-5077,-1444],[-11785,-151],[-2805,2479],[-3222,4440],[-6139,4516],[-1389,3459],[-2847,2263],[-1598,3535],[-10138,3319],[-7848,6014],[-819,1800],[437,3653],[-479,992],[-2937,-1218],[-1743,1401],[-452,2630],[2667,3125],[340,1498],[-1041,3298],[-1410,8708],[410,2069],[1680,2996],[-97,1918],[-2618,582],[-4674,-743],[-3451,1638],[-5465,5259],[152,927],[-1847,1983],[-1007,3470],[1167,2684],[3104,1293],[1306,3804],[8416,3449],[2716,8535],[2770,4344],[3042,344],[2646,-1164],[2667,1434],[6270,6488],[7750,1293],[10639,7242],[7618,-1013],[2646,-1713],[1264,4526],[2097,3352],[-3736,506]],[[722499,103105],[-2048,-2177],[-1285,593],[-1201,1778],[1118,2026],[2118,65],[1298,-2285]],[[767645,86777],[-5299,-204],[-1819,-410],[-1076,-1196],[-1021,528],[28,-1002],[-639,-485],[-2986,118],[-945,-1164],[458,-1552],[-1923,-344],[-979,-2221],[-1792,-484],[-639,-1790],[396,-2284],[-1056,172],[-590,-1390],[-722,636],[-2340,-1498],[-2077,970],[111,-1919],[-1062,-1896],[444,-1358],[-5166,-1143],[-1306,-2026],[-3333,-1476],[-2160,-2382],[28,-1832],[-660,-959],[-1639,-809],[-1076,-1778],[-3285,33],[-444,-1229],[389,-313],[-903,-1411],[-465,-367],[-362,981],[-1784,-1142],[680,-1218],[-437,-744],[-1604,-172],[-674,1013],[-3076,-3762],[-3563,-2155],[-2014,-2274],[-2291,-453],[-563,-3179],[-1618,-215],[-3153,1390],[-3139,1498]],[[698499,41880],[3389,2640],[695,2770],[-188,4904],[2181,13751],[-834,3902],[-2618,3739],[-10937,8342],[2333,6746],[-9271,2307],[-21,2101],[1334,4483],[-861,4624],[-13625,6444],[-2966,5572],[-1854,6854]],[[679472,132052],[7659,528]],[[687131,132580],[1313,-2737],[4250,-270],[3486,-1541],[264,-3093],[2382,-2823],[3159,-927],[1889,3783],[2973,1099],[2534,-3384],[4577,-690],[4034,-2436],[1695,-3901],[986,-4763],[5298,-1940],[3341,-270],[5229,1725],[1958,-2091],[486,-2651],[5889,495],[3688,-2575],[2771,711],[2666,2824],[4716,1638],[3451,-3352],[1250,-10206],[6437,-6089],[-208,-2339]],[[113618,21166],[-958,173],[3534,-1197],[-2576,1024]],[[216000,42613],[-313,3847]],[[215687,46460],[3195,1487],[7333,518],[1965,3362],[3618,9840],[4299,3201],[4389,4537],[292,7835],[881,4483],[1785,2231],[2597,1034],[1320,2307],[3069,8934],[2368,2554],[5077,1563],[3444,9063],[1799,1585],[8201,926],[4021,-3825],[1604,-3104],[2486,-108],[2507,6380],[1979,1013],[1146,3998],[-7,4182],[1577,2662],[2034,-1089],[1431,-1918],[326,-3718]],[[290423,116393],[4459,162]],[[294882,116555],[3687,8880],[3521,1056],[11507,-3707],[9542,388]],[[323139,123172],[-1987,-5615]],[[380965,69566],[-5764,-14549],[326,-4451],[-9340,-2996],[-8187,-6423],[-7424,-3987],[-1736,204],[-4820,3934],[-3743,-313],[-5541,2274],[-12215,-5658],[-5278,-1110],[-8931,-5119],[-7861,-1196],[-5903,-3190],[-8027,-474],[-6285,1595],[-2327,-162],[-13402,-6531],[-8486,3201],[-1250,-560],[-2889,-3729],[-7167,-2264],[-5833,-2888],[-12348,-10949],[-13111,-4225],[-7604,517],[-4201,1315],[-3875,3643],[-4014,787],[-5778,5959],[-3333,-5496],[-1722,-1703],[-6431,-2867],[-3417,259],[-11555,3438],[-9132,1142],[-3028,-2015],[-2597,2414],[-3444,1466],[-15049,-130],[-1861,1595],[-1195,3007],[535,4430]],[[852624,441291],[-2180,-5572]],[[850444,435719],[-6167,2253],[-4632,5927],[-7021,6477],[-18903,5378],[-4958,-2974],[-3840,2058],[-2465,-2209],[-153,-3966],[-5611,-1886],[-2514,2209],[-3389,-5055],[-2577,-2489],[-5013,1951],[-4757,-184],[-16736,-8945],[-2792,-4407],[-7229,549],[-1382,-5582],[-2597,-2824]],[[747708,422000],[-1528,-4623]],[[714020,491987],[3618,12878]],[[717638,504865],[-361,10077]],[[717277,514942],[8764,0],[4694,-1261],[4389,1563],[6896,10335],[7229,2587],[8285,75],[3368,5787],[8063,1434],[6381,-10616],[3098,-7759],[4750,-6036],[2847,2943],[4903,9688],[4201,-2112],[257,-6628],[4819,-442],[4167,3104],[3410,3923],[5180,-140],[6750,7145],[6736,151],[3271,-4268],[7222,3287],[3632,9915],[3639,1078],[8743,-1466],[3424,-7124],[5653,2242],[3125,4494],[3555,3438],[4674,-2953],[3042,1520],[3152,4882],[4306,1886],[2333,6153],[3090,2932],[3369,-3233],[-1014,-3212],[4395,1735],[2938,3912],[4562,852],[4153,-1197],[4139,2630],[1764,11887],[3931,-215],[5263,4461],[4167,949],[3757,4171],[4340,-141],[966,-2144],[48,-5087],[2431,-1229],[4014,1908],[2840,-226],[5368,-4182],[6417,-3061],[-973,-12242],[6209,1336],[2430,6315],[5681,712]],[[970520,559398],[2215,-4408],[35,-3643],[2153,-6660],[-618,-2306],[-4389,-3331],[-1750,-2575],[-604,-8525],[7034,-9613],[1889,3567],[2958,-1530],[2896,-6811],[3653,-6521],[3715,-3233],[-1048,-6326],[2562,-5151],[-2493,-4624],[2354,-3739],[-1180,-4829],[319,-4041],[3632,-2177],[3278,-12092],[-5764,916],[-7611,-700],[-8424,-3945],[-4264,151],[-6527,-3513],[-9973,-3471],[-8368,-118],[-2645,-3007],[-4285,-1379],[-3472,118],[-3236,-991],[-1264,1789],[-2334,1304],[-2062,-1649],[-11778,-22],[-3951,-2457],[812,-2511],[-2646,-1099],[-7402,-6079],[354,-1886],[-750,-1250],[-2514,-1401],[-820,-2931],[-6798,-3557],[-1500,-3157],[-5688,-4947],[-2236,-4688]],[[500118,271163],[3777,-4709],[2799,733],[3299,6671],[3208,-690],[2785,-2253],[1777,-3146],[11646,-3481],[5382,-2824],[10368,-7652],[2750,-4106],[361,-6154],[2889,-3847],[5660,-1584],[4771,-2630],[2062,-2942]],[[563652,232549],[667,-4376],[-1854,-6595],[-6000,-10605],[-10750,-6035],[-2466,-4095],[-5513,-518],[-10382,5410],[-2917,-3491],[-1903,-8266],[-2805,-3934],[1222,-6078],[11347,-453],[4063,-3093],[3916,-873],[7216,32],[5520,-3125],[1146,-9085],[-2014,-7232]],[[552145,160137],[-4771,-3599]],[[547374,156538],[-2750,-5303],[-5687,-3610]],[[538937,147625],[-11438,3395]],[[590833,260278],[-2931,2221],[243,3653],[-840,1724],[-2472,2220],[-716,3352],[1237,3923],[5583,6391],[2590,4224],[2368,9894],[2056,3621],[-618,2597],[-2125,2037],[-9486,-2522],[-3799,1283],[-875,2457],[3236,582],[2465,1994],[1445,3545],[125,4171],[-4007,2651],[-4833,1919],[-10327,1325],[-1541,1067]],[[567611,324607],[-1778,9678]],[[565833,334285],[3194,7749],[986,5582],[-3048,4354],[-5535,2651],[-2271,2953],[3910,4732],[-1320,3642],[4452,19043],[2736,7717],[7680,8147],[4646,2414],[4577,-312]],[[637923,319693],[271,-2113],[-584,-5183],[2771,-5173],[4535,-3665],[13347,-4795]],[[658263,298764],[3625,237]],[[882166,374462],[2896,2328],[1014,0],[6131,-4753],[3841,-873],[1104,-1983],[2486,-948],[2361,-2080],[1674,754],[1048,-700],[-90,-1541],[-2715,-1832],[875,-3093],[-1160,-766],[215,-4989],[-2659,-5066],[208,-1929],[-1632,-614],[-750,-1229],[736,-3739],[4646,-3147],[1312,-2748],[3466,-1488],[-1250,-2241],[-118,-1800],[2889,-5238],[-1841,-2004],[660,-2953],[-2111,-2468],[694,-1196],[-2055,-421],[-2188,-3384],[584,-2101],[1548,-1412],[-180,-1358],[-3605,-4365],[-659,-3147],[-4479,-1940],[-1716,216],[-1298,-3567],[-2979,948],[-1500,-539],[-382,-3060],[-1007,-1186],[-3723,-1476],[-69,-1951],[-1715,-431],[-1625,-1972],[-2264,-485],[-2007,-3460],[-1486,-302],[-931,-1767],[-2055,-1207],[-3535,-4397],[-2833,-927],[-2861,453],[-424,-873],[764,-2263],[-2514,-1337],[-1695,-4224],[-138,-1746],[812,-1057],[-229,-1929],[-2500,-4116],[-2521,-2544],[1215,-2985],[-69,-1121],[-1250,-1455],[-1076,-3610],[-3709,-2220],[-48,-712],[2083,-1961],[-146,-604],[-3340,-1433],[-827,-4742],[-3277,-517],[-1007,-1067],[298,-1951],[-1604,-2252],[1514,-2533],[-2062,431],[-1403,-636],[-21,-2144],[965,-2910],[-55,-905],[-861,-464],[590,-646],[-104,-1628],[-396,-1401],[-1521,-905],[729,-1681],[-305,-1110],[-2618,-2188],[277,-1778],[-1229,-1585],[-486,-2123],[-4924,-1498],[-2423,-3190],[-1577,-3955]],[[791270,186563],[-3500,3061],[-2431,3060]],[[771590,229973],[2166,2414]],[[559597,135231],[1368,5939],[-3938,2575],[347,4300],[-5534,5842],[-2611,4041]],[[549229,157928],[2916,2209]],[[563652,232549],[5507,-1013]],[[536444,81486],[-3000,711],[-1986,2350],[-7507,5367],[-11806,14301],[-4430,7037],[-2757,1725],[-14972,5690],[-7368,970],[-9403,-1951],[-6014,1757],[-3563,2985],[-2034,130],[-10028,-3794],[-5806,-3966],[-1958,-2543],[-3437,-108],[-2306,-1983]],[[525006,151807],[13931,-4182]],[[547374,156538],[1855,1390]],[[63104,142064],[-6229,528],[-2813,2662],[-1229,4009],[-1555,1143],[-7709,1433],[-1555,2586],[-1785,1477],[-5514,97],[-7125,7134],[1681,4979],[9194,4732],[785,10162],[1757,9614],[805,8158],[1994,1088],[4562,237],[3632,1283],[3250,2058],[4208,4602],[-847,2080],[-2660,2619],[-3993,1132],[-4791,3610],[1159,4182],[3077,2177],[1604,4106],[111,7393],[1903,4785],[3653,-1703],[3236,2037],[993,3977],[-250,5571],[8146,-5388],[16625,-711],[7263,1972],[848,-4009],[2993,-1757],[6007,-1660],[3354,-2845],[13153,4904],[11625,2899]],[[114222,222990],[-3812,-2285]],[[156069,165957],[-11666,-431],[-5250,-1132]],[[687131,132580],[-3326,-86]],[[709034,162724],[2333,1681],[2091,2673]],[[730520,189882],[9820,5992]],[[806478,158790],[-2194,-1584],[528,-2748],[-1646,-1520],[812,-1584],[-930,-2360],[146,-1175],[-1966,-1498],[1153,-1045],[333,-1304],[-1118,-2199],[348,-1088],[-1417,-1164],[-1160,-3233],[-3194,873],[-2903,-3880],[569,-722],[1139,862],[1278,-819],[-55,-2210],[1173,-215],[229,-787],[2980,1196],[812,-1853],[979,-313],[2542,1024],[576,-614],[2000,1013],[1716,-334],[701,-1434],[-285,-1196],[1195,-862],[-2507,-1908],[-1132,-2101],[562,-431],[486,-3169],[1973,-1595],[-500,-2241],[770,-3589],[-1041,-1768],[-806,-301],[-423,-1843],[-862,-712],[-284,-1217],[507,-1735],[-1396,-917],[-611,-1810],[-820,75],[-1423,-2177],[-2611,-2101],[-1778,-3039],[-1910,-539],[-3660,657],[-3034,-3168],[-5861,-1487],[-1257,204],[-91,1078],[-2541,-22],[-3299,-1508],[-771,636],[-2784,-1251],[-2473,345],[-3597,-1606]],[[668069,219304],[-2667,3254],[-2423,4128]],[[665513,300165],[3403,5000],[5889,2242],[4028,4429],[5139,4149],[4937,2253],[6500,-1229],[6625,-2392],[10132,-5669],[4271,-1099],[965,-3643],[5854,-3783],[9959,-4655],[2986,10022],[8694,4290],[1820,3933],[3937,3287],[4028,1595],[5104,-226]],[[514249,338757],[4674,216],[14007,-7199],[2576,-3416],[2785,-2037],[4952,-1498],[2736,1950],[2409,3136]],[[548388,329909],[9202,1014],[9312,-1671]],[[566902,329252],[709,-4645]],[[665513,300165],[-7250,-1401]],[[743590,412107],[4118,9893]],[[850444,435719],[-1785,-3718]],[[717277,514942],[-7625,-3341],[-9778,-6488],[-3527,-980],[-4882,-8202],[-5535,-2134],[-2952,-108],[-3527,-3028]],[[679451,490661],[-8452,2403]],[[670999,493064],[-5409,-1767],[-5160,1099],[-4438,2867],[230,10303],[3979,2942],[9173,3546],[8007,5130],[8799,7888],[3833,5799],[6042,13503],[-3674,12868],[3049,1520],[6007,-1531],[2264,1401],[430,3859],[-1625,2823],[-3875,3460],[-2375,3502],[146,3524],[1875,2813],[2896,-582],[3194,-2284],[5493,118],[3327,4602],[1882,4731],[486,8331],[-2465,7393],[-1403,7943],[1555,7350],[2507,6725],[2903,4591],[5111,4278],[4583,10691],[8382,6445],[1535,1972]],[[847638,728361],[10764,-1961],[6812,1412],[4605,3287],[4770,269],[3806,-2425],[951,-1993],[6021,754],[5493,3751],[6320,-65],[5333,5216],[5549,140],[4340,4753],[8687,399],[4785,-2339],[7542,2931],[4896,-1659],[3132,-3956],[-494,-9095],[341,-3288],[3805,-4246],[-396,-5022],[-1701,-3944],[1979,-7232],[2952,-7522],[-2237,-5540],[4216,-5216],[9222,-808],[3271,-1670],[5347,3491],[3660,9861],[4798,356],[5341,-2177],[5472,-5432],[4118,-7932],[1486,-8298],[-1660,-6337],[-2798,-7134],[-570,-5820],[8868,-1832],[-4007,-2220],[-2139,-3179],[-62,-13235],[-3715,-5916],[-6313,-3384],[-6812,-6758],[-2278,-4278],[-375,-5378],[653,-4850],[4430,4149],[8271,1542],[2215,-4710],[-2305,-8417],[3354,-5065],[1278,-4947],[3861,-3050],[-125,-2554],[7604,-3804],[-958,-4160],[-8306,-3018],[-2479,-517],[-2007,-1972],[-4715,97],[-2452,5614],[-6291,-3685],[-2979,-4893],[708,-4052]],[[583999,715849],[7577,1552]],[[670999,493064],[2514,-183],[5938,-2220]],[[717638,504865],[-1910,-7888],[-6041,-16468]],[[565833,334285],[1069,-5033]],[[566902,329252],[-13271,1638],[-5243,-981]],[[456208,423832],[-6549,356],[-2597,2748],[4514,4214],[-1347,6628],[-5139,-561],[-3854,3104],[-2459,3427],[-4680,1444],[-49,8460],[-6757,6090],[91,4203],[-757,5065],[1638,2791],[-1076,9958],[2938,2533],[6708,8061],[6472,2651],[17007,4731],[2063,3503],[10104,43],[8354,14366],[16576,5712],[5931,5205],[15034,11025],[4605,4570],[9944,3901],[6396,4268],[7528,12997],[9527,4289],[24973,4764],[15090,4214],[8083,-1638],[6806,269],[3028,2640],[11965,1294],[4444,6671],[2514,1541],[-28,6294],[3848,2554],[1000,6046],[3527,5065],[1243,8115],[-1229,3934],[-3118,3869],[-1576,5130],[62,4839],[-2840,4408],[-14236,8805],[-2417,4892],[-6111,8654],[-5875,5357],[-15889,-927],[-15521,4688],[-2451,9505],[160,21091],[-3834,5098]],[[328034,136395],[-4895,-13223]],[[294882,116555],[-2799,-453],[-1660,291]],[[215687,46460],[-1736,14183]],[[218243,182112],[4166,4009]],[[363034,215198],[-7090,-1466]],[[339527,158952],[987,-2317]],[[698499,41880],[-18951,10206],[-14181,334],[-23673,10098],[-15743,11704],[-6945,11478],[-11041,2457],[-14848,7479],[-11277,-2285]]],"bbox":[107.693,49.1451,122.093,58.424],"transform":{"scale":[0.000014400014400014405,0.000009278909278909279],"translate":[107.693,49.1451]}}