{"type":"Topology","objects":{"muni":{"type":"GeometryCollection","geometries":[{"type":"MultiPolygon","arcs":[[[0]],[[1]],[[2]],[[3]],[[4]],[[5,6,7,8,9]]],"properties":{"GID_2":"UKR.26.1_1","GID_0":"UKR","COUNTRY":"Ukraine","GID_1":"UKR.26_1","NAME_1":"Zaporizhia","NL_NAME_1":"Запорізька","NAME_2":"Berdians'ka","VARNAME_2":"Berdyansk","NL_NAME_2":"NA","TYPE_2":"Mis'kaRada","ENGTYPE_2":"CityofRegionalSignificance","CC_2":"NA","HASC_2":"UA.ZP.BM","terra_incognita":true,"NAME_1_REGION_RU":"Запорожская область"}},{"type":"MultiPolygon","arcs":[[[10,-8,11,-6,12,13,14,15,16,17,18,19,20]]],"properties":{"GID_2":"UKR.26.2_1","GID_0":"UKR","COUNTRY":"Ukraine","GID_1":"UKR.26_1","NAME_1":"Zaporizhia","NL_NAME_1":"Запорізька","NAME_2":"Berdians'kyi","VARNAME_2":"Berdyanskyi","NL_NAME_2":"NA","TYPE_2":"Raion","ENGTYPE_2":"District","CC_2":"NA","HASC_2":"UA.ZP.BR","terra_incognita":true,"NAME_1_REGION_RU":"Запорожская область"}},{"type":"MultiPolygon","arcs":[[[21,-18,22,23,24,25,26,27,28,29,30,31,32,33,34,35]]],"properties":{"GID_2":"UKR.26.3_1","GID_0":"UKR","COUNTRY":"Ukraine","GID_1":"UKR.26_1","NAME_1":"Zaporizhia","NL_NAME_1":"Запорізька","NAME_2":"Chernihivs'kyi","VARNAME_2":"Chernigivskyi-Zap","NL_NAME_2":"NA","TYPE_2":"Raion","ENGTYPE_2":"District","CC_2":"NA","HASC_2":"UA.ZP.CH","terra_incognita":true,"NAME_1_REGION_RU":"Запорожская область"}},{"type":"MultiPolygon","arcs":[[[36]]],"properties":{"GID_2":"UKR.26.4_1","GID_0":"UKR","COUNTRY":"Ukraine","GID_1":"UKR.26_1","NAME_1":"Zaporizhia","NL_NAME_1":"Запорізька","NAME_2":"Enerhodars'ka","VARNAME_2":"Enerhodar","NL_NAME_2":"NA","TYPE_2":"Misto","ENGTYPE_2":"City","CC_2":"NA","HASC_2":"UA.ZP.EN","terra_incognita":true,"NAME_1_REGION_RU":"Запорожская область"}},{"type":"MultiPolygon","arcs":[[[37,38,39,40,41,42,43,44,45,46,47,48]]],"properties":{"GID_2":"UKR.26.5_1","GID_0":"UKR","COUNTRY":"Ukraine","GID_1":"UKR.26_1","NAME_1":"Zaporizhia","NL_NAME_1":"Запорізька","NAME_2":"Huliaipil's'kyi","VARNAME_2":"Gulyaypolskyi","NL_NAME_2":"NA","TYPE_2":"Raion","ENGTYPE_2":"District","CC_2":"NA","HASC_2":"UA.ZP.HU","terra_incognita":true,"NAME_1_REGION_RU":"Запорожская область"}},{"type":"MultiPolygon","arcs":[[[49]],[[50,51,52,53,54]]],"properties":{"GID_2":"UKR.26.6_1","GID_0":"UKR","COUNTRY":"Ukraine","GID_1":"UKR.26_1","NAME_1":"Zaporizhia","NL_NAME_1":"Запорізька","NAME_2":"Iakymivs'kyi","VARNAME_2":"Yakymivskyi","NL_NAME_2":"NA","TYPE_2":"Raion","ENGTYPE_2":"District","CC_2":"NA","HASC_2":"UA.ZP.IA","terra_incognita":true,"NAME_1_REGION_RU":"Запорожская область"}},{"type":"MultiPolygon","arcs":[[[55,56,57,58,59],[-37]]],"properties":{"GID_2":"UKR.26.7_1","GID_0":"UKR","COUNTRY":"Ukraine","GID_1":"UKR.26_1","NAME_1":"Zaporizhia","NL_NAME_1":"Запорізька","NAME_2":"Kamians'ko-Dniprovs'kyi","VARNAME_2":"KamyanskoDniprovs|KamyanskoDnipr","NL_NAME_2":"NA","TYPE_2":"Raion","ENGTYPE_2":"District","CC_2":"NA","HASC_2":"UA.ZP.KA","terra_incognita":true,"NAME_1_REGION_RU":"Запорожская область"}},{"type":"MultiPolygon","arcs":[[[60,-20,61,-36,62,-34,63,64,65,66,67,68]]],"properties":{"GID_2":"UKR.26.8_1","GID_0":"UKR","COUNTRY":"Ukraine","GID_1":"UKR.26_1","NAME_1":"Zaporizhia","NL_NAME_1":"Запорізька","NAME_2":"Kuibyshevs'kyi","VARNAME_2":"Kuybyshevskyi-Zap","NL_NAME_2":"NA","TYPE_2":"Raion","ENGTYPE_2":"District","CC_2":"NA","HASC_2":"UA.ZP.KU","terra_incognita":true,"NAME_1_REGION_RU":"Запорожская область"}},{"type":"MultiPolygon","arcs":[[[69]]],"properties":{"GID_2":"UKR.26.9_1","GID_0":"UKR","COUNTRY":"Ukraine","GID_1":"UKR.26_1","NAME_1":"Zaporizhia","NL_NAME_1":"Запорізька","NAME_2":"Melitopol's'ka","VARNAME_2":"Melitopol","NL_NAME_2":"NA","TYPE_2":"Misto","ENGTYPE_2":"City","CC_2":"NA","HASC_2":"UA.ZP.MM","terra_incognita":true,"NAME_1_REGION_RU":"Запорожская область"}},{"type":"MultiPolygon","arcs":[[[-52,70,71,72,73,74,75,76,77,78],[-70]]],"properties":{"GID_2":"UKR.26.10_1","GID_0":"UKR","COUNTRY":"Ukraine","GID_1":"UKR.26_1","NAME_1":"Zaporizhia","NL_NAME_1":"Запорізька","NAME_2":"Melitopol's'kyi","VARNAME_2":"Melitopolskyi","NL_NAME_2":"NA","TYPE_2":"Raion","ENGTYPE_2":"District","CC_2":"NA","HASC_2":"UA.ZP.MR","terra_incognita":true,"NAME_1_REGION_RU":"Запорожская область"}},{"type":"MultiPolygon","arcs":[[[79,-74,80,81,82,83,84,85,86,87,88]]],"properties":{"GID_2":"UKR.26.11_1","GID_0":"UKR","COUNTRY":"Ukraine","GID_1":"UKR.26_1","NAME_1":"Zaporizhia","NL_NAME_1":"Запорізька","NAME_2":"Mykhailivs'kyi","VARNAME_2":"Myhalivskyi-Zap","NL_NAME_2":"NA","TYPE_2":"Raion","ENGTYPE_2":"District","CC_2":"NA","HASC_2":"UA.ZP.MY","terra_incognita":true,"NAME_1_REGION_RU":"Запорожская область"}},{"type":"MultiPolygon","arcs":[[[-48,89,90,91,92,93,94,95]]],"properties":{"GID_2":"UKR.26.12_1","GID_0":"UKR","COUNTRY":"Ukraine","GID_1":"UKR.26_1","NAME_1":"Zaporizhia","NL_NAME_1":"Запорізька","NAME_2":"Novomykola‹vs'kyi","VARNAME_2":"Novomykolaivskyi","NL_NAME_2":"NA","TYPE_2":"Raion","ENGTYPE_2":"District","CC_2":"NA","HASC_2":"UA.ZP.NO","terra_incognita":true,"NAME_1_REGION_RU":"Запорожская область"}},{"type":"MultiPolygon","arcs":[[[96,-46,97,98,99,100,101,102,103,104,105,106,107,108,109,110,111,-91]]],"properties":{"GID_2":"UKR.26.13_1","GID_0":"UKR","COUNTRY":"Ukraine","GID_1":"UKR.26_1","NAME_1":"Zaporizhia","NL_NAME_1":"Запорізька","NAME_2":"Orikhivs'kyi","VARNAME_2":"Orihivskyi","NL_NAME_2":"NA","TYPE_2":"Raion","ENGTYPE_2":"District","CC_2":"NA","HASC_2":"UA.ZP.OR","terra_incognita":true,"NAME_1_REGION_RU":"Запорожская область"}},{"type":"MultiPolygon","arcs":[[[112,-32,113,-30,114,115,116,-99,117,-44,118,-42,119,-40,120,-65]]],"properties":{"GID_2":"UKR.26.14_1","GID_0":"UKR","COUNTRY":"Ukraine","GID_1":"UKR.26_1","NAME_1":"Zaporizhia","NL_NAME_1":"Запорізька","NAME_2":"Polohivs'kyi","VARNAME_2":"Polozkyi","NL_NAME_2":"NA","TYPE_2":"Raion","ENGTYPE_2":"District","CC_2":"NA","HASC_2":"UA.ZP.PO","terra_incognita":true,"NAME_1_REGION_RU":"Запорожская область"}},{"type":"MultiPolygon","arcs":[[[-26,121,122,123,124,125,-54,126,-78,127,128,129]]],"properties":{"GID_2":"UKR.26.15_1","GID_0":"UKR","COUNTRY":"Ukraine","GID_1":"UKR.26_1","NAME_1":"Zaporizhia","NL_NAME_1":"Запорізька","NAME_2":"Pryazovs'kyi","VARNAME_2":"Pryazovskyi","NL_NAME_2":"NA","TYPE_2":"Raion","ENGTYPE_2":"District","CC_2":"NA","HASC_2":"UA.ZP.PZ","terra_incognita":true,"NAME_1_REGION_RU":"Запорожская область"}},{"type":"MultiPolygon","arcs":[[[130]],[[131]],[[-16,132,-14,133,-125,134,-123,135,136,-24,137]]],"properties":{"GID_2":"UKR.26.16_1","GID_0":"UKR","COUNTRY":"Ukraine","GID_1":"UKR.26_1","NAME_1":"Zaporizhia","NL_NAME_1":"Запорізька","NAME_2":"Prymors'kyi","VARNAME_2":"Prymorskyi-Zap","NL_NAME_2":"NA","TYPE_2":"Raion","ENGTYPE_2":"District","CC_2":"NA","HASC_2":"UA.ZP.PM","terra_incognita":true,"NAME_1_REGION_RU":"Запорожская область"}},{"type":"MultiPolygon","arcs":[[[138,-69,139,-67,140,-38]]],"properties":{"GID_2":"UKR.26.17_1","GID_0":"UKR","COUNTRY":"Ukraine","GID_1":"UKR.26_1","NAME_1":"Zaporizhia","NL_NAME_1":"Запорізька","NAME_2":"Rozivs'kyi","VARNAME_2":"Rozivskyi-Zap","NL_NAME_2":"NA","TYPE_2":"Raion","ENGTYPE_2":"District","CC_2":"NA","HASC_2":"UA.ZP.RO","terra_incognita":true,"NAME_1_REGION_RU":"Запорожская область"}},{"type":"MultiPolygon","arcs":[[[141]]],"properties":{"GID_2":"UKR.26.18_1","GID_0":"UKR","COUNTRY":"Ukraine","GID_1":"UKR.26_1","NAME_1":"Zaporizhia","NL_NAME_1":"Запорізька","NAME_2":"Tokmats'ka","VARNAME_2":"NA","NL_NAME_2":"NA","TYPE_2":"Misto","ENGTYPE_2":"City","CC_2":"NA","HASC_2":"UA.ZP.TM","terra_incognita":true,"NAME_1_REGION_RU":"Запорожская область"}},{"type":"MultiPolygon","arcs":[[[-28,142,-129,143,-76,144,-89,145,-87,146,147,148,149,150,151,-101,152,-116,153],[-142]]],"properties":{"GID_2":"UKR.26.19_1","GID_0":"UKR","COUNTRY":"Ukraine","GID_1":"UKR.26_1","NAME_1":"Zaporizhia","NL_NAME_1":"Запорізька","NAME_2":"Tokmats'kyi","VARNAME_2":"Tokmakskyi","NL_NAME_2":"NA","TYPE_2":"Raion","ENGTYPE_2":"District","CC_2":"NA","HASC_2":"UA.ZP.TR","terra_incognita":true,"NAME_1_REGION_RU":"Запорожская область"}},{"type":"MultiPolygon","arcs":[[[154,155,-103,156,-151,157,-149,158,-84,159,160,161,162,163,-57,164,165]]],"properties":{"GID_2":"UKR.26.20_1","GID_0":"UKR","COUNTRY":"Ukraine","GID_1":"UKR.26_1","NAME_1":"Zaporizhia","NL_NAME_1":"Запорізька","NAME_2":"Vasylivs'kyi","VARNAME_2":"Vasylivskyi-Zap","NL_NAME_2":"NA","TYPE_2":"Raion","ENGTYPE_2":"District","CC_2":"NA","HASC_2":"UA.ZP.VA","terra_incognita":true,"NAME_1_REGION_RU":"Запорожская область"}},{"type":"MultiPolygon","arcs":[[[166,-59,167,-163,168,169,170,171,172]]],"properties":{"GID_2":"UKR.26.21_1","GID_0":"UKR","COUNTRY":"Ukraine","GID_1":"UKR.26_1","NAME_1":"Zaporizhia","NL_NAME_1":"Запорізька","NAME_2":"Velykobilozers'kyi","VARNAME_2":"Velykobilozerskyi","NL_NAME_2":"NA","TYPE_2":"Raion","ENGTYPE_2":"District","CC_2":"NA","HASC_2":"UA.ZP.VB","terra_incognita":true,"NAME_1_REGION_RU":"Запорожская область"}},{"type":"MultiPolygon","arcs":[[[173,174,-172,175,-170,176,-161,177,-82,178,-72,179]]],"properties":{"GID_2":"UKR.26.22_1","GID_0":"UKR","COUNTRY":"Ukraine","GID_1":"UKR.26_1","NAME_1":"Zaporizhia","NL_NAME_1":"Запорізька","NAME_2":"Veselivs'kyi","VARNAME_2":"Veselivskyi","NL_NAME_2":"NA","TYPE_2":"Raion","ENGTYPE_2":"District","CC_2":"NA","HASC_2":"UA.ZP.VS","terra_incognita":true,"NAME_1_REGION_RU":"Запорожская область"}},{"type":"MultiPolygon","arcs":[[[180,-95,181,-93,182,-111,183,-109,184,-107,185,186,187,188,189,190,191]]],"properties":{"GID_2":"UKR.26.23_1","GID_0":"UKR","COUNTRY":"Ukraine","GID_1":"UKR.26_1","NAME_1":"Zaporizhia","NL_NAME_1":"Запорізька","NAME_2":"Vil'nians'kyi","VARNAME_2":"Vilnyanskyi","NL_NAME_2":"NA","TYPE_2":"Raion","ENGTYPE_2":"District","CC_2":"NA","HASC_2":"UA.ZP.VI","terra_incognita":true,"NAME_1_REGION_RU":"Запорожская область"}},{"type":"MultiPolygon","arcs":[[[-189,192,193,194,195,196]]],"properties":{"GID_2":"UKR.26.24_1","GID_0":"UKR","COUNTRY":"Ukraine","GID_1":"UKR.26_1","NAME_1":"Zaporizhia","NL_NAME_1":"Запорізька","NAME_2":"Zaporiz'ka","VARNAME_2":"Zaporizhia","NL_NAME_2":"NA","TYPE_2":"Mis'kaRada","ENGTYPE_2":"CityofRegionalSignificance","CC_2":"NA","HASC_2":"UA.ZP.ZM","terra_incognita":true,"NAME_1_REGION_RU":"Запорожская область"}},{"type":"MultiPolygon","arcs":[[[197,-191,198,-196,199,-194,200,-187,201,-105,202,-155,203]]],"properties":{"GID_2":"UKR.26.25_1","GID_0":"UKR","COUNTRY":"Ukraine","GID_1":"UKR.26_1","NAME_1":"Zaporizhia","NL_NAME_1":"Запорізька","NAME_2":"Zaporiz'kyi","VARNAME_2":"Zaporizkyi","NL_NAME_2":"NA","TYPE_2":"Raion","ENGTYPE_2":"District","CC_2":"NA","HASC_2":"UA.ZP.ZR","terra_incognita":true,"NAME_1_REGION_RU":"Запорожская область"}}]}},"arcs":[[[844775,281034],[805,1626],[903,443],[-1708,-2069]],[[851027,287487],[194,-985],[-548,542],[354,443]],[[855959,302118],[451,-6700],[-290,9409],[-161,-2709]],[[841809,282660],[1161,-1084],[-903,-1773],[-258,2857]],[[842970,285665],[-1064,-1872],[-645,0],[1709,1872]],[[825404,345615],[644,12808],[-15600,17537],[-1611,19902]],[[808837,395862],[3094,5615],[-2578,2907],[3094,5616]],[[812447,410000],[33488,4384],[-3127,-5567],[8284,-345],[-3481,-11231],[10862,-3350],[-871,-14138],[2418,-5763],[16341,-3596],[-322,-5616],[-5480,246]],[[870559,365024],[-3319,-11083]],[[867240,353941],[14246,-3646],[-20241,-52955],[-13602,-21232],[-7703,-3990],[-903,5222],[6801,4236],[-451,-4236],[4673,9606],[4480,1625],[-1901,3399],[2611,-1921],[3029,3153],[6092,15862],[-12699,20936],[-5028,147],[-548,4532],[-8122,6158],[-12570,4778]],[[867240,353941],[290,5615],[3029,5468]],[[812447,410000],[-3610,-14138]],[[825404,345615],[-25688,148],[-33102,-12315],[323,6798]],[[766937,340246],[-2933,-2759],[-2482,5715],[-5544,98],[6511,16897],[-7317,17192],[-5350,2955],[-7316,14385],[354,5665],[5834,5615],[-5479,99],[354,5714],[-8187,99],[355,5714],[-2707,49]],[[733030,417684],[3448,11380],[-2030,11477]],[[734448,440541],[13859,2611],[548,8572],[8928,11231],[-2546,2907],[-2933,-2808],[354,5763],[-7832,5862]],[[744826,474679],[-1998,11527],[-2740,50]],[[740088,486256],[8380,2660],[-1998,11527],[-2740,49],[516,8621],[8219,-197],[-2901,-2808],[2546,-2907]],[[752110,503201],[61562,15518]],[[813672,518719],[1450,22955],[5544,-197],[-2418,5862],[2579,-2955],[33649,4482],[-5930,-5517],[2771,-98]],[[851317,543251],[25366,4679],[2418,-5862],[18822,-9507],[13280,-9360],[-3127,-5566],[2740,-148],[-194,-2906],[8316,-444],[-387,-5714],[2772,-148],[-3159,-5615],[2547,-3005],[-387,-5764],[5125,-6059],[15986,-9803],[11442,4877],[5125,-6305],[-612,-8720],[-9090,-10837],[15665,-13301],[-8864,-7881],[-8219,837],[-11603,-7635],[2353,-6059],[-8638,-4976],[9831,-21921],[-7575,-5862],[-15922,-3695],[-24173,-20936],[-9315,-14926],[-6511,50],[162,2807],[-8251,395]],[[757783,505960],[-5673,-2759]],[[740088,486256],[-4738,11527]],[[735350,497783],[-30394,-5271],[-3094,-5665],[-2546,2857],[-13795,-2709],[-14310,-11380],[-3062,-5714],[-677,-11478],[-13763,-2808],[-838,-14335],[2385,-5763],[-19306,-5714],[2546,-2858]],[[638496,426945],[-16438,-2955]],[[622058,423990],[645,11478],[-2546,2857],[-30491,-11675],[-870,34433],[-2579,2857],[323,5813],[11023,2907],[-2418,5763],[-16792,-8719],[290,5764],[-11023,-2907]],[[567620,472561],[-2159,11576]],[[565461,484137],[-11056,-2906],[-2288,8719],[870,17389],[2740,0],[290,5813],[-10926,49],[-2611,2956],[290,5813],[-8187,49],[-2030,14631],[21885,-197],[27686,5615],[903,17390],[3190,8719],[2740,-49],[-7155,20443],[3062,5763],[-5061,8769],[8864,11527]],[[588667,614630],[16019,-8916]],[[604686,605714],[35873,2561],[13376,-5862],[7735,-8719],[-5963,-8621],[2579,-2906]],[[658286,582167],[16277,-3005],[2900,2857],[5480,-49],[-162,-2857],[13892,2709]],[[696673,581822],[7864,-5862],[-161,-2906],[8219,-99]],[[712595,572955],[516,8621],[5995,8522],[15922,-8916]],[[735028,581182],[5125,-5862]],[[740153,575320],[1482,-20197],[-12376,-22759]],[[729259,532364],[27396,-542],[1128,-25862]],[[153871,689654],[-97,-2955],[2869,2857],[225,5911],[2772,-98],[8122,-6158],[-225,-5911],[-11539,-11429],[-10668,12168],[-11120,394],[-2450,8916],[14118,5419],[7993,-9114]],[[834461,757733],[-387,-5763]],[[834074,751970],[-39354,-7488],[-2579,3005]],[[792141,747487],[355,5763]],[[792496,753250],[-2772,99],[-61561,-10099]],[[728163,743250],[-8799,-8522],[-36550,-11034],[-3094,-5764],[2095,-11625],[-8090,3005],[-355,-5764],[-13924,-2709],[-2449,5862],[483,8670]],[[657480,715369],[-13343,8965],[-2740,50]],[[641397,724384],[-645,-11626],[-8283,148],[-2450,5862]],[[630019,718768],[-5511,148],[-3062,-5813]],[[621446,713103],[-11216,-2660],[-8123,3054],[613,11675],[5672,2808],[-1224,29211],[-27203,9409],[-2482,5912],[1515,29211]],[[578998,801723],[81609,21380]],[[660607,823103],[-5383,3054],[6156,11527],[-129,-2956],[2772,-49]],[[664023,834679],[935,17488],[5415,-3055],[14020,2611],[5060,-8867],[16825,2513],[354,5862],[2933,2808],[11281,2709],[27268,-9360],[37194,16503],[8316,-247],[2611,-3004],[-2933,-2808],[2771,-99],[-9379,-17192],[-548,-8670],[28170,4926],[-741,-11576],[4673,-14680],[5383,-3103],[-548,-8670],[4480,-17587],[25237,2020],[-3159,-5665],[-17243,-8128],[-742,-11576],[2805,-99]],[[294076,35566],[-7188,-3300],[3320,2315],[3868,985]],[[221975,346995],[30619,5221]],[[252594,352216],[2579,-6009],[5511,-148],[2482,-8966],[2740,-98],[2385,-11921],[-3352,-17833],[-2772,49],[1998,-23941],[41675,11281],[21853,-3251],[419,11872],[8218,-99],[2224,-14876],[8316,2906],[2643,-2956],[290,8867],[5479,-49],[-322,-8867],[2643,-2956],[8316,2907],[-2321,11822],[13440,-5960],[13666,49],[-8863,-17685],[8186,0]],[[390027,276354],[-6220,-20591]],[[383807,255763],[2514,-5862],[1353,-37980],[2611,-2857]],[[390285,209064],[6672,-37192],[8477,-13054],[-36067,-57045],[-37355,-69113],[-20499,-16256],[-41546,-16404],[2707,936],[-1901,1231],[1160,6158],[3674,-837],[-4029,5221],[13086,10690],[97,6010],[12248,-1379],[-1966,7931],[5382,837],[-4673,-3990],[6285,-690],[-903,4926],[18791,4138],[23915,12710],[2966,7093],[-291,9163],[1805,-1183],[-354,3399],[11377,11774],[3030,5763],[-1515,1330],[11732,17242],[-3062,1773],[1612,5517],[6349,1183],[12732,23300],[-8155,-2758],[-5092,-13153],[96,4827],[-4480,6848],[-12183,-838],[-2159,11084],[-19049,2611],[-6897,-8375],[-15149,-8620],[-6704,-18572],[-7155,-10147],[-3030,4187],[5511,3153],[291,11724],[-6962,44335],[-11023,-3055],[-21531,14926],[-16599,-5960],[-5028,18128],[5512,-49],[-2353,15123],[-13763,148],[-27783,-8621],[-2707,3103],[258,9064],[-10991,3301],[-2450,12167],[2933,5961],[11056,-246],[-1838,33152],[-2675,3104],[-22207,-2414],[2933,5961],[-11184,-2710],[-5286,9212],[258,9015],[8412,2709],[-2578,6109],[19467,2413],[14117,8572],[-2578,6059],[5640,2857],[-2030,23941],[16696,2512],[193,5961]],[[257042,695320],[-20950,-37685],[-11700,-14434]],[[224392,643201],[10894,-6207],[-3029,-5812],[-19436,591]],[[212821,631773],[1999,-20838]],[[214820,610935],[-31522,-9606],[-29234,-2906],[-1934,-13596],[-10152,2906],[-8284,10690],[-6994,-985],[-3191,-24286],[-2449,-2758]],[[121060,570394],[-10475,2758],[-2095,17783],[5543,-197],[-2546,6010],[-13988,-2463],[-5447,3153],[-5641,-2710],[-548,-14729],[-5543,197],[-8670,-8522],[-5319,6109],[-5543,246],[-8670,-8522],[-14891,50689],[3320,14582],[-5480,3152],[-2481,8917],[-8058,9162],[-8251,3251],[-16277,15370],[42287,10098],[5769,5665],[8348,-295],[17050,8226],[30846,4779],[33810,10640],[27783,-887],[35422,-18817],[33359,-986],[11345,5567],[11023,-3300]],[[923612,605960],[-12571,-1872],[-2417,5911],[-3159,-5665],[-5189,6059],[-2965,-2758],[1257,-23202],[4255,-20394],[4963,-8916],[-3159,-5616],[-16470,3694],[-14439,-8029],[-22401,-1921]],[[813672,518719],[-53149,-12857],[-2740,98]],[[729259,532364],[9121,14187],[3964,20099],[-2191,8670]],[[735028,581182],[-13183,8867]],[[721845,590049],[355,5763],[-2578,2956],[14246,8374],[515,8670],[2933,2808],[8058,-3054],[4964,-8769],[11152,2661],[-2385,5812],[-5480,99],[-5157,5911],[-1869,14483],[5318,-3005],[8445,2660],[8799,8473],[515,8670],[8445,2660],[-10121,14729],[8606,5567],[741,11527],[19145,-3399],[516,8620],[2611,-2955],[354,5763],[8477,2660],[355,5764],[8315,-246],[709,11576],[-8122,3153],[-2933,-2808],[-4996,8817],[14214,5370],[-2610,3005],[354,5763],[-14020,-2463]],[[799716,735664],[-2418,5862],[3127,5715],[17018,3005]],[[817443,750246],[16437,-59853],[5157,-7192],[10798,1429],[7026,-10000]],[[856861,674630],[5157,0],[8896,2118]],[[870914,676748],[7510,10788],[6543,-17192],[14052,-11478],[-934,-10049],[-10766,-10739],[452,-7143],[23432,-7881],[12409,-17094]],[[391091,373645],[11055,2857],[13537,-3005],[4964,-11822],[-14117,-11725],[-3900,-29458],[-5447,50],[225,5862],[-13537,3005],[226,5911],[-2643,2956],[-5673,-5863],[-5253,5961],[8541,8769],[-2514,5960],[2739,-49],[-5221,5960],[2965,5912],[8316,2857],[354,8867],[5383,-3005]],[[252594,352216],[5544,-147]],[[258138,352069],[-2385,11970],[5640,2857],[5512,-148],[2385,-11970],[11120,2759],[96,2955],[8284,-148],[322,8917],[14021,5665],[-2450,8916],[13988,5665],[-4963,14926],[11474,11626],[451,11822],[11152,2759],[322,8867],[16567,-296],[-2643,3005],[-1515,32562]],[[345516,474778],[11184,2758]],[[356700,477536],[-612,-14778],[11055,-197],[2998,5862],[-2643,3005],[451,11773],[11055,-197],[-2288,11872],[8283,-147],[355,8817],[8154,-3103],[-2997,-5813],[10894,-3153],[-3127,-8768],[8123,-3104],[-355,-8817],[11249,5714]],[[417295,476502],[44188,5320]],[[461483,481822],[5866,8719],[13699,-147],[15599,-17685],[-5608,-2857],[-419,-8769],[5480,-49],[3803,-35025],[5576,2907],[290,5862],[11055,2906]],[[516824,437684],[2579,-2906],[1869,-17439]],[[521272,417339],[-8316,-2955],[-548,-11626],[-8315,-2906],[-548,-11626],[-2869,-2955],[-13730,-2956],[-548,-11675],[-10862,-49],[516,11675],[-8155,-50],[-1450,-32118],[1966,-17487],[-13827,-6010],[-741,-17488],[-24689,-6108],[-3062,-8818],[-16438,-3054],[-3062,-8818],[-11120,-5911],[226,5862],[-5447,0]],[[390253,282266],[-226,-5912]],[[436666,479211],[-19371,-2709]],[[356700,477536],[-33391,-5270]],[[323309,472266],[226,5911],[-13827,295],[-5318,6060],[-8509,-5715],[2546,-6010],[-11184,-2709],[96,3005],[-2772,49],[-14052,-5566]],[[270515,467586],[-6994,35714],[11087,-296]],[[274608,503004],[-1998,20739],[16857,5518],[-2450,8916],[3223,11724],[355,8867],[-2643,3005],[2868,2906],[355,8818],[-2675,3054],[16889,5468],[2901,2857],[225,5912],[19532,2463],[-1708,26551],[-2772,99],[2901,2857]],[[326468,622758],[103203,12315]],[[429671,635073],[2257,-11773]],[[431928,623300],[-10959,3153],[-8412,-2759],[1998,-17685],[18855,-12167],[-11957,-20345],[15922,-14975]],[[437375,558522],[2256,-11774],[-11539,-11576]],[[428092,535172],[10894,-3104],[-6414,-20492],[-7993,6010],[-5640,-2857],[21369,-15025],[-2998,-5813],[-644,-14680]],[[660607,823103],[-78709,-18523]],[[581898,804580],[-2159,11774],[-21917,6404],[-2482,5911],[-16696,443],[-1514,26454],[-14053,-2562],[258,5862],[-19629,-2414],[-2675,3005],[2933,2857],[-2514,5912],[-13956,394]],[[487494,868620],[6672,23300]],[[494166,891920],[25849,13990]],[[520015,905910],[3062,5764],[3642,17488],[-12602,29704]],[[514117,958866],[709,14680],[-2514,5960]],[[512312,979506],[2933,2808],[28009,-788],[1933,-17685],[51215,16109],[2676,-3005],[-3836,-20394],[22626,5172],[2611,-3005],[-2933,-2857],[5125,-8916],[-11442,-5517],[10668,-9114],[4641,-17734],[-451,-8768],[2482,-5911],[8348,-247],[2159,-11724],[-773,-14630],[-6027,-8621],[-2772,98],[451,8769],[-11120,295],[-290,-5862],[8155,-3152],[-291,-5813],[8155,-3153],[16825,2513],[3094,5763],[11119,-295],[-1579,-29163]],[[581898,804580],[-2900,-2857]],[[621446,713103],[-6930,-26059]],[[614516,687044],[-5189,5911],[-5673,-2808],[-322,-5813],[2772,-49],[-3384,-11626]],[[602720,672659],[-44253,-2118],[-24657,3448],[-11184,-2709]],[[522626,671280],[-6672,-23300],[-13924,-2660],[-13247,12019],[-8573,-5714],[-10927,3202]],[[469283,654827],[-11184,-2709]],[[458099,652118],[-7123,26551],[-1579,26503],[-5028,11872],[-1612,26453],[-27944,-2266],[5963,8670],[-22272,542],[387,8817]],[[398891,759260],[2901,2857]],[[401792,762117],[-2514,5961],[386,8818],[13892,-345],[2546,-5961],[5705,2808],[258,5862],[-5318,6010],[516,11774],[3029,5763],[-8251,3153],[-4673,20689],[8766,8621]],[[416134,835270],[-2159,14729]],[[413975,849999],[8509,2710],[387,8817],[2901,2857]],[[425772,864383],[16921,2513]],[[442693,866896],[-419,-8818]],[[442274,858078],[28202,5123]],[[470476,863201],[2514,-5960]],[[472990,857241],[2804,-50],[11700,11429]],[[721845,590049],[-5672,-2759],[-3578,-14335]],[[696673,581822],[-24850,-2611],[-13537,2956]],[[604686,605714],[-23980,14877],[-8251,98],[-10379,11823]],[[562076,632512],[1322,26256],[-2160,11724]],[[561238,670492],[41482,2167]],[[614516,687044],[7059,28965],[8444,2759]],[[641397,724384],[16083,-9015]],[[728163,743250],[64333,10000]],[[792141,747487],[5351,-3054],[2224,-8769]],[[622058,423990],[-2868,-2857],[2546,-2858],[-2869,-2857]],[[618867,415418],[2547,-2857]],[[621414,412561],[-3385,-11478],[-8444,-5812],[-16245,-148],[-2868,-2907]],[[590472,392216],[-806,-14335],[27558,8867],[3029,5764],[7768,-5714],[8283,2906],[7607,-8571],[-16567,-5764],[1837,-14286],[-19370,-8719],[934,-28522],[-24528,-6010],[-483,-8571],[2675,0],[-5705,-5764],[-13408,-246],[2353,-5665],[-645,-11921]],[[571004,285665],[-17920,-7242],[-8606,-8473],[-36808,-20541],[-4028,5763],[2707,-8768],[-39128,-44040],[-44221,-22019],[-17470,-21380],[-6123,7390],[-9122,42709]],[[383807,255763],[225,5862],[5770,8867],[451,11774]],[[521272,417339],[-2031,14532]],[[519241,431871],[22240,8769],[5737,5813],[2707,0],[2160,-11577],[8283,2956],[-2417,5764],[13924,5862],[-2450,5763],[-2707,-49],[2868,2906]],[[569586,458078],[-1966,14483]],[[669116,239310],[-1548,-1527],[548,1232],[1000,295]],[[675368,244926],[0,1231],[709,247],[-709,-1478]],[[734448,440541],[-355,-5714],[2740,-49],[-3803,-17094]],[[766937,340246],[-387,-6798],[-36034,-14483],[-16277,-12217],[-18533,-25172],[-25076,-48177],[-17275,-24877],[-8155,936],[-10024,-7094],[-5447,789],[2837,4137],[6994,-1379],[7510,7685],[-516,14630],[2127,-3546],[-1418,-3449],[4996,-2019],[17308,13546],[22465,42956],[-4222,1773],[1901,-2758],[-2611,-394],[-1514,3152],[354,-4778],[-3771,2562],[4674,-8178],[-1966,-4236],[-1967,6404],[-2707,-14483],[1450,9704],[-5189,12020],[-8605,10296],[-10218,5172],[-25430,-6404],[-19854,5173],[-41353,-5074]],[[590472,392216],[24689,5961],[6253,14384]],[[618867,415418],[3191,8572]],[[622058,423990],[8123,49],[8315,2906]],[[735350,497783],[9831,-17389],[-355,-5715]],[[834461,757733],[8315,-295],[-354,-5764],[-5576,197],[5028,-8867],[22980,10739],[20080,-35616],[14698,10986],[10636,-9163],[2965,2759],[8026,-6158],[2997,2759],[20628,-27094],[26784,-18818],[387,5764],[2997,2709],[2579,-3054],[19790,1675],[2578,-3104],[-19339,-36502],[2385,-5961],[-612,-8719],[-11539,-5024],[-4609,14778],[-8347,493],[-2998,-2759],[1612,-17488],[-8928,-8177],[-5576,296],[-3191,-5616],[-8541,-2463],[193,2906],[-6897,2808]],[[870914,676748],[-14053,-2118]],[[817443,750246],[16631,1724]],[[501321,572118],[-129,-2907],[5479,-98],[3030,5813],[2482,-5912],[5479,-49],[-6059,-11626],[2320,-8817],[-16438,246],[-8509,-5764],[-2610,3005],[-5608,-2857],[-5222,5911],[387,8818],[8638,8670],[290,5813],[8090,-3054],[-2611,3005],[290,5862],[8509,5714],[5222,-5961],[-3030,-5812]],[[565461,484137],[2449,-5812],[1676,-20247]],[[519241,431871],[-2417,5813]],[[461483,481822],[-24817,-2611]],[[428092,535172],[11668,14483],[-2643,3005],[258,5862]],[[431928,623300],[129,2906],[-2386,8867]],[[429671,635073],[-8444,-2758]],[[421227,632315],[-7671,14876]],[[413556,647191],[16760,2562],[8155,-3103]],[[438471,646650],[-258,-5862],[2643,-3005],[5543,-99],[2901,2857],[387,8818]],[[449687,649359],[19596,5468]],[[522626,671280],[30490,2315],[8122,-3103]],[[562076,632512],[2450,-5862],[24141,-12020]],[[257365,704186],[11119,-344],[22626,8226],[54535,39754],[28944,25714],[7864,-11970],[5673,2808],[2675,-3005],[2417,-8917]],[[393218,756452],[5673,2808]],[[458099,652118],[-8412,-2759]],[[438471,646650],[-16471,3300],[-8444,-2759]],[[421227,632315],[-94759,-9557]],[[274608,503004],[-13763,3301],[-19725,-8325]],[[241120,497980],[-2578,5960],[-8316,247],[2998,5862],[-10862,6207]],[[222362,516256],[-14085,-5518]],[[208277,510738],[-1805,26700],[-2675,3054],[8573,5616],[322,8867],[8445,2709],[773,20641],[16761,2512],[322,8818],[-8316,246],[580,14729],[-2675,3054],[-14343,-11379]],[[214239,596305],[-1418,35468]],[[224392,643201],[26623,40542],[6027,11577]],[[257042,695320],[-2675,3054],[2998,5812]],[[124218,489852],[-5124,12019],[419,11823],[-9670,38769],[16631,-592],[-2675,3055],[-2739,15468]],[[214820,610935],[-581,-14630]],[[208277,510738],[-22304,-2266]],[[185973,508472],[-226,-5911],[-5640,-2759],[-27944,-5024],[-2579,6010],[322,8867]],[[149906,509655],[-8315,295],[-8413,-2660]],[[133178,507290],[2224,-14877]],[[135402,492413],[-11184,-2561]],[[221975,346995],[-2192,17980],[-19209,6502],[419,11922],[-7414,26995],[-19628,-5321],[225,5912],[-2675,3054],[-13859,493],[290,8867],[-10991,3349],[516,14828],[-5641,-2759],[-5124,12069],[322,8867],[-4802,20936],[-2676,3054],[-5640,-2758],[322,8867]],[[124218,489852],[2869,2857],[8315,-296]],[[133178,507290],[16728,2365]],[[185973,508472],[27847,2119],[8542,5665]],[[241120,497980],[22497,8276],[6898,-38670]],[[323309,472266],[22207,2512]],[[258138,352069],[-36163,-5074]],[[296235,976699],[6060,11576],[14246,5468],[11055,-3251],[28331,8029],[5608,-197],[-129,-2906],[22530,2315],[10829,-9113],[41546,-12857],[16825,-493],[2546,-5961],[2804,-49],[28976,19754],[25817,10985],[7574,-17832],[-8541,-2661]],[[514117,958866],[7703,-14877],[4770,-17734],[-6575,-20345]],[[494166,891920],[-6382,-17438],[-419,-8769],[-5866,-5714],[-8509,-2758]],[[470476,863201],[-5576,148],[-22626,-5271]],[[442693,866896],[-5608,147],[-11313,-2660]],[[413975,849999],[-3062,-5813],[-5576,148]],[[405337,844334],[645,14680],[-2675,3005],[257,5862]],[[403564,867881],[-19532,542],[-5092,11872]],[[378940,880295],[-22336,591],[258,5911],[-13956,345],[96,2956],[-13827,3300],[-2901,-2857],[-2449,8916],[-2772,49],[355,8818],[-8381,247]],[[313027,908571],[14827,20147]],[[327854,928718],[354,8818],[-7671,17882]],[[320537,955418],[-24302,21281]],[[378940,880295],[2675,-3005],[-258,-5862],[8251,-3153]],[[389608,868275],[-515,-11724]],[[389093,856551],[-20145,-14187]],[[368948,842364],[-11152,295],[-5833,-5714],[-355,-8818],[11023,-3251],[-14311,-8424],[-8218,3153],[-16857,-2463],[-21692,15271],[226,5911],[-8251,3153],[129,2956],[-8703,-8572],[-13827,3301],[355,8817],[2901,2858],[11023,-3252],[354,8818],[-8219,3202],[-5705,-2808],[-2675,3054],[3159,8720],[-2675,3004],[8702,8572],[25237,2217],[-2546,5960],[6285,17488]],[[307323,905812],[5704,2759]],[[296235,976699],[8026,-9064],[8283,-3202],[7993,-9015]],[[327854,928718],[-11894,-17290],[-8637,-5616]],[[368948,842364],[14311,8423],[5834,5764]],[[389608,868275],[13956,-394]],[[405337,844334],[8509,2709],[2288,-11773]],[[401792,762117],[-8574,-5665]],[[257365,704186],[354,8818],[-10765,9163],[3835,26354],[-8251,3202],[-2288,11823],[322,8867],[5576,-197],[709,17635],[8574,5665],[934,23498],[-16921,-5369],[-2675,3004],[451,11774],[-4867,17783],[8477,2709],[3126,8720],[-2675,3005],[-5672,-2759],[-7897,12020],[-11281,-2611],[580,14680],[-2675,3054],[226,5862],[8380,-246],[5801,5714],[226,5862],[11281,2611],[-226,-5862],[11152,-345],[1032,26404],[-14182,-5419],[483,11724],[2901,2857],[-5576,197],[-1998,20641],[11184,-345],[355,8818],[-7123,32512],[22239,-3596],[2578,-5961],[-5608,197],[-354,-8817],[2675,-3005],[36453,1872]]],"bbox":[34.1475,46.0788,37.2501,48.1088],"transform":{"scale":[0.000003102603102603105,0.000002030002030002031],"translate":[34.1475,46.0788]}}